{"type": "FeatureCollection", "features": [{"type": "Feature", "properties": {"Pais": "Venezuela", "Estado": "Yaracuy"}, "geometry": {"type": "Polygon", "coordinates": [[[-68.6216516209999, 10.757868321000046], [-68.61955673799997, 10.767540587000099], [-68.61932219699992, 10.768623484999978], [-68.61836817799986, 10.77302827900013], [-68.61816564399999, 10.773963395000067], [-68.61815111099992, 10.774063650000073], [-68.62000626799994, 10.773398468000096], [-68.62146392599993, 10.772875812000052], [-68.62247495399993, 10.771987772000102], [-68.62353699899995, 10.771398758000032], [-68.62460003899997, 10.770878734000178], [-68.62615310399997, 10.770420718000082], [-68.62737415299983, 10.769575685000063], [-68.62916322299998, 10.767757627000094], [-68.62980511899997, 10.767190604000177], [-68.63015030099996, 10.76688568500009], [-68.63074927499991, 10.766356578000114], [-68.63081126499998, 10.766252844000064], [-68.6311279809999, 10.765722850000088], [-68.63188531599997, 10.764455522], [-68.63312236199982, 10.763058484000055], [-68.63422639799995, 10.76212345000016], [-68.63547244699993, 10.761370418000183], [-68.63629948299996, 10.76064639600014], [-68.63710651099996, 10.760106376000067], [-68.63750938399988, 10.759745966000082], [-68.6382545489999, 10.759079341000074], [-68.63919559299995, 10.758123318000116], [-68.64021263199999, 10.757672294000088], [-68.64163067699991, 10.755928241000106], [-68.64272871399999, 10.754602203], [-68.64358473799996, 10.752590144000067], [-68.64459976699999, 10.750345079], [-68.64591981199999, 10.748281010000028], [-68.64639082599996, 10.747054983000112], [-68.64729385599998, 10.74508791900007], [-68.64891390199989, 10.742858850000118], [-68.65021094599985, 10.740793788000133], [-68.65278404399993, 10.738504723000176], [-68.65355906899993, 10.737390679000043], [-68.65430309599992, 10.735724642000093], [-68.65559513599999, 10.73336157000017], [-68.65667316599985, 10.732219534000023], [-68.65791521699992, 10.73121350000008], [-68.65957728699988, 10.730340462000129], [-68.66138035299986, 10.729533432000153], [-68.66306542199999, 10.728567401000078], [-68.66463648399997, 10.727787370000101], [-68.66594553599992, 10.726573328000029], [-68.66718357699995, 10.725314291000188], [-68.66784259299993, 10.724201253000103], [-68.67012968699999, 10.723089210000012], [-68.67145775199992, 10.723209205000103], [-68.67322183099998, 10.724518233000083], [-68.67400987999997, 10.725979257000176], [-68.67460790299998, 10.7270982820001], [-68.67506293099996, 10.728011312000149], [-68.67554396399998, 10.72908633600008], [-68.67667702099993, 10.730220352000117], [-68.6779359759999, 10.730709570000101], [-68.67822108199988, 10.73082035900012], [-68.67936313099995, 10.73098835400009], [-68.68196323899997, 10.730538326000158], [-68.68316629199995, 10.730062314], [-68.68514337599993, 10.730080300000111], [-68.68619642799996, 10.730457296000054], [-68.68829251199992, 10.730589289000022], [-68.68967256599996, 10.72953525500003], [-68.69020058399997, 10.729045234000068], [-68.69141162499989, 10.727487195000037], [-68.69206164999991, 10.725754144000064], [-68.69338869899997, 10.724171093000109], [-68.69495375999998, 10.72463309900013], [-68.69604281499983, 10.725929122000025], [-68.69691885599991, 10.726997143000176], [-68.69772290199984, 10.727929162000123], [-68.69892195499995, 10.728786182000135], [-68.70027102099988, 10.7287221630001], [-68.70175708399995, 10.728494150000131], [-68.70335914299989, 10.728288131000056], [-68.70522222999995, 10.72842312900002], [-68.70696230399994, 10.72805411000013], [-68.70819135099993, 10.72780709500006], [-68.71067645599993, 10.727497067000172], [-68.71175650799995, 10.728195084999982], [-68.7140736049999, 10.729151088000151], [-68.71572268299991, 10.728945081000063], [-68.7173187439999, 10.728278052], [-68.71896181199997, 10.727658029000168], [-68.72062787999988, 10.727037001000099], [-68.72271396699995, 10.726478975000134], [-68.72567907799993, 10.725609926000061], [-68.72733415399995, 10.725816918000135], [-68.72971126099998, 10.726104920000182], [-68.73207835899996, 10.725681891000079], [-68.73417644399996, 10.724317840000083], [-68.73509847599985, 10.723776826000062], [-68.7368745419999, 10.722693782000022], [-68.73842160899989, 10.721890751000103], [-68.74043268499997, 10.721011716000078], [-68.74292079499992, 10.720861697000032], [-68.74469887099997, 10.72154970600019], [-68.74559289199988, 10.72192292300008], [-68.74624393699992, 10.722194708000075], [-68.74810702299999, 10.722306705000051], [-68.75031511699996, 10.722206685000117], [-68.75241220699985, 10.722384678000026], [-68.75441929499993, 10.72281668000005], [-68.75607836899997, 10.723298681000074], [-68.75974753699995, 10.72444369100009], [-68.76160062399998, 10.725475698000139], [-68.76368771599994, 10.7266187190001], [-68.76637283199994, 10.727248720000091], [-68.76788389399985, 10.727134702000114], [-68.77029499399993, 10.72659567800008], [-68.77243608499998, 10.726564659000076], [-68.77365615099995, 10.72728367700006], [-68.77529121999999, 10.727697671000044], [-68.77720430599999, 10.72808466600003], [-68.77889937299989, 10.72785366000005], [-68.77993341299992, 10.726965620000158], [-68.77995840299997, 10.725516594000169], [-68.77933136999997, 10.724030558000095], [-68.77806829799988, 10.721955508], [-68.77627621399995, 10.720324478000066], [-68.77482115099997, 10.719494468000164], [-68.77467066899999, 10.719414102000087], [-68.77301606299994, 10.718530445000056], [-68.77385609099997, 10.717139405000069], [-68.77608517599992, 10.715199342000062], [-68.7788562859999, 10.71382628800012], [-68.78076635699995, 10.712396242000125], [-68.78181138999997, 10.710657193000031], [-68.78212938799999, 10.708559133000165], [-68.78238338899996, 10.70687708800017], [-68.78332442199985, 10.705967065000095], [-68.78594453699992, 10.705355029999964], [-68.78738659899994, 10.705335024000078], [-68.78884265799991, 10.704692996000063], [-68.79127175299988, 10.703761950000171], [-68.79258680399988, 10.703007925], [-68.79356182999993, 10.701268877000189], [-68.79317480999998, 10.700285853000025], [-68.79281378399992, 10.699462838000045], [-68.79212275299994, 10.698345811000081], [-68.79191573899988, 10.696945779000089], [-68.79207973699994, 10.695402729000136], [-68.79261274899983, 10.693692691000024], [-68.79384679099996, 10.69220364], [-68.79547285599995, 10.692019628000082], [-68.79707991999987, 10.692180620000045], [-68.79875599699989, 10.69224961000009], [-68.80032206499999, 10.692755617000103], [-68.80144712299989, 10.693314616000123], [-68.80282918699993, 10.693939634000117], [-68.80437324699989, 10.694515636000176], [-68.80601532099996, 10.693894607000061], [-68.80835841299995, 10.693447584000069], [-68.80979847499998, 10.693288572000085], [-68.81047449499994, 10.691784531000053], [-68.81055149499991, 10.690702503000068], [-68.81090549599992, 10.68943246200007], [-68.81182553999992, 10.688775442000065], [-68.81272356499989, 10.688095410000074], [-68.81370960499993, 10.687161382000113], [-68.81446762799993, 10.686507367000047], [-68.81518166099988, 10.68599134200008], [-68.81593968399989, 10.685382322000123], [-68.81683572099996, 10.68458730000009], [-68.81789076299992, 10.683583266000142], [-68.81885179199998, 10.682489230000044], [-68.82026084599994, 10.68026116699997], [-68.82151688299996, 10.678702123000164], [-68.82251691999988, 10.677101076000099], [-68.82324293899995, 10.675826031000042], [-68.82376395299997, 10.674899006000146], [-68.82449598299996, 10.674083978000056], [-68.82554701399988, 10.672803941000097], [-68.82641205399995, 10.671526909000136], [-68.82741207899994, 10.669902850000142], [-68.82866512299995, 10.668113803000153], [-68.82958114099989, 10.666946987000074], [-68.82985216899993, 10.666601753000123], [-68.83088019999991, 10.66536872100005], [-68.83230324999988, 10.664060680000091], [-68.83392831199995, 10.662266616000124], [-68.8360862379999, 10.660047207000105], [-68.83659540799994, 10.65952353], [-68.83857947599995, 10.656999452999969], [-68.84010553299998, 10.654961387000128], [-68.84158057299993, 10.652535322], [-68.84347764299997, 10.650402249000024], [-68.84569973599997, 10.649936223000168], [-68.84799882799985, 10.649974216000032], [-68.85110596699997, 10.649748191000072], [-68.8544801079999, 10.650344177000022], [-68.85813826499998, 10.649607142000036], [-68.86153641199996, 10.65024813600013], [-68.86533957599994, 10.649967107000066], [-68.86932874399997, 10.64968407900011], [-68.87260088499988, 10.64957105600007], [-68.87378565599994, 10.649584693000065], [-68.87394195699994, 10.649586492000083], [-68.87485797299996, 10.649597034000067], [-68.87637202399998, 10.64708996500002], [-68.87688203599998, 10.645364921000123], [-68.87747904499992, 10.643270857000061], [-68.8784030779999, 10.64131080600015], [-68.8787464859999, 10.63946421200012], [-68.87892008299997, 10.638530732000163], [-68.87918608199993, 10.636006666000071], [-68.87934007099989, 10.633735603000162], [-68.87929105499995, 10.631949556000109], [-68.87859300899999, 10.628567475000125], [-68.87750692599991, 10.623976365000033], [-68.87719490699988, 10.621620304000032], [-68.87695187699984, 10.619217237999976], [-68.87698585999988, 10.616742177000106], [-68.87720885099998, 10.614425113000095], [-68.8781988799999, 10.612211055000046], [-68.87959793699991, 10.611070022000035], [-68.88081198399993, 10.609906984000077], [-68.88240104199997, 10.609014943999966], [-68.88245203799988, 10.607707916000038], [-68.88200600199997, 10.605719860000022], [-68.88177398799985, 10.604119826000158], [-68.8816329689999, 10.602310780000039], [-68.88223298399998, 10.600469729000054], [-68.88280899599994, 10.59914868500016], [-68.88416204299989, 10.596702623999988], [-68.88490105899996, 10.595460582999976], [-68.88491867599998, 10.595442060000153], [-68.88620411499994, 10.594090543000164], [-68.88790417699983, 10.592875494000054], [-68.89084029199995, 10.592033455000092], [-68.89233835499988, 10.591279428000178], [-68.89293137599992, 10.590561404000084], [-68.89296237499991, 10.589438378000068], [-68.89296636399996, 10.588154350000082], [-68.89320236899988, 10.586776310000062], [-68.8935313689999, 10.585397277000084], [-68.8942513909999, 10.58380622400017], [-68.89510241199997, 10.581640166], [-68.89660646199997, 10.579695106000031], [-68.89820152099998, 10.577657040000133], [-68.89949056799998, 10.576906019000091], [-68.9019276649999, 10.575267962000169], [-68.90353172699992, 10.573824910000155], [-68.90433175199996, 10.572943884999972], [-68.90522078699996, 10.571853858000111], [-68.9063568169999, 10.570096799000169], [-68.90712584499994, 10.568757756000139], [-68.90717583499998, 10.5673817280001], [-68.90742783599995, 10.565476669000134], [-68.90782383899995, 10.563981629000068], [-68.90858186499997, 10.561817569000084], [-68.90985790899998, 10.560172519000048], [-68.91121395799996, 10.559237496000037], [-68.91282001899998, 10.557909445], [-68.91468209199996, 10.556668403], [-68.91660316699995, 10.556321389000061], [-68.91910227199992, 10.555851353000094], [-68.92001630699997, 10.554853327000103], [-68.92131835699996, 10.553346279000095], [-68.9224843909999, 10.552138246000084], [-68.92436245999994, 10.550394179000136], [-68.92628054199997, 10.54981716300017], [-68.93036170299996, 10.547974081000064], [-68.93294481299995, 10.546907043999965], [-68.93511489499991, 10.546121014000107], [-68.9364509479999, 10.545368976000077], [-68.93761798899999, 10.544275944000049], [-68.93825900999991, 10.543647921000058], [-68.93951005499997, 10.5418428750001], [-68.94127812499988, 10.54053582500012], [-68.94252317099995, 10.5400138010001], [-68.94390623099991, 10.53937578200015], [-68.94540728699997, 10.538851758000135], [-68.94889543599999, 10.539306751000026], [-68.95124253999995, 10.539549745999977], [-68.95256960099988, 10.539851745000021], [-68.95440668299989, 10.540123739000137], [-68.95578474899997, 10.540769747000127], [-68.95628576699994, 10.54170176700012], [-68.95611276499994, 10.542574783000077], [-68.95575476499988, 10.54347381600013], [-68.95572676999996, 10.544757844000117], [-68.95599878799993, 10.545944878000114], [-68.9568958299999, 10.546986895000089], [-68.95798188099997, 10.548231927000074], [-68.96007098599989, 10.54989895100016], [-68.96206407699987, 10.551268972000116], [-68.96360214099991, 10.551751979000187], [-68.96460218999988, 10.551897980000092], [-68.96741630899993, 10.552316968000127], [-68.97097347099992, 10.55270296000009], [-68.97245653099998, 10.552544941000065], [-68.97440361199995, 10.552425931000187], [-68.97645470199996, 10.553015930000072], [-68.97787776399991, 10.553522930999975], [-68.97921082199997, 10.554214940000122], [-68.98046387599993, 10.554219934], [-68.9816379319999, 10.55356190800012], [-68.98286797399999, 10.553567908000048], [-68.98393702399989, 10.553644896000037], [-68.98526307899994, 10.553923894000036], [-68.98642812999992, 10.554182896000157], [-68.98755018499998, 10.55476290900009], [-68.98991629099999, 10.554660889], [-68.99190236899989, 10.554013855000107], [-68.99385543799997, 10.552680812000062], [-68.99474247299997, 10.551430777000064], [-68.99544149399998, 10.55004573400015], [-68.99616951299993, 10.549004712000169], [-68.99705454899998, 10.547662665000075], [-68.99805257699995, 10.546044614000039], [-68.99898060899989, 10.544496569000103], [-69.00016465099998, 10.542875525000113], [-69.00182371499994, 10.541636483000048], [-69.00344177099998, 10.540984461000107], [-69.00465781799988, 10.540017427000066], [-69.00627287399993, 10.538008369000067], [-69.00816595399988, 10.537097324000115], [-69.00880597499997, 10.535314277000111], [-69.00935598099994, 10.53362423600015], [-69.00965798499988, 10.532423197000185], [-69.01119203999997, 10.531013150000149], [-69.01276310199995, 10.53033812800004], [-69.01386315199994, 10.529397099000107], [-69.01582822699999, 10.528623062000065], [-69.01944238599998, 10.528737047], [-69.02258851499994, 10.528722022000068], [-69.0255026399999, 10.528804012000137], [-69.02823975599989, 10.528152977000161], [-69.03042083099996, 10.526546921000147], [-69.0324629079999, 10.524942865000128], [-69.03563503499993, 10.523892818000036], [-69.03975220599995, 10.522340757000109], [-69.04262132799994, 10.52134171400013], [-69.04648248299986, 10.520967679000023], [-69.04928559599989, 10.520130643000073], [-69.05165068699989, 10.518382588000122], [-69.05377876199987, 10.51525948800014], [-69.05537680799983, 10.51242241100016], [-69.05613981999988, 10.50973933900002], [-69.05636581899995, 10.508216297000104], [-69.0552047729999, 10.507250284000065], [-69.05291168099996, 10.507916310999974], [-69.05055258099998, 10.50883634600018], [-69.04886250699997, 10.50935137199997], [-69.04760345699998, 10.509330378000016], [-69.04681742199995, 10.508471357000076], [-69.04646339199996, 10.507052323000096], [-69.04626237099995, 10.505147279000028], [-69.04680938299998, 10.503342225999972], [-69.04717239199994, 10.501656183000023], [-69.0480954219999, 10.500028141000143], [-69.04888745199997, 10.498886107000146], [-69.04964847299988, 10.497307057000057], [-69.05007447399998, 10.495275006000043], [-69.05026847099992, 10.493315954000138], [-69.0504024679999, 10.491840912000157], [-69.0504164589999, 10.490161873000034], [-69.05059345299992, 10.48854783600018], [-69.05104546699994, 10.48780380800008], [-69.05108445799993, 10.48628476500005], [-69.05054143199999, 10.484730733999982], [-69.0500673969999, 10.483152697000094], [-69.05003639299991, 10.481589653000071], [-69.05077740499996, 10.480172622000168], [-69.05296248999991, 10.478726563000123], [-69.05478856799994, 10.478000537000128], [-69.05696966199991, 10.477567517000182], [-69.05892873999983, 10.476494476000084], [-69.06129481699992, 10.473619387000156], [-69.06330489199996, 10.471578316000148], [-69.06496594899994, 10.469614263999972], [-69.06592797699994, 10.467617201000053], [-69.0666769909999, 10.465418139000178], [-69.06831905799999, 10.463661090000187], [-69.06916407299991, 10.461643037999977], [-69.06889105599998, 10.459600987000044], [-69.06868304199998, 10.45895296100008], [-69.06859914999995, 10.458957905000148], [-69.06684995899991, 10.459060985000121], [-69.06653192399989, 10.455437891000031], [-69.06519681099991, 10.445653655000172], [-69.06678981599993, 10.436602416000085], [-69.07203499599996, 10.429010184], [-69.07802419599989, 10.420694937000064], [-69.07879821699999, 10.417799861000162], [-69.07888217499993, 10.411641704000033], [-69.07458994899997, 10.403298518000156], [-69.06873968199994, 10.401471508000157], [-69.06136537999998, 10.403624610000122], [-69.05514310899997, 10.402157612999986], [-69.0503539149999, 10.403231663000042], [-69.04952991899995, 10.40974884100018], [-69.04836389399992, 10.414454964000072], [-69.04575879799995, 10.416983041000094], [-69.04168564799988, 10.41950712900001], [-69.03694143899992, 10.418824141000187], [-69.03655442599995, 10.418768138000075], [-69.03261420399991, 10.411512984000183], [-69.02929890299998, 10.385423346000152], [-69.0286573439999, 10.36106727400005], [-69.02745380599998, 10.315376349000076], [-69.02712330499998, 10.302829273000043], [-69.02179405899994, 10.299278214000083], [-69.01620679099995, 10.295554152000022], [-69.01078252299993, 10.289381023000033], [-69.01039550599995, 10.288685011000155], [-69.00755634799998, 10.283575895000013], [-69.00988439199995, 10.274526652000134], [-69.01008232099991, 10.260038291000114], [-69.01572949399997, 10.249910998000189], [-69.01543644899988, 10.244476872000178], [-69.01473639899996, 10.24193980500013], [-69.01512841499988, 10.240129763000084], [-69.01808552799997, 10.238688702000161], [-69.02139066299998, 10.238697681000076], [-69.0353642529999, 10.237288566000132], [-69.03738684699994, 10.23502734699997], [-69.04097725299988, 10.231013346000111], [-69.04346443599997, 10.228232725], [-69.04505397099996, 10.226455658000134], [-69.04506060499989, 10.22644824200006], [-69.04761171899986, 10.22790425300019], [-69.04848257699996, 10.22848512400003], [-69.04854275699995, 10.22852526500003], [-69.04785773899994, 10.230229318000113], [-69.0498538359999, 10.231879350000042], [-69.05175792599988, 10.23290935700004], [-69.05393902599997, 10.233457364], [-69.05600510999994, 10.234004367000068], [-69.05867422599988, 10.234666367000159], [-69.06073831499998, 10.233722328999988], [-69.06284839099993, 10.232295274000137], [-69.06442545599998, 10.231076242000029], [-69.06651252799998, 10.229075175000105], [-69.0691566299999, 10.227349115000095], [-69.07043167299997, 10.226223079000022], [-69.07170672199999, 10.224177022000106], [-69.07240174099991, 10.222086967000052], [-69.07309675399995, 10.220754926000097], [-69.07434180899986, 10.219937895999976], [-69.07669690599994, 10.219937882000181], [-69.08010005299997, 10.22045287700007], [-69.08193314299996, 10.221483891000105], [-69.08234415899994, 10.222836927000117], [-69.08234316599993, 10.222928928000044], [-69.08145513199992, 10.223378945000036], [-69.08063410399984, 10.224127965000037], [-69.07994007599996, 10.225957012000094], [-69.07871904099994, 10.227184048000026], [-69.07807401599985, 10.228761097000017], [-69.07693998399998, 10.230448148999983], [-69.07680897699998, 10.231756181000037], [-69.07599495799997, 10.233928234000075], [-69.0781680529999, 10.23468524100008], [-69.0794971069999, 10.234217223000087], [-69.08043115399994, 10.233722210999986], [-69.08176719299996, 10.232657169000163], [-69.0895135429999, 10.235377190000065], [-69.09091859599988, 10.234359165000114], [-69.09198862499989, 10.232097097000178], [-69.09218362199994, 10.229276028000072], [-69.09290663099989, 10.226941958000054], [-69.09430067999995, 10.224820904000069], [-69.09489469099998, 10.221566815000017], [-69.09552470499989, 10.219300752000038], [-69.09718075499995, 10.216563682000071], [-69.09746874799998, 10.213742601000149], [-69.09823377599997, 10.211799546], [-69.09881478599988, 10.209716492000155], [-69.09950078799989, 10.206509408000045], [-69.1012858609999, 10.20476035200005], [-69.10329793799991, 10.203312309000069], [-69.10559601199998, 10.199295193000069], [-69.10811010999998, 10.198655157000019], [-69.1099991829999, 10.197917129000075], [-69.11187924899986, 10.195917070000064], [-69.11336330299997, 10.193981011000176], [-69.11443233899996, 10.191833956000096], [-69.11539236399983, 10.18904288400006], [-69.11513733499993, 10.187019825000107], [-69.11402428099996, 10.184827775000088], [-69.11481029999999, 10.183045734000189], [-69.11584132499985, 10.180186654000067], [-69.11684035399998, 10.17808459400004], [-69.11814639499988, 10.175481519000016], [-69.11870640099994, 10.173145463000026], [-69.12038145799988, 10.170821392], [-69.12045146399998, 10.170730384000137], [-69.12065845799998, 10.16884934400008], [-69.11998042199991, 10.167304302000161], [-69.1188583739999, 10.165915273000053], [-69.11833032599998, 10.163385218000087], [-69.11874234099997, 10.161851179000053], [-69.11929734799998, 10.159951122000166], [-69.12066240299987, 10.158290073000103], [-69.12163042999993, 10.15683003300012], [-69.12295347999998, 10.154846981000162], [-69.12316146599994, 10.152805922000141], [-69.12250642999993, 10.151237891000164], [-69.12250342699997, 10.149446843000135], [-69.1222483979999, 10.147401801], [-69.12221439299992, 10.146321773000182], [-69.12216438399997, 10.144576726000139], [-69.12199236299995, 10.143312697000056], [-69.12094530899998, 10.141511651000087], [-69.12050028199997, 10.139807616000041], [-69.12126630799992, 10.138809592000086], [-69.12132029299994, 10.137107541000034], [-69.12152930699983, 10.136778536000065], [-69.13499740499998, 10.13579918500011], [-69.13506287099995, 10.135794425000086], [-69.14343722799998, 10.134960361000026], [-69.1967911889999, 10.130866341], [-69.19683546399995, 10.130862944000171], [-69.19696156799989, 10.130386939000118], [-69.20820958099983, 10.087930645000029], [-69.20822247599995, 10.087881971000115], [-69.2082876959999, 10.087635795000153], [-69.20737063399997, 10.08469973200016], [-69.20339537699994, 10.069782380000106], [-69.19395681299994, 10.04202774200013], [-69.1933657809999, 10.041254737000031], [-69.19294523799994, 10.040553440000167], [-69.19267074199996, 10.040095708000138], [-69.19233160299996, 10.03978408800009], [-69.19202971299995, 10.039506694000067], [-69.19174369899997, 10.039131692000126], [-69.19153768699994, 10.039053694000074], [-69.19027962299998, 10.037896666999984], [-69.18726248999997, 10.03634164600004], [-69.18724570499995, 10.036341103000098], [-69.18457237599995, 10.036254663000022], [-69.18100222499993, 10.03697369800011], [-69.17659705199998, 10.037876751000113], [-69.1747189749999, 10.038247769000122], [-69.1704638029999, 10.040206843000021], [-69.16557558999995, 10.040388875000133], [-69.16164642899992, 10.041340918000117], [-69.16162659299988, 10.041303713000161], [-69.15941831299995, 10.03716183500012], [-69.16073033899988, 10.03287871700013], [-69.15870923499989, 10.029622645000188], [-69.15773317999998, 10.027535604000093], [-69.15610810899989, 10.02572456900009], [-69.15374099899998, 10.024122539000018], [-69.15246392899991, 10.022471511000049], [-69.15250590699992, 10.01794839300004], [-69.15210987899991, 10.0154703340001], [-69.15129482099996, 10.012028255000132], [-69.15284285799999, 10.007273128000065], [-69.15388187899998, 10.002840008000078], [-69.15297481999988, 9.99958193100008], [-69.15153474199985, 9.997081882000089], [-69.14995265599987, 9.99520984100019], [-69.15097168699998, 9.99192376200017], [-69.15105267499985, 9.988999685000067], [-69.15136465799998, 9.985514591000026], [-69.15142166099992, 9.984155569], [-69.15131764699998, 9.98284953600006], [-69.15073861399998, 9.981287501000054], [-69.15065259899995, 9.979865462000078], [-69.15084559399992, 9.978431419000174], [-69.15149561499999, 9.975759359000051], [-69.1519646139999, 9.97371530700002], [-69.1520336179999, 9.972126259], [-69.15202560499995, 9.970862229000033], [-69.15208860399991, 9.969663203000152], [-69.15280961899998, 9.968069160000141], [-69.15319462899998, 9.967293135000148], [-69.15359363999994, 9.966334113000187], [-69.15368463899983, 9.964697066000042], [-69.15401663999995, 9.962706015000037], [-69.15459464899988, 9.961047975000156], [-69.15462964499994, 9.95973593500014], [-69.15451763599992, 9.958222900000067], [-69.15423761099993, 9.956625860000088], [-69.15565066299996, 9.95438079600018], [-69.15706170699991, 9.95261874800002], [-69.15752271399998, 9.950943704000167], [-69.15796273199993, 9.949314660000027], [-69.15867774699996, 9.947053600000174], [-69.15923175899997, 9.94484554200011], [-69.15950175999984, 9.943040504000123], [-69.15886071299991, 9.941398459000084], [-69.15882994799995, 9.941342317000021], [-69.15773565799998, 9.939345417000027], [-69.15358945599996, 9.934923336000168], [-69.15164336799995, 9.932959296000035], [-69.14921924399994, 9.930671257000142], [-69.14798016799989, 9.926792165000165], [-69.14708811499997, 9.92342708199999], [-69.14670608099993, 9.921604049000052], [-69.14549902799996, 9.91951699800012], [-69.14502099099985, 9.917076945000133], [-69.14515898199988, 9.914931883000122], [-69.14514896999998, 9.913644854000097], [-69.14509296899996, 9.912359823000088], [-69.14447092599988, 9.91089178700014], [-69.14314787399996, 9.910395783000126], [-69.14071775699995, 9.908522753000057], [-69.13975870199994, 9.90732173400005], [-69.13884265499996, 9.906049704000168], [-69.13705057299995, 9.904401670000027], [-69.13300939199996, 9.901814638000076], [-69.13128530899996, 9.900669617000062], [-69.12964023099983, 9.89919859500003], [-69.12869018399982, 9.897675562000074], [-69.1281771489999, 9.896041522000019], [-69.12788312299983, 9.89462848400018], [-69.12791811499989, 9.892764438000142], [-69.12841412099988, 9.890283382], [-69.12888013199989, 9.888722334000022], [-69.12894112899988, 9.88692629600007], [-69.12875810799994, 9.885393254000064], [-69.1274920439999, 9.883033204000014], [-69.12696701299996, 9.88271019900003], [-69.12601896599995, 9.88123316600013], [-69.12463889799989, 9.879958147000082], [-69.12458463499996, 9.879942750000112], [-69.08861431499992, 9.86973609800009], [-69.08595423299994, 9.955370673000061], [-69.08588171199989, 9.95770529400005], [-69.01572307899988, 9.991812860000039], [-69.01285482799989, 9.993207431000087], [-69.01216007399995, 9.993547147000129], [-69.00091260399995, 9.999046852000163], [-68.96362087399996, 10.017281490000016], [-68.96363825799989, 10.017097984000145], [-68.96369287499988, 10.016521466000029], [-68.96382786999988, 10.015579438999964], [-68.96391687599993, 10.01484342000009], [-68.96325582799994, 10.012481368000067], [-68.96387084699995, 10.010135308000088], [-68.96426185199988, 10.009351288000062], [-68.96439785299998, 10.008639262000145], [-68.96437285099995, 10.008179258000098], [-68.96406783299983, 10.007630247000066], [-68.96408883199996, 10.007147231000033], [-68.96410983099992, 10.00659621900013], [-68.96410582899995, 10.005792193000048], [-68.96412382199992, 10.004804166000099], [-68.96437583099998, 10.004137159000038], [-68.96290775799986, 10.002905137000084], [-68.96259873799994, 10.00155210000014], [-68.96215070799991, 10.000153063000084], [-68.96147673099995, 9.999046852000163], [-68.96142566699996, 9.998963040000149], [-68.96233668599996, 9.99577495800014], [-68.96155064599992, 9.994117919000075], [-68.96141263699997, 9.993128900000045], [-68.95986155599996, 9.991264863000083], [-68.96004855599989, 9.989723825000112], [-68.96067557399982, 9.988687795000033], [-68.96128058999994, 9.986709738000059], [-68.9618156009999, 9.984846683000171], [-68.96110055499997, 9.982108623000101], [-68.95998850099988, 9.9810036020001], [-68.95992049799997, 9.979853581000043], [-68.96103453499995, 9.978404538000177], [-68.96066450999996, 9.977598516000057], [-68.96017947799999, 9.976172482000038], [-68.96024948199982, 9.975597464999964], [-68.96036647699998, 9.974561438000137], [-68.95976445099984, 9.974308439000083], [-68.95927842999993, 9.973503423000068], [-68.95978943899996, 9.97237638700011], [-68.96083348499991, 9.971617362000075], [-68.9616685119999, 9.97046733500008], [-68.96153050399994, 9.969615311000098], [-68.96095246599998, 9.968534293000175], [-68.96007342099989, 9.967130257000179], [-68.95910138199997, 9.966117237], [-68.95819732999985, 9.965519225000094], [-68.95748029799995, 9.964714210000182], [-68.95664725399985, 9.9634021870001], [-68.95606922799988, 9.962159161999978], [-68.95704525499991, 9.959652087000109], [-68.95748924899988, 9.956661017000101], [-68.95739823799988, 9.954383962000065], [-68.95804925899995, 9.952772915000082], [-68.95825926399982, 9.952105896000035], [-68.95807523599996, 9.95021984500005], [-68.9573015929999, 9.949673037000082], [-68.95719520199998, 9.949597840000024], [-68.95652417099996, 9.948861825000108], [-68.95856424499993, 9.948378797000146], [-68.96053432799994, 9.94842579100009], [-68.9608593449999, 9.94722975500008], [-68.96055932599995, 9.946285744000079], [-68.95965728099992, 9.945043714000121], [-68.95810520199996, 9.9441916990001], [-68.95755017799996, 9.943247677000159], [-68.95734216099999, 9.942189656999972], [-68.95660112699994, 9.942212661000099], [-68.95611609599996, 9.94092363600015], [-68.95519005899996, 9.939957609000032], [-68.95465802399991, 9.938990586000045], [-68.95377897899994, 9.937656568000023], [-68.95375697399999, 9.936114526000154], [-68.95417498699993, 9.935010490000082], [-68.95417796499999, 9.932640440000114], [-68.95550001499987, 9.931559399000093], [-68.95577901999997, 9.930547377000039], [-68.95668405699996, 9.929788353000106], [-68.95749708499989, 9.927925296000069], [-68.95946815099984, 9.926338247000103], [-68.96018817599997, 9.925142221000101], [-68.96026116999997, 9.92242714400004], [-68.95996114799993, 9.920817108000051], [-68.9592767499999, 9.920103165000057], [-68.95901209799996, 9.919827088000034], [-68.95794705299994, 9.919183077000127], [-68.9566039909999, 9.91846907300004], [-68.95621096399998, 9.917503043000067], [-68.95611995799999, 9.915915013000074], [-68.95625995399996, 9.914902979000033], [-68.95653995999993, 9.913199946000077], [-68.95549790599995, 9.91285493700002], [-68.9544548589999, 9.912508935000176], [-68.95334281099997, 9.912324940000133], [-68.95333045499996, 9.912315499000158], [-68.95243977599995, 9.911634926999966], [-68.95156073399988, 9.910828907999985], [-68.95040267799993, 9.909654887000102], [-68.94850359499998, 9.909286895000037], [-68.94695052599991, 9.909170898000127], [-68.94660450599997, 9.908135867], [-68.94686050799993, 9.906754837000165], [-68.94802054799999, 9.905581795999979], [-68.94943460299993, 9.904938775000176], [-68.94978460599992, 9.903511744000127], [-68.94973960299995, 9.902292709999983], [-68.94927857299996, 9.900198665], [-68.94895454999988, 9.899462649000043], [-68.94856152299997, 9.898403625000185], [-68.94872552299995, 9.89711558900018], [-68.94875052599997, 9.895712553000067], [-68.94993157399983, 9.895574545000045], [-68.95097660999988, 9.89428650400015], [-68.95141861499997, 9.892768464000142], [-68.95308768299992, 9.891503420000106], [-68.95459374699993, 9.892010421], [-68.95609980699993, 9.891757410000139], [-68.95665782099991, 9.890492372000097], [-68.95677482499991, 9.888904340000124], [-68.95582577599998, 9.88805332600009], [-68.95580377599987, 9.887317308000092], [-68.95686981899996, 9.886788286000012], [-68.95731182299994, 9.885131240000078], [-68.95851786499998, 9.884051205000162], [-68.96044194299992, 9.883591190000175], [-68.96141697999997, 9.88159013100011], [-68.96243800899998, 9.880095089], [-68.96165096999988, 9.879335069000035], [-68.96250900199982, 9.878921061000028], [-68.96311302899994, 9.877449021000132], [-68.96262699699997, 9.876851007000027], [-68.96316101799994, 9.875723970000081], [-68.96506308299985, 9.87418292200016], [-68.96559710299988, 9.872801890000119], [-68.96584529599988, 9.87227599900018], [-68.96627011999988, 9.87137585000005], [-68.96712915099988, 9.869903808000117], [-68.96824219999996, 9.869351785], [-68.96784917599996, 9.868776771000057], [-68.96912422099996, 9.867902744000105], [-68.97044528099991, 9.86755773300007], [-68.9706092809999, 9.866200697000068], [-68.96949822099998, 9.865072676000068], [-68.97007824499991, 9.864106641000149], [-68.97170130199993, 9.863094611000065], [-68.97260534599997, 9.862404588000118], [-68.9733013639999, 9.861139549000143], [-68.9725373259999, 9.860564549000173], [-68.97198329399998, 9.859252512000069], [-68.97168327199995, 9.857711476000134], [-68.97214927999994, 9.855847428000061], [-68.97166225699988, 9.855548429000123], [-68.97052720799996, 9.855341433000035], [-68.97004217599988, 9.853776394000135], [-68.97055319699996, 9.852741358000117], [-68.97053118399992, 9.851821338000036], [-68.97039317499997, 9.850900314], [-68.97044017499996, 9.849819293], [-68.9706501789999, 9.848899271999983], [-68.97053517299997, 9.848370256000123], [-68.97044415099992, 9.846092196000086], [-68.9709581589999, 9.844257155000037], [-68.97250922099988, 9.843102111000064], [-68.97415529399996, 9.84264209700018], [-68.97251621299995, 9.84148307400011], [-68.97046083099997, 9.841540091000127], [-68.96855004499997, 9.841593096000167], [-68.9675081709999, 9.84197331100006], [-68.96434087099993, 9.843129167000143], [-68.96013070799995, 9.845379236999975], [-68.95676058499998, 9.84822533300013], [-68.95555654299994, 9.849411370000098], [-68.95510471699993, 9.849522112000045], [-68.95219040499995, 9.850236405000032], [-68.94774121999995, 9.851652463000164], [-68.94533810799999, 9.851052461000052], [-68.94281799599992, 9.848667420000027], [-68.94138191199994, 9.845572358000084], [-68.93970482399993, 9.842356289000179], [-68.93706270199988, 9.84104226500017], [-68.93477860999991, 9.841869304000113], [-68.93369457199992, 9.842936331000033], [-68.93080445899989, 9.845902427000112], [-68.92779634499993, 9.847798489000127], [-68.92334717099988, 9.848976537999988], [-68.92084764699996, 9.849420121000037], [-68.91938000099992, 9.849680580000154], [-68.91589584799993, 9.849077593000118], [-68.91349573199994, 9.847168555000053], [-68.90941753999994, 9.842995478000034], [-68.90593537799992, 9.841083443000173], [-68.90293124899989, 9.840957461000073], [-68.90040514899988, 9.84190249400018], [-68.89848206199991, 9.84201651300009], [-68.89595994999996, 9.841415507000136], [-68.89315847899996, 9.840483447999986], [-68.89271680999985, 9.840336503], [-68.89091373999997, 9.840450521000037], [-68.8891086669999, 9.84175456600019], [-68.88658355899997, 9.842461591000188], [-68.88273739499988, 9.842451609000022], [-68.87732916299996, 9.842199643000185], [-68.87348499499996, 9.841594647000022], [-68.87060386499996, 9.83980361600004], [-68.86724271199995, 9.83765358400018], [-68.86376155499994, 9.835622550000153], [-68.86184045999988, 9.83466554], [-68.85871632499993, 9.834419556000114], [-68.85414813599988, 9.835240601000066], [-68.84488577099995, 9.839139750000015], [-68.8375474739999, 9.842806887000108], [-68.83105021599994, 9.846000003000029], [-68.82744306299992, 9.846942039000169], [-68.8237169059999, 9.84716907], [-68.82023375599994, 9.846089062000033], [-68.81675159699984, 9.844771046], [-68.81422549599989, 9.845597082000154], [-68.81339546399988, 9.845738090999987], [-68.81195439299995, 9.84514008200017], [-68.80967429499992, 9.843470056], [-68.80643114499998, 9.842748058000154], [-68.80234297699997, 9.843568106000134], [-68.79884984799992, 9.846885205000092], [-68.79390668599996, 9.854000408], [-68.79173561399989, 9.857559515000048], [-68.79018341599982, 9.858955191000064], [-68.78890136199988, 9.860107964000179], [-68.78752044599992, 9.861349630000063], [-68.78078118199983, 9.865132759000176], [-68.77536697099993, 9.867730855], [-68.77151681999999, 9.86950192800009], [-68.76728514499996, 9.870012293000116], [-68.76574557399994, 9.870197975000053], [-68.76213841499998, 9.869947985000124], [-68.76068839499999, 9.869264675000068], [-68.75985931399998, 9.868873977000078], [-68.75541212999997, 9.868860002000076], [-68.74879885099995, 9.869910067000035], [-68.74849766499995, 9.869975306000185], [-68.74122254099996, 9.87155114300009], [-68.73364522899993, 9.873667240000088], [-68.72823100499988, 9.87614533400017], [-68.72704235799995, 9.877103430000034], [-68.72243580799983, 9.88081648900004], [-68.72220877499996, 9.880999487000054], [-68.71943567999995, 9.884792598000104], [-68.7166605889999, 9.889061724000044], [-68.71472952599999, 9.892263813], [-68.71412351599997, 9.894281874000114], [-68.71471754999982, 9.896779929000104], [-68.71687765299993, 9.898211949000142], [-68.72000178999997, 9.898815942999988], [-68.72216189499989, 9.900485982000077], [-68.72352717799998, 9.904112951000059], [-68.72359497899998, 9.904293070000108], [-68.72322397899995, 9.908569171000181], [-68.72285399099997, 9.912014261000138], [-68.72272400599996, 9.916172367000058], [-68.72150798699988, 9.92187251100006], [-68.71909390399998, 9.92590463300013], [-68.71776387099999, 9.928989719000128], [-68.71739487699989, 9.932553807000147], [-68.71689888999998, 9.938374955000029], [-68.71580986099997, 9.941223025000113], [-68.71231772099992, 9.943945123000105], [-68.7099076369999, 9.946195184000032], [-68.7064174979999, 9.94737223500016], [-68.70257033099989, 9.947717272000034], [-68.70004622199997, 9.947352275000128], [-68.69511301899996, 9.94888234400014], [-68.68993781099988, 9.951123422000137], [-68.68668668399994, 9.953251498000157], [-68.68295353699995, 9.955497581000088], [-68.67632829099995, 9.960704748000069], [-68.67343816999994, 9.962358805000065], [-68.66982403899993, 9.965198896000174], [-68.6674149449999, 9.966972953000095], [-68.66560787499998, 9.968512003000114], [-68.66427782799997, 9.971240084000158], [-68.66270478599995, 9.975038178000148], [-68.66161975599994, 9.976341226000159], [-68.65921664399997, 9.975739226000087], [-68.65609151399997, 9.975372234000076], [-68.65272835499997, 9.973936212000126], [-68.64984922099995, 9.971787170000084], [-68.64685107099996, 9.968926127000088], [-68.64409393499989, 9.965827063000177], [-68.64133381499994, 9.964036031000148], [-68.6382096769999, 9.96331203300008], [-68.63688860999997, 9.962595025999974], [-68.63616658099988, 9.962830034000092], [-68.63544455299996, 9.96330305000015], [-68.63447852499996, 9.964845087000072], [-68.63351448899994, 9.965435116000151], [-68.63110838099988, 9.966259140000147], [-68.62870228399993, 9.966845168000134], [-68.62569516699989, 9.967429202000119], [-68.6230490559999, 9.967539227999964], [-68.62100396699998, 9.968007249999971], [-68.61811585199996, 9.968948288000036], [-68.61619376699997, 9.968585286], [-68.61487270099991, 9.968105281000021], [-68.61379165799991, 9.967626280000104], [-68.61259159999992, 9.96679126700019], [-68.61175655199992, 9.964530216000071], [-68.61128651199994, 9.960608121000178], [-68.61093646599994, 9.956685021000112], [-68.60938537099992, 9.952402923000022], [-68.6102373899999, 9.948840830999984], [-68.61097039299989, 9.944565720000014], [-68.60881827999998, 9.940518630000042], [-68.60666616599991, 9.93623353300012], [-68.6047530599999, 9.932424449000052], [-68.60367201799988, 9.932183456000132], [-68.60198994299998, 9.931701454], [-68.59549467199992, 9.93310552100013], [-68.58791735499995, 9.934504604000153], [-68.58455020799994, 9.934730629000114], [-68.57805893699992, 9.93470865900008], [-68.5732507319999, 9.93469169399998], [-68.56760347799985, 9.93360169400006], [-68.5631602819999, 9.932041679], [-68.56027915299984, 9.930605667000066], [-68.55654999599994, 9.931542701000126], [-68.55462491299988, 9.932129732000135], [-68.55366287199996, 9.932007736000173], [-68.55111376299982, 9.931716742000049], [-68.54717658099992, 9.930320729000073], [-68.54681557399988, 9.930675738000048], [-68.54597353999986, 9.93079174899998], [-68.54524951499991, 9.931502773000034], [-68.54452748799991, 9.93197478400009], [-68.54344244399994, 9.93304081700012], [-68.54223739499997, 9.933986848000131], [-68.54102834199995, 9.93388684900009], [-68.53727218699993, 9.93480089500008], [-68.53525509899993, 9.934935916000143], [-68.53369804699997, 9.937072981000142], [-68.53260899899993, 9.936818980000169], [-68.53168495899996, 9.935850955000092], [-68.53099292299999, 9.934560925000085], [-68.53018187999993, 9.934214921000091], [-68.52957885299998, 9.934742935999964], [-68.52879082499993, 9.93481094800012], [-68.52888582599991, 9.933844927], [-68.52861180599996, 9.932003883000107], [-68.52794176899994, 9.931358864000117], [-68.5271317289999, 9.930620852000175], [-68.52699471299991, 9.929700832000037], [-68.52713571599998, 9.928941813000051], [-68.52699871199991, 9.92802078800014], [-68.52774373599993, 9.926733754000054], [-68.52811774499986, 9.925307715000088], [-68.52898175999985, 9.922732645], [-68.52933476099992, 9.920248585000024], [-68.53028979099997, 9.918478533000098], [-68.53203185399997, 9.916410467000048], [-68.53338189999994, 9.91418140200011], [-68.53507397399989, 9.913792387000171], [-68.53716205799998, 9.912760346000141], [-68.53749006499993, 9.911220312000069], [-68.53698402999999, 9.90963126600002], [-68.53671001099997, 9.907905224000046], [-68.53613297999993, 9.907030214000088], [-68.53680799499989, 9.905467166000108], [-68.5384340519999, 9.903744115999984], [-68.5395270969999, 9.902043064000111], [-68.53950708099995, 9.90084704100019], [-68.53946507799992, 9.898890983000172], [-68.53944705499987, 9.896797940999988], [-68.53908003099997, 9.895416901000146], [-68.53857499899993, 9.893437858000084], [-68.53954903799996, 9.89272582700005], [-68.5392510179999, 9.891758815000173], [-68.53966903299994, 9.890954787000055], [-68.54085308199996, 9.890265767000074], [-68.54141109999995, 9.889507739000067], [-68.54108808199993, 9.888885730000027], [-68.54055606299988, 9.888585725000155], [-68.54023104999999, 9.88853972700008], [-68.53893498199994, 9.887847717000056], [-68.53876354499988, 9.887951527000098], [-68.53738092599997, 9.888788748000024], [-68.53624388299994, 9.889223760000107], [-68.53524684099989, 9.889681783000071], [-68.53471281499992, 9.890095790000146], [-68.53399379099994, 9.89041680400004], [-68.53311175299996, 9.8910358280001], [-68.53204570899999, 9.891310843000042], [-68.53137467899995, 9.890849838000179], [-68.53086565899991, 9.890411820000168], [-68.5294976049999, 9.890961846000039], [-68.52970361099989, 9.892019866000169], [-68.52935460999998, 9.89284789900006], [-68.53106767999998, 9.893333897000105], [-68.53088067499993, 9.893954916000041], [-68.52902559799992, 9.894480939000175], [-68.52793455799997, 9.895237965999968], [-68.52693652599999, 9.896248987000092], [-68.52591547899988, 9.896799011000098], [-68.5248754299999, 9.895577984000056], [-68.52369736599996, 9.894310958], [-68.52221729899998, 9.89276693700009], [-68.52171325899991, 9.89051187900003], [-68.52208926299994, 9.88841882200012], [-68.52114121699992, 9.887358808000158], [-68.51847511299997, 9.888113833000034], [-68.51597100599997, 9.888730867999982], [-68.5142569329999, 9.888636878000057], [-68.51272487499989, 9.889921919000074], [-68.51116981399991, 9.890747948000126], [-68.5097547549999, 9.891711978000103], [-68.50815469599996, 9.89223800100001], [-68.50592860699999, 9.892948028000035], [-68.50469855599988, 9.89349805300003], [-68.50407153599997, 9.894233070000155], [-68.50297848899993, 9.895681120000063], [-68.5019584449999, 9.895932130000062], [-68.50124042499993, 9.896046130000059], [-68.50121641899989, 9.896046130000059], [-68.49615321099992, 9.898422228000015], [-68.49565519799984, 9.899676257000124], [-68.49468916699993, 9.900783288000184], [-68.49310210399989, 9.90124131400006], [-68.49201106299995, 9.902008333000026], [-68.49200151799994, 9.90201958700004], [-68.49075401999994, 9.90349038100004], [-68.49006699199992, 9.905392437000046], [-68.48875893999997, 9.905912451000063], [-68.48656085099992, 9.906067469000106], [-68.48629784799994, 9.907429509], [-68.4874979039999, 9.908037512000135], [-68.48696289099996, 9.909591560000138], [-68.48579484599998, 9.91093359600012], [-68.48572862599997, 9.91087166799997], [-68.48443678499996, 9.90966356700011], [-68.48438568099988, 9.909651730000121], [-68.48329272499996, 9.909398569000075], [-68.48306172299993, 9.911057612000093], [-68.48289973499993, 9.912715662000153], [-68.48060164599997, 9.914250706000132], [-68.47870056499988, 9.914305716000058], [-68.47746450199992, 9.914065717000028], [-68.47557042799997, 9.9151527570001], [-68.47373135199996, 9.915733791000036], [-68.47197127899989, 9.915830793000055], [-68.47058122599998, 9.915869811999983], [-68.46918616299996, 9.916598838000084], [-68.46854014099995, 9.917512855000155], [-68.46682807299987, 9.918479890000128], [-68.4653760249999, 9.919600925000054], [-68.46166186999989, 9.92195700800005], [-68.46007381799996, 9.92319705300008], [-68.45819773699998, 9.923296065000102], [-68.45664967699997, 9.924328104000153], [-68.45574964299993, 9.925295135000113], [-68.4543185849999, 9.926369164000107], [-68.45324253299998, 9.926055161000136], [-68.4521684909999, 9.925788164000153], [-68.45105045199995, 9.926462189000063], [-68.4502824089999, 9.926369186999978], [-68.44878935799994, 9.926871203000132], [-68.44715729199999, 9.92820425500014], [-68.4457532269999, 9.92858826600019], [-68.44403015899996, 9.929188292000106], [-68.44225109299992, 9.931053353000152], [-68.44180908399994, 9.931823372000167], [-68.4406190389999, 9.9324084000001], [-68.44000801099997, 9.933734433000097], [-68.43817393799992, 9.934498465000104], [-68.43542582599991, 9.935771510000166], [-68.43375477299992, 9.937356559000136], [-68.43170068399996, 9.937737582000125], [-68.43120966899994, 9.938416593000113], [-68.43017062099995, 9.93858461300016], [-68.42942258999994, 9.939179631000172], [-68.4284395499999, 9.939689650000162], [-68.42760052299991, 9.940356673000053], [-68.4270335089999, 9.941635701000166], [-68.4264934929999, 9.943051748000187], [-68.42491144199994, 9.945346812000025], [-68.42306737199993, 9.947396868000169], [-68.42047526699997, 9.94921492900005], [-68.4194302269999, 9.950002961000052], [-68.41915622399989, 9.95097497800009], [-68.41920222999994, 9.951777006000043], [-68.41770017099992, 9.952784033000114], [-68.41660112299996, 9.953320057000042], [-68.41529007399993, 9.952875055], [-68.4135209829999, 9.951847044000147], [-68.41163790399997, 9.952520068000013], [-68.4100888509999, 9.95350609400009], [-68.40925782399995, 9.955297147000067], [-68.40820078399997, 9.956475190000106], [-68.4068127349999, 9.957433213000058], [-68.40604170299997, 9.958052236000185], [-68.40534867399998, 9.958967259000133], [-68.40454864999998, 9.960206295000148], [-68.40496267699996, 9.960906315000159], [-68.40561169699998, 9.960888313000112], [-68.40627473199999, 9.96137431700015], [-68.40628073899995, 9.963233361000164], [-68.40510869599996, 9.964437408000038], [-68.40472369199989, 9.966377457000078], [-68.40505271899991, 9.967355479000162], [-68.40397366699983, 9.967776489000187], [-68.40275661399994, 9.966548474000092], [-68.4017255689999, 9.966210466000177], [-68.40064751799997, 9.965827462000107], [-68.39977447299992, 9.965301454000098], [-68.39863442699993, 9.96597648400018], [-68.39735737799987, 9.965967481000064], [-68.39594931099998, 9.965364481000108], [-68.39438424299988, 9.965822496000044], [-68.39396823799996, 9.966706522000038], [-68.39360822499998, 9.967106539000156], [-68.39194615599996, 9.968210571000043], [-68.39194516699996, 9.968967591000137], [-68.39196916599991, 9.969816612000102], [-68.39076911899991, 9.970860651000066], [-68.38962407699995, 9.970571647000156], [-68.38816801899998, 9.971600682000144], [-68.38719284099994, 9.97293573200011], [-68.38714098199995, 9.973006728000087], [-68.38633794899994, 9.973328735], [-68.38444887799994, 9.974621783999964], [-68.38317482699995, 9.975484813000094], [-68.38306183199984, 9.977232854000022], [-68.38221980499998, 9.978633897], [-68.38153277299989, 9.97977792800009], [-68.38068274999989, 9.980904955000028], [-68.37963571199987, 9.981599981000159], [-68.37815464999989, 9.98175699400008], [-68.37734060499986, 9.98168799800004], [-68.37685559899995, 9.982574023000097], [-68.3762625359999, 9.983587774], [-68.37615510299992, 9.983771415000035], [-68.37592656099991, 9.984162072000117], [-68.37589944399997, 9.984187119000126], [-68.3747735199999, 9.98522710100002], [-68.37351146899994, 9.985722127000145], [-68.37264443799995, 9.986252142000012], [-68.37205841599996, 9.986865157000011], [-68.37132337899982, 9.987116166000135], [-68.37011834099985, 9.987999203000072], [-68.37031734899989, 9.989279232], [-68.37029750099992, 9.989872881000053], [-68.37029735499993, 9.989877249000017], [-68.37060737299998, 9.989979241000128], [-68.37187142799996, 9.990398251000158], [-68.37277647799988, 9.991747277000059], [-68.37367352499984, 9.993578313], [-68.37511758999995, 9.994380332000048], [-68.37685767399995, 9.99570035700009], [-68.37793072799991, 9.996804373000145], [-68.3787237659999, 9.998099404000072], [-68.37977281499991, 9.999411427000041], [-68.38012583099999, 9.999656434000144], [-68.38065686099998, 10.00061145400008], [-68.38106388699998, 10.001224463000085], [-68.38138790099998, 10.002298494000058], [-68.38179192199993, 10.002749496999968], [-68.38239795599998, 10.002852504000089], [-68.38247795899991, 10.00335651], [-68.38248296299997, 10.003609524000183], [-68.38234895699992, 10.003865531000145], [-68.38221695199991, 10.004258533000154], [-68.38266997799991, 10.004801549000149], [-68.38301898499992, 10.004840547000185], [-68.38358501499994, 10.005219556000156], [-68.38396203799988, 10.005487562000155], [-68.38425905299994, 10.006401586000095], [-68.38459006199997, 10.006670586000155], [-68.3847780829999, 10.00795461100006], [-68.38483909499996, 10.008643636000158], [-68.38510310199996, 10.009051643000078], [-68.38538812199994, 10.009367649000126], [-68.3857151339999, 10.009475647000158], [-68.38591414899992, 10.010092667000038], [-68.38597615499998, 10.010873680000088], [-68.3861521579999, 10.011536700000079], [-68.38623417099996, 10.01215571900002], [-68.38622816899988, 10.01298373800006], [-68.38598516999997, 10.013609748000022], [-68.38585416999996, 10.014048763000176], [-68.38544515199993, 10.014517780000176], [-68.38587417199983, 10.015037796], [-68.38650420099998, 10.01513978500003], [-68.38745623699998, 10.015096783000047], [-68.38787425699985, 10.015088775000095], [-68.38825527799992, 10.015540783000176], [-68.38833128199991, 10.015883799000108], [-68.38829127799988, 10.016183807000061], [-68.38826028799997, 10.016965826000046], [-68.3885783039999, 10.01776484800007], [-68.38886631699995, 10.01817285500016], [-68.38867932199992, 10.020429904000139], [-68.3885953279999, 10.020890926000106], [-68.38785429499995, 10.02104493100012], [-68.38759128199996, 10.02065891899997], [-68.38723925899995, 10.02048192000018], [-68.38704726499998, 10.021336938000047], [-68.3870612579999, 10.022026956000104], [-68.38683625699991, 10.022421970000096], [-68.38698262299988, 10.023242068000116], [-68.38702026799996, 10.023452993000035], [-68.38730728699994, 10.023884000000123], [-68.38731229099989, 10.024114014000133], [-68.38728128899999, 10.024896033000061], [-68.38722128899991, 10.025357043000042], [-68.38712329599997, 10.026279062000015], [-68.38699028499997, 10.026604070000076], [-68.38660127499986, 10.026888080000163], [-68.38630426599997, 10.027124092000122], [-68.38584724799989, 10.027524109000126], [-68.38526722599988, 10.028732138000123], [-68.38508322199993, 10.028827143000115], [-68.38500221999988, 10.029450160000067], [-68.38551924499995, 10.02969216100007], [-68.38580326699991, 10.031112201000155], [-68.38583326999998, 10.031433199000048], [-68.38589027199998, 10.03198422200012], [-68.38586927099993, 10.032100217], [-68.38520324799998, 10.032458232000067], [-68.38477722699992, 10.033272252000074], [-68.38479223799999, 10.03400727800016], [-68.3847522339999, 10.034307286000114], [-68.38437323099998, 10.035142308000104], [-68.38432822399989, 10.035189302000106], [-68.3837562029999, 10.035638324000104], [-68.3834081899999, 10.035668327], [-68.38324718599989, 10.035763332000158], [-68.38279515999989, 10.036371345000077], [-68.38277517099993, 10.037728381000136], [-68.38271517099992, 10.03818939100006], [-68.38269317599998, 10.038235391000114], [-68.38212915099996, 10.039097424000147], [-68.38207944999982, 10.03932722500008], [-68.38195915199998, 10.039883441000086], [-68.38196615499993, 10.040251444000035], [-68.38211215499996, 10.040569461000189], [-68.38214015899996, 10.040822463000154], [-68.38213216899999, 10.041535482000086], [-68.38211316699994, 10.04176548400011], [-68.38167115299996, 10.041751485000077], [-68.38063610499995, 10.042301510000016], [-68.38015208799993, 10.042472518000181], [-68.37968806699985, 10.042528526000183], [-68.37915504399996, 10.042631527000083], [-68.37820101599982, 10.043708558000105], [-68.37807100899988, 10.04417057300003], [-68.37836002699999, 10.04469358100016], [-68.37797800799984, 10.045345606000012], [-68.37796001099997, 10.04559860900008], [-68.3777470039999, 10.046545628], [-68.37793401899995, 10.047760665000112], [-68.37817603099995, 10.048261678000074], [-68.37849705199989, 10.049174696000136], [-68.37889707499994, 10.049442702000078], [-68.37948110299993, 10.049568697000097], [-68.38011012499993, 10.04962469800006], [-68.38058614599998, 10.049040679000143], [-68.3808931609999, 10.049263679000092], [-68.38081316599994, 10.049909695999986], [-68.38082816499985, 10.050667721000082], [-68.38097217699993, 10.0508717190001], [-68.38128119199996, 10.05121072500009], [-68.38196422399994, 10.051679736000096], [-68.38196522499987, 10.052897766000171], [-68.3828372719999, 10.05465080300013], [-68.38319829599993, 10.055263824000178], [-68.38359331599992, 10.055255816000056], [-68.3837433189999, 10.054608806000147], [-68.38374830299995, 10.053689779000024], [-68.38369830399989, 10.053552771000057], [-68.38407232199995, 10.053613775000144], [-68.38458534899996, 10.053717776000155], [-68.3850593649999, 10.054168778000133], [-68.38576239399998, 10.054452783000102], [-68.38600841499994, 10.0551377970001], [-68.3863634309999, 10.055429809000145], [-68.38685844899999, 10.05580981300011], [-68.38746948699992, 10.056119821000038], [-68.38809951499991, 10.0562218230001], [-68.38863853499993, 10.056440824000049], [-68.38906856099999, 10.057029828000111], [-68.38956257399991, 10.057317842000089], [-68.38984959299995, 10.057725849], [-68.39037561999993, 10.058473855000102], [-68.39075764099994, 10.060098897999978], [-68.39120866899998, 10.060549913000102], [-68.39193170499993, 10.060695904], [-68.39255672999985, 10.060567903000162], [-68.39311374599993, 10.060510901999976], [-68.39460481399993, 10.060709889], [-68.39542384399994, 10.059819865000122], [-68.39600387299998, 10.059761858000172], [-68.39686491299989, 10.05978985600018], [-68.3974459349999, 10.059800850000045], [-68.39807396499998, 10.059810850000133], [-68.39930701099996, 10.059900846000119], [-68.39984703599998, 10.06014284700018], [-68.39992042999984, 10.060816286000033], [-68.39993204299998, 10.060922868000148], [-68.39999705299994, 10.061840889000166], [-68.39985005499994, 10.06262591300009], [-68.39999405499998, 10.062806910000063], [-68.40079509499998, 10.06334192899999], [-68.40145112899984, 10.063627932000145], [-68.40192514499995, 10.064054941000052], [-68.40259917499998, 10.064040936000026], [-68.40288318999984, 10.064333942000133], [-68.40293719899995, 10.064677939000092], [-68.40292838199991, 10.064735787000075], [-68.4028141949999, 10.065484970000114], [-68.40257418899995, 10.066294993000099], [-68.4019971649999, 10.066491], [-68.4013101409999, 10.066965010000047], [-68.4015541519999, 10.067581024], [-68.40161115399991, 10.068062041000132], [-68.40271621599999, 10.068706053000085], [-68.40324424199997, 10.069546072000094], [-68.40348425499991, 10.069886072000145], [-68.40353324899996, 10.07002307900018], [-68.40347425399989, 10.070576090000031], [-68.40301923499999, 10.071069101000035], [-68.40291123499992, 10.071462115999964], [-68.40289423199994, 10.071738118999974], [-68.40268922599995, 10.071972131000166], [-68.40235221399996, 10.072531150000145], [-68.40205320699982, 10.072698149000189], [-68.4016431949999, 10.073120161000134], [-68.40188720599986, 10.07366717399998], [-68.40192221299998, 10.07426419799998], [-68.40196421099984, 10.075183213000116], [-68.40257024599998, 10.07528622000018], [-68.40305126499999, 10.076081232000092], [-68.40380630299984, 10.076640245000021], [-68.40427132999986, 10.076654244000053], [-68.40461734299998, 10.076485234000074], [-68.40533636899994, 10.076425229], [-68.4058283949999, 10.076622235000173], [-68.40588739599997, 10.077218242000185], [-68.40589040699996, 10.078552278000075], [-68.40576239899997, 10.079106294000098], [-68.40574340899997, 10.07933730200017], [-68.40634843199996, 10.080474325000012], [-68.4063544419999, 10.080819328000075], [-68.40638944899996, 10.081393352000134], [-68.4067354689999, 10.082374365000021], [-68.40692746999997, 10.082669381000073], [-68.40707348099988, 10.083011380000073], [-68.40684847999984, 10.083407399000066], [-68.40676247499994, 10.083754400999965], [-68.40688847799993, 10.084211413000162], [-68.40707649299998, 10.084299416000079], [-68.40708448899983, 10.084690431000183], [-68.40685248499989, 10.084740430000124], [-68.40638745799998, 10.084750436999968], [-68.40621445499994, 10.085351447000164], [-68.40592244999993, 10.08586346100003], [-68.40573943999993, 10.086005472000181], [-68.40541543299992, 10.086104475000127], [-68.40509841699998, 10.086524488000123], [-68.40510541999993, 10.086869491000186], [-68.40513542299993, 10.087190501000066], [-68.40503142199987, 10.087813518000189], [-68.40465541099991, 10.08871854600011], [-68.40417439899983, 10.08911855100007], [-68.40387338099998, 10.08914855400019], [-68.40343236099989, 10.08920356800013], [-68.40308735199994, 10.089371572000175], [-68.40279133799999, 10.089653583000143], [-68.40243233099994, 10.090327592000051], [-68.40187530199995, 10.090361605000112], [-68.40156893499989, 10.090533225000058], [-68.40127727599992, 10.090696607000098], [-68.40077526199997, 10.091143630000033], [-68.40070825999999, 10.091259625000134], [-68.40072026599995, 10.091880643000025], [-68.40128628499997, 10.09228265300004], [-68.40159630499994, 10.092667659000085], [-68.4019973209999, 10.092934660000083], [-68.40177732299998, 10.093583681000041], [-68.40139630999994, 10.094280702000106], [-68.40110729799989, 10.094907717000183], [-68.40072527899997, 10.095559743000138], [-68.40025227399985, 10.096304763000148], [-68.40000926399989, 10.096976785000152], [-68.39987725799989, 10.09730179200011], [-68.39991526899996, 10.098036805999982], [-68.40004127299989, 10.098516818000121], [-68.4002142839999, 10.099064837000071], [-68.39987727199991, 10.099646845000052], [-68.39947626199995, 10.100505873000088], [-68.39891524199999, 10.10150590600017], [-68.39862822899994, 10.102224922000119], [-68.39876324699992, 10.103164938000134], [-68.39880124699994, 10.103922963000059], [-68.39881325299996, 10.10449798100018], [-68.39885826699998, 10.105601009000168], [-68.39889126299994, 10.10606002000003], [-68.3988522649999, 10.106451024000023], [-68.39886427199991, 10.107049041000039], [-68.39887827699994, 10.107716058999983], [-68.39882427499998, 10.108522084000185], [-68.39890828699993, 10.109187091000024], [-68.39852027099988, 10.109562109000137], [-68.39813426499995, 10.110007121000024], [-68.39791324899994, 10.110587142000156], [-68.3980812559999, 10.110859146999985], [-68.39822726799997, 10.11117814500011], [-68.39821427399988, 10.111661162000189], [-68.3978042629999, 10.112084179000078], [-68.39769325799995, 10.112339180000163], [-68.39753625299994, 10.112664188000053], [-68.39749624899997, 10.112941196000065], [-68.39717823899997, 10.11333820900012], [-68.39728124299995, 10.113842225999974], [-68.39749225699984, 10.113907228000016], [-68.39823029299998, 10.114765245000058], [-68.39851830599991, 10.115219252000088], [-68.39840730099996, 10.115474253000116], [-68.39839430799987, 10.116003270000078], [-68.39865532199997, 10.116228280000087], [-68.39847931399999, 10.116738295000061], [-68.39830231299999, 10.117201304000105], [-68.39840430999988, 10.117636309000147], [-68.39818031399994, 10.118031323000139], [-68.39795630599997, 10.118496342000128], [-68.39801631199992, 10.11916135000007], [-68.3981663219999, 10.119687362000093], [-68.39784730699989, 10.119993379000107], [-68.39763429299995, 10.119813376000025], [-68.39735628799997, 10.119865372999982], [-68.39722428199997, 10.12023538800014], [-68.39702427899994, 10.120676402000015], [-68.39712928199998, 10.121273413000154], [-68.3978933279999, 10.12327745500005], [-68.39926139699992, 10.125114496000094], [-68.39952641199994, 10.126052525000148], [-68.40008744499988, 10.127282542000046], [-68.40043945599996, 10.127482553000164], [-68.40107448899994, 10.127836552000076], [-68.40131150899998, 10.128062556000089], [-68.40176552899999, 10.128673578000019], [-68.40249355699984, 10.129003583000099], [-68.40315459399983, 10.129495583000107], [-68.40388863099997, 10.130170602000078], [-68.40500768699985, 10.131481620000045], [-68.40634975299997, 10.133477664000168], [-68.40696878699993, 10.134200683000017], [-68.40805483499997, 10.135028696000063], [-68.40954189899992, 10.136124716000154], [-68.41063696099997, 10.137367738000137], [-68.41139299299988, 10.13797275200011], [-68.41212702999997, 10.13864777100008], [-68.41233604099995, 10.139746790000174], [-68.41241704899988, 10.140319808000129], [-68.41255505899994, 10.141397837999989], [-68.41240606199995, 10.142067849000114], [-68.41240106499998, 10.142964869000082], [-68.41209306299999, 10.143844898000168], [-68.41195380099992, 10.144784936000121], [-68.4119290619999, 10.144951925000157], [-68.41208607399994, 10.145799952000061], [-68.41251808699997, 10.146457956000177], [-68.4130301269999, 10.147619991000113], [-68.4134081499999, 10.149084020000032], [-68.41401718399993, 10.150474057], [-68.41431219999993, 10.151249074000077], [-68.41506623299995, 10.151763080000023], [-68.41588726799995, 10.152091086000155], [-68.4164802979999, 10.152700096999979], [-68.4172813369999, 10.153189104000035], [-68.41804037399993, 10.153955119000102], [-68.41880441399991, 10.154951137000069], [-68.41938043999994, 10.155813162000072], [-68.41986447599987, 10.156769176000125], [-68.42039749299994, 10.157793209000033], [-68.4210265349999, 10.159021228000142], [-68.42174056399995, 10.15985724900014], [-68.4219990659999, 10.160013487000072], [-68.4223295949999, 10.16021325800017], [-68.42293862199995, 10.160431254000116], [-68.42335964699987, 10.160583254000073], [-68.42390066499996, 10.160871256000064], [-68.42445069799999, 10.161618281000187], [-68.42476471599997, 10.162210289000143], [-68.42484572399991, 10.162760307000156], [-68.42472271999992, 10.16359032600019], [-68.42473172199988, 10.16402734200011], [-68.42491274099996, 10.164943353000126], [-68.42508074699998, 10.165192369000124], [-68.42518574899998, 10.165765375000092], [-68.42526976199997, 10.16645339500019], [-68.4255907829999, 10.167412413000136], [-68.42570678599992, 10.16851444800011], [-68.42616580999999, 10.169401461000064], [-68.42624881699999, 10.170043480000118], [-68.42656684499991, 10.170818497000027], [-68.42693386699995, 10.171708515000148], [-68.42717187599999, 10.173151555000175], [-68.4271398809999, 10.17386556700012], [-68.42708088599994, 10.174395589000085], [-68.42702288599992, 10.174971600000049], [-68.42729189599999, 10.17558660900005], [-68.42745890899994, 10.175813618000063], [-68.42777992899994, 10.17662864], [-68.42756093199995, 10.178570688000093], [-68.42742492799988, 10.178734694000184], [-68.42696490599991, 10.178996698], [-68.42652688999993, 10.179189713000085], [-68.42606486799997, 10.17931472100014], [-68.4259268649999, 10.179408721000073], [-68.42525583899999, 10.179537727000081], [-68.42472682099992, 10.180997765000086], [-68.42397579999994, 10.181817795000086], [-68.42379178399983, 10.181890794000026], [-68.42325777399998, 10.183096824000131], [-68.42308576499994, 10.183767852000074], [-68.42237973899995, 10.184494863999987], [-68.42201873299996, 10.18505388400007], [-68.42185573699987, 10.18620691100017], [-68.42134470899987, 10.186194924000176], [-68.4207826889999, 10.185999916000185], [-68.42025666199999, 10.185297897999988], [-68.41965262699995, 10.185355904], [-68.41910761699995, 10.18598792299997], [-68.41879860899996, 10.186775951000186], [-68.4183715939999, 10.187543972000071], [-68.41748255799996, 10.18843599500002], [-68.41689653799995, 10.18932202100018], [-68.4168035379999, 10.190496050000036], [-68.41656053899999, 10.19109907100011], [-68.41565150599996, 10.192176101000086], [-68.41499347999996, 10.192948132000083], [-68.41485548399993, 10.194193160000054], [-68.4142874609999, 10.19482517900002], [-68.41364242899994, 10.19516019300005], [-68.41320841099997, 10.195514210000113], [-68.41283441199994, 10.196579235000058], [-68.41283441799993, 10.197608970999966], [-68.41283441899998, 10.197752269000091], [-68.41275541699997, 10.198444286999973], [-68.41264641199996, 10.19881428900004], [-68.41271442699997, 10.199847311999974], [-68.41311944099994, 10.200345331999984], [-68.41327144999997, 10.200962340000046], [-68.4133824619999, 10.20183436100018], [-68.41323445799992, 10.202550384000176], [-68.41280344499995, 10.203110398000149], [-68.4124634289999, 10.203554416000145], [-68.41150040499997, 10.205368471000043], [-68.4116314129999, 10.206078485000148], [-68.41159741799993, 10.206699503000038], [-68.41123839999989, 10.207373512000117], [-68.41100039299982, 10.208252536000032], [-68.41110240199998, 10.208710553000174], [-68.41106840799995, 10.209286564000138], [-68.41120141399995, 10.210157591000154], [-68.41131242599988, 10.211028607000117], [-68.41158144799994, 10.211689627999988], [-68.41184845999999, 10.212236642000164], [-68.41198047199998, 10.212992656000154], [-68.41171145699997, 10.213503677000062], [-68.41144545799995, 10.214153692000139], [-68.41113443899997, 10.214849707000099], [-68.41110407399998, 10.216331474000185], [-68.41110244899983, 10.21641075399998], [-68.4096133999999, 10.217791793000117], [-68.4081803439999, 10.218869832000053], [-68.40659227599997, 10.21942185800009], [-68.40441418399996, 10.219621872000118], [-68.40281812399996, 10.220703909000065], [-68.40251611299993, 10.220765911], [-68.40071603599995, 10.221131926], [-68.39877194699994, 10.221416951000037], [-68.39653384899992, 10.221157955000137], [-68.39436676399987, 10.22094296], [-68.39093961499998, 10.221338998000078], [-68.3894465539999, 10.222355365000055], [-68.38913854999998, 10.222565032000091], [-68.38717846299994, 10.223105058000044], [-68.38542339799994, 10.224306106000085], [-68.38373433199996, 10.225391135000109], [-68.38170924799994, 10.225287143000173], [-68.37928713299988, 10.225056162000158], [-68.37851911199994, 10.226667199000133], [-68.37750107599999, 10.228493257000082], [-68.37726776499994, 10.229117632000111], [-68.37683106499998, 10.230286308000188], [-68.37549301999991, 10.232260360999987], [-68.37503600199994, 10.232614378000108], [-68.37324192699992, 10.234005423000156], [-68.3713748589999, 10.234542444999988], [-68.3702018159999, 10.236626508000029], [-68.36879377399993, 10.240260610000178], [-68.3679347609999, 10.242773670000076], [-68.36615868299998, 10.244067724000047], [-68.36467163799995, 10.246132786000032], [-68.36459142299998, 10.24666931400003], [-68.3637086299999, 10.252573952999967], [-68.36227659099984, 10.25564504000016], [-68.35883846599995, 10.259637166000061], [-68.35675539199997, 10.261907235000024], [-68.35496232799994, 10.264287301000138], [-68.35758944299988, 10.265383314000132], [-68.3581284739999, 10.26555631499997], [-68.35869749799991, 10.266096325999968], [-68.36002457099994, 10.268483375000073], [-68.36121865199988, 10.272368477000157], [-68.36164167099997, 10.273762501000022], [-68.36274272999992, 10.27530353300017], [-68.36524184899997, 10.27697756700013], [-68.36715393599997, 10.278363588000161], [-68.36881301699992, 10.279916620000051], [-68.36929204899997, 10.280596631000094], [-68.36932632099996, 10.280771133000144], [-68.36942446099988, 10.281270819999975], [-68.36949906099994, 10.281650655000078], [-68.3697990799999, 10.282655686], [-68.37015910699995, 10.284395730000085], [-68.37006912499993, 10.288030818000152], [-68.37179722099995, 10.291812907000178], [-68.3718602209999, 10.29263892800003], [-68.37197323199996, 10.293648951000023], [-68.37219324799992, 10.294172964000097], [-68.37291829799989, 10.296688025000094], [-68.37274592699993, 10.297736690000079], [-68.37260729799982, 10.298580076000064], [-68.37243630099988, 10.300492123000083], [-68.37267031899995, 10.302855184000123], [-68.37270032899988, 10.304349217000038], [-68.37314136399993, 10.306662280000182], [-68.37460543899994, 10.307713292000074], [-68.37627650799993, 10.30871431800017], [-68.37773658599991, 10.309558329000083], [-68.37913064299988, 10.310656348000066], [-68.37989568899997, 10.31169836500004], [-68.38052972199995, 10.31313440300005], [-68.38114575899993, 10.31482344400007], [-68.38209681499984, 10.31701148600007], [-68.38362988099993, 10.318060512000045], [-68.38436591699991, 10.318827521000173], [-68.38451493299988, 10.319261532000098], [-68.3847149419999, 10.319970553000076], [-68.38498695799996, 10.320792575000041], [-68.38535097499988, 10.321520586000133], [-68.38587700199997, 10.322245604999978], [-68.3863560339999, 10.32292561600002], [-68.38690506099994, 10.323604634000105], [-68.38727307699992, 10.324562659000037], [-68.38729908899995, 10.325849689000108], [-68.38745710699999, 10.326766706000058], [-68.38775712599994, 10.327794737000147], [-68.38821114699994, 10.328406741000151], [-68.38875117199984, 10.32862575400003], [-68.38954720799995, 10.328884747000075], [-68.38940920899995, 10.329731771000183], [-68.3893981999999, 10.329788030000145], [-68.38936420299996, 10.329961774000083], [-68.38964222299995, 10.330281789000026], [-68.3901292459999, 10.330600797000159], [-68.39040725399991, 10.33085179900013], [-68.39068626799997, 10.331285810000054], [-68.39089528499994, 10.331582813000011], [-68.39105828899994, 10.33176582100009], [-68.39175231899998, 10.332129823000173], [-68.39226133799991, 10.332402819000038], [-68.39244935599993, 10.333089845000188], [-68.39235735299997, 10.333090839000079], [-68.39171231999995, 10.333321850000118], [-68.39092729499993, 10.3332798510001], [-68.39062827699996, 10.333509867000146], [-68.39060727699996, 10.333876877000137], [-68.39067728599997, 10.334151874000042], [-68.39058829099997, 10.334816895000074], [-68.39027027399993, 10.335803919000057], [-68.38992827299995, 10.33665294300016], [-68.38981426499987, 10.3369519580001], [-68.38921824099992, 10.337755975999983], [-68.38889723899985, 10.33803298600003], [-68.38878423699998, 10.338514998000107], [-68.38892624299996, 10.33936202000001], [-68.38941526799988, 10.340140040000108], [-68.38999328899996, 10.340367047000143], [-68.39070832999994, 10.340272038000023], [-68.39109933899988, 10.340019021000103], [-68.39169936499997, 10.339993026000172], [-68.3922533899999, 10.339991024000028], [-68.39283140999993, 10.340080018000094], [-68.39350344499985, 10.340628022000146], [-68.39343644499996, 10.341224042000078], [-68.39332444899998, 10.341775054000038], [-68.39332744499995, 10.342486075000124], [-68.39353745699998, 10.34292008600005], [-68.39379346999993, 10.343332102000034], [-68.39391248699985, 10.344042116000026], [-68.39366247599986, 10.344708130000072], [-68.39345747199997, 10.345259144000181], [-68.39262743999984, 10.345445160999986], [-68.39200540799999, 10.345654165000099], [-68.39120138499999, 10.346483195000076], [-68.39065236799985, 10.347516221000149], [-68.39135039899998, 10.348580246000154], [-68.39293248699994, 10.35053928800005], [-68.39304533699993, 10.350824031000059], [-68.39435056499997, 10.354117369000107], [-68.39612065699993, 10.35643341600013], [-68.39744573899998, 10.359922501000085], [-68.39858480299989, 10.36314357700013], [-68.39888482899994, 10.365207624000107], [-68.39885107499998, 10.366383418000055], [-68.39885083799999, 10.366391657000122], [-68.39830183899994, 10.37024576400006], [-68.39847784299985, 10.370498409999982], [-68.39848784399999, 10.370512766000104], [-68.39935191099994, 10.376411910000058], [-68.40014835599993, 10.385752952000075], [-68.40019501199998, 10.386300157000164], [-68.3993759309999, 10.388718777000065], [-68.39873197399999, 10.390620281], [-68.3976659459999, 10.39364636], [-68.39635491699988, 10.398392491000038], [-68.39601592599996, 10.402261592000173], [-68.39794503399997, 10.406084678000127], [-68.40001514599993, 10.409503753000138], [-68.40002015399983, 10.41045178800016], [-68.40014016499998, 10.411368804000176], [-68.40033117799999, 10.412536836000186], [-68.4005181899999, 10.413131849000138], [-68.40077720999994, 10.414024871000095], [-68.40119622799995, 10.414871891000189], [-68.40134424699994, 10.416658931000086], [-68.40137325099994, 10.417896970000129], [-68.40098624299992, 10.41881598800012], [-68.40080524699994, 10.41966401700006], [-68.40102026699998, 10.42103905100015], [-68.4010012679999, 10.421773071000132], [-68.40093726399994, 10.422965098000077], [-68.40073526699985, 10.424112131000186], [-68.40055526499998, 10.424984154000128], [-68.40010225099996, 10.426590199000088], [-68.39968923699996, 10.427256214000181], [-68.39962223699996, 10.427738226000088], [-68.39955924899988, 10.428862258000038], [-68.39940224799994, 10.429848288000073], [-68.39922424699995, 10.431201317000045], [-68.39923225099983, 10.432760366000139], [-68.39972228199997, 10.433767383000088], [-68.40046531999997, 10.434612403000187], [-68.40086133699998, 10.435344422000071], [-68.4010493539999, 10.435893435000139], [-68.40103035499993, 10.436650456000166], [-68.40057234699987, 10.437523474000102], [-68.40101537099991, 10.438369489000024], [-68.40139707299988, 10.43905287900003], [-68.40141138799999, 10.439078509000069], [-68.40139238899997, 10.439789529000052], [-68.40100338199983, 10.440593558000103], [-68.40033936199995, 10.441581578000125], [-68.39976633899988, 10.442477609000093], [-68.39900630299996, 10.44282462700005], [-68.39787926599996, 10.44365465200002], [-68.39753325199996, 10.44372464800017], [-68.39767725799993, 10.444824685000128], [-68.39775227399986, 10.445947710000041], [-68.39797129599992, 10.448169767000138], [-68.39761129199991, 10.450051814000176], [-68.39710020199982, 10.450935055000173], [-68.39678726399995, 10.45147585900014], [-68.39632925399997, 10.452142880000167], [-68.39568622299998, 10.452901903000168], [-68.39557822899991, 10.454253938000022], [-68.39567223299997, 10.454757944], [-68.3960202589999, 10.45503195800012], [-68.3966912869999, 10.455189952000069], [-68.39736332299998, 10.45585196400009], [-68.39822136299995, 10.456490975000122], [-68.39854938399998, 10.457360003000076], [-68.39897040299991, 10.458551022000165], [-68.39962043199995, 10.45914403400019], [-68.40047747799991, 10.459783045000052], [-68.40138151799994, 10.46037506100015], [-68.40212556199992, 10.46151807900003], [-68.40245357299989, 10.462480101999972], [-68.40271459299993, 10.463717134000035], [-68.40274861699999, 10.465986198000166], [-68.40307662699996, 10.46690221900002], [-68.40386366499996, 10.467334229000073], [-68.40407567699992, 10.468067243000121], [-68.40412468499989, 10.46861726100019], [-68.40367067799997, 10.47022329500004], [-68.40335366799997, 10.471439329000077], [-68.40331167999994, 10.472242349999988], [-68.40251065199993, 10.473620393999965], [-68.40177561899986, 10.474426423000125], [-68.40098858199991, 10.474085420999984], [-68.40029655299998, 10.474133424000172], [-68.39988353899997, 10.474754445000087], [-68.39907951499998, 10.475514462000035], [-68.39850449099993, 10.475974482000083], [-68.39744544899997, 10.476552498000103], [-68.39645540899994, 10.477129520000062], [-68.3955113699999, 10.477728548000073], [-68.39440632699996, 10.478420572000118], [-68.39323127599988, 10.478792580000174], [-68.39203423199996, 10.479690613000173], [-68.3914602129999, 10.480174626000121], [-68.39047217399997, 10.481163665000167], [-68.39010717399992, 10.482196691000013], [-68.39006616899991, 10.483091713000022], [-68.39030018799991, 10.483823734000111], [-68.3907882069999, 10.484326744000157], [-68.3914132349999, 10.484782748000043], [-68.39238628899994, 10.48528275199999], [-68.39326532799993, 10.485646765000013], [-68.39381634699998, 10.485116739000034], [-68.39441736699996, 10.485137738000105], [-68.39497339199988, 10.485456746000011], [-68.39501940599996, 10.485478740000076], [-68.39536641399997, 10.485523745000137], [-68.39615144999993, 10.485520737000058], [-68.39631445499998, 10.485840752000172], [-68.39682247899992, 10.485769738000158], [-68.3970304909999, 10.485975746000179], [-68.39751751399996, 10.486225754000031], [-68.39827955099997, 10.486405754000032], [-68.39902057599988, 10.486815756], [-68.40015562699995, 10.487407760000167], [-68.4005726559999, 10.487634768000134], [-68.40147669699991, 10.488410787000078], [-68.40153965399998, 10.488640846000067], [-68.40166470299994, 10.489097800000025], [-68.40178471399997, 10.489945815999988], [-68.40134869899998, 10.490520835999973], [-68.40068167199996, 10.49095884999997], [-68.39973463699994, 10.490916852000055], [-68.39918361999997, 10.49162888100011], [-68.39918661599995, 10.492247900000052], [-68.39928263099989, 10.492843907000065], [-68.39912262199982, 10.493164918000105], [-68.39864161299988, 10.49406094800014], [-68.39813758999992, 10.494704969000054], [-68.39769957399994, 10.494866967000121], [-68.39686754299993, 10.494870981000133], [-68.39640551999997, 10.49484897700006], [-68.39589749499987, 10.494667982000124], [-68.3953204689999, 10.494738984000094], [-68.3947214499999, 10.495107997], [-68.39396141499998, 10.495501015], [-68.39343440499982, 10.4963510340001], [-68.39264936899997, 10.496400042000062], [-68.3916353219999, 10.496817056000111], [-68.39129031299996, 10.496933065], [-68.39106230899995, 10.497575086000097], [-68.39099630399988, 10.49828610700007], [-68.39058128799991, 10.498334108000051], [-68.39002626899992, 10.498244109000154], [-68.3895872459999, 10.498246110000025], [-68.38968225499997, 10.498635115000184], [-68.39016927999995, 10.49906912400013], [-68.3899412639999, 10.499666138000123], [-68.38955126099995, 10.50014915700001], [-68.38876822599991, 10.500587171], [-68.38824020899995, 10.501185192000037], [-68.38819620899994, 10.501713205000101], [-68.38817821599997, 10.502607233], [-68.38740018999988, 10.504146279000167], [-68.3865731539999, 10.504951303000155], [-68.38673817099982, 10.505569317000152], [-68.38754820999998, 10.50600231900006], [-68.38755120499985, 10.506506337000019], [-68.3875530919999, 10.506915107000111], [-68.38755321799994, 10.506942348000166], [-68.38716419799988, 10.507654364000075], [-68.38695919499997, 10.508228378000126], [-68.38705420499986, 10.50884640400011], [-68.3870571999999, 10.509396411000068], [-68.38701721399997, 10.510657450000053], [-68.38705122499994, 10.512743493000073], [-68.38682322199992, 10.513478521000138], [-68.38668721999994, 10.513937533000103], [-68.38655321799996, 10.514762550000057], [-68.38621120599998, 10.515726587000188], [-68.38662922899994, 10.516114584000036], [-68.38679123999992, 10.516297592000058], [-68.38656323499998, 10.516802605], [-68.38566419099993, 10.517127617000085], [-68.38474315199994, 10.517703645000154], [-68.38400813099997, 10.51857767000007], [-68.38354610799985, 10.518465664000018], [-68.3828760859999, 10.518375665000121], [-68.38255707399998, 10.519179694000172], [-68.38265008299987, 10.51943170200002], [-68.38283709399997, 10.51984370700012], [-68.38304810099993, 10.520484720000127], [-68.38355711899987, 10.520596726000178], [-68.38390614099995, 10.521191738000027], [-68.38365313499997, 10.521375742000146], [-68.38275709699991, 10.522227772000122], [-68.38299211199984, 10.523189795], [-68.38336513999997, 10.523852803000182], [-68.38369215499995, 10.52458582800017], [-68.38369415699992, 10.525066833999972], [-68.3837721679999, 10.526716879], [-68.38370716799994, 10.52751990000013], [-68.3832021529999, 10.528277929000012], [-68.38286015199992, 10.52908194600002], [-68.38226212699993, 10.529587966000179], [-68.38164009499997, 10.52984297100005], [-68.38069405499994, 10.53005298300019], [-68.37972602099995, 10.53037700200008], [-68.37928699899999, 10.530379003000121], [-68.37864397899995, 10.531115026], [-68.37853097899995, 10.531712039000126], [-68.37806495699994, 10.53362520700017], [-68.37805597199997, 10.533662095000182], [-68.3766959109999, 10.534126117000028], [-68.3755668739999, 10.534772140000086], [-68.37481284199998, 10.5363331800001], [-68.3746318449999, 10.537022207], [-68.37408282799987, 10.538147234000121], [-68.37334680099997, 10.538838263000173], [-68.37313979599992, 10.53897626500003], [-68.37247176299996, 10.539162270000077], [-68.37212474299997, 10.539163277000057], [-68.37157172399992, 10.539418281000053], [-68.37104270099996, 10.539878301000101], [-68.3706526869999, 10.540407309000159], [-68.3698936589999, 10.541006336000066], [-68.36894963199995, 10.541674354000122], [-68.36809759499988, 10.542090373000121], [-68.36685254899999, 10.54255338900009], [-68.36602351199997, 10.542923408000036], [-68.36496447099984, 10.54372943900006], [-68.36372442099997, 10.545201485000177], [-68.36287539199998, 10.546236512000121], [-68.36177335699995, 10.547638551000034], [-68.36087632599998, 10.548444582000172], [-68.36016229199987, 10.548768600000187], [-68.35972627699994, 10.549342615000171], [-68.35921925999992, 10.54959662500005], [-68.35862123399988, 10.550011638000171], [-68.35765320099983, 10.550519660000077], [-68.35684615799994, 10.550660658000027], [-68.35442449999994, 10.550870986000064], [-68.3524359779999, 10.5510436940001], [-68.35109390899999, 10.550544698000067], [-68.34926884099997, 10.550322701000084], [-68.34725574399994, 10.549573698000188], [-68.34699444699999, 10.549475750000056], [-68.34568166999998, 10.548983684], [-68.34464263299998, 10.548918697999966], [-68.34376559399988, 10.54899069600009], [-68.34210251399998, 10.54906571400005], [-68.34115647399994, 10.549297720000084], [-68.34018743299987, 10.549439736000124], [-68.33783433699995, 10.549997764000068], [-68.33564024299994, 10.549960775000159], [-68.33409017599996, 10.549507769000115], [-68.33314013399996, 10.548869764000187], [-68.33061401599991, 10.547044732000188], [-68.32924795199995, 10.546362715000157], [-68.3277228849999, 10.546092717000022], [-68.32624381999989, 10.545960732000026], [-68.32513176799989, 10.545208720000119], [-68.32461974299991, 10.544476701000065], [-68.32376370299994, 10.544112699000152], [-68.32274464799991, 10.543474683000113], [-68.32179361099992, 10.542584669000178], [-68.32139758299996, 10.5420126570001], [-68.32079254799999, 10.541052635000085], [-68.32028052099997, 10.540159614000174], [-68.31951548899991, 10.539497602000097], [-68.31877345999999, 10.539065592999975], [-68.31784741199994, 10.5384725830001], [-68.31724538499992, 10.538130575000082], [-68.31638833999989, 10.537744578], [-68.31590331599989, 10.537585578000176], [-68.31507028899989, 10.537290565000035], [-68.3135232169999, 10.537410578000106], [-68.31114712099992, 10.537992610000117], [-68.30987906099989, 10.538318630000106], [-68.30840100299991, 10.538461642000186], [-68.3076149719999, 10.538257637000129], [-68.30745195599991, 10.538051641000095], [-68.30745096099992, 10.537845632000028], [-68.30758795799989, 10.537524622000092], [-68.30765596499998, 10.537248618000035], [-68.30763195799994, 10.537019610000073], [-68.30746995899989, 10.53690560300015], [-68.30719294699998, 10.53690661000013], [-68.30643190499995, 10.537069614000131], [-68.30583189099997, 10.537140617000034], [-68.30467784099989, 10.537488643000074], [-68.3041018099999, 10.537720647000071], [-68.30366680099996, 10.538478676000182], [-68.30336878999992, 10.538937689000079], [-68.3034167919999, 10.53937370000017], [-68.30351080699995, 10.539716704000114], [-68.30351280799994, 10.540197710000143], [-68.3033998059999, 10.540588727000056], [-68.30282577599996, 10.541277744000126], [-68.30254977099992, 10.541622760999985], [-68.30238976299984, 10.542012772000021], [-68.30206876199992, 10.54247277899998], [-68.30197875999994, 10.542839790000073], [-68.3017487439999, 10.543207807000044], [-68.30140473099993, 10.543575812000029], [-68.30103672199988, 10.543851829000062], [-68.30044069899986, 10.544816849000142], [-68.29977267799984, 10.54523187400008], [-68.2993806639999, 10.545439872000088], [-68.29901164899991, 10.545486880000055], [-68.29871163599995, 10.545579888000134], [-68.29829660899992, 10.545763892000082], [-68.29732857499994, 10.546042904000046], [-68.29728257399995, 10.546065905000091], [-68.2965455399999, 10.546549919000029], [-68.29606252999997, 10.547055939000131], [-68.29571851699995, 10.547561958000188], [-68.29516548599992, 10.547700956000142], [-68.29467946899996, 10.547633957000187], [-68.2945404589999, 10.547450961000152], [-68.29451646299998, 10.547198952000144], [-68.29453746299993, 10.546877942000037], [-68.29453645599995, 10.546602933000145], [-68.29437444599995, 10.546488938000039], [-68.29393543699996, 10.546604935000119], [-68.29356842299995, 10.547041953000019], [-68.29324740999994, 10.547501971000088], [-68.29308740199986, 10.54793798300011], [-68.29283539099998, 10.54830598899997], [-68.29244537799991, 10.548972016000107], [-68.29196236699994, 10.549386023000181], [-68.29138633499997, 10.54952602700007], [-68.29110832999999, 10.549550034000163], [-68.29067031399995, 10.54971204300017], [-68.29011628799998, 10.549714045000144], [-68.28985926899992, 10.54914102700019], [-68.28972027099996, 10.549004032000084], [-68.28937424499992, 10.549097028000176], [-68.28896023599998, 10.549328038000112], [-68.28861422199992, 10.549398046000022], [-68.28801419599995, 10.549515049000036], [-68.28739016399999, 10.549563052000167], [-68.28688215099999, 10.549496053000041], [-68.28672014099988, 10.549382058000106], [-68.28653312899996, 10.548924040999964], [-68.28650812899991, 10.548649044000058], [-68.28643912599989, 10.54860303200013], [-68.2860461059999, 10.548605045000045], [-68.28544708599998, 10.548836056000084], [-68.28524006999999, 10.54913506000014], [-68.2849190579999, 10.54959407299998], [-68.28457505699993, 10.550100092000037], [-68.28439204699998, 10.55035309599998], [-68.28390702399992, 10.550423105], [-68.28360801699995, 10.550722109000048], [-68.283309, 10.551067126000078], [-68.28312600199996, 10.551366130000133], [-68.28280398299995, 10.551665135000121], [-68.28268998699986, 10.552032145999988], [-68.28225195899995, 10.552080148000073], [-68.28151392999996, 10.55224316400006], [-68.28063789899988, 10.55275018000009], [-68.27990086499983, 10.55323419399997], [-68.27950985599989, 10.553488204000075], [-68.27881682199995, 10.553490207000152], [-68.27844780699996, 10.55353721500012], [-68.27807879199997, 10.553584223000087], [-68.27757276899996, 10.554044230000045], [-68.27731976399997, 10.554366247000132], [-68.27699674999997, 10.554322247000073], [-68.27655873499998, 10.554667253000162], [-68.27653573499992, 10.554690254000036], [-68.27602971099998, 10.554967264000027], [-68.27526868199988, 10.555267277000098], [-68.27471566399998, 10.555499293000082], [-68.27441565199985, 10.555729297000141], [-68.27432464399993, 10.556027308000182], [-68.2741876479999, 10.556303311000022], [-68.27395863699996, 10.556693323000104], [-68.27368261999993, 10.55696932800015], [-68.27359162299996, 10.557153342000106], [-68.27303860499995, 10.557476353000084], [-68.2726035849999, 10.558303371000136], [-68.27228157799993, 10.558556387000067], [-68.27202956699995, 10.558992400000022], [-68.27154555099997, 10.559269411000116], [-68.2708775179999, 10.559638424000184], [-68.27055351099995, 10.559616419000065], [-68.26993147799988, 10.559802435000165], [-68.26967847299994, 10.560078439000051], [-68.26935745999992, 10.56053745200012], [-68.26885143799996, 10.56097546500007], [-68.26832242599988, 10.56145848500006], [-68.26774639599995, 10.561827497000024], [-68.26733138099996, 10.56203550700019], [-68.26710036999987, 10.562058508000064], [-68.26640734699998, 10.562061504000098], [-68.26599233099995, 10.562062512000182], [-68.26534529799994, 10.562110514999972], [-68.26479428099992, 10.562754536000057], [-68.26451826399983, 10.563122554000131], [-68.26447326899984, 10.56339755199997], [-68.26447627699997, 10.563993571000026], [-68.26440927599998, 10.564406582000174], [-68.26420426099997, 10.56495759500018], [-68.26378924599999, 10.565325613000084], [-68.26342123799992, 10.56564761900006], [-68.26312423199994, 10.566221633000168], [-68.26303322599995, 10.566588644000035], [-68.26280621599994, 10.567322666000052], [-68.26276221599994, 10.567827678000072], [-68.2627082109999, 10.567878083999972], [-68.26241720899998, 10.568149695000159], [-68.26193218599991, 10.568219692000184], [-68.26163217299995, 10.568220699000165], [-68.26110114799997, 10.568222700999968], [-68.26063913699994, 10.568201702000124], [-68.26008410599985, 10.568180704000156], [-68.25955308099998, 10.568136705000143], [-68.25918206599982, 10.567816702000073], [-68.25883705799998, 10.568138708000049], [-68.25860804899992, 10.56862172600006], [-68.25854004199988, 10.568919736], [-68.25854205399997, 10.569263746000047], [-68.25824303699994, 10.569630758000073], [-68.25789802899988, 10.569884768000122], [-68.25743800699985, 10.570275775000027], [-68.25707099399995, 10.570827794000138], [-68.25697999899995, 10.571148805000178], [-68.25700399399989, 10.571331801000042], [-68.2573270069999, 10.57130780600005], [-68.25802004099995, 10.571282803000031], [-68.25852705899996, 10.571119788000146], [-68.25880507799997, 10.571210794000024], [-68.25871407099999, 10.571577805000118], [-68.25866907699992, 10.571921815000167], [-68.2585550689999, 10.572266819000106], [-68.25851506999999, 10.57244210000016], [-68.25848706299996, 10.5725648290001], [-68.25816505499995, 10.572702833000108], [-68.25788703599994, 10.572612832000061], [-68.25779852399984, 10.572447591000127], [-68.25765402399998, 10.572177827000019], [-68.25724001399988, 10.572408837000125], [-68.25719105999991, 10.572452246000068], [-68.256825, 10.572776843000042], [-68.25629597599993, 10.57319086299998], [-68.25608996699987, 10.573604868000075], [-68.25673900099991, 10.574014883000132], [-68.25754803199999, 10.574172875999977], [-68.25812606499994, 10.574422883000182], [-68.25852208099991, 10.575016890000029], [-68.25859308399993, 10.57545290100012], [-68.25825007799989, 10.576209924000125], [-68.25813707699996, 10.57666893600009], [-68.25804608199996, 10.577081947000067], [-68.25772506899989, 10.577563960000077], [-68.25740304999988, 10.577794970000184], [-68.25671002799999, 10.577865973000087], [-68.25585498399994, 10.577753981000058], [-68.25483794199994, 10.577619983000034], [-68.25365989499988, 10.57750999100017], [-68.25211182899994, 10.577492002000156], [-68.25139579399996, 10.577494998000077], [-68.25065875999991, 10.57788701200019], [-68.24964272499994, 10.578051023000171], [-68.24875193099996, 10.57860848900009], [-68.24872068099995, 10.57862804500013], [-68.26907714899983, 10.579990709000072], [-68.28371360199998, 10.580970475000129], [-68.34699466899997, 10.585206517000131], [-68.38445258499996, 10.587713952000058], [-68.52010676499998, 10.596794655000053], [-68.52018446699998, 10.596799856000075], [-68.52573170799997, 10.596795825000186], [-68.52735577799996, 10.597136822000039], [-68.52791279399997, 10.596951823000097], [-68.52937385699994, 10.596558800000025], [-68.52951688399997, 10.59990788000016], [-68.5316519839999, 10.600476889000106], [-68.53288103099999, 10.600175869000054], [-68.53559413899995, 10.599114826000118], [-68.53638217699995, 10.598676812000122], [-68.5378652309999, 10.597572768000077], [-68.54118237299991, 10.598092766000093], [-68.54405949499994, 10.597971740000048], [-68.54549756099993, 10.598175741000091], [-68.54693461699998, 10.59759871600005], [-68.54827866099998, 10.596242676000145], [-68.54876669199996, 10.596952688999977], [-68.54918471399998, 10.597272691000171], [-68.5506017859999, 10.5987147190001], [-68.5519028519999, 10.60047775900017], [-68.55234387299998, 10.600522763000129], [-68.55556901299985, 10.601272763000054], [-68.55847013599998, 10.602137767000045], [-68.55998021299996, 10.603258785000037], [-68.55879917299995, 10.604637825000111], [-68.56181329099985, 10.604079793000096], [-68.56234631099989, 10.603551778000053], [-68.56357737799988, 10.604764799000122], [-68.56490042999991, 10.605151798000065], [-68.56566445899989, 10.60420877200005], [-68.56531544599989, 10.603269750000152], [-68.56614847499998, 10.601982714000087], [-68.56702849999988, 10.601177689000167], [-68.56846656299996, 10.60083066600015], [-68.56936958899996, 10.600025641000059], [-68.57004262499987, 10.59984063000013], [-68.57099265899996, 10.599173617000076], [-68.57217471099989, 10.598849597000083], [-68.57224571599988, 10.599468616000081], [-68.57222371499995, 10.600592635000055], [-68.57229572899996, 10.60180866700017], [-68.57382779899996, 10.60253868100017], [-68.57454683699996, 10.602536678000092], [-68.57480084499991, 10.601848656000186], [-68.57486883399997, 10.600678624000182], [-68.5756798729999, 10.600355611000168], [-68.57748994599996, 10.600557612000102], [-68.57788596699993, 10.601772636000078], [-68.57879101199995, 10.602297639000085], [-68.57937103899997, 10.601929632000122], [-68.58111111699998, 10.602200633000052], [-68.58231716499995, 10.60217462200012], [-68.58168811899992, 10.600341573000094], [-68.58170911299999, 10.59898753900012], [-68.58282115399999, 10.597906510000143], [-68.58330918499996, 10.598639523000145], [-68.58391321399989, 10.599464534999981], [-68.58419423299989, 10.6009545820001], [-68.58549429699997, 10.601456582000083], [-68.58572429699984, 10.600446557000055], [-68.58797439699993, 10.600601549000089], [-68.58797639999995, 10.60140457], [-68.58760538899998, 10.601680575000046], [-68.58851444599986, 10.604614642000058], [-68.5898354919999, 10.603740613000127], [-68.59101954699992, 10.604081613000119], [-68.59106655699998, 10.604654631000074], [-68.59282963299995, 10.60455861100013], [-68.5939896829999, 10.604946616000177], [-68.59508174099994, 10.60609063700008], [-68.59517273199992, 10.605218614000137], [-68.59598175099995, 10.603358571000115], [-68.59628477399991, 10.604229585999974], [-68.59681679399995, 10.60282854400009], [-68.59806884299991, 10.602688536000016], [-68.59913488299992, 10.601699508000081], [-68.60001490899998, 10.600871483000049], [-68.60087295599993, 10.600961480000137], [-68.60094495999994, 10.602543516000082], [-68.60238302599998, 10.602632505000088], [-68.6037453699999, 10.603489112000034], [-68.60380009399984, 10.603523521000113], [-68.60438111999986, 10.604095532000088], [-68.60470513899992, 10.604025536000165], [-68.60616618999995, 10.603678513000148], [-68.6060281909999, 10.60434353400018], [-68.60705024099997, 10.605465548000097], [-68.60802729599999, 10.60672458300013], [-68.60865331599985, 10.606838575000097], [-68.60976886599997, 10.606773266000118], [-68.60988336999992, 10.606766563], [-68.6103254009999, 10.607591589000094], [-68.61213547799991, 10.608504598000025], [-68.61304051999991, 10.608479594000073], [-68.61129943099985, 10.605482527], [-68.61136542899999, 10.605523525000024], [-68.61359252899996, 10.605656522000118], [-68.61482358099994, 10.606410532000154], [-68.61515059999982, 10.60776256500003], [-68.61563963899994, 10.608862587999965], [-68.61719269099996, 10.608124561000125], [-68.61756169699999, 10.606770525000172], [-68.61783770999995, 10.605783500000143], [-68.61904375699999, 10.605597481000132], [-68.62018181199988, 10.60600748100012], [-68.62053183199998, 10.60747452600009], [-68.6211428869999, 10.61229064000014], [-68.62116790299996, 10.613138668000147], [-68.62230695699998, 10.614604692000114], [-68.6226539619999, 10.614190686000143], [-68.62383501599999, 10.613086644000077], [-68.62432303599996, 10.61375065600015], [-68.62490406099982, 10.614139670000156], [-68.6259001069999, 10.61344864], [-68.6261321099999, 10.613126635000128], [-68.62675713199985, 10.612597614000094], [-68.62787117999994, 10.612961614000028], [-68.62780519399996, 10.614751671000079], [-68.62865223299997, 10.61500166400009], [-68.62873321799992, 10.61183658400006], [-68.6517982439999, 10.6186786130001], [-68.64915563499994, 10.630879780000043], [-68.63107436599984, 10.71436264900018], [-68.6216516209999, 10.757868321000046]]]}}]}