{
  "type": "FeatureCollection",
  "features": [
    {
      "type": "Feature",
      "properties": {
        "Pais": "Venezuela",
        "Estado": "Portuguesa",
        "Municipio": "Agua Blanca"
      },
      "geometry": {
        "type": "Polygon",
        "coordinates": [
          [
            [
              -69.07578112199991,
              9.685887620000074
            ],
            [
              -69.077232,
              9.68756
            ],
            [
              -69.08116701199998,
              9.69218925600012
            ],
            [
              -69.09332493999995,
              9.706492176000097
            ],
            [
              -69.09359,
              9.706804000000147
            ],
            [
              -69.09361877499992,
              9.706884068000022
            ],
            [
              -69.09365558299999,
              9.706830073000106
            ],
            [
              -69.09455460899994,
              9.705511039000044
            ],
            [
              -69.09552664099988,
              9.703285975000142
            ],
            [
              -69.10041582899993,
              9.699811865000072
            ],
            [
              -69.10267490899997,
              9.69886582900017
            ],
            [
              -69.10586004699991,
              9.698384793000173
            ],
            [
              -69.1089921709999,
              9.697768761000134
            ],
            [
              -69.12646777099997,
              9.691301089000035
            ],
            [
              -69.12908498599995,
              9.69033246500004
            ],
            [
              -69.1292055749999,
              9.690301332000047
            ],
            [
              -69.13185432799997,
              9.68961750000011
            ],
            [
              -69.14411060399993,
              9.686453282000116
            ],
            [
              -69.14854077999985,
              9.68419421200008
            ],
            [
              -69.15356798699997,
              9.683336152000152
            ],
            [
              -69.15652310099995,
              9.681853101000115
            ],
            [
              -69.15970623099997,
              9.68187808200014
            ],
            [
              -69.16295438099996,
              9.682314074000146
            ],
            [
              -69.16495045499994,
              9.68227506300019
            ],
            [
              -69.17654796099998,
              9.678756054000075
            ],
            [
              -69.176555,
              9.678708
            ],
            [
              -69.17675080599997,
              9.66435323800016
            ],
            [
              -69.176928,
              9.651363
            ],
            [
              -69.17706789599993,
              9.64558332700011
            ],
            [
              -69.1771,
              9.644257
            ],
            [
              -69.174704,
              9.645101
            ],
            [
              -69.173986,
              9.644922000000179
            ],
            [
              -69.172965,
              9.644494000000122
            ],
            [
              -69.172942,
              9.644495
            ],
            [
              -69.172479,
              9.644406000000117
            ],
            [
              -69.172316,
              9.64427
            ],
            [
              -69.170883,
              9.64425800000015
            ],
            [
              -69.17007599999988,
              9.644447000000127
            ],
            [
              -69.169888,
              9.644105
            ],
            [
              -69.169233,
              9.643261
            ],
            [
              -69.168669,
              9.642325
            ],
            [
              -69.16846285699984,
              9.642176269000117
            ],
            [
              -69.1681339999999,
              9.641939
            ],
            [
              -69.166855,
              9.641077
            ],
            [
              -69.165224,
              9.639713000000143
            ],
            [
              -69.164474,
              9.638549000000125
            ],
            [
              -69.163891,
              9.638026
            ],
            [
              -69.16207899999984,
              9.63703
            ],
            [
              -69.161731,
              9.63685
            ],
            [
              -69.161123,
              9.636097
            ],
            [
              -69.159518,
              9.634963
            ],
            [
              -69.157825,
              9.63433300000014
            ],
            [
              -69.155946,
              9.633498
            ],
            [
              -69.15404499999988,
              9.632893
            ],
            [
              -69.15346099999988,
              9.63221
            ],
            [
              -69.15262299999983,
              9.631528
            ],
            [
              -69.151564,
              9.62956300000019
            ],
            [
              -69.150308,
              9.62867800000015
            ],
            [
              -69.149959,
              9.628406
            ],
            [
              -69.148341,
              9.625849000000187
            ],
            [
              -69.148198,
              9.625414
            ],
            [
              -69.147533,
              9.623608
            ],
            [
              -69.147271,
              9.622715
            ],
            [
              -69.14581,
              9.622176
            ],
            [
              -69.144898,
              9.621081
            ],
            [
              -69.144406,
              9.620282
            ],
            [
              -69.14330699999988,
              9.61896
            ],
            [
              -69.1427,
              9.618254
            ],
            [
              -69.14109599999989,
              9.61718800000017
            ],
            [
              -69.13974,
              9.615501
            ],
            [
              -69.138559,
              9.615303000000154
            ],
            [
              -69.137796,
              9.615217000000143
            ],
            [
              -69.136644,
              9.615592000000106
            ],
            [
              -69.135505,
              9.614890000000116
            ],
            [
              -69.13469,
              9.614162
            ],
            [
              -69.133332,
              9.612292
            ],
            [
              -69.132257,
              9.610946
            ],
            [
              -69.131139,
              9.610060000000146
            ],
            [
              -69.131136,
              9.60967
            ],
            [
              -69.130575,
              9.609032000000184
            ],
            [
              -69.12934799999988,
              9.608766
            ],
            [
              -69.129449,
              9.60972900000013
            ],
            [
              -69.12892,
              9.609985000000165
            ],
            [
              -69.12834599999985,
              9.610333
            ],
            [
              -69.127122,
              9.610388000000114
            ],
            [
              -69.12647399999986,
              9.610324000000162
            ],
            [
              -69.125682,
              9.609687000000179
            ],
            [
              -69.124735,
              9.6097630000001
            ],
            [
              -69.124048,
              9.610387
            ],
            [
              -69.1233069999999,
              9.610324000000162
            ],
            [
              -69.123304,
              9.609934
            ],
            [
              -69.122881,
              9.609158
            ],
            [
              -69.122031,
              9.609737
            ],
            [
              -69.12122099999988,
              9.6096280000001
            ],
            [
              -69.12055,
              9.609519000000148
            ],
            [
              -69.11939199999989,
              9.609206
            ],
            [
              -69.117592,
              9.609403000000157
            ],
            [
              -69.1167339999999,
              9.609088
            ],
            [
              -69.115737,
              9.608774000000153
            ],
            [
              -69.114993,
              9.608275
            ],
            [
              -69.11391,
              9.608558
            ],
            [
              -69.112708,
              9.609730000000184
            ],
            [
              -69.111637,
              9.609004
            ],
            [
              -69.110305,
              9.60761500000018
            ],
            [
              -69.109676,
              9.607161
            ],
            [
              -69.108211,
              9.606301
            ],
            [
              -69.107207,
              9.605345000000113
            ],
            [
              -69.105196,
              9.603045
            ],
            [
              -69.105442,
              9.602103000000113
            ],
            [
              -69.10564099999982,
              9.601047000000108
            ],
            [
              -69.10475,
              9.599793
            ],
            [
              -69.103844,
              9.599387
            ],
            [
              -69.103132,
              9.597558000000106
            ],
            [
              -69.103765,
              9.595995
            ],
            [
              -69.1039459999999,
              9.595535
            ],
            [
              -69.103373,
              9.593613000000175
            ],
            [
              -69.103244,
              9.592147
            ],
            [
              -69.102474,
              9.591488
            ],
            [
              -69.10169799999989,
              9.59014100000013
            ],
            [
              -69.100645,
              9.588818000000117
            ],
            [
              -69.100204,
              9.588684
            ],
            [
              -69.099716,
              9.588366000000178
            ],
            [
              -69.098971,
              9.58789
            ],
            [
              -69.096893,
              9.585773
            ],
            [
              -69.09608,
              9.585481
            ],
            [
              -69.093811,
              9.585314
            ],
            [
              -69.09355,
              9.584537
            ],
            [
              -69.09298399999989,
              9.58339500000011
            ],
            [
              -69.09202999999985,
              9.582760000000121
            ],
            [
              -69.090769,
              9.581554
            ],
            [
              -69.090159,
              9.580618000000186
            ],
            [
              -69.08927299999982,
              9.579845
            ],
            [
              -69.088985,
              9.578747000000135
            ],
            [
              -69.08793,
              9.577219000000184
            ],
            [
              -69.08798499999983,
              9.575660000000141
            ],
            [
              -69.087982,
              9.575247
            ],
            [
              -69.08737,
              9.574174
            ],
            [
              -69.08656699999983,
              9.572323
            ],
            [
              -69.086517,
              9.571979
            ],
            [
              -69.085929,
              9.570883
            ],
            [
              -69.08463,
              9.57048
            ],
            [
              -69.084554,
              9.569793000000175
            ],
            [
              -69.085147,
              9.568849
            ],
            [
              -69.085255,
              9.568046
            ],
            [
              -69.0848309999999,
              9.567246000000125
            ],
            [
              -69.084137,
              9.567274000000111
            ],
            [
              -69.083393,
              9.566913000000113
            ],
            [
              -69.083667,
              9.566544000000135
            ],
            [
              -69.08382499999988,
              9.566130000000157
            ],
            [
              -69.083674,
              9.564802
            ],
            [
              -69.08348,
              9.563749000000143
            ],
            [
              -69.08260799999982,
              9.56199
            ],
            [
              -69.0806,
              9.559987
            ],
            [
              -69.0798309999999,
              9.559396
            ],
            [
              -69.079751,
              9.558228
            ],
            [
              -69.079225,
              9.556398000000115
            ],
            [
              -69.07857199999984,
              9.555806000000189
            ],
            [
              -69.07740599999988,
              9.5547830000001
            ],
            [
              -69.076791,
              9.553252
            ],
            [
              -69.076687,
              9.55206
            ],
            [
              -69.07694999999984,
              9.550385000000176
            ],
            [
              -69.07699199999985,
              9.549995
            ],
            [
              -69.077398,
              9.548823
            ],
            [
              -69.076895,
              9.54692400000016
            ],
            [
              -69.076606,
              9.545642000000157
            ],
            [
              -69.07624499999986,
              9.544109000000105
            ],
            [
              -69.07544799999988,
              9.542991
            ],
            [
              -69.075481,
              9.541592
            ],
            [
              -69.075795,
              9.540443
            ],
            [
              -69.075835,
              9.539755000000127
            ],
            [
              -69.076442,
              9.537894000000165
            ],
            [
              -69.076084,
              9.536682
            ],
            [
              -69.075685,
              9.53608800000012
            ],
            [
              -69.074637,
              9.535225000000139
            ],
            [
              -69.074429,
              9.535272
            ],
            [
              -69.072862,
              9.535880000000134
            ],
            [
              -69.070433,
              9.535943
            ],
            [
              -69.068561,
              9.536048000000164
            ],
            [
              -69.066681,
              9.535396
            ],
            [
              -69.06621499999989,
              9.535010000000113
            ],
            [
              -69.06542599999989,
              9.534695000000113
            ],
            [
              -69.063618,
              9.53443300000015
            ],
            [
              -69.062319,
              9.534029
            ],
            [
              -69.061594,
              9.533186000000171
            ],
            [
              -69.061101,
              9.532342000000142
            ],
            [
              -69.060466,
              9.53126900000018
            ],
            [
              -69.06015999999983,
              9.530675
            ],
            [
              -69.059849,
              9.529531
            ],
            [
              -69.05954,
              9.528547
            ],
            [
              -69.059805,
              9.527170000000126
            ],
            [
              -69.05962899999986,
              9.525612
            ],
            [
              -69.059657,
              9.523595000000114
            ],
            [
              -69.059514,
              9.520593
            ],
            [
              -69.059564,
              9.518461
            ],
            [
              -69.059478,
              9.516696
            ],
            [
              -69.05931,
              9.515987000000166
            ],
            [
              -69.059334,
              9.513579
            ],
            [
              -69.0592099999999,
              9.512663
            ],
            [
              -69.05896599999988,
              9.511267
            ],
            [
              -69.05842299999989,
              9.509987
            ],
            [
              -69.05732,
              9.50827500000014
            ],
            [
              -69.057016,
              9.507934000000148
            ],
            [
              -69.056427,
              9.506723000000136
            ],
            [
              -69.05621599999989,
              9.506381
            ],
            [
              -69.055814,
              9.505466
            ],
            [
              -69.05551,
              9.505079
            ],
            [
              -69.054568,
              9.505796
            ],
            [
              -69.054221,
              9.505799
            ],
            [
              -69.05405499999989,
              9.505318
            ],
            [
              -69.053866,
              9.504861
            ],
            [
              -69.053126,
              9.50493500000016
            ],
            [
              -69.052778,
              9.504823000000158
            ],
            [
              -69.052445,
              9.503771000000143
            ],
            [
              -69.051911,
              9.5035
            ],
            [
              -69.051541,
              9.503525
            ],
            [
              -69.05063299999989,
              9.503105000000119
            ],
            [
              -69.047542,
              9.507198000000187
            ],
            [
              -69.024933,
              9.51581
            ],
            [
              -69.004341,
              9.523689
            ],
            [
              -68.99553099999986,
              9.527020000000164
            ],
            [
              -68.986148,
              9.530594000000121
            ],
            [
              -68.972322,
              9.535819
            ],
            [
              -68.959418,
              9.536765000000173
            ],
            [
              -68.952077,
              9.537315
            ],
            [
              -68.958305,
              9.55078
            ],
            [
              -68.96354,
              9.548642
            ],
            [
              -68.96462299999985,
              9.548376
            ],
            [
              -68.965478,
              9.548274000000106
            ],
            [
              -68.96742299999988,
              9.550176000000135
            ],
            [
              -68.973946,
              9.554593000000182
            ],
            [
              -68.985092,
              9.562228
            ],
            [
              -68.990048,
              9.565608000000111
            ],
            [
              -68.997106,
              9.57426
            ],
            [
              -68.987628,
              9.588230000000124
            ],
            [
              -68.994337,
              9.597374000000173
            ],
            [
              -68.995097,
              9.59841
            ],
            [
              -69.002236,
              9.607404000000145
            ],
            [
              -69.008856,
              9.607756000000109
            ],
            [
              -69.01535399999989,
              9.609049
            ],
            [
              -69.01859,
              9.609982
            ],
            [
              -69.022083,
              9.610458
            ],
            [
              -69.024646,
              9.611755
            ],
            [
              -69.029627,
              9.61561200000017
            ],
            [
              -69.03197299999988,
              9.618676
            ],
            [
              -69.025208,
              9.628583000000106
            ],
            [
              -69.02548,
              9.628885
            ],
            [
              -69.02717899999988,
              9.630771000000152
            ],
            [
              -69.048326,
              9.654241000000127
            ],
            [
              -69.07578112199991,
              9.685887620000074
            ]
          ]
        ]
      }
    }
  ]
}