{
  "type": "FeatureCollection",
  "features": [
    {
      "type": "Feature",
      "properties": {
        "Pais": "Venezuela",
        "Estado": "Sucre",
        "Municipio": "Andrés Eloy Blanco",
        "Parroquia": "Mariño"
      },
      "geometry": {
        "type": "Polygon",
        "coordinates": [
          [
            [
              -63.46009850099995,
              10.66049391200005
            ],
            [
              -63.46041951799998,
              10.660680916000047
            ],
            [
              -63.46093053599998,
              10.660804913999982
            ],
            [
              -63.46182458299995,
              10.660988912000107
            ],
            [
              -63.462591612999915,
              10.661173915000063
            ],
            [
              -63.46316864299996,
              10.661612928000068
            ],
            [
              -63.463374656999974,
              10.661812929000178
            ],
            [
              -63.463523658999975,
              10.661979937000126
            ],
            [
              -63.46374767299994,
              10.662303950000023
            ],
            [
              -63.46387867899995,
              10.662934962
            ],
            [
              -63.46380668699999,
              10.663236969000081
            ],
            [
              -63.463850690999834,
              10.663404972000023
            ],
            [
              -63.46402069499993,
              10.66348797300003
            ],
            [
              -63.46421170199994,
              10.663465976999987
            ],
            [
              -63.464391708999926,
              10.663373975000013
            ],
            [
              -63.46470872599997,
              10.662992960000054
            ],
            [
              -63.464960725999845,
              10.662422942000092
            ],
            [
              -63.465148736999936,
              10.661853929000188
            ],
            [
              -63.46520974199984,
              10.661348904000079
            ],
            [
              -63.46533374099988,
              10.660716885999989
            ],
            [
              -63.4658417629999,
              10.66014587300009
            ],
            [
              -63.466474779999885,
              10.659383844
            ],
            [
              -63.46691880299994,
              10.658876830000168
            ],
            [
              -63.46710680199993,
              10.658243807000076
            ],
            [
              -63.46729481299997,
              10.657548783000152
            ],
            [
              -63.467418811999835,
              10.65704277600014
            ],
            [
              -63.467223805999936,
              10.656412758000045
            ],
            [
              -63.46709379299995,
              10.655908739000154
            ],
            [
              -63.46709078699996,
              10.655466732000093
            ],
            [
              -63.467408797999894,
              10.655274722
            ],
            [
              -63.467663815999856,
              10.655273727
            ],
            [
              -63.46785382699994,
              10.654956712000171
            ],
            [
              -63.46791382699985,
              10.654388693000158
            ],
            [
              -63.46790881999988,
              10.653504666000117
            ],
            [
              -63.46790681899995,
              10.653125664000186
            ],
            [
              -63.46803281799998,
              10.652809643000069
            ],
            [
              -63.468351835999954,
              10.652807643000074
            ],
            [
              -63.468798853999886,
              10.652804648000085
            ],
            [
              -63.46962789499992,
              10.65273764200009
            ],
            [
              -63.47000990599997,
              10.652608637000128
            ],
            [
              -63.470263916999954,
              10.65229162200012
            ],
            [
              -63.47026191699996,
              10.651912608000032
            ],
            [
              -63.470321915999875,
              10.651344589000189
            ],
            [
              -63.469999891999976,
              10.650777577000156
            ],
            [
              -63.469742885999835,
              10.65046356800002
            ],
            [
              -63.46973987999996,
              10.65008456600009
            ],
            [
              -63.46999389099989,
              10.649767551000082
            ],
            [
              -63.47050391499994,
              10.649764544999982
            ],
            [
              -63.47082192599993,
              10.64957354000012
            ],
            [
              -63.47088493099983,
              10.649383530000023
            ],
            [
              -63.47088293099995,
              10.649005521000106
            ],
            [
              -63.470944930999906,
              10.648752518000038
            ],
            [
              -63.47132794799995,
              10.648623513000075
            ],
            [
              -63.47209297699993,
              10.648556506000148
            ],
            [
              -63.47458208899991,
              10.648542492000047
            ],
            [
              -63.47490011299993,
              10.64855148900017
            ],
            [
              -63.47598815899994,
              10.64884949300017
            ],
            [
              -63.47679019299994,
              10.649064496999983
            ],
            [
              -63.47758723599998,
              10.649408504000121
            ],
            [
              -63.47849228299998,
              10.649873507000166
            ],
            [
              -63.47912431299994,
              10.650284517000046
            ],
            [
              -63.479828348999945,
              10.650658525000097
            ],
            [
              -63.47995935599994,
              10.651226543000178
            ],
            [
              -63.48004936099994,
              10.651480551000077
            ],
            [
              -63.480262375999985,
              10.651625552000041
            ],
            [
              -63.48047238499993,
              10.651602551000053
            ],
            [
              -63.480915402999926,
              10.651094532000172
            ],
            [
              -63.48129541399993,
              10.650524512000118
            ],
            [
              -63.481505421999884,
              10.6502125
            ],
            [
              -63.48167443099993,
              10.650044495999964
            ],
            [
              -63.48193044299995,
              10.65001548700019
            ],
            [
              -63.48231445399995,
              10.650202491000186
            ],
            [
              -63.482826477999936,
              10.650326501000166
            ],
            [
              -63.48327250099999,
              10.6501974950001
            ],
            [
              -63.48352550699997,
              10.649943486000154
            ],
            [
              -63.48410053599986,
              10.649939474000178
            ],
            [
              -63.48454755299997,
              10.64993747300008
            ],
            [
              -63.48512158899996,
              10.649997472
            ],
            [
              -63.48563260699996,
              10.650057471000082
            ],
            [
              -63.48633664199997,
              10.650369478000073
            ],
            [
              -63.48684967199995,
              10.650744493000104
            ],
            [
              -63.48755470099991,
              10.651182500000175
            ],
            [
              -63.488643754999885,
              10.651871509000102
            ],
            [
              -63.48934878499995,
              10.652435527000023
            ],
            [
              -63.490180832999954,
              10.652872528000046
            ],
            [
              -63.490501850999976,
              10.65324954200014
            ],
            [
              -63.49082486899994,
              10.653815548000068
            ],
            [
              -63.490828869999916,
              10.654510571000117
            ],
            [
              -63.490831876999835,
              10.655078589000027
            ],
            [
              -63.490782872999944,
              10.65525759000019
            ],
            [
              -63.49084687399983,
              10.655383600000164
            ],
            [
              -63.4910258889999,
              10.655456597000068
            ],
            [
              -63.49159991299996,
              10.655452597000078
            ],
            [
              -63.49287597099993,
              10.655382584000051
            ],
            [
              -63.49370800599996,
              10.655630591999966
            ],
            [
              -63.493965023999976,
              10.655944601000101
            ],
            [
              -63.49441204199985,
              10.656067594000092
            ],
            [
              -63.49479405399984,
              10.655939594000131
            ],
            [
              -63.49543008899997,
              10.655557573000067
            ],
            [
              -63.49600211099994,
              10.655048560000125
            ],
            [
              -63.49663813399991,
              10.654603544999986
            ],
            [
              -63.497019150999904,
              10.654348530000107
            ],
            [
              -63.49706847599998,
              10.654336054000169
            ],
            [
              -63.496954,
              10.654321000000152
            ],
            [
              -63.49681567799996,
              10.654291411000088
            ],
            [
              -63.49663722699995,
              10.65425323800008
            ],
            [
              -63.49637899999988,
              10.654198000000122
            ],
            [
              -63.495738,
              10.653697
            ],
            [
              -63.49535,
              10.652941
            ],
            [
              -63.494709999999884,
              10.65262900000016
            ],
            [
              -63.493531,
              10.652859000000149
            ],
            [
              -63.488956,
              10.650153000000103
            ],
            [
              -63.488944,
              10.642918
            ],
            [
              -63.48643746399995,
              10.639388140000051
            ],
            [
              -63.482529,
              10.633884
            ],
            [
              -63.483907871999975,
              10.629180327000029
            ],
            [
              -63.488895,
              10.61216800000011
            ],
            [
              -63.45159,
              10.522317
            ],
            [
              -63.451587,
              10.522311
            ],
            [
              -63.43935799999986,
              10.492858
            ],
            [
              -63.407308,
              10.442253
            ],
            [
              -63.407855,
              10.429198
            ],
            [
              -63.391291,
              10.420567
            ],
            [
              -63.38808,
              10.409718000000169
            ],
            [
              -63.320311,
              10.364812
            ],
            [
              -63.319935,
              10.36665900000014
            ],
            [
              -63.318433,
              10.368506
            ],
            [
              -63.316179,
              10.369984000000102
            ],
            [
              -63.313174,
              10.371093
            ],
            [
              -63.311296,
              10.369245
            ],
            [
              -63.31054399999988,
              10.368506
            ],
            [
              -63.306412,
              10.367768
            ],
            [
              -63.304533999999876,
              10.369984000000102
            ],
            [
              -63.301639,
              10.365556
            ],
            [
              -63.298899,
              10.365551
            ],
            [
              -63.297772,
              10.36592
            ],
            [
              -63.296645,
              10.367029000000173
            ],
            [
              -63.295518,
              10.367029000000173
            ],
            [
              -63.294391,
              10.365551
            ],
            [
              -63.292137,
              10.364073
            ],
            [
              -63.2906339999999,
              10.364442
            ],
            [
              -63.28988299999986,
              10.36592
            ],
            [
              -63.288756,
              10.367029000000173
            ],
            [
              -63.288004999999885,
              10.367768
            ],
            [
              -63.285375,
              10.368506
            ],
            [
              -63.28424899999982,
              10.368876
            ],
            [
              -63.28237,
              10.368876
            ],
            [
              -63.281243,
              10.368876
            ],
            [
              -63.279741,
              10.368876
            ],
            [
              -63.27711,
              10.369984000000102
            ],
            [
              -63.275983,
              10.371832
            ],
            [
              -63.27372999999989,
              10.373310000000117
            ],
            [
              -63.271851,
              10.373310000000117
            ],
            [
              -63.26997299999988,
              10.371832
            ],
            [
              -63.26659199999983,
              10.371832
            ],
            [
              -63.263963,
              10.372201000000189
            ],
            [
              -63.26246,
              10.37294
            ],
            [
              -63.260582,
              10.371832
            ],
            [
              -63.257953,
              10.370354000000134
            ],
            [
              -63.25231699999989,
              10.370354000000134
            ],
            [
              -63.270197,
              10.379088
            ],
            [
              -63.372554,
              10.414258000000132
            ],
            [
              -63.37716599999982,
              10.451334
            ],
            [
              -63.40462799999989,
              10.489287
            ],
            [
              -63.381814,
              10.51554300000015
            ],
            [
              -63.383196,
              10.517387000000156
            ],
            [
              -63.39845499999984,
              10.532314
            ],
            [
              -63.407324,
              10.543741
            ],
            [
              -63.419811,
              10.560660000000155
            ],
            [
              -63.431325,
              10.576390000000117
            ],
            [
              -63.43755,
              10.583512
            ],
            [
              -63.438969,
              10.603504
            ],
            [
              -63.44098699999989,
              10.632339000000172
            ],
            [
              -63.441048,
              10.645817000000136
            ],
            [
              -63.441406,
              10.646606
            ],
            [
              -63.441395223999905,
              10.646865508000019
            ],
            [
              -63.441292955999984,
              10.649328216000072
            ],
            [
              -63.4412265659999,
              10.65092695400017
            ],
            [
              -63.44117730699992,
              10.652113156999974
            ],
            [
              -63.44115482199993,
              10.652586221000035
            ],
            [
              -63.44122459199991,
              10.65258178400012
            ],
            [
              -63.44199163299999,
              10.652766788000179
            ],
            [
              -63.442949668999916,
              10.653013789999989
            ],
            [
              -63.44332269499989,
              10.653071792
            ],
            [
              -63.44378171699992,
              10.65338779800004
            ],
            [
              -63.444231739999964,
              10.653826811000044
            ],
            [
              -63.44455875299991,
              10.65403080800013
            ],
            [
              -63.444744758999946,
              10.654329823000069
            ],
            [
              -63.44479576499998,
              10.65470083100007
            ],
            [
              -63.44474877099992,
              10.654960835000054
            ],
            [
              -63.44477776899993,
              10.65518284400008
            ],
            [
              -63.44473576599984,
              10.655413852000152
            ],
            [
              -63.444624760999886,
              10.655655858000102
            ],
            [
              -63.44405273799998,
              10.65616387800003
            ],
            [
              -63.44374473099998,
              10.656342880000125
            ],
            [
              -63.443596722999985,
              10.656469885000035
            ],
            [
              -63.44354471499997,
              10.656608892000122
            ],
            [
              -63.4435997299999,
              10.65693089600012
            ],
            [
              -63.443558719999885,
              10.65714090300014
            ],
            [
              -63.44342172199998,
              10.657303916000046
            ],
            [
              -63.442988695999986,
              10.657605925999974
            ],
            [
              -63.44291369899997,
              10.657811923000054
            ],
            [
              -63.44272469399988,
              10.658317943000043
            ],
            [
              -63.44272669399987,
              10.658570958000098
            ],
            [
              -63.44317471799991,
              10.658757949000176
            ],
            [
              -63.44387574799998,
              10.658690943000124
            ],
            [
              -63.44444977099988,
              10.658560944000158
            ],
            [
              -63.444960799999876,
              10.658621936000031
            ],
            [
              -63.44534481199997,
              10.658745947000057
            ],
            [
              -63.445792835999896,
              10.658995944000083
            ],
            [
              -63.446113853999975,
              10.659309952000115
            ],
            [
              -63.44624485999998,
              10.659876965000024
            ],
            [
              -63.44643887199999,
              10.660317978000023
            ],
            [
              -63.44682389099995,
              10.660757997000132
            ],
            [
              -63.44682689799993,
              10.661326004000102
            ],
            [
              -63.44702090999982,
              10.661704023000027
            ],
            [
              -63.447467927999924,
              10.661764023000046
            ],
            [
              -63.44793874499999,
              10.661916050000116
            ],
            [
              -63.44804395099999,
              10.661950021000166
            ],
            [
              -63.448554980999916,
              10.662074018
            ],
            [
              -63.44899999799998,
              10.66181901400006
            ],
            [
              -63.449445014999924,
              10.661436994000098
            ],
            [
              -63.44982603199992,
              10.661055979000082
            ],
            [
              -63.45027104899998,
              10.660737970000127
            ],
            [
              -63.45097308499999,
              10.660860973000126
            ],
            [
              -63.45129410199996,
              10.661110983000185
            ],
            [
              -63.45174311999989,
              10.661487984000019
            ],
            [
              -63.45206313299991,
              10.661737994000134
            ],
            [
              -63.452831179999976,
              10.662112995000143
            ],
            [
              -63.453214197999955,
              10.662110994000045
            ],
            [
              -63.453597214999945,
              10.66204499500003
            ],
            [
              -63.453851214999986,
              10.661790985000152
            ],
            [
              -63.453913225999884,
              10.661538975000099
            ],
            [
              -63.45378321399994,
              10.661096967999981
            ],
            [
              -63.45346120099998,
              10.660530950000066
            ],
            [
              -63.453713199999925,
              10.659960931000057
            ],
            [
              -63.45409522299991,
              10.659769925999967
            ],
            [
              -63.45447723599983,
              10.659767925999972
            ],
            [
              -63.45485925899982,
              10.659575916000108
            ],
            [
              -63.45530627599993,
              10.65957391500001
            ],
            [
              -63.45588130599998,
              10.659633913
            ],
            [
              -63.45645732999998,
              10.659945922000134
            ],
            [
              -63.45658633599999,
              10.660134926000183
            ],
            [
              -63.45658833599998,
              10.660449929000038
            ],
            [
              -63.45646133099996,
              10.660703937999983
            ],
            [
              -63.45646433699994,
              10.661144953000132
            ],
            [
              -63.456595343999936,
              10.661712970000167
            ],
            [
              -63.45717237399998,
              10.662214977000076
            ],
            [
              -63.45761939199991,
              10.662274976000106
            ],
            [
              -63.45793740299996,
              10.662020966000057
            ],
            [
              -63.45825542599988,
              10.661766956
            ],
            [
              -63.458573436999984,
              10.66163895699998
            ],
            [
              -63.4587624429999,
              10.661258936000081
            ],
            [
              -63.45888744799987,
              10.660815923000087
            ],
            [
              -63.45933246499993,
              10.660434920000114
            ],
            [
              -63.45977948199993,
              10.660431914000071
            ],
            [
              -63.46009850099995,
              10.66049391200005
            ]
          ]
        ]
      }
    },
    {
      "type": "Feature",
      "properties": {
        "Pais": "Venezuela",
        "Estado": "Sucre",
        "Municipio": "Andrés Eloy Blanco",
        "Parroquia": "Romulo Gallegos"
      },
      "geometry": {
        "type": "Polygon",
        "coordinates": [
          [
            [
              -63.271851,
              10.373310000000117
            ],
            [
              -63.27372999999989,
              10.373310000000117
            ],
            [
              -63.275983,
              10.371832
            ],
            [
              -63.27711,
              10.369984000000102
            ],
            [
              -63.279741,
              10.368876
            ],
            [
              -63.281243,
              10.368876
            ],
            [
              -63.28237,
              10.368876
            ],
            [
              -63.28424899999982,
              10.368876
            ],
            [
              -63.285375,
              10.368506
            ],
            [
              -63.288004999999885,
              10.367768
            ],
            [
              -63.288756,
              10.367029000000173
            ],
            [
              -63.28988299999986,
              10.36592
            ],
            [
              -63.2906339999999,
              10.364442
            ],
            [
              -63.292137,
              10.364073
            ],
            [
              -63.294391,
              10.365551
            ],
            [
              -63.295518,
              10.367029000000173
            ],
            [
              -63.296645,
              10.367029000000173
            ],
            [
              -63.297772,
              10.36592
            ],
            [
              -63.298899,
              10.365551
            ],
            [
              -63.301639,
              10.365556
            ],
            [
              -63.304533999999876,
              10.369984000000102
            ],
            [
              -63.306412,
              10.367768
            ],
            [
              -63.31054399999988,
              10.368506
            ],
            [
              -63.311296,
              10.369245
            ],
            [
              -63.313174,
              10.371093
            ],
            [
              -63.316179,
              10.369984000000102
            ],
            [
              -63.318433,
              10.368506
            ],
            [
              -63.319935,
              10.36665900000014
            ],
            [
              -63.320311,
              10.364812
            ],
            [
              -63.322565,
              10.362595000000113
            ],
            [
              -63.32669799999985,
              10.362595000000113
            ],
            [
              -63.328952,
              10.362225
            ],
            [
              -63.3300789999999,
              10.362225
            ],
            [
              -63.331581,
              10.361487000000125
            ],
            [
              -63.33346,
              10.360378
            ],
            [
              -63.334586,
              10.35890000000012
            ],
            [
              -63.336465,
              10.357422
            ],
            [
              -63.33947,
              10.356314
            ],
            [
              -63.340972,
              10.356314
            ],
            [
              -63.341724,
              10.356683
            ],
            [
              -63.342475,
              10.357792
            ],
            [
              -63.34397799999988,
              10.357792
            ],
            [
              -63.348486,
              10.355204000000185
            ],
            [
              -63.349989,
              10.354096
            ],
            [
              -63.357126,
              10.352988000000153
            ],
            [
              -63.358253,
              10.351879
            ],
            [
              -63.35938,
              10.350771
            ],
            [
              -63.360882,
              10.349662000000137
            ],
            [
              -63.36200899999983,
              10.348554
            ],
            [
              -63.363511999999844,
              10.348185000000115
            ],
            [
              -63.36764399999987,
              10.348185000000115
            ],
            [
              -63.369899,
              10.348185000000115
            ],
            [
              -63.371401,
              10.34929300000016
            ],
            [
              -63.374782,
              10.350771
            ],
            [
              -63.37666,
              10.35114
            ],
            [
              -63.378163,
              10.350032
            ],
            [
              -63.378914,
              10.348923
            ],
            [
              -63.37966499999982,
              10.347446000000105
            ],
            [
              -63.385675999999876,
              10.346707
            ],
            [
              -63.389432,
              10.345968
            ],
            [
              -63.397697,
              10.345968
            ],
            [
              -63.401829,
              10.342273
            ],
            [
              -63.40483399999988,
              10.34042600000015
            ],
            [
              -63.406713,
              10.34042600000015
            ],
            [
              -63.408215,
              10.34042600000015
            ],
            [
              -63.410093,
              10.338948
            ],
            [
              -63.41122,
              10.337470000000167
            ],
            [
              -63.411972,
              10.336361
            ],
            [
              -63.413474,
              10.335622
            ],
            [
              -63.416105,
              10.334884
            ],
            [
              -63.418359,
              10.334884
            ],
            [
              -63.420611999999835,
              10.334884
            ],
            [
              -63.42173899999989,
              10.334514000000183
            ],
            [
              -63.42399299999988,
              10.333405
            ],
            [
              -63.42511999999988,
              10.332666
            ],
            [
              -63.4288,
              10.330603
            ],
            [
              -63.429222,
              10.329472
            ],
            [
              -63.430781,
              10.328302
            ],
            [
              -63.433768,
              10.327776
            ],
            [
              -63.435591,
              10.327129
            ],
            [
              -63.437208,
              10.326646
            ],
            [
              -63.43940591899991,
              10.325506098000062
            ],
            [
              -63.441261,
              10.324544
            ],
            [
              -63.442008,
              10.326139000000182
            ],
            [
              -63.447053,
              10.326454000000126
            ],
            [
              -63.450314999999875,
              10.325718000000165
            ],
            [
              -63.45251599999989,
              10.325433
            ],
            [
              -63.45368499999989,
              10.323213
            ],
            [
              -63.456022693999955,
              10.321967467000093
            ],
            [
              -63.456078,
              10.321938
            ],
            [
              -63.45866060199984,
              10.32078655000015
            ],
            [
              -63.45894183799993,
              10.320661160999975
            ],
            [
              -63.459005,
              10.320633
            ],
            [
              -63.459065904999875,
              10.320522537999977
            ],
            [
              -63.45899456999996,
              10.318429178000144
            ],
            [
              -63.458561544999895,
              10.316691128000059
            ],
            [
              -63.458230528999934,
              10.315410091000047
            ],
            [
              -63.457423478999885,
              10.314691079000056
            ],
            [
              -63.457944497999904,
              10.311877001000084
            ],
            [
              -63.45760047099998,
              10.309976943000095
            ],
            [
              -63.457495450999886,
              10.308346903000029
            ],
            [
              -63.45725943299988,
              10.307583875000148
            ],
            [
              -63.45718287599988,
              10.307519969000168
            ],
            [
              -63.45470530499995,
              10.305451839000114
            ],
            [
              -63.451697158999934,
              10.303383791999977
            ],
            [
              -63.448717010999985,
              10.300262723000117
            ],
            [
              -63.44791495599998,
              10.298167668000076
            ],
            [
              -63.44730291899998,
              10.294938573000138
            ],
            [
              -63.44710489699992,
              10.292107494000106
            ],
            [
              -63.44708187399988,
              10.290206441000123
            ],
            [
              -63.446042826999985,
              10.288762406999979
            ],
            [
              -63.42726596699998,
              10.288501497000084
            ],
            [
              -63.42726495699998,
              10.287597473000062
            ],
            [
              -63.41145323699993,
              10.287965561000135
            ],
            [
              -63.41283392599985,
              10.285276440000132
            ],
            [
              -63.41939519199997,
              10.272497282000074
            ],
            [
              -63.42775701599993,
              10.256211240000084
            ],
            [
              -63.428195832999904,
              10.255356560999985
            ],
            [
              -63.42743480099989,
              10.25546356100017
            ],
            [
              -63.427390566999975,
              10.255469803000153
            ],
            [
              -63.40123562399998,
              10.259160807000171
            ],
            [
              -63.3883289289999,
              10.239016306000053
            ],
            [
              -63.35462541199996,
              10.24449663900009
            ],
            [
              -63.33567537599993,
              10.21260383800012
            ],
            [
              -63.317282538999905,
              10.21255392500018
            ],
            [
              -63.287144152999986,
              10.211737069000094
            ],
            [
              -63.25651669999991,
              10.202397955000094
            ],
            [
              -63.25534458899995,
              10.191508657999975
            ],
            [
              -63.223507136999956,
              10.191638831000034
            ],
            [
              -63.21212546499987,
              10.16275007500019
            ],
            [
              -63.19594571499988,
              10.162020134000102
            ],
            [
              -63.19578488899998,
              10.161637682000105
            ],
            [
              -63.18838427299988,
              10.144038660000035
            ],
            [
              -63.185273148999954,
              10.146293744000104
            ],
            [
              -63.18397409699986,
              10.147757798000043
            ],
            [
              -63.18255303899997,
              10.14890183600005
            ],
            [
              -63.18014893999998,
              10.150885903000187
            ],
            [
              -63.17869487399997,
              10.151387920000047
            ],
            [
              -63.17786683999992,
              10.151858939000022
            ],
            [
              -63.17645978799993,
              10.153829
            ],
            [
              -63.17451470699996,
              10.155554067000025
            ],
            [
              -63.17224460199998,
              10.157238125000106
            ],
            [
              -63.16990950899992,
              10.157821150000132
            ],
            [
              -63.16714638299993,
              10.15916820000001
            ],
            [
              -63.16492628099991,
              10.159681230000047
            ],
            [
              -63.16256718199992,
              10.160218254000029
            ],
            [
              -63.16050508099994,
              10.160477275000062
            ],
            [
              -63.15908002399988,
              10.161299297000085
            ],
            [
              -63.157408944999986,
              10.161346312000148
            ],
            [
              -63.15606289699991,
              10.162741354000104
            ],
            [
              -63.153556795999975,
              10.165690452000035
            ],
            [
              -63.15291178099994,
              10.167397502000028
            ],
            [
              -63.15243776499989,
              10.16960657200002
            ],
            [
              -63.15124272299988,
              10.171803643000032
            ],
            [
              -63.15046769999998,
              10.174085713000181
            ],
            [
              -63.14912765099996,
              10.175939767000102
            ],
            [
              -63.14871063099997,
              10.177390809000087
            ],
            [
              -63.148787648999985,
              10.179271865000146
            ],
            [
              -63.14645754799989,
              10.18015290000011
            ],
            [
              -63.1463675519999,
              10.181737945000066
            ],
            [
              -63.14707759299995,
              10.18399900500009
            ],
            [
              -63.147660631999884,
              10.18699709200007
            ],
            [
              -63.14797465899994,
              10.189218149000112
            ],
            [
              -63.14742265199993,
              10.190924205000044
            ],
            [
              -63.146868633999986,
              10.192560244000163
            ],
            [
              -63.145305561999976,
              10.193523284000037
            ],
            [
              -63.14404452199983,
              10.195881357000019
            ],
            [
              -63.142876469999976,
              10.196861388000059
            ],
            [
              -63.14165841999994,
              10.197635422000133
            ],
            [
              -63.140988392999986,
              10.199250471000084
            ],
            [
              -63.13991334999997,
              10.20025250800012
            ],
            [
              -63.13922832299994,
              10.200927526000044
            ],
            [
              -63.13930334199995,
              10.202692575000128
            ],
            [
              -63.139050330999964,
              10.204302620000021
            ],
            [
              -63.138832338999975,
              10.20655468600006
            ],
            [
              -63.13886434899996,
              10.208549738999977
            ],
            [
              -63.13828333999999,
              10.211379829
            ],
            [
              -63.13761531199998,
              10.21313387300006
            ],
            [
              -63.13506620599992,
              10.214843937000126
            ],
            [
              -63.133460137999975,
              10.215989986000181
            ],
            [
              -63.13220508799998,
              10.217362027000092
            ],
            [
              -63.131830082999954,
              10.218560066
            ],
            [
              -63.13149606299993,
              10.219459089000054
            ],
            [
              -63.131386070999895,
              10.221251137000024
            ],
            [
              -63.13045603499995,
              10.22254818000016
            ],
            [
              -63.13105806899995,
              10.223940220000031
            ],
            [
              -63.129304,
              10.224538249000034
            ],
            [
              -63.127997937999965,
              10.224212243000068
            ],
            [
              -63.1269658839999,
              10.22351522700012
            ],
            [
              -63.12596283899995,
              10.223253230000012
            ],
            [
              -63.124261755999896,
              10.222864221000066
            ],
            [
              -63.12312769199997,
              10.221686198000043
            ],
            [
              -63.12106360299998,
              10.221784206000166
            ],
            [
              -63.11964853499995,
              10.221849217000113
            ],
            [
              -63.11829447199989,
              10.221409215000108
            ],
            [
              -63.11816045099994,
              10.21884114200003
            ],
            [
              -63.118160790999866,
              10.218837636999979
            ],
            [
              -63.11801382599998,
              10.219002792000083
            ],
            [
              -63.11787814699994,
              10.219318348000058
            ],
            [
              -63.11776562099993,
              10.219580055000108
            ],
            [
              -63.116775,
              10.221884
            ],
            [
              -63.115005922999956,
              10.22436148100013
            ],
            [
              -63.114028,
              10.225731
            ],
            [
              -63.111187,
              10.22811
            ],
            [
              -63.10851,
              10.22908800000016
            ],
            [
              -63.10192599999988,
              10.226816
            ],
            [
              -63.098685,
              10.227287
            ],
            [
              -63.09687599999984,
              10.227550000000122
            ],
            [
              -63.09554523099996,
              10.229243408000059
            ],
            [
              -63.094032,
              10.231169
            ],
            [
              -63.093977,
              10.234956
            ],
            [
              -63.094391,
              10.237566000000129
            ],
            [
              -63.096519,
              10.239878000000147
            ],
            [
              -63.098819,
              10.242829
            ],
            [
              -63.10253499999982,
              10.244384
            ],
            [
              -63.105688,
              10.245533000000137
            ],
            [
              -63.110118999999884,
              10.246711
            ],
            [
              -63.111857,
              10.247949
            ],
            [
              -63.113034,
              10.250388
            ],
            [
              -63.112407,
              10.253241
            ],
            [
              -63.112856,
              10.256608
            ],
            [
              -63.114558,
              10.2599340000001
            ],
            [
              -63.115885,
              10.261499
            ],
            [
              -63.118931,
              10.261732
            ],
            [
              -63.12245699999988,
              10.261569
            ],
            [
              -63.126856,
              10.26077400000014
            ],
            [
              -63.131401,
              10.259013
            ],
            [
              -63.133907,
              10.257464
            ],
            [
              -63.135598,
              10.254366
            ],
            [
              -63.137877,
              10.253187
            ],
            [
              -63.141221,
              10.25454000000019
            ],
            [
              -63.144119,
              10.257161000000167
            ],
            [
              -63.147372,
              10.260144
            ],
            [
              -63.151213,
              10.263578000000166
            ],
            [
              -63.15321,
              10.265019
            ],
            [
              -63.1549389999999,
              10.267106
            ],
            [
              -63.157483,
              10.272164
            ],
            [
              -63.160475999999846,
              10.274784
            ],
            [
              -63.161911,
              10.275934
            ],
            [
              -63.163717,
              10.277033000000188
            ],
            [
              -63.166895999999895,
              10.276897000000133
            ],
            [
              -63.170216,
              10.275451
            ],
            [
              -63.173442,
              10.275405000000148
            ],
            [
              -63.175335,
              10.278935
            ],
            [
              -63.176534,
              10.282681000000139
            ],
            [
              -63.177041,
              10.286689000000138
            ],
            [
              -63.176619,
              10.289311000000168
            ],
            [
              -63.174948,
              10.290781000000152
            ],
            [
              -63.172357,
              10.29276700000014
            ],
            [
              -63.171453,
              10.295694
            ],
            [
              -63.174666,
              10.29764500000016
            ],
            [
              -63.176971999999864,
              10.29951700000015
            ],
            [
              -63.178752,
              10.301787
            ],
            [
              -63.181916,
              10.303509
            ],
            [
              -63.187001999999836,
              10.300707
            ],
            [
              -63.189739,
              10.297709000000111
            ],
            [
              -63.19233999999989,
              10.296296
            ],
            [
              -63.195736,
              10.295261
            ],
            [
              -63.199851,
              10.298301
            ],
            [
              -63.202363,
              10.299940000000163
            ],
            [
              -63.204679,
              10.302409000000182
            ],
            [
              -63.206878,
              10.3033870000001
            ],
            [
              -63.208478,
              10.304650000000152
            ],
            [
              -63.20891899999987,
              10.30742
            ],
            [
              -63.210014,
              10.310456
            ],
            [
              -63.210697,
              10.312442
            ],
            [
              -63.2127569999999,
              10.314868
            ],
            [
              -63.214215,
              10.31739400000015
            ],
            [
              -63.214815,
              10.318533
            ],
            [
              -63.216438,
              10.321172000000104
            ],
            [
              -63.218304,
              10.324426000000187
            ],
            [
              -63.219008,
              10.326275
            ],
            [
              -63.220013,
              10.328073000000131
            ],
            [
              -63.22120699999988,
              10.330075
            ],
            [
              -63.221889,
              10.333036000000106
            ],
            [
              -63.223479,
              10.33200200000016
            ],
            [
              -63.22527,
              10.333036000000106
            ],
            [
              -63.226021,
              10.335254000000134
            ],
            [
              -63.225043,
              10.337915
            ],
            [
              -63.225645,
              10.340057000000172
            ],
            [
              -63.223016,
              10.343013
            ],
            [
              -63.223016,
              10.344491
            ],
            [
              -63.223767,
              10.346338
            ],
            [
              -63.223767,
              10.347077000000127
            ],
            [
              -63.223767,
              10.348186
            ],
            [
              -63.223767,
              10.350402
            ],
            [
              -63.223767,
              10.351141
            ],
            [
              -63.223392,
              10.353358
            ],
            [
              -63.223016,
              10.354097
            ],
            [
              -63.220386,
              10.354836000000148
            ],
            [
              -63.218884,
              10.356314
            ],
            [
              -63.21919670599988,
              10.359079288000032
            ],
            [
              -63.21926,
              10.35963900000013
            ],
            [
              -63.224894,
              10.361487000000125
            ],
            [
              -63.228274999999826,
              10.363703000000157
            ],
            [
              -63.230903999999896,
              10.365181
            ],
            [
              -63.233534,
              10.36592
            ],
            [
              -63.235036,
              10.36592
            ],
            [
              -63.237291,
              10.365181
            ],
            [
              -63.23917,
              10.365181
            ],
            [
              -63.239921,
              10.365181
            ],
            [
              -63.241048,
              10.36592
            ],
            [
              -63.242175,
              10.367768
            ],
            [
              -63.242926,
              10.368137
            ],
            [
              -63.24848199999985,
              10.367819000000168
            ],
            [
              -63.25231699999989,
              10.370354000000134
            ],
            [
              -63.257953,
              10.370354000000134
            ],
            [
              -63.260582,
              10.371832
            ],
            [
              -63.26246,
              10.37294
            ],
            [
              -63.263963,
              10.372201000000189
            ],
            [
              -63.26659199999983,
              10.371832
            ],
            [
              -63.26997299999988,
              10.371832
            ],
            [
              -63.271851,
              10.373310000000117
            ]
          ]
        ]
      }
    }
  ]
}