{
  "type": "FeatureCollection",
  "features": [
    {
      "type": "Feature",
      "properties": {
        "Pais": "Venezuela",
        "Estado": "Sucre",
        "Municipio": "Andrés Mata",
        "Parroquia": "San Jose De Aerocuar"
      },
      "geometry": {
        "type": "Polygon",
        "coordinates": [
          [
            [
              -63.27772199999987,
              10.621469000000161
            ],
            [
              -63.28775,
              10.621662000000129
            ],
            [
              -63.310316,
              10.621994
            ],
            [
              -63.330749,
              10.622323000000108
            ],
            [
              -63.33101,
              10.622648
            ],
            [
              -63.331585,
              10.622666
            ],
            [
              -63.339031,
              10.632628000000125
            ],
            [
              -63.351806,
              10.648528000000113
            ],
            [
              -63.38317799999987,
              10.653039000000149
            ],
            [
              -63.3905529999999,
              10.663391000000104
            ],
            [
              -63.397844,
              10.66763
            ],
            [
              -63.411759,
              10.659182
            ],
            [
              -63.417632,
              10.654941000000122
            ],
            [
              -63.432856,
              10.64152700000011
            ],
            [
              -63.441048,
              10.645817000000136
            ],
            [
              -63.44098699999989,
              10.632339000000172
            ],
            [
              -63.438969,
              10.603504
            ],
            [
              -63.43755,
              10.583512
            ],
            [
              -63.431325,
              10.576390000000117
            ],
            [
              -63.419811,
              10.560660000000155
            ],
            [
              -63.407324,
              10.543741
            ],
            [
              -63.39845499999984,
              10.532314
            ],
            [
              -63.383196,
              10.517387000000156
            ],
            [
              -63.381814,
              10.51554300000015
            ],
            [
              -63.323971,
              10.548256
            ],
            [
              -63.285105,
              10.556429
            ],
            [
              -63.25810799999988,
              10.532200000000103
            ],
            [
              -63.258629,
              10.533604
            ],
            [
              -63.261405,
              10.55904
            ],
            [
              -63.261405,
              10.55904100000015
            ],
            [
              -63.263975,
              10.582591
            ],
            [
              -63.26668499999988,
              10.590256
            ],
            [
              -63.26668599999988,
              10.590257000000122
            ],
            [
              -63.27772199999987,
              10.621469000000161
            ]
          ]
        ]
      }
    },
    {
      "type": "Feature",
      "properties": {
        "Pais": "Venezuela",
        "Estado": "Sucre",
        "Municipio": "Andrés Mata",
        "Parroquia": "Tavera Acosta"
      },
      "geometry": {
        "type": "Polygon",
        "coordinates": [
          [
            [
              -63.30474,
              10.424252000000138
            ],
            [
              -63.301549,
              10.430144
            ],
            [
              -63.301281,
              10.430657
            ],
            [
              -63.301273,
              10.430672000000186
            ],
            [
              -63.295167999999876,
              10.442387000000167
            ],
            [
              -63.291387,
              10.449895
            ],
            [
              -63.28937899999988,
              10.454053000000101
            ],
            [
              -63.287488,
              10.457519
            ],
            [
              -63.284065,
              10.46583
            ],
            [
              -63.281941,
              10.471024000000114
            ],
            [
              -63.27521799999988,
              10.489145000000178
            ],
            [
              -63.259409,
              10.530350000000169
            ],
            [
              -63.25863,
              10.531458000000157
            ],
            [
              -63.25810799999988,
              10.532200000000103
            ],
            [
              -63.285105,
              10.556429
            ],
            [
              -63.323971,
              10.548256
            ],
            [
              -63.381814,
              10.51554300000015
            ],
            [
              -63.40462799999989,
              10.489287
            ],
            [
              -63.37716599999982,
              10.451334
            ],
            [
              -63.372554,
              10.414258000000132
            ],
            [
              -63.270197,
              10.379088
            ],
            [
              -63.25231699999989,
              10.370354000000134
            ],
            [
              -63.24848199999985,
              10.367819000000168
            ],
            [
              -63.242926,
              10.368137
            ],
            [
              -63.242175,
              10.367768
            ],
            [
              -63.241048,
              10.36592
            ],
            [
              -63.239921,
              10.365181
            ],
            [
              -63.23917,
              10.365181
            ],
            [
              -63.237291,
              10.365181
            ],
            [
              -63.235036,
              10.36592
            ],
            [
              -63.233534,
              10.36592
            ],
            [
              -63.230903999999896,
              10.365181
            ],
            [
              -63.228274999999826,
              10.363703000000157
            ],
            [
              -63.224894,
              10.361487000000125
            ],
            [
              -63.21926,
              10.35963900000013
            ],
            [
              -63.21919670599988,
              10.359079288000032
            ],
            [
              -63.217200999999875,
              10.361039000000176
            ],
            [
              -63.216288,
              10.361944000000108
            ],
            [
              -63.213244,
              10.362828
            ],
            [
              -63.20900499999988,
              10.371404000000155
            ],
            [
              -63.207309,
              10.375505
            ],
            [
              -63.203603,
              10.384016
            ],
            [
              -63.201394,
              10.389686
            ],
            [
              -63.20075199999985,
              10.393949
            ],
            [
              -63.202167,
              10.39449000000019
            ],
            [
              -63.21066199999984,
              10.397739
            ],
            [
              -63.214032,
              10.399028000000158
            ],
            [
              -63.224069,
              10.402867000000185
            ],
            [
              -63.228193,
              10.404444
            ],
            [
              -63.3018459999999,
              10.423475000000167
            ],
            [
              -63.303195,
              10.423455000000104
            ],
            [
              -63.30474,
              10.424252000000138
            ]
          ]
        ]
      }
    }
  ]
}