{"type": "FeatureCollection", "features": [{"type": "Feature", "properties": {"Pais": "Venezuela", "Estado": "Bol\u00edvar", "Municipio": "Angostura del Orinoco"}, "geometry": {"type": "Polygon", "coordinates": [[[-63.001644, 8.311625000000163], [-63.00083366699988, 8.31907476300006], [-63.01201355999996, 8.319714003], [-63.030978438999966, 8.321323974999984], [-63.05157136199995, 8.317028769000046], [-63.06791294899989, 8.316851062000183], [-63.10088160299995, 8.316492543000095], [-63.12079995799991, 8.31636344400016], [-63.15061061799997, 8.316170227999976], [-63.17095395799993, 8.316038374000073], [-63.18378937999995, 8.315955182000152], [-63.23039145599995, 8.305754720000095], [-63.23948348599987, 8.300876349000134], [-63.256404584999984, 8.291797256000052], [-63.2639888679999, 8.276765836000152], [-63.26818703399982, 8.272022686000128], [-63.271211154999946, 8.26898060100001], [-63.274934315999985, 8.265261490000057], [-63.27750441799998, 8.261981387000162], [-63.280284534999964, 8.259966330000168], [-63.28405771099989, 8.26014831800012], [-63.28586779299991, 8.261443347000068], [-63.289631511999914, 8.261861681000028], [-63.2907800189999, 8.261989336000056], [-63.29288010699986, 8.259504262000121], [-63.30324855799995, 8.25521510800013], [-63.30880879099993, 8.251070976000108], [-63.31206392399997, 8.247916880000048], [-63.31324096999998, 8.245872823000127], [-63.315790075999985, 8.243967767000072], [-63.31980025699994, 8.243580732000112], [-63.32220337299992, 8.243623730000138], [-63.32661355099998, 8.239801606000071], [-63.32963768299999, 8.23675851600018], [-63.33355985199995, 8.234763451000049], [-63.336854004999964, 8.236313475000031], [-63.34449636199997, 8.23782648000008], [-63.35720093099991, 8.234891361000166], [-63.362708175999956, 8.233956311000043], [-63.37153357299991, 8.233080243000018], [-63.386046206999936, 8.227142032000131], [-63.391259883999965, 8.222539423000057], [-63.391268416999935, 8.222531890000084], [-63.39240096299994, 8.220166327000186], [-63.39353350899995, 8.217800764000117], [-63.39470054899988, 8.21536469800003], [-63.39835568799998, 8.208546506000062], [-63.40379091699998, 8.204971385000078], [-63.40497895799996, 8.20223930800006], [-63.40836169099998, 8.200950164000176], [-63.4091152609999, 8.20066298200004], [-63.412460290999945, 8.19938820699997], [-63.41546341499998, 8.197606156000063], [-63.420675188999894, 8.191671369000062], [-63.42216354499993, 8.189976538999986], [-63.42656386699997, 8.184965778000105], [-63.431688074999954, 8.179320615000108], [-63.43654427799993, 8.176079514000094], [-63.44012143699996, 8.174191447000112], [-63.45020489399991, 8.17322137500014], [-63.4560271549999, 8.174011375000134], [-63.46152840599996, 8.173419330000058], [-63.466727620999905, 8.170184236000125], [-63.469293725999876, 8.167016141999966], [-63.47626001899994, 8.160599950000062], [-63.486449480999966, 8.160088888000075], [-63.49981609599996, 8.161353868000106], [-63.5026011729999, 8.163540415000057], [-63.50664431799987, 8.166714658999979], [-63.506843433999904, 8.166870983000138], [-63.51063660099999, 8.165674932000059], [-63.518231932999925, 8.16282383100014], [-63.52560524899991, 8.159510715000067], [-63.529374428999915, 8.159919700999978], [-63.5361067369999, 8.161068703000012], [-63.53866183599985, 8.15858863000011], [-63.54326604299996, 8.15683256400007], [-63.553719500999875, 8.154030455000168], [-63.55808769599997, 8.152729405000173], [-63.566074745999856, 8.150820928000087], [-63.56704409099996, 8.150589306000086], [-63.57198431099994, 8.149183256000128], [-63.578060588999904, 8.148370206000152], [-63.58126472999999, 8.148310191000064], [-63.58412603099987, 8.14950765600014], [-63.591267202999916, 8.152496260000134], [-63.594354343999896, 8.15266424900011], [-63.605630860999895, 8.15583928500007], [-63.61615034199997, 8.15624824200006], [-63.6215956019999, 8.1592093000001], [-63.62945796199995, 8.161293323000166], [-63.63533924699993, 8.16575240800006], [-63.63748735199994, 8.167395443000032], [-63.65415408699988, 8.161343217000024], [-63.66306763399996, 8.164977742000076], [-63.66677467899996, 8.16648930000008], [-63.671786916999906, 8.167951313000174], [-63.677608183999894, 8.16885231700013], [-63.68381645399995, 8.166892235000148], [-63.687528605999944, 8.163514132000103], [-63.69665099199989, 8.15793195800012], [-63.70534636099984, 8.150277720000076], [-63.7118096289999, 8.14648659500017], [-63.71973798099998, 8.144210509000175], [-63.72419918999998, 8.144285487000161], [-63.73856781499995, 8.139708312000039], [-63.74522311499993, 8.138328247000175], [-63.7592537619999, 8.14108626300009], [-63.77264835699998, 8.140392180000163], [-63.78500292299992, 8.140483135000125], [-63.79806150599984, 8.139323054000158], [-63.80402177499997, 8.13850400800004], [-63.809766022999895, 8.136878938000052], [-63.824219668999945, 8.134249817000068], [-63.827557768999895, 8.122690509], [-63.83385301299995, 8.11464927500009], [-63.83990626199994, 8.107522068000037], [-63.843730020999885, 8.103538449000041], [-63.84478446499992, 8.10243992200003], [-63.84551997799991, 8.101214324000068], [-63.847715568999945, 8.097555776000036], [-63.848452592999934, 8.094126695000057], [-63.85198272399998, 8.087416506000068], [-63.85205858499995, 8.085505204000015], [-63.85207371699994, 8.085123946000124], [-63.85216471199993, 8.082831386000123], [-63.85592385599995, 8.076010204000113], [-63.856412874999876, 8.075370181000153], [-63.8643201779999, 8.065020891000074], [-63.87030573699991, 8.060294994000117], [-63.87855278099988, 8.053783542000133], [-63.88052071999982, 8.041439284000148], [-63.88066182099993, 8.040554200000088], [-63.882451344999936, 8.037875565999968], [-63.89036519399997, 8.026029791000155], [-63.89614644399995, 8.021650656000077], [-63.902074676999916, 8.015093466000053], [-63.90522780699996, 8.01055733800007], [-63.91078703099993, 8.005715195999983], [-63.916354258999945, 8.000299031000111], [-63.92121146499994, 7.996592926000176], [-63.92401257499989, 7.992623811000158], [-63.92618166099987, 7.98955472200015], [-63.925902635999876, 7.986342640000089], [-63.92700067199996, 7.983220555000173], [-63.92800370599997, 7.981365504000053], [-63.92995503699996, 7.978607431], [-63.931706850999944, 7.976131362000046], [-63.9369390839999, 7.973399270000129], [-63.942180306999944, 7.971242195000059], [-63.95451785299997, 7.968160068000088], [-63.96302921999995, 7.96432293600003], [-63.97076355399997, 7.960284800000011], [-63.97716583599998, 7.959026739000137], [-63.983806131999984, 7.958338703000038], [-63.987861289999955, 7.953673570000149], [-64.00054282299993, 7.94334424699997], [-64.01125730499996, 7.943922224000119], [-64.01834961899988, 7.942882171000122], [-64.02571671699997, 7.942522079000184], [-64.03186663499997, 7.943825072000095], [-64.03420935299994, 7.94513816], [-64.03984260499993, 7.946076155000071], [-64.04529066499992, 7.947179549000055], [-64.0502582609999, 7.948960560999978], [-64.05406526599995, 7.950364210000032], [-64.05883149499988, 7.954534288000104], [-64.06305671399997, 7.960667427000146], [-64.07093808899998, 7.965932527000064], [-64.08170256999989, 7.963785433000055], [-64.08762784599998, 7.968624523000017], [-64.08856890499993, 7.970102563000125], [-64.09131705899995, 7.97706472100009], [-64.09484323199985, 7.982519847999981], [-64.09901843899996, 7.985434897000061], [-64.10554675199995, 7.991620034000107], [-64.11279210299989, 7.996895129000052], [-64.11453217499991, 7.995087080000133], [-64.11864335999996, 7.995496077000098], [-64.13047091699991, 8.000827157000117], [-64.13594917099994, 8.001601159000074], [-64.13598240299996, 8.001590531000033], [-64.1415, 7.98941], [-64.151405, 7.984110000000101], [-64.154059, 7.9836], [-64.155611, 7.983928000000162], [-64.15697199999988, 7.984083], [-64.160325, 7.984149000000116], [-64.161319, 7.984094], [-64.1622569999999, 7.983602000000189], [-64.163306, 7.982508], [-64.165294, 7.980923], [-64.16766799999988, 7.979829000000109], [-64.16937899999988, 7.979228], [-64.171533, 7.978954], [-64.173851, 7.978900000000181], [-64.17534199999989, 7.978681000000165], [-64.176446, 7.978243], [-64.177716, 7.977259000000117], [-64.179262, 7.975345000000175], [-64.180421, 7.974252000000149], [-64.183237, 7.972830000000101], [-64.184452, 7.972393000000181], [-64.18770899999987, 7.972447], [-64.189918, 7.972283000000118], [-64.19047, 7.972229], [-64.190801, 7.972010000000125], [-64.1910769999999, 7.971409000000108], [-64.191243, 7.970479], [-64.191243, 7.969878000000108], [-64.191022, 7.969331000000125], [-64.19074599999988, 7.968893000000151], [-64.189807, 7.968565000000183], [-64.189089, 7.968565000000183], [-64.187764, 7.968893000000151], [-64.186439, 7.969221000000118], [-64.185446, 7.969385000000159], [-64.183513, 7.969604000000174], [-64.18180199999989, 7.969495], [-64.180808, 7.969385000000159], [-64.179483, 7.969167], [-64.178489, 7.969057], [-64.17716399999983, 7.968839000000116], [-64.176115, 7.968128], [-64.175014, 7.966985], [-64.174201, 7.96618100000012], [-64.172729, 7.964381], [-64.171528, 7.962811000000158], [-64.170133, 7.960513000000105], [-64.168623, 7.958981000000165], [-64.168158, 7.958139000000131], [-64.167925, 7.957334000000117], [-64.16792399999986, 7.955993], [-64.168156, 7.955457], [-64.168349, 7.95492], [-64.1684259999999, 7.95446], [-64.168851, 7.953617], [-64.169663, 7.952774000000147], [-64.171326, 7.951776000000166], [-64.172602, 7.950971000000152], [-64.174072, 7.950395000000128], [-64.17538699999989, 7.949858], [-64.176935, 7.949589], [-64.178173, 7.949358000000132], [-64.179991, 7.948705], [-64.180958, 7.948283000000174], [-64.18177, 7.948168], [-64.183163, 7.94809], [-64.184557, 7.948281000000179], [-64.185911, 7.948702], [-64.187576, 7.949122000000102], [-64.18982, 7.949695], [-64.192685, 7.950690000000179], [-64.194155, 7.951110000000142], [-64.19562599999989, 7.951492], [-64.197213, 7.951721], [-64.200192, 7.951834000000133], [-64.202978, 7.951679000000127], [-64.206886, 7.951217], [-64.208434, 7.950833000000102], [-64.20936199999989, 7.950487], [-64.210368, 7.94995], [-64.21145, 7.948762], [-64.213421, 7.945274], [-64.215315, 7.94220700000011], [-64.217054, 7.939907], [-64.218832, 7.937952000000166], [-64.220302, 7.936457], [-64.221075, 7.93592], [-64.221539, 7.935728000000154], [-64.221926, 7.935651000000178], [-64.222158, 7.935498000000166], [-64.22239, 7.935191000000145], [-64.223086, 7.934922], [-64.223705, 7.934654000000137], [-64.224092, 7.934423], [-64.224672, 7.934155], [-64.22502, 7.93404], [-64.2255239999999, 7.934116000000188], [-64.225872, 7.934384], [-64.226453, 7.934767], [-64.227034, 7.935303], [-64.228622, 7.937294], [-64.2298229999999, 7.939478000000122], [-64.230366, 7.940473], [-64.230985, 7.940818000000149], [-64.231875, 7.941277000000127], [-64.2327269999999, 7.941545], [-64.233462, 7.941506], [-64.234081, 7.941352000000109], [-64.234866, 7.940926], [-64.237735, 7.939599], [-64.23952, 7.939093], [-64.241496, 7.938967000000105], [-64.243663, 7.939030000000173], [-64.245193, 7.939219], [-64.247106, 7.939915], [-64.248253, 7.940547], [-64.249337, 7.942], [-64.250484, 7.944655000000182], [-64.252397, 7.9471190000001], [-64.253863, 7.949016], [-64.2552649999999, 7.950659], [-64.25654, 7.951860000000181], [-64.257688, 7.952366], [-64.258453, 7.952366], [-64.259409, 7.952303], [-64.260238, 7.952113000000168], [-64.260939, 7.951355000000149], [-64.261768, 7.950533000000178], [-64.262277, 7.949711], [-64.263871, 7.948637000000133], [-64.264891, 7.947626000000128], [-64.267186, 7.945224], [-64.26954499999988, 7.942885000000103], [-64.270947, 7.941495], [-64.271393, 7.940926], [-64.271648, 7.940231], [-64.271648, 7.939157], [-64.272222, 7.938272000000154], [-64.272987, 7.937893], [-64.273242, 7.937766], [-64.274071, 7.937577], [-64.274899, 7.936881], [-64.27566399999984, 7.935680000000104], [-64.276557, 7.933279], [-64.277386, 7.930561], [-64.277768, 7.929487000000165], [-64.27821399999988, 7.92797], [-64.278533, 7.926200000000165], [-64.278469, 7.924620000000175], [-64.277513, 7.922851], [-64.2757969999999, 7.920411], [-64.274841, 7.919084], [-64.274267, 7.91801], [-64.274076, 7.917062000000101], [-64.27413399999989, 7.916278], [-64.276811, 7.912549], [-64.277514, 7.911657000000162], [-64.278405, 7.910526], [-64.279298, 7.908693], [-64.279567, 7.907855], [-64.279974, 7.906968000000177], [-64.280448, 7.906560000000127], [-64.281041, 7.90613900000011], [-64.28112599999986, 7.905719], [-64.28087099999988, 7.905047], [-64.279767, 7.903620000000103], [-64.2787479999999, 7.902529], [-64.278408, 7.901689], [-64.278068, 7.900681], [-64.278067, 7.899841], [-64.278321, 7.899169], [-64.27899899999989, 7.898245000000145], [-64.280186, 7.897740000000113], [-64.28137399999986, 7.897403000000111], [-64.28307, 7.897738000000118], [-64.28561599999983, 7.897988], [-64.286549, 7.897988], [-64.287397, 7.897987000000114], [-64.288415, 7.897566], [-64.289178, 7.89681], [-64.291889, 7.893196], [-64.293076, 7.8916], [-64.29341399999987, 7.890507000000127], [-64.29332799999986, 7.889583], [-64.292648, 7.887988], [-64.292138, 7.886728], [-64.29044, 7.884965], [-64.288403, 7.883539], [-64.286366, 7.882448000000124], [-64.282802, 7.880266], [-64.279662, 7.878672000000165], [-64.278559, 7.878421], [-64.27771, 7.878169000000128], [-64.27728599999983, 7.877750000000106], [-64.276861, 7.877498], [-64.276182, 7.876994], [-64.275503, 7.876743], [-64.27474, 7.876323000000127], [-64.274315, 7.87582], [-64.27406, 7.875232], [-64.273974, 7.87372], [-64.273633, 7.871536], [-64.274055, 7.869184000000132], [-64.274986, 7.866327000000126], [-64.277273, 7.862294], [-64.279731, 7.859100000000126], [-64.280917, 7.857588], [-64.28179399999988, 7.85569], [-64.28179399999988, 7.854704], [-64.281707, 7.853332], [-64.281534, 7.852132], [-64.281014, 7.850761], [-64.279889, 7.849132000000111], [-64.27872, 7.847889000000123], [-64.27781, 7.84677500000015], [-64.276944, 7.845575000000167], [-64.2763379999999, 7.844503], [-64.275386, 7.842832], [-64.274909, 7.841675], [-64.274649, 7.841032000000155], [-64.274476, 7.840303], [-64.274433, 7.839275], [-64.27452, 7.838546000000122], [-64.274909, 7.836403000000132], [-64.276122, 7.832503], [-64.2774639999999, 7.826717], [-64.278113, 7.823546], [-64.27850299999989, 7.820931], [-64.27850299999989, 7.818017000000111], [-64.27845999999988, 7.815831], [-64.278243, 7.813817], [-64.278027, 7.81206], [-64.277594, 7.810345], [-64.276901, 7.807988], [-64.276381, 7.806188000000134], [-64.275342, 7.804516], [-64.27391299999988, 7.802287000000149], [-64.27166199999982, 7.79963], [-64.270016, 7.797659], [-64.26754799999986, 7.795387000000176], [-64.264777, 7.792859], [-64.262872, 7.791359000000114], [-64.261659, 7.79063], [-64.260361, 7.789773], [-64.259538, 7.788958], [-64.258975, 7.78793], [-64.258499, 7.786901], [-64.258066, 7.785744], [-64.25733, 7.783001000000127], [-64.256247, 7.779101], [-64.255728, 7.777301000000136], [-64.254602, 7.774986], [-64.253692, 7.773572000000115], [-64.25321599999984, 7.772801000000129], [-64.252307, 7.770100000000127], [-64.251311, 7.767529], [-64.249925, 7.764657], [-64.248843, 7.762943000000178], [-64.247284, 7.761614000000179], [-64.246721, 7.761229000000128], [-64.246505, 7.760971], [-64.246158, 7.759814], [-64.245466, 7.758657], [-64.244989, 7.757585], [-64.24464299999988, 7.75681400000019], [-64.244253, 7.753514], [-64.244036, 7.752014], [-64.243733, 7.750043], [-64.243214, 7.747728000000166], [-64.2425209999999, 7.746014000000116], [-64.241871, 7.744814000000133], [-64.241005, 7.743828], [-64.239577, 7.742928], [-64.237325, 7.741943], [-64.236026, 7.741085000000112], [-64.234078, 7.740057], [-64.233385, 7.7398], [-64.232865, 7.739714], [-64.232303, 7.739843], [-64.231826, 7.739971], [-64.231263, 7.740357000000131], [-64.230744, 7.740657], [-64.230008, 7.740785000000187], [-64.229228, 7.740914], [-64.228795, 7.741214000000127], [-64.228146, 7.741685], [-64.22767, 7.7422], [-64.227064, 7.742628], [-64.226414, 7.742800000000102], [-64.225851, 7.742843000000107], [-64.225202, 7.742757], [-64.2236, 7.742243], [-64.221045, 7.741600000000119], [-64.21922699999988, 7.741], [-64.217581, 7.740485], [-64.216715, 7.74018500000011], [-64.21606599999984, 7.739971], [-64.21546, 7.740014], [-64.214767, 7.740057], [-64.214377, 7.740014], [-64.213641, 7.7398], [-64.21303499999988, 7.739457], [-64.212515, 7.738985000000127], [-64.21186499999988, 7.738385], [-64.211389, 7.73782800000015], [-64.211129, 7.737442000000158], [-64.21078299999988, 7.73637100000019], [-64.210436, 7.735171], [-64.20978699999989, 7.733756], [-64.20931, 7.733071000000166], [-64.20866099999989, 7.732428], [-64.208011, 7.731571], [-64.207795, 7.730842000000109], [-64.207795, 7.730413000000169], [-64.207016, 7.728828000000135], [-64.20627999999988, 7.727199000000155], [-64.205543, 7.725484], [-64.204851, 7.723384000000181], [-64.20411499999989, 7.722099], [-64.203465, 7.720898], [-64.20294499999989, 7.720213000000172], [-64.202253, 7.71974100000017], [-64.201473, 7.719613], [-64.200131, 7.719527], [-64.198789, 7.719527], [-64.197836, 7.719441], [-64.19649399999986, 7.719398], [-64.195974, 7.719527], [-64.195758, 7.71974100000017], [-64.19562799999989, 7.720298], [-64.19562799999989, 7.720684], [-64.195758, 7.720898], [-64.196018, 7.721199], [-64.195974, 7.72167], [-64.195715, 7.722056], [-64.19554099999988, 7.722484000000122], [-64.195411, 7.72287], [-64.195368, 7.723427000000186], [-64.195411, 7.723770000000115], [-64.19554099999988, 7.72407], [-64.19554099999988, 7.724499], [-64.19545499999987, 7.724713000000179], [-64.195195, 7.725013000000104], [-64.194849, 7.72527], [-64.1945889999999, 7.725313], [-64.194286, 7.725484], [-64.194062, 7.725818000000118], [-64.193687, 7.726024000000109], [-64.193147, 7.726066], [-64.192398, 7.725901], [-64.191649, 7.725612000000126], [-64.190276, 7.724745000000155], [-64.188654, 7.723423], [-64.186866, 7.72210200000012], [-64.18495199999984, 7.720905], [-64.182623, 7.719832], [-64.180751, 7.718882000000178], [-64.1792119999999, 7.718139000000122], [-64.17808899999989, 7.717396000000122], [-64.176633, 7.716446], [-64.175177, 7.715497], [-64.173554, 7.714382000000171], [-64.171683, 7.712813], [-64.170019, 7.71174], [-64.169187, 7.711286000000143], [-64.168438, 7.710873], [-64.167523, 7.710419000000172], [-64.166982, 7.709923000000174], [-64.166566, 7.709469], [-64.166109, 7.708602], [-64.165443, 7.707735000000127], [-64.164528, 7.706951000000117], [-64.163987, 7.706538], [-64.163655, 7.706249000000128], [-64.16328, 7.705424], [-64.163114, 7.7046390000001], [-64.163155, 7.7031530000001], [-64.163655, 7.700924], [-64.16407, 7.699272000000121], [-64.164986, 7.697249000000113], [-64.165693, 7.695846000000188], [-64.1664, 7.694359], [-64.166566, 7.693162000000143], [-64.166857, 7.692336], [-64.167273, 7.691593000000182], [-64.16798, 7.691015000000164], [-64.168729, 7.69052], [-64.169228, 7.690024], [-64.169727, 7.689611000000127], [-64.170143, 7.689405], [-64.170309, 7.689116], [-64.170434, 7.688497], [-64.171183, 7.687465], [-64.171973, 7.686639], [-64.1729299999999, 7.686226], [-64.173512, 7.686144000000183], [-64.173887, 7.686061], [-64.174635, 7.685442], [-64.17563399999989, 7.684699], [-64.176549, 7.683873], [-64.17725599999989, 7.683048000000156], [-64.17771399999987, 7.682222], [-64.17829599999988, 7.681314], [-64.178421, 7.680777], [-64.178421, 7.68024], [-64.1783789999999, 7.679828], [-64.1781299999999, 7.67941500000012], [-64.17771399999987, 7.679208], [-64.17717299999987, 7.679084000000103], [-64.17659, 7.678837000000101], [-64.1762159999999, 7.678383000000167], [-64.175967, 7.677928000000179], [-64.175717, 7.677722000000188], [-64.175426, 7.677474000000132], [-64.17534299999988, 7.677227], [-64.1753839999999, 7.676896], [-64.17559199999988, 7.676442000000179], [-64.1756749999999, 7.675947], [-64.17559199999988, 7.675534], [-64.17534299999988, 7.674915000000112], [-64.17501, 7.674171], [-64.174594, 7.673428000000172], [-64.173887, 7.672850000000153], [-64.172847, 7.672396], [-64.171724, 7.671694], [-64.170642, 7.670786], [-64.169935, 7.670126], [-64.169145, 7.669382], [-64.168105, 7.668598], [-64.16719, 7.667937], [-64.165942, 7.667277000000183], [-64.165027, 7.666492], [-64.164029, 7.66546000000011], [-64.162823, 7.663850000000139], [-64.160784, 7.661373], [-64.15858, 7.658153], [-64.15754, 7.656667], [-64.156666, 7.65518], [-64.156126, 7.65419], [-64.155918, 7.653240000000153], [-64.155418, 7.652579000000173], [-64.15512699999982, 7.65229], [-64.154753, 7.652125], [-64.154212, 7.65196], [-64.153921, 7.651713], [-64.15363, 7.651506], [-64.153297, 7.651506], [-64.152923, 7.651589000000115], [-64.152548, 7.651878], [-64.15221599999984, 7.652332000000115], [-64.152091, 7.652703], [-64.15192399999984, 7.653116000000182], [-64.1518, 7.653488], [-64.151758, 7.653983000000153], [-64.151966, 7.654520000000161], [-64.152049, 7.654850000000124], [-64.151966, 7.655387000000133], [-64.151758, 7.6558], [-64.151467, 7.656089000000122], [-64.15105099999988, 7.656295000000114], [-64.15050999999988, 7.656378], [-64.15005299999984, 7.656295000000114], [-64.14951199999985, 7.656501000000105], [-64.14901299999985, 7.65646], [-64.1478479999999, 7.656047], [-64.146808, 7.655387000000133], [-64.14580999999987, 7.654520000000161], [-64.1445619999999, 7.653386000000125], [-64.1434799999999, 7.652231000000143], [-64.142274, 7.651241], [-64.141484, 7.650416], [-64.14073499999989, 7.649673], [-64.140153, 7.648972000000128], [-64.139487, 7.648229000000129], [-64.1391129999999, 7.647404], [-64.138489, 7.646745], [-64.13799, 7.646043], [-64.137241, 7.645095], [-64.13695, 7.6446], [-64.136867, 7.644063], [-64.136617, 7.64356800000013], [-64.136243, 7.643403000000148], [-64.135785, 7.643032000000176], [-64.135494, 7.642661], [-64.135411, 7.642207], [-64.135328, 7.641794], [-64.135203, 7.641464], [-64.135036, 7.641217], [-64.134579, 7.640928], [-64.134121, 7.640392], [-64.133955, 7.639897000000133], [-64.133788, 7.639402], [-64.133497, 7.638659000000189], [-64.132749, 7.638123], [-64.132582, 7.638], [-64.132499, 7.63767], [-64.132333, 7.637051], [-64.131709, 7.636020000000144], [-64.131501, 7.635566], [-64.131376, 7.634782], [-64.131376, 7.63399800000019], [-64.131293, 7.633462], [-64.131043, 7.633132000000103], [-64.13071, 7.632884], [-64.129962, 7.632307], [-64.129421, 7.631812000000139], [-64.12913, 7.631317], [-64.128922, 7.630863000000147], [-64.128672, 7.630451000000164], [-64.128215, 7.629873000000146], [-64.127923, 7.62909000000019], [-64.127799, 7.628347000000133], [-64.127799, 7.626986000000159], [-64.127882, 7.626202000000148], [-64.128048, 7.625955000000147], [-64.128423, 7.625790000000165], [-64.128838, 7.625501], [-64.129005, 7.625253000000157], [-64.129088, 7.624717], [-64.129046, 7.624263], [-64.12888, 7.623727], [-64.128672, 7.623356], [-64.128631, 7.622778000000153], [-64.128797, 7.62228400000015], [-64.129005, 7.621789], [-64.129088, 7.621335000000158], [-64.128922, 7.620469], [-64.128838, 7.619314], [-64.12888, 7.618365], [-64.128963, 7.617086000000143], [-64.12913, 7.616344], [-64.129379, 7.615725000000111], [-64.129587, 7.615354], [-64.130336, 7.614529000000118], [-64.131126, 7.613828], [-64.131917, 7.613415000000145], [-64.133081, 7.613126], [-64.133705, 7.612961], [-64.13408, 7.612796], [-64.134246, 7.612466000000154], [-64.134246, 7.612136], [-64.133955, 7.6116], [-64.133456, 7.611146000000133], [-64.132873, 7.610693], [-64.131917, 7.609951], [-64.130461, 7.608507000000145], [-64.129878, 7.607888], [-64.129171, 7.607393000000116], [-64.12809, 7.606898], [-64.127175, 7.606403000000114], [-64.126509, 7.605867], [-64.12601, 7.605413000000112], [-64.125677, 7.605001000000129], [-64.125511, 7.604464], [-64.125511, 7.603846], [-64.12576, 7.602072], [-64.125968, 7.600917], [-64.126218, 7.60025700000017], [-64.126675, 7.59968], [-64.1268, 7.599102000000187], [-64.126967, 7.598483000000101], [-64.127091, 7.597823], [-64.126925, 7.597246], [-64.126717, 7.596875000000125], [-64.126301, 7.596586000000173], [-64.12576, 7.596297], [-64.125178, 7.596091], [-64.12497, 7.595926000000134], [-64.124887, 7.595596000000171], [-64.125012, 7.595307], [-64.125469, 7.594359000000111], [-64.12576, 7.59345100000013], [-64.126135, 7.592832000000101], [-64.126883, 7.592214000000126], [-64.12809, 7.591719000000182], [-64.128672, 7.591265], [-64.129005, 7.590894000000162], [-64.129088, 7.59044], [-64.129088, 7.589945000000114], [-64.12888, 7.589615], [-64.128464, 7.589326], [-64.127674, 7.588996000000122], [-64.126551, 7.58846], [-64.125844, 7.588048], [-64.125428, 7.587635000000148], [-64.124637, 7.586274000000174], [-64.124304, 7.585366], [-64.123889, 7.584789], [-64.12314, 7.584335000000124], [-64.122599, 7.584165], [-64.121268, 7.583463000000108], [-64.120145, 7.582843000000139], [-64.119604, 7.582265], [-64.119313, 7.581729000000166], [-64.11918799999984, 7.58111], [-64.11910499999988, 7.580368], [-64.11923, 7.579501], [-64.119895, 7.577275], [-64.120436, 7.575625000000116], [-64.120727, 7.575213000000133], [-64.121434, 7.574966000000131], [-64.122225, 7.57484200000016], [-64.122807, 7.57476000000014], [-64.123265, 7.574389000000167], [-64.123597, 7.574060000000145], [-64.124013, 7.573771], [-64.124512, 7.573648000000162], [-64.125012, 7.573524], [-64.125428, 7.573359], [-64.125719, 7.573030000000188], [-64.125927, 7.572741], [-64.126426, 7.572040000000129], [-64.1268, 7.571669], [-64.127507, 7.571381000000144], [-64.128547, 7.571093000000133], [-64.128963, 7.570969000000161], [-64.129171, 7.57068100000015], [-64.129254, 7.570103000000131], [-64.12913, 7.569072], [-64.128797, 7.568247], [-64.128381, 7.56771], [-64.127923, 7.567421], [-64.126967, 7.567049], [-64.125511, 7.56663600000013], [-64.124512, 7.56647], [-64.123556, 7.566552000000115], [-64.122183, 7.566758000000107], [-64.121476, 7.566716], [-64.120644, 7.56650900000011], [-64.119313, 7.566013000000112], [-64.11752399999989, 7.564981000000159], [-64.11615199999989, 7.56399], [-64.11452899999989, 7.562875000000133], [-64.11357299999986, 7.562421], [-64.112741, 7.562132000000133], [-64.11224199999987, 7.562049], [-64.11170099999987, 7.56209], [-64.11090999999988, 7.562378], [-64.110037, 7.562872], [-64.1088309999999, 7.563119], [-64.10716699999989, 7.563324], [-64.106335, 7.563324], [-64.105586, 7.563117], [-64.105087, 7.562746000000118], [-64.104588, 7.562209000000109], [-64.104005, 7.561466000000109], [-64.103465, 7.560558000000128], [-64.103215, 7.559898], [-64.10309, 7.559238000000164], [-64.103215, 7.558413], [-64.103465, 7.557712], [-64.103423, 7.556763], [-64.10309, 7.556062000000111], [-64.10255, 7.555525], [-64.101385, 7.5547], [-64.100095, 7.553998], [-64.098681, 7.553172], [-64.097225, 7.552305000000104], [-64.094355, 7.551148000000126], [-64.091693, 7.550156], [-64.090195, 7.549701], [-64.08928, 7.549247], [-64.08824, 7.54871], [-64.08695099999983, 7.547719], [-64.08557799999988, 7.546275000000151], [-64.084372, 7.54516], [-64.08287499999989, 7.544334000000106], [-64.080795, 7.543384], [-64.07875699999988, 7.542599000000109], [-64.076889, 7.54218], [-64.075974, 7.541973], [-64.074643, 7.54184800000013], [-64.073603, 7.541724], [-64.072854, 7.541599000000133], [-64.072313, 7.54164], [-64.071856, 7.541805000000124], [-64.071481, 7.542177], [-64.071231, 7.542589], [-64.070856, 7.543415], [-64.070439, 7.544365], [-64.07019, 7.544695000000161], [-64.069732, 7.545066000000133], [-64.068941, 7.545355], [-64.067735, 7.545602], [-64.066445, 7.545725000000118], [-64.065572, 7.545683], [-64.064573, 7.545435000000111], [-64.064033, 7.545393], [-64.063534, 7.545434], [-64.062993, 7.545599], [-64.062535, 7.545805], [-64.061869, 7.546011], [-64.061162, 7.546093], [-64.060621, 7.54601], [-64.060206, 7.545845], [-64.059624, 7.545390000000111], [-64.059, 7.544935000000123], [-64.058543, 7.54444], [-64.058335, 7.543903000000171], [-64.058169, 7.543448000000183], [-64.05779599999983, 7.542581], [-64.057422, 7.541961], [-64.056674, 7.5413], [-64.05534399999988, 7.539895], [-64.054637, 7.539193], [-64.05347299999988, 7.53799400000014], [-64.051686, 7.536424], [-64.050397, 7.535184000000129], [-64.0494829999999, 7.534275], [-64.048444, 7.533490000000143], [-64.047779, 7.533035000000154], [-64.046989, 7.532622], [-64.046157, 7.532291], [-64.045533, 7.53196], [-64.045076, 7.531671], [-64.044702, 7.531216], [-64.044494, 7.530762], [-64.044412, 7.53006], [-64.044454, 7.529027000000156], [-64.044621, 7.527995], [-64.044788, 7.527293], [-64.04483, 7.526839000000166], [-64.044706, 7.526343000000111], [-64.044374, 7.525022], [-64.044209, 7.524113], [-64.043918, 7.523493], [-64.04371, 7.522956], [-64.043628, 7.52242], [-64.043421, 7.521263], [-64.043213, 7.520396000000119], [-64.042923, 7.519735000000139], [-64.042799, 7.518579], [-64.042634, 7.51672], [-64.04255199999983, 7.5148200000001], [-64.04218, 7.511682000000178], [-64.04205699999989, 7.510154], [-64.04205699999989, 7.509410000000116], [-64.04218299999985, 7.508708000000127], [-64.04264099999989, 7.507511], [-64.043058, 7.506438], [-64.04318399999988, 7.505488000000128], [-64.04318399999988, 7.504621000000157], [-64.04293599999988, 7.503175], [-64.04260399999987, 7.501812], [-64.0424799999999, 7.501152], [-64.0424809999999, 7.500652], [-64.04273099999989, 7.499704000000122], [-64.04322999999988, 7.498344], [-64.044187, 7.497026], [-64.04505999999986, 7.496244], [-64.045892, 7.495627000000127], [-64.04635, 7.495174000000134], [-64.046599, 7.494515000000149], [-64.04664099999985, 7.493608], [-64.04639099999986, 7.492206], [-64.04626599999989, 7.491093000000149], [-64.046433, 7.490145], [-64.04680699999989, 7.489239], [-64.0476809999999, 7.488292], [-64.04880399999985, 7.487551000000167], [-64.05209, 7.485948], [-64.053629, 7.485331], [-64.054294, 7.484961000000112], [-64.054835, 7.484426], [-64.05521, 7.483767], [-64.055334, 7.48327200000017], [-64.055251, 7.482613000000185], [-64.055002, 7.482159], [-64.054502, 7.481746], [-64.053712, 7.481539000000112], [-64.052963, 7.481497], [-64.052423, 7.481579], [-64.05171499999983, 7.48199000000011], [-64.051008, 7.482278000000179], [-64.05009299999983, 7.4824], [-64.048929, 7.482357], [-64.04797199999985, 7.482397], [-64.04730599999988, 7.482355000000155], [-64.046724, 7.482066], [-64.04626599999989, 7.481694000000175], [-64.04601699999989, 7.481447000000117], [-64.04539299999988, 7.481281], [-64.04435299999989, 7.481321], [-64.04368699999986, 7.481526], [-64.042065, 7.481854], [-64.04081699999989, 7.482182], [-64.039528, 7.482428000000141], [-64.038862, 7.482386], [-64.0381139999999, 7.482179000000144], [-64.037074, 7.481765000000166], [-64.036075, 7.481187000000148], [-64.03516, 7.48065], [-64.034827, 7.480319], [-64.03359499999982, 7.480506000000105], [-64.032748, 7.480771000000175], [-64.032271, 7.481275], [-64.031932, 7.48192], [-64.03181799999987, 7.483032], [-64.031807, 7.483682000000158], [-64.031605, 7.484515000000158], [-64.031175, 7.484973], [-64.029537, 7.48504], [-64.02795, 7.484831], [-64.025916, 7.483453], [-64.022057, 7.479448000000104], [-64.02026699999982, 7.477563000000146], [-64.019064, 7.476802], [-64.016788, 7.475839000000121], [-64.016007, 7.475084], [-64.015882, 7.4742], [-64.01595, 7.47304], [-64.0158249999999, 7.472156], [-64.015049, 7.471077], [-64.013792, 7.470733], [-64.012624, 7.470622000000105], [-64.011272, 7.470369000000119], [-64.010675, 7.469756], [-64.009717, 7.465795], [-64.008923, 7.46309], [-64.00857199999984, 7.459185000000105], [-64.008454, 7.457930000000147], [-64.008471, 7.454355000000135], [-64.0080779999999, 7.4527700000001], [-64.00724999999989, 7.452015000000131], [-64.00561699999986, 7.451758], [-64.00444, 7.452158], [-64.002085, 7.453050000000133], [-63.99997, 7.453575], [-63.998655, 7.453834], [-63.993358, 7.454403000000184], [-63.991908, 7.454428000000121], [-63.989298, 7.453831], [-63.987441, 7.453060000000107], [-63.985996999999884, 7.452666], [-63.984359, 7.452734000000135], [-63.983188, 7.452763], [-63.982632, 7.452499], [-63.982134, 7.451563], [-63.98096199999986, 7.449084], [-63.980424, 7.448382], [-63.979543, 7.44786], [-63.97688399999987, 7.447403000000122], [-63.971745, 7.447001], [-63.967916, 7.446527000000117], [-63.963068, 7.445436], [-63.961575, 7.4452280000001], [-63.959938, 7.445157], [-63.957456, 7.445304], [-63.956664, 7.445153000000118], [-63.954596, 7.445677000000103], [-63.95375, 7.445942000000173], [-63.952817, 7.445742000000166], [-63.951188999999886, 7.445163], [-63.95034799999985, 7.44515], [-63.949551, 7.44523], [-63.94864799999988, 7.44604900000013], [-63.948008, 7.447982], [-63.947204, 7.448479000000134], [-63.94659499999983, 7.448562], [-63.945476, 7.448314000000153], [-63.943948, 7.447365000000161], [-63.940873, 7.443757], [-63.939715, 7.443046], [-63.938834, 7.44257], [-63.937624, 7.442228], [-63.936363, 7.442070000000115], [-63.93556699999988, 7.442104], [-63.934339, 7.442779000000144], [-63.933201, 7.443733], [-63.93214, 7.445613000000151], [-63.93094799999989, 7.446983000000159], [-63.929761, 7.44802900000019], [-63.929097, 7.448527000000183], [-63.92810999999989, 7.448836], [-63.927312, 7.449009000000103], [-63.92657, 7.448581], [-63.926013, 7.448342], [-63.9254949999999, 7.448519], [-63.924598, 7.449014], [-63.923464, 7.449691], [-63.922622, 7.449678], [-63.921128, 7.44947], [-63.918852, 7.44851], [-63.917921, 7.448219000000108], [-63.91707699999989, 7.448345], [-63.916557, 7.448661], [-63.915841, 7.44948200000016], [-63.915598, 7.450034000000187], [-63.915592, 7.450403000000165], [-63.915446, 7.450725000000148], [-63.914975, 7.450903000000153], [-63.913761, 7.450792], [-63.912317, 7.450400000000116], [-63.91190099999983, 7.450070000000153], [-63.910424, 7.448891000000117], [-63.909544, 7.448369], [-63.9091269999999, 7.448131000000103], [-63.906235, 7.446827], [-63.905018, 7.446639000000118], [-63.90441, 7.446685], [-63.90370899999988, 7.44687], [-63.903148, 7.446962], [-63.902258, 7.446775000000173], [-63.901132, 7.446124000000168], [-63.900429, 7.445798], [-63.899585999999886, 7.445565000000101], [-63.898178, 7.444681000000116], [-63.896021, 7.44375], [-63.89499, 7.443423000000109], [-63.893259, 7.443421000000114], [-63.891624, 7.443744], [-63.889759, 7.444949], [-63.887559, 7.444807], [-63.884096, 7.444570000000169], [-63.880259, 7.44438], [-63.878294, 7.444331], [-63.877406, 7.444469], [-63.876662, 7.445257], [-63.875035, 7.447251000000108], [-63.874521, 7.447529], [-63.873913, 7.447529], [-63.873303, 7.44711000000018], [-63.87250399999988, 7.446366], [-63.871331, 7.445668], [-63.869646, 7.445434], [-63.868242, 7.445339], [-63.867258999999876, 7.445292], [-63.865949, 7.44529], [-63.861549, 7.44482], [-63.858603, 7.444956000000161], [-63.856686, 7.445046000000104], [-63.853409, 7.444624], [-63.850648, 7.444574000000159], [-63.848779, 7.444851000000142], [-63.84672299999988, 7.445312000000115], [-63.845464, 7.446193000000164], [-63.844391, 7.446444000000156], [-63.843362, 7.446421], [-63.841327, 7.446003], [-63.836602, 7.44530600000013], [-63.834825, 7.445098], [-63.833749, 7.445051], [-63.832602999999835, 7.445469000000116], [-63.82843899999989, 7.44767400000012], [-63.827457, 7.448115], [-63.826802, 7.448115], [-63.825937, 7.447442000000137], [-63.825048, 7.44604900000013], [-63.824767, 7.445237000000134], [-63.82458, 7.444912], [-63.824393, 7.444819000000166], [-63.824182, 7.444842000000108], [-63.823948, 7.444912], [-63.82306, 7.445423], [-63.822264, 7.445817000000147], [-63.82074399999988, 7.446351000000107], [-63.8203, 7.446513], [-63.819551, 7.446513], [-63.817844, 7.445794], [-63.815575, 7.444169], [-63.815294, 7.444053], [-63.81498999999985, 7.444053], [-63.813018, 7.457846000000131], [-63.812851, 7.461871], [-63.818148999999835, 7.471321], [-63.818483, 7.478212], [-63.81436699999989, 7.486211000000139], [-63.816263, 7.490316000000178], [-63.816334, 7.495027], [-63.815927, 7.498367], [-63.814173, 7.511038000000156], [-63.81290399999989, 7.517955000000143], [-63.817558, 7.537644000000114], [-63.818839, 7.539002], [-63.823685, 7.548804000000132], [-63.827874, 7.552987], [-63.830643999999836, 7.554319000000135], [-63.834462, 7.556784000000164], [-63.835765, 7.559521000000132], [-63.837566999999865, 7.565007], [-63.83465399999989, 7.569308], [-63.828745, 7.587450000000104], [-63.82661599999989, 7.590589000000136], [-63.81914499999982, 7.596575], [-63.816848, 7.59626800000018], [-63.812526999999875, 7.598410000000115], [-63.809938, 7.601441], [-63.806928, 7.606893000000184], [-63.802843, 7.609489], [-63.795066, 7.610538000000133], [-63.7924579999999, 7.612305000000106], [-63.789491999999825, 7.61315900000011], [-63.7842169999999, 7.612902000000133], [-63.778954999999826, 7.613449000000116], [-63.774564, 7.615763], [-63.753917, 7.599444], [-63.73365199999989, 7.569225000000131], [-63.68564, 7.564262000000156], [-63.65534499999984, 7.579433], [-63.622851, 7.592221000000166], [-63.597253, 7.594646], [-63.559335, 7.582090000000164], [-63.506263, 7.572072000000105], [-63.455731, 7.572128000000134], [-63.41784, 7.582249], [-63.402698, 7.599911000000134], [-63.392617, 7.63017600000012], [-63.35979, 7.660460000000114], [-63.347186, 7.6982900000001], [-63.352275, 7.741142], [-63.357361, 7.77644], [-63.364969, 7.804164], [-63.35926399999988, 7.814226000000133], [-63.299291, 7.877332000000138], [-63.251262, 7.900054], [-63.236099, 7.915188000000114], [-63.218421, 7.958059], [-63.203262, 7.988322], [-63.150148999999885, 7.993386], [-63.023312, 7.995268000000181], [-62.999164999999834, 7.996465], [-62.999354, 7.999041], [-63.000403, 8.000408], [-62.999887999999885, 8.001271], [-62.999901, 8.003505], [-63.00008, 8.004363], [-63.001653, 8.00641300000018], [-63.001659, 8.007444], [-63.003046, 8.007433], [-63.003397, 8.008118], [-63.003744, 8.008115000000146], [-63.005984, 8.005863000000147], [-63.007018, 8.004823000000101], [-63.007699, 8.002755], [-63.00699799999984, 8.001386], [-63.008206, 8.000517000000116], [-63.009594, 8.000678000000164], [-63.009944, 8.00119100000012], [-63.010997, 8.003245000000106], [-63.011181, 8.004962], [-63.011018, 8.006682], [-63.009641, 8.008411000000137], [-63.00792499999989, 8.011347], [-63.004817, 8.013606], [-63.00308299999989, 8.013620000000174], [-63.001851, 8.013629], [-63.001851, 8.013629477000165], [-63.001644, 8.311625000000163]]]}}]}