{"type": "FeatureCollection", "features": [{"type": "Feature", "properties": {"Pais": "Venezuela", "Estado": "Delta Amacuro", "Municipio": "Antonio D\u00edaz", "Parroquia": "Curiapo"}, "geometry": {"type": "Polygon", "coordinates": [[[-60.69880372199998, 8.819352668000136], [-60.69948025899993, 8.821457740000028], [-60.69977177599998, 8.822510264000073], [-60.7042730199999, 8.830743467000161], [-60.70522607199996, 8.832276510999975], [-60.70712216599992, 8.834196547000033], [-60.70770937199984, 8.835331209000117], [-60.712410886999976, 8.83246941700014], [-60.719332, 8.830308000000116], [-60.72700105699988, 8.828167816000132], [-60.730324, 8.827373], [-60.732385, 8.826851], [-60.73491, 8.825887], [-60.737783, 8.824593000000107], [-60.739743, 8.823392], [-60.741139, 8.821956], [-60.74379999999985, 8.819868000000156], [-60.74679599999985, 8.81812500000018], [-60.74930499999988, 8.81795], [-60.752154, 8.817894], [-60.753745, 8.81803900000017], [-60.756377, 8.817415], [-60.76004499999988, 8.816249], [-60.762466, 8.814833], [-60.765567, 8.813543], [-60.767636, 8.81257], [-60.770655, 8.809701000000189], [-60.771838999999886, 8.807472000000132], [-60.773377, 8.804573000000119], [-60.775189, 8.802209], [-60.777462, 8.800641], [-60.78245133199988, 8.79892597300011], [-60.783004, 8.798736000000133], [-60.788097, 8.798837000000162], [-60.789519, 8.79906700000015], [-60.796121, 8.79587400000014], [-60.801211, 8.791973], [-60.807756, 8.785608], [-60.813885, 8.780156], [-60.81775585499997, 8.777095204000148], [-60.820637, 8.774817], [-60.82447999999988, 8.76958], [-60.82801199999989, 8.76075], [-60.83092099999982, 8.754282000000103], [-60.83653, 8.748738], [-60.84021799999988, 8.74576100000013], [-60.858604, 8.74509300000011], [-60.864317, 8.743810000000167], [-60.878912, 8.737136], [-60.889716, 8.73092400000013], [-60.89626, 8.729641], [-60.902181, 8.728049000000112], [-60.909141, 8.727484], [-60.914595, 8.725636000000122], [-60.927890999999875, 8.72004], [-60.930955, 8.719783], [-60.933864, 8.719434000000149], [-60.94175899999988, 8.709987000000126], [-60.945498, 8.707214], [-60.95017299999989, 8.704544], [-60.955159, 8.702593], [-60.957652, 8.701566], [-60.958691, 8.699615000000108], [-60.95900299999988, 8.696534], [-60.95941799999986, 8.693248000000153], [-60.961184, 8.690475], [-60.963885, 8.688832000000161], [-60.9674169999999, 8.688319], [-60.972092, 8.688011], [-60.974896, 8.687805], [-60.976766, 8.686881], [-60.978116999999884, 8.684724], [-60.979259, 8.681438000000128], [-60.98009, 8.679487], [-60.981545, 8.678768], [-60.983207, 8.679693], [-60.985283999999865, 8.681849], [-60.986842, 8.683184], [-60.989438999999834, 8.683287], [-60.991413, 8.682260000000156], [-60.992348, 8.679179], [-60.990894, 8.674250000000143], [-60.990894, 8.669629], [-60.99535999999989, 8.66383100000013], [-60.998684, 8.657977000000187], [-61.00097, 8.651713], [-60.999308, 8.648632], [-60.998373, 8.643908000000181], [-60.996919, 8.639390000000105], [-60.996711, 8.636616], [-60.99943699999989, 8.633938000000171], [-61.001827, 8.631884], [-61.007422, 8.629683], [-61.020213, 8.627416], [-61.029043, 8.621940000000109], [-61.03330199999988, 8.621496], [-61.03673, 8.620552], [-61.042132, 8.618497000000161], [-61.046599, 8.617984000000149], [-61.05065, 8.617984000000149], [-61.055325, 8.618908], [-61.062284, 8.62096200000019], [-61.06644, 8.622914], [-61.071218, 8.623838], [-61.078801, 8.624557], [-61.088877, 8.62466], [-61.0936549999999, 8.623222000000112], [-61.098226, 8.620141000000103], [-61.102589, 8.61490300000014], [-61.108822, 8.608432000000107], [-61.115366, 8.600935000000106], [-61.12014399999987, 8.595286], [-61.123365, 8.58861000000013], [-61.127935, 8.580291000000159], [-61.132402, 8.575772], [-61.137804, 8.56987800000013], [-61.146218, 8.563201000000106], [-61.154528, 8.559195000000102], [-61.160553, 8.558373000000131], [-61.16740899999985, 8.5594], [-61.17603099999985, 8.56227600000011], [-61.181641, 8.564536], [-61.185484, 8.567926], [-61.19047, 8.572651], [-61.196184, 8.577069], [-61.204078, 8.582205000000101], [-61.212285, 8.586314], [-61.221894, 8.585755000000177], [-61.236267, 8.580951], [-61.24843, 8.576801], [-61.256611, 8.572652000000119], [-61.26536799999985, 8.55644], [-61.268262, 8.539978000000133], [-61.27332699999988, 8.530674], [-61.284903, 8.509203000000184], [-61.284903, 8.502046], [-61.279838, 8.497752], [-61.272603, 8.498467], [-61.266815, 8.499899], [-61.258133, 8.503477], [-61.246557, 8.506341], [-61.240768, 8.5041930000001], [-61.235703, 8.502046], [-61.22846799999985, 8.49703600000015], [-61.221956, 8.495605], [-61.216168, 8.497752], [-61.213997, 8.503478], [-61.20893299999989, 8.50848800000017], [-61.203868, 8.50848800000017], [-61.20025, 8.507772000000102], [-61.194462, 8.505625], [-61.181511, 8.500313], [-61.17694, 8.498258], [-61.182757, 8.487983], [-61.19231399999984, 8.476681000000156], [-61.20531499999987, 8.473418000000152], [-61.216206, 8.474116], [-61.229711, 8.470828], [-61.23767, 8.466533], [-61.243458, 8.460807000000159], [-61.247918999999854, 8.454407000000117], [-61.252772, 8.44657500000011], [-61.254515, 8.440496], [-61.258133, 8.429760000000101], [-61.258856, 8.423318000000165], [-61.259579, 8.417593], [-61.26392, 8.416162000000156], [-61.268261, 8.416162000000156], [-61.27405, 8.414730000000134], [-61.278391, 8.40972], [-61.28273199999984, 8.403995000000123], [-61.288808, 8.393536000000154], [-61.28941431199985, 8.08562114600005], [-61.28944954299993, 8.067729201000134], [-61.28954125499996, 8.021153300000151], [-61.28958841299993, 7.997204218000149], [-61.28961916499992, 7.981586723000134], [-61.2896256599999, 7.978288344000021], [-61.28968263899992, 7.977143492000152], [-61.28876882799989, 7.978782983000144], [-61.24300041699985, 7.903028158000154], [-60.97384732699993, 7.753446216999976], [-60.89932385699984, 7.754878527000187], [-60.838547340999924, 7.837899951000054], [-60.835600355999986, 7.879502069000011], [-60.83528474299993, 7.87942506800016], [-60.838687, 7.88836], [-60.8396258599999, 7.921471808000092], [-60.839966011999934, 7.933468340000047], [-60.840515375999985, 7.952843347999988], [-60.847661, 8.204856], [-60.844895, 8.207977], [-60.83580399999988, 8.217729], [-60.827121, 8.23295800000011], [-60.824756, 8.238817000000154], [-60.82002099999988, 8.248189], [-60.823220999999876, 8.26501100000013], [-60.829169, 8.269718000000182], [-60.830368, 8.275586], [-60.829192, 8.281839000000161], [-60.831181, 8.286146], [-60.831191, 8.292011000000173], [-60.832392, 8.299053000000185], [-60.832398999999896, 8.302572], [-60.829237, 8.306083], [-60.829245, 8.309993000000134], [-60.83083, 8.310779000000139], [-60.835184, 8.309617000000117], [-60.835985, 8.314311], [-60.831251, 8.324074], [-60.824924, 8.329532000000142], [-60.822158, 8.332655], [-60.822958, 8.336567], [-60.823756, 8.340088], [-60.820197, 8.342425], [-60.813875, 8.349838], [-60.808747, 8.360382], [-60.804799, 8.36702], [-60.799262, 8.371307000000172], [-60.79727899999989, 8.369347000000175], [-60.793714, 8.368947000000105], [-60.790553, 8.372459000000106], [-60.789376, 8.378321], [-60.78701, 8.38378900000015], [-60.78741, 8.385745000000156], [-60.789786999999876, 8.386533], [-60.791375, 8.388883], [-60.790985, 8.39201], [-60.789011, 8.395133000000158], [-60.784665, 8.400205], [-60.78032299999984, 8.408015], [-60.770051, 8.421284], [-60.76134499999989, 8.42439], [-60.758642, 8.430772000000161], [-60.759139, 8.433665], [-60.759629, 8.437082], [-60.761046, 8.440492], [-60.765925, 8.443467], [-60.77043, 8.444054000000108], [-60.773815, 8.449611000000175], [-60.776442, 8.452009000000146], [-60.78327999999988, 8.457352], [-60.784311, 8.45999], [-60.784778999999844, 8.465243], [-60.791312, 8.473992], [-60.797058, 8.481943000000115], [-60.798373, 8.483011], [-60.801292, 8.483052], [-60.803421, 8.482557], [-60.80502899999988, 8.481268], [-60.808208, 8.481837], [-60.811115, 8.482927000000188], [-60.813207, 8.485580000000141], [-60.81371, 8.48794800000013], [-60.81368499999985, 8.490047], [-60.814947, 8.495573], [-60.818048, 8.502700000000175], [-60.821705, 8.507736000000136], [-60.824871, 8.509354], [-60.829877, 8.512573000000145], [-60.833287, 8.516031], [-60.844118, 8.52038], [-60.848858, 8.523595000000114], [-60.857021, 8.529219], [-60.860552, 8.533540000000187], [-60.867803, 8.539892000000123], [-60.870883, 8.54437], [-60.87324599999988, 8.547361], [-60.874901, 8.548498], [-60.878054, 8.549295], [-60.88345, 8.549768000000142], [-60.885291, 8.550908000000106], [-60.887271, 8.554444000000103], [-60.890653, 8.562425], [-60.892924, 8.570017], [-60.894264, 8.577591], [-60.894913, 8.582389], [-60.896874, 8.586846], [-60.89755, 8.590356], [-60.898251, 8.592579000000114], [-60.899401999999895, 8.594634], [-60.896831, 8.599032], [-60.892053, 8.603757], [-60.884574, 8.608071000000109], [-60.876471, 8.611769], [-60.867537999999854, 8.61587800000018], [-60.85715, 8.619576], [-60.848424, 8.62121900000011], [-60.838452, 8.621425000000102], [-60.83138799999989, 8.621014], [-60.829311, 8.620398], [-60.82681699999989, 8.621425000000102], [-60.824064, 8.626137], [-60.822195, 8.633531], [-60.817208, 8.639487], [-60.814404, 8.642568000000153], [-60.81243, 8.643341000000134], [-60.80957299999989, 8.644316000000174], [-60.808015, 8.644470000000126], [-60.806144999999844, 8.644933], [-60.804172, 8.645600000000172], [-60.802717, 8.646524], [-60.80178199999989, 8.647603000000174], [-60.800094, 8.650132000000156], [-60.799263, 8.651134000000127], [-60.797393, 8.653213], [-60.796458, 8.654291], [-60.79419899999988, 8.656089000000122], [-60.789758, 8.659631000000104], [-60.788564, 8.66035], [-60.786668, 8.66112], [-60.786243812999885, 8.661284350000074], [-60.785473, 8.661583000000121], [-60.78253899999987, 8.662584000000152], [-60.778462, 8.66528000000011], [-60.775813, 8.667103000000168], [-60.773631, 8.668438], [-60.772695999999826, 8.66926], [-60.768204, 8.674522], [-60.76524299999983, 8.677834], [-60.762698, 8.679939000000104], [-60.760776, 8.680735], [-60.757608, 8.681403000000103], [-60.754024, 8.68207], [-60.748156, 8.683919], [-60.747038056999884, 8.684387615000048], [-60.741481, 8.686717000000158], [-60.735586, 8.689773], [-60.728938, 8.692084000000136], [-60.720965, 8.692802], [-60.71359, 8.692725], [-60.704604, 8.694779000000153], [-60.698579, 8.698475], [-60.693437, 8.70266400000014], [-60.679531339999926, 8.706845136000027], [-60.678333291999934, 8.709323210000093], [-60.675724180999964, 8.71160328600007], [-60.67388111299988, 8.715415390000032], [-60.67203104099991, 8.718463484000154], [-60.670569988999944, 8.72304262400013], [-60.66948495399993, 8.72762275700012], [-60.66822291899996, 8.733347914000149], [-60.666744864999885, 8.736015998000084], [-60.663393716999906, 8.739248088000181], [-60.65837500899994, 8.744955274000063], [-60.65651643099994, 8.747048342000028], [-60.65355631299997, 8.752001488000076], [-60.65002416599992, 8.755996620000076], [-60.64873061299994, 8.758282687000133], [-60.647437060999835, 8.76056875400019], [-60.646160023999926, 8.764765877000059], [-60.64626803399983, 8.766294915000117], [-60.646376042999975, 8.767823966000037], [-60.64751410399998, 8.768975985000054], [-60.6511767749999, 8.769089481000037], [-60.65303887499988, 8.769255016000159], [-60.67904169099984, 8.794322566000176], [-60.67979671899997, 8.794708565000064], [-60.68167480699992, 8.79471755700007], [-60.68357691199998, 8.797401627000113], [-60.685475004999944, 8.799512678000099], [-60.68832715699995, 8.803347775000077], [-60.69060927799984, 8.806415847000096], [-60.69177436099994, 8.81062496300018], [-60.69215837599995, 8.811581986000022], [-60.694805499999916, 8.813506027000187], [-60.69687759999988, 8.814089031000094], [-60.698017661999984, 8.815623078999977], [-60.69880372199998, 8.819352668000136]]]}}, {"type": "Feature", "properties": {"Pais": "Venezuela", "Estado": "Delta Amacuro", "Municipio": "Antonio D\u00edaz", "Parroquia": "Almirante Luis Bri\u00f3n"}, "geometry": {"type": "Polygon", "coordinates": [[[-61.521754, 8.574231], [-61.545071, 8.579855000000123], [-61.567819, 8.587166], [-61.588009, 8.598413000000164], [-61.606711, 8.575714000000175], [-61.613213, 8.565697], [-61.671469902999945, 8.476565808000032], [-61.67623856899996, 8.469269902000121], [-61.69423299999988, 8.441739], [-61.696644610999954, 8.441248767000047], [-61.700272797999844, 8.440559981000092], [-61.700334532999875, 8.440548261], [-61.70033377399983, 8.440538667000112], [-61.70015275099996, 8.438251603000083], [-61.70114578599987, 8.434575509000183], [-61.70511495699992, 8.430645381999966], [-61.70922214199993, 8.429006317000187], [-61.710402156999976, 8.421202109000149], [-61.70796302999992, 8.418012036999983], [-61.70551089999998, 8.413445924000143], [-61.703420792999964, 8.410711860000049], [-61.70180470899993, 8.409578835000161], [-61.701431683999886, 8.406715761000044], [-61.70253571199993, 8.40269463900006], [-61.69901751899988, 8.394698442000049], [-61.69748443699996, 8.390469334999977], [-61.69961451899991, 8.385981204000188], [-61.699241481999934, 8.38311813000007], [-61.69820143299995, 8.38220911000019], [-61.695449306999876, 8.381888110999967], [-61.69060005899996, 8.378144033000183], [-61.68852395899995, 8.37678601000016], [-61.68720588299993, 8.371064854], [-61.68671683699989, 8.36808778500017], [-61.6849757519999, 8.365808721000064], [-61.68252562199996, 8.361472623000111], [-61.68456470399991, 8.359278557000152], [-61.68603276699997, 8.357202497000117], [-61.68599175099996, 8.353190391000169], [-61.68711079299999, 8.350659318999988], [-61.68628573899991, 8.348373251000055], [-61.68535669399989, 8.347120220000022], [-61.68474765199994, 8.343571137000083], [-61.6849606589999, 8.341965092000123], [-61.685868692999975, 8.341155066000113], [-61.691653942999835, 8.335719900000186], [-61.696085127999936, 8.33224478700015], [-61.70121135199997, 8.329565693000177], [-61.702884412999936, 8.325196574000074], [-61.703663447999986, 8.323011512000107], [-61.703653438999936, 8.322094482000068], [-61.70440745299999, 8.317388356000038], [-61.70475046499996, 8.317385351000098], [-61.70664353599983, 8.31209619700013], [-61.710946716999956, 8.307476063000138], [-61.72023710199994, 8.297770761000038], [-61.72366726699988, 8.297168732000046], [-61.72801745999993, 8.297018710000089], [-61.73190864499992, 8.296871694000174], [-61.73397374299992, 8.29719869100012], [-61.7369438689999, 8.296486665000032], [-61.74219411099989, 8.29483760300019], [-61.75270358599994, 8.292343494000136], [-61.75852084899998, 8.290116408000074], [-61.763434064999956, 8.28904435200019], [-61.7654901599999, 8.288568339000165], [-61.76844328599992, 8.28625126300011], [-61.774408570999924, 8.287233260000107], [-61.779094784999984, 8.286391220000041], [-61.783543975999976, 8.28474916100015], [-61.787763171999984, 8.283109103000186], [-61.787399149999885, 8.28116304700012], [-61.7863420889999, 8.27864999400009], [-61.788152158999935, 8.27657093], [-61.78940220999988, 8.27564389100013], [-61.79075326999987, 8.273453836000044], [-61.7933513779999, 8.270107734000135], [-61.79047724399993, 8.268985712000188], [-61.79227930399992, 8.266104631000076], [-61.79214629499984, 8.264385585000127], [-61.79188127099985, 8.260949492000123], [-61.794048369999985, 8.260128463000171], [-61.79721149899996, 8.256089347000113], [-61.794864365999956, 8.250607210000112], [-61.79471234499988, 8.247054117000175], [-61.79218322299994, 8.246159104000128], [-61.79159383099994, 8.245133170000145], [-61.79113417099995, 8.244333055000084], [-61.788959062999936, 8.244466063000118], [-61.78948607399991, 8.240105948], [-61.789808075999986, 8.238039898000125], [-61.79046710299997, 8.23539681800014], [-61.79010106999988, 8.23322277], [-61.78870900599992, 8.231514727], [-61.78777595199989, 8.229917686000135], [-61.78266169099987, 8.222623508000027], [-61.77920051999985, 8.220130461000053], [-61.7773144059999, 8.214988336000147], [-61.775668319999966, 8.210874232000094], [-61.77404223899998, 8.20859617300016], [-61.77151111699993, 8.207470153000088], [-61.76990603399997, 8.207254158000069], [-61.767710931999886, 8.20532411000005], [-61.762331678999885, 8.205483135000122], [-61.760376580999946, 8.20469712500011], [-61.759644538999964, 8.200348013000166], [-61.761299582999925, 8.19437285100014], [-61.7612477159999, 8.19397475900007], [-61.76092655799988, 8.191509777000022], [-61.758618439999964, 8.189809744000172], [-61.756196323999916, 8.188109698000176], [-61.755151270999875, 8.186628664000011], [-61.75399121399988, 8.18514763100012], [-61.747390871999926, 8.17798047399998], [-61.74314167499989, 8.176755459000162], [-61.74220161699998, 8.17435539700017], [-61.74008650099995, 8.169100258000128], [-61.73993847999998, 8.16589117500007], [-61.73875841799986, 8.162462098000105], [-61.738632400999904, 8.161431060000098], [-61.734020173999966, 8.158145001000037], [-61.728671894999934, 8.150164801000074], [-61.727379822999865, 8.147080728000049], [-61.72483569999986, 8.144579672000077], [-61.720568484999944, 8.141519604000166], [-61.71574625599982, 8.14006858600004], [-61.713890166999875, 8.137676533000047], [-61.71319613499992, 8.136994522000066], [-61.70767586299996, 8.134518477000086], [-61.70600576099997, 8.127883310000072], [-61.70560171799997, 8.122040151000022], [-61.703141578999976, 8.11655801400002], [-61.69939838299996, 8.108678821000126], [-61.69904435699988, 8.107649795000043], [-61.69844231899998, 8.104788721000148], [-61.697709269999905, 8.100209607000124], [-61.69800125899991, 8.09527747900006], [-61.69956932499997, 8.091940380000096], [-61.70022234299995, 8.088611291000063], [-61.70018831899995, 8.085287206000089], [-61.69925727599991, 8.083804162000149], [-61.696277128999895, 8.083370173000048], [-61.694880060999935, 8.08108911000005], [-61.692337936999934, 8.078702062000048], [-61.691278875999956, 8.075844987000039], [-61.69090484599985, 8.07286790600017], [-61.68767068899996, 8.07002784399998], [-61.684576542999935, 8.069594849000168], [-61.681237377999935, 8.067558814000165], [-61.67871225399989, 8.066891806000058], [-61.6768681609999, 8.065645779000079], [-61.67605912399995, 8.064849761000119], [-61.67158291199996, 8.063624747000176], [-61.66492960199997, 8.062073729000133], [-61.66112041399998, 8.058894662000057], [-61.659001287999956, 8.053065511000113], [-61.6580022089999, 8.044820301000016], [-61.6568171429999, 8.040818193000177], [-61.6564241019999, 8.035892075999982], [-61.65616707399994, 8.033142998000073], [-61.65693510699998, 8.029926911000189], [-61.65346392699996, 8.026171820000059], [-61.652392858999974, 8.02205371700012], [-61.65212983299995, 8.01873163199997], [-61.65312386299996, 8.015170541000145], [-61.6519458009999, 8.011855448], [-61.65014168399995, 8.0031582310001], [-61.650325672999884, 7.998800117000087], [-61.65457484099994, 7.992520929000136], [-61.65714490699986, 7.976327498000103], [-61.65949099999989, 7.973026405000098], [-61.659709985999825, 7.967042239000023], [-61.65839491299988, 7.963681158000043], [-61.654821719999916, 7.958669036000117], [-61.65474771899994, 7.956364980000046], [-61.655158711999945, 7.95245587300019], [-61.65526969399997, 7.946124704999988], [-61.65519963499992, 7.946104627000125], [-61.65185353699991, 7.945145701], [-61.644849221999834, 7.946640767000076], [-61.63879493999991, 7.946077775000049], [-61.63742284299997, 7.939490606999982], [-61.61967097599995, 7.927446357000179], [-61.61663182199993, 7.924631293000118], [-61.61504072599985, 7.917464106000125], [-61.611953556999936, 7.910847949000129], [-61.60417219099986, 7.910946981000109], [-61.60130506399997, 7.911359009000137], [-61.59575379599994, 7.908271950000028], [-61.5936496839999, 7.904320848000168], [-61.58953649599994, 7.904020856000045], [-61.58429324299988, 7.902895851000096], [-61.57556580199997, 7.891807595000159], [-61.57426771799993, 7.887524483000163], [-61.572196603999885, 7.881731339999988], [-61.56911345699996, 7.881448337000108], [-61.562329132999935, 7.876957251000135], [-61.56092704099996, 7.872097123000174], [-61.55969495399995, 7.864129929000171], [-61.558975906999876, 7.859510810000188], [-61.558079831999976, 7.851895607000074], [-61.55560570499995, 7.849550562000104], [-61.551605521999875, 7.84936656400015], [-61.546197278999955, 7.851117628999987], [-61.543147154999986, 7.855441756000118], [-61.539694003999955, 7.856649808000043], [-61.53507077799992, 7.852885722], [-61.53389269899998, 7.848374606000164], [-61.51937199599996, 7.841562487999965], [-61.51451173999993, 7.83180624400012], [-61.490288645999954, 7.810479857000075], [-61.49024653699985, 7.810442784000145], [-61.46269421099993, 7.798780574000091], [-61.45072171999993, 7.815755065000133], [-61.45207280699998, 7.820478185000127], [-61.45387691099995, 7.826123334999977], [-61.45831513099989, 7.831090447000122], [-61.46424242199987, 7.83548753700012], [-61.471202765999976, 7.839084606000142], [-61.472323834999884, 7.844036724000034], [-61.46921669999995, 7.848279847000015], [-61.46129436199993, 7.854803052000022], [-61.455675107999866, 7.858000165000135], [-61.45016587099991, 7.86211829299998], [-61.44397759399993, 7.864737375000175], [-61.441900508999936, 7.868524488000048], [-61.44189252199982, 7.870250534000093], [-61.44141451499996, 7.874849661000042], [-61.44012748099988, 7.881056821000072], [-61.43975648899993, 7.887037984000131], [-61.43776043799994, 7.898189287000093], [-61.43382528799998, 7.908180559000016], [-61.428309054999886, 7.913563724000028], [-61.42612396299995, 7.916084806000072], [-61.4163735329999, 7.921793988000104], [-61.4152194859999, 7.92386005200018], [-61.41121030899984, 7.924992093000128], [-61.40718913799992, 7.928656205999971], [-61.40225491499996, 7.93185530400018], [-61.39285549699986, 7.935954456000047], [-61.38093696599992, 7.940387612000052], [-61.354097770999886, 7.954762096000138], [-61.34435533899989, 7.958398229000181], [-61.333231843999954, 7.963984422000067], [-61.32887564899994, 7.965805490000093], [-61.31833516599994, 7.96874760999998], [-61.30985878299998, 7.970778688], [-61.29245513799998, 7.976257105000059], [-61.289691864999895, 7.977126939000073], [-61.28968263899992, 7.977143492000152], [-61.2896256599999, 7.978288344000021], [-61.28961916499992, 7.981586723000134], [-61.28958841299993, 7.997204218000149], [-61.28954125499996, 8.021153300000151], [-61.28944954299993, 8.067729201000134], [-61.28941431199985, 8.08562114600005], [-61.288808, 8.393536000000154], [-61.28273199999984, 8.403995000000123], [-61.278391, 8.40972], [-61.27405, 8.414730000000134], [-61.268261, 8.416162000000156], [-61.26392, 8.416162000000156], [-61.259579, 8.417593], [-61.258856, 8.423318000000165], [-61.258133, 8.429760000000101], [-61.254515, 8.440496], [-61.252772, 8.44657500000011], [-61.247918999999854, 8.454407000000117], [-61.243458, 8.460807000000159], [-61.23767, 8.466533], [-61.229711, 8.470828], [-61.216206, 8.474116], [-61.20531499999987, 8.473418000000152], [-61.19231399999984, 8.476681000000156], [-61.182757, 8.487983], [-61.17694, 8.498258], [-61.181511, 8.500313], [-61.194462, 8.505625], [-61.20025, 8.507772000000102], [-61.203868, 8.50848800000017], [-61.20893299999989, 8.50848800000017], [-61.213997, 8.503478], [-61.216168, 8.497752], [-61.221956, 8.495605], [-61.22846799999985, 8.49703600000015], [-61.235703, 8.502046], [-61.240768, 8.5041930000001], [-61.246557, 8.506341], [-61.258133, 8.503477], [-61.266815, 8.499899], [-61.272603, 8.498467], [-61.279838, 8.497752], [-61.284903, 8.502046], [-61.284903, 8.509203000000184], [-61.27332699999988, 8.530674], [-61.268262, 8.539978000000133], [-61.26536799999985, 8.55644], [-61.256611, 8.572652000000119], [-61.267668, 8.571997000000124], [-61.292656, 8.575928000000147], [-61.309905, 8.579858], [-61.328702, 8.58357], [-61.350594, 8.585754], [-61.386417, 8.587719000000163], [-61.41405999999989, 8.588593000000174], [-61.437499999999886, 8.587501], [-61.45474799999988, 8.58269700000011], [-61.462709, 8.580077], [-61.481062999999835, 8.576363], [-61.49963899999983, 8.570686], [-61.521754, 8.574231]]]}}, {"type": "Feature", "properties": {"Pais": "Venezuela", "Estado": "Delta Amacuro", "Municipio": "Antonio D\u00edaz", "Parroquia": "Francisco Aniceto Lugo"}, "geometry": {"type": "Polygon", "coordinates": [[[-60.680729388999964, 8.704367062000188], [-60.679531339999926, 8.706845136000027], [-60.693437, 8.70266400000014], [-60.698579, 8.698475], [-60.704604, 8.694779000000153], [-60.71359, 8.692725], [-60.720965, 8.692802], [-60.728938, 8.692084000000136], [-60.735586, 8.689773], [-60.741481, 8.686717000000158], [-60.747038056999884, 8.684387615000048], [-60.748156, 8.683919], [-60.754024, 8.68207], [-60.757608, 8.681403000000103], [-60.760776, 8.680735], [-60.762698, 8.679939000000104], [-60.76524299999983, 8.677834], [-60.768204, 8.674522], [-60.772695999999826, 8.66926], [-60.773631, 8.668438], [-60.775813, 8.667103000000168], [-60.778462, 8.66528000000011], [-60.78253899999987, 8.662584000000152], [-60.785473, 8.661583000000121], [-60.786243812999885, 8.661284350000074], [-60.786668, 8.66112], [-60.788564, 8.66035], [-60.789758, 8.659631000000104], [-60.79419899999988, 8.656089000000122], [-60.796458, 8.654291], [-60.797393, 8.653213], [-60.799263, 8.651134000000127], [-60.800094, 8.650132000000156], [-60.80178199999989, 8.647603000000174], [-60.802717, 8.646524], [-60.804172, 8.645600000000172], [-60.806144999999844, 8.644933], [-60.808015, 8.644470000000126], [-60.80957299999989, 8.644316000000174], [-60.81243, 8.643341000000134], [-60.814404, 8.642568000000153], [-60.817208, 8.639487], [-60.822195, 8.633531], [-60.824064, 8.626137], [-60.82681699999989, 8.621425000000102], [-60.829311, 8.620398], [-60.83138799999989, 8.621014], [-60.838452, 8.621425000000102], [-60.848424, 8.62121900000011], [-60.85715, 8.619576], [-60.867537999999854, 8.61587800000018], [-60.876471, 8.611769], [-60.884574, 8.608071000000109], [-60.892053, 8.603757], [-60.896831, 8.599032], [-60.899401999999895, 8.594634], [-60.898251, 8.592579000000114], [-60.89755, 8.590356], [-60.896874, 8.586846], [-60.894913, 8.582389], [-60.894264, 8.577591], [-60.892924, 8.570017], [-60.890653, 8.562425], [-60.887271, 8.554444000000103], [-60.885291, 8.550908000000106], [-60.88345, 8.549768000000142], [-60.878054, 8.549295], [-60.874901, 8.548498], [-60.87324599999988, 8.547361], [-60.870883, 8.54437], [-60.867803, 8.539892000000123], [-60.860552, 8.533540000000187], [-60.857021, 8.529219], [-60.848858, 8.523595000000114], [-60.844118, 8.52038], [-60.833287, 8.516031], [-60.829877, 8.512573000000145], [-60.824871, 8.509354], [-60.821705, 8.507736000000136], [-60.818048, 8.502700000000175], [-60.814947, 8.495573], [-60.81368499999985, 8.490047], [-60.81371, 8.48794800000013], [-60.813207, 8.485580000000141], [-60.811115, 8.482927000000188], [-60.808208, 8.481837], [-60.80502899999988, 8.481268], [-60.803421, 8.482557], [-60.801292, 8.483052], [-60.798373, 8.483011], [-60.797058, 8.481943000000115], [-60.791312, 8.473992], [-60.784778999999844, 8.465243], [-60.784311, 8.45999], [-60.78327999999988, 8.457352], [-60.776442, 8.452009000000146], [-60.773815, 8.449611000000175], [-60.77043, 8.444054000000108], [-60.765925, 8.443467], [-60.761046, 8.440492], [-60.759629, 8.437082], [-60.759139, 8.433665], [-60.758642, 8.430772000000161], [-60.76134499999989, 8.42439], [-60.770051, 8.421284], [-60.78032299999984, 8.408015], [-60.784665, 8.400205], [-60.789011, 8.395133000000158], [-60.790985, 8.39201], [-60.791375, 8.388883], [-60.789786999999876, 8.386533], [-60.78741, 8.385745000000156], [-60.78701, 8.38378900000015], [-60.789376, 8.378321], [-60.790553, 8.372459000000106], [-60.793714, 8.368947000000105], [-60.79727899999989, 8.369347000000175], [-60.799262, 8.371307000000172], [-60.804799, 8.36702], [-60.808747, 8.360382], [-60.813875, 8.349838], [-60.820197, 8.342425], [-60.823756, 8.340088], [-60.822958, 8.336567], [-60.822158, 8.332655], [-60.824924, 8.329532000000142], [-60.831251, 8.324074], [-60.835985, 8.314311], [-60.835184, 8.309617000000117], [-60.83083, 8.310779000000139], [-60.829245, 8.309993000000134], [-60.829237, 8.306083], [-60.832398999999896, 8.302572], [-60.832392, 8.299053000000185], [-60.831191, 8.292011000000173], [-60.831181, 8.286146], [-60.829192, 8.281839000000161], [-60.830368, 8.275586], [-60.829169, 8.269718000000182], [-60.823220999999876, 8.26501100000013], [-60.82002099999988, 8.248189], [-60.824756, 8.238817000000154], [-60.827121, 8.23295800000011], [-60.83580399999988, 8.217729], [-60.844895, 8.207977], [-60.847661, 8.204856], [-60.840515375999985, 7.952843347999988], [-60.839966011999934, 7.933468340000047], [-60.8396258599999, 7.921471808000092], [-60.838687, 7.88836], [-60.83528474299993, 7.87942506800016], [-60.81191226899989, 7.873722786000144], [-60.76507535099989, 7.862295786], [-60.66731234899993, 7.838454605000152], [-60.61379742699995, 7.845053121000035], [-60.32259535899993, 7.880959025000152], [-60.27254206199996, 7.893621540000026], [-60.27226736599988, 7.893691029000024], [-60.26251659899992, 7.896157647], [-60.26135655599995, 7.898335710000026], [-60.259174460999986, 7.899585749000153], [-60.25859342899997, 7.900847797000097], [-60.257773406999945, 7.903487862000134], [-60.25740940399987, 7.906476950000012], [-60.256827377999855, 7.907852982], [-60.255786332999946, 7.909457032000034], [-60.25245418199995, 7.911505095000109], [-60.25152714699988, 7.913224146000175], [-60.24992207799994, 7.913673171000084], [-60.24799098099999, 7.911819121000178], [-60.246842921999985, 7.912271137000118], [-60.24636990799996, 7.91445419900009], [-60.24543387799997, 7.917438287000039], [-60.24495886699998, 7.91985135300007], [-60.23958052499995, 7.928443883999989], [-60.238362596999934, 7.930389667000156], [-60.23033422399993, 7.93321076899997], [-60.229745212999944, 7.935506835000069], [-60.23041625099995, 7.937697887000184], [-60.23304536899997, 7.937946883000166], [-60.23624951599987, 7.937853865000136], [-60.237153573999876, 7.939355902000159], [-60.237249583999926, 7.942001984000058], [-60.23585453399994, 7.944984063000163], [-60.23320941199995, 7.946921132000114], [-60.22976826099989, 7.948163169999987], [-60.226672108999935, 7.949176209000086], [-60.22494203699989, 7.951120275000164], [-60.22240775199998, 7.954317026000069], [-60.22240193099998, 7.95432436800013], [-60.22021183399994, 7.956609430000015], [-60.21757172399998, 7.957856480000032], [-60.21160545399988, 7.960231570000076], [-60.20931433599986, 7.960675584000057], [-60.20645321399991, 7.960770600000103], [-60.203484061999916, 7.960059590000071], [-60.201085953999836, 7.959467587000177], [-60.19947088499998, 7.961181637999971], [-60.199916903999906, 7.962910676000035], [-60.20001092799998, 7.965671759000145], [-60.19977592099997, 7.966475775000049], [-60.19850785999995, 7.967847825000092], [-60.196106749999956, 7.967600825999966], [-60.193939641999975, 7.966664801000093], [-60.19120550699989, 7.965034773000014], [-60.18973342999993, 7.962953723000169], [-60.18699829199994, 7.961553698000046], [-60.185495234999905, 7.963613757000019], [-60.18434019099993, 7.96510180100006], [-60.183286144999954, 7.968545895000091], [-60.1816680849999, 7.970719963000022], [-60.17982900199996, 7.971858003000079], [-60.176161828999966, 7.972752035000156], [-60.17294967999999, 7.973880076000114], [-60.17019755599995, 7.974780112000133], [-60.16574034699994, 7.974174116000086], [-60.16265419299992, 7.973692116], [-60.158847041999934, 7.978036245], [-60.15479987199984, 7.98376041400013], [-60.13149584699988, 8.00329302700004], [-60.116418227999986, 8.026583709000136], [-60.11484514999995, 8.027824760000044], [-60.11043494899991, 8.027813767000112], [-60.106025743999965, 8.028424809000057], [-60.10098851099991, 8.029966862000038], [-60.09721034399996, 8.031201913000189], [-60.09343317099996, 8.032747970000116], [-60.088076913999885, 8.032733989000121], [-60.08681284799985, 8.030552931000102], [-60.085229753999954, 8.025883814000053], [-60.08270663499991, 8.024321781000026], [-60.07829642299998, 8.024310800000137], [-60.07514026399997, 8.021192722000023], [-60.06915097699982, 8.019310697000037], [-60.066311830999894, 8.017437659000109], [-60.063790712999946, 8.016808643000104], [-60.05969451399994, 8.016176642000175], [-60.05402625599993, 8.017406698000116], [-60.042876767999985, 8.02800003100009], [-60.03126925799995, 8.037189322000074], [-60.02198486499992, 8.048676666000176], [-60.008056297999985, 8.071652344000142], [-60.00573524099997, 8.085436733000165], [-60.00457425799982, 8.104966263000051], [-59.99644993399994, 8.12104873700008], [-59.9860044749999, 8.130238025000097], [-59.99645002999995, 8.146320429000127], [-59.996450064999976, 8.155510671000059], [-59.987164721999875, 8.178485342000045], [-59.98136147799994, 8.186526586000127], [-59.96975493099984, 8.187675662000174], [-59.95234512899998, 8.19112181800017], [-59.94886298399996, 8.196865984000112], [-59.9443878429999, 8.213759463000144], [-59.83485875499997, 8.233499427000083], [-59.74110427699992, 8.21984140900014], [-59.74110432099985, 8.231328723000047], [-59.75038984899993, 8.25660138000012], [-59.76083640699994, 8.271534756000051], [-59.77128192099991, 8.279575941000076], [-59.797977264999986, 8.301402441000164], [-59.84022134299994, 8.320533807000174], [-59.85123989999988, 8.331491068000048], [-59.85521812099995, 8.339528268000151], [-59.85869629199988, 8.34276034200002], [-59.86855779599995, 8.35279258300011], [-59.87621519699991, 8.360519768000074], [-59.883533572999966, 8.368928969000137], [-59.89589623299986, 8.38858547000018], [-59.90507269699998, 8.398954712000148], [-59.91924343499983, 8.414739097000108], [-59.92992697599993, 8.426263372000165], [-59.95612435399994, 8.461928268], [-59.970271072999935, 8.474395553000136], [-59.97886651899995, 8.483614772000067], [-59.98607188999995, 8.491791972000044], [-60.00168570999983, 8.512723493000067], [-60.01244324899994, 8.522519720000162], [-60.01739449899998, 8.526740824000171], [-60.02211273499995, 8.530390895000096], [-60.02684798699994, 8.536905061000141], [-60.03182025299998, 8.544678257999976], [-60.035391440999945, 8.55045540400016], [-60.03483342199996, 8.551746448000017], [-60.03399039999994, 8.55425652000008], [-60.04078372999999, 8.558878614000037], [-60.044175891999885, 8.558887599000172], [-60.04333586799993, 8.563072730000158], [-60.0429168629999, 8.565583792999973], [-60.04758909999987, 8.569782891000159], [-60.05225432299994, 8.570631896000123], [-60.05522245599997, 8.570638885000108], [-60.057770586999936, 8.572319928000184], [-60.05777459299998, 8.574413982000067], [-60.054806460999885, 8.574825007000072], [-60.050142234999896, 8.574813022000058], [-60.048025146999976, 8.576483075000112], [-60.05184533199997, 8.57858612400014], [-60.059902714999964, 8.579025096000066], [-60.06286684099996, 8.576520018000053], [-60.07008420199992, 8.58156213300009], [-60.082385797999905, 8.583687144000123], [-60.101461678999954, 8.58038497400014], [-60.128606972999876, 8.58422197300007], [-60.13624233999997, 8.585496973000033], [-60.146000803999925, 8.588453019000042], [-60.156180288999906, 8.590153023000028], [-60.160423493999986, 8.591420043000028], [-60.16806888799994, 8.59813819600015], [-60.176551282999924, 8.598997189999977], [-60.18375962399995, 8.599015159000146], [-60.18672876399995, 8.599441167000066], [-60.196916269999974, 8.604910271000108], [-60.20964188299996, 8.60745429800005], [-60.21515414299995, 8.607468265000023], [-60.22364255899993, 8.611676358000125], [-60.23255499099997, 8.615467418000094], [-60.24231345599998, 8.618841477000103], [-60.264368513999955, 8.621409460000052], [-60.27921621599995, 8.62479649400018], [-60.30165228599992, 8.628738508000026], [-60.30339436999998, 8.629044517000011], [-60.32163624699996, 8.633276552000154], [-60.33181773299992, 8.635814582000023], [-60.34878354199992, 8.638369589000092], [-60.360653095999965, 8.636306482], [-60.37209861999992, 8.63424137800007], [-60.38312313799992, 8.633850328000051], [-60.39202555499986, 8.632617253000035], [-60.39964988799983, 8.628030094000053], [-60.405154136999954, 8.623856958999966], [-60.40642118799991, 8.62134787900004], [-60.41108038699997, 8.618428789000063], [-60.41150240099995, 8.617173752999975], [-60.41107037199998, 8.612985636000133], [-60.409792299999935, 8.609632545000068], [-60.410632310999915, 8.605448432000173], [-60.41317243299994, 8.603361358000143], [-60.41486649799987, 8.602109320000125], [-60.41571052699999, 8.60001725], [-60.417827625999905, 8.598348203000057], [-60.41867165499991, 8.596257138000112], [-60.419089662999966, 8.592908049000073], [-60.42374786699992, 8.58957093400005], [-60.42713400799994, 8.586229827000125], [-60.41269829399988, 8.576144604000092], [-60.404636908999976, 8.574030587000095], [-60.39693953099993, 8.57035451300004], [-60.39317834599996, 8.56855847300011], [-60.39612343999988, 8.5564241350001], [-60.40461585999992, 8.56272527599998], [-60.410556142999894, 8.564834299000154], [-60.41903454099992, 8.563180221000096], [-60.4283549569999, 8.559017076000146], [-60.434290236999914, 8.55819402100019], [-60.44107154799997, 8.55611793900016], [-60.44488370899995, 8.55403386300003], [-60.44571972699987, 8.547755697000184], [-60.44571371799998, 8.54440659800008], [-60.44528066899994, 8.539380468000047], [-60.44866682299988, 8.53645836800007], [-60.44951085099984, 8.533948297000109], [-60.449501832999886, 8.529342165], [-60.45246094499993, 8.524325021000038], [-60.456268104999936, 8.519310865000136], [-60.46092731699997, 8.516809777000105], [-60.468797681999945, 8.515336700000034], [-60.47302387399992, 8.514930672000162], [-60.47959521299998, 8.52229986000009], [-60.482147349999934, 8.526074944000129], [-60.48511949899995, 8.528175998000052], [-60.48723658699987, 8.526506939000114], [-60.49062273899989, 8.523165832000132], [-60.491465760999915, 8.520655761], [-60.49485491199994, 8.51898870700012], [-60.49995318099991, 8.524444834000064], [-60.507594553999866, 8.528650919000029], [-60.513540856999896, 8.534109041000079], [-60.522451284999875, 8.53706309100005], [-60.53474785499998, 8.537094036000042], [-60.54577638999996, 8.538796047000119], [-60.56037107799989, 8.541402054000173], [-60.59311538299994, 8.549458991000051], [-60.58934271899989, 8.609439810000026], [-60.58643857799996, 8.610165849000111], [-60.58281341199995, 8.611628906000135], [-60.5806563189999, 8.61341196100011], [-60.580300318999946, 8.615318017000106], [-60.58140836899997, 8.617174057], [-60.581029384999965, 8.623105218000035], [-60.58439355199994, 8.625332269000182], [-60.58767570299989, 8.626088285000037], [-60.59527609699995, 8.63500949600018], [-60.596240148999925, 8.637065550000159], [-60.629176765999944, 8.654872908000016], [-60.66824015199995, 8.66881713100014], [-60.680729388999964, 8.704367062000188]]]}}, {"type": "Feature", "properties": {"Pais": "Venezuela", "Estado": "Delta Amacuro", "Municipio": "Antonio D\u00edaz", "Parroquia": "Manuel Renaud"}, "geometry": {"type": "Polygon", "coordinates": [[[-60.9686364829999, 9.484601346000147], [-60.9708991519999, 9.483352341000113], [-60.977945, 9.479463], [-60.982132, 9.472558], [-60.98656862099995, 9.451320382000176], [-60.987899, 9.444952000000114], [-60.994487999999876, 9.427901], [-60.99511745299998, 9.426783942000043], [-60.99860599999988, 9.42059300000011], [-61.006843, 9.416534000000183], [-61.011786, 9.412474000000145], [-61.01508, 9.40679], [-61.010961, 9.398671], [-61.011785, 9.389739], [-61.015904, 9.378372000000127], [-61.017551, 9.360510000000147], [-61.015079, 9.351578], [-61.017551, 9.34345900000011], [-61.023317, 9.333716], [-61.038966, 9.328032000000178], [-61.057087, 9.319100000000105], [-61.07191399999988, 9.310169], [-61.088388, 9.30448500000017], [-61.100742, 9.302050000000122], [-61.104861, 9.297178], [-61.107332, 9.28987], [-61.10568399999988, 9.276067], [-61.1081549999999, 9.257392], [-61.11145, 9.237906], [-61.11804, 9.222478], [-61.116392, 9.194873], [-61.113921, 9.181069], [-61.117215, 9.167267], [-61.12380499999989, 9.157524], [-61.128747, 9.152651000000105], [-61.136984, 9.151839000000109], [-61.148516, 9.159959000000129], [-61.164989999999875, 9.166455], [-61.171578999999895, 9.170514], [-61.182286, 9.171326], [-61.194642, 9.16889], [-61.202878, 9.169702000000143], [-61.215233999999896, 9.163206], [-61.221866, 9.161293000000171], [-61.225944, 9.163305], [-61.232764, 9.168860000000109], [-61.241181, 9.171649000000116], [-61.245195, 9.17680200000018], [-61.258818, 9.178814], [-61.264034, 9.183573000000138], [-61.276457, 9.186373000000174], [-61.282466, 9.187179], [-61.28606799999989, 9.18560600000012], [-61.289663, 9.18047300000012], [-61.294871, 9.180487], [-61.297681, 9.183658], [-61.299284, 9.184453000000133], [-61.301682, 9.181690000000117], [-61.303272999999876, 9.175365000000113], [-61.307652, 9.161138000000165], [-61.314836, 9.147314000000165], [-61.3268139999999, 9.126382], [-61.334014, 9.121259000000123], [-61.341535, 9.059878], [-61.107698, 8.812245000000189], [-61.107697, 8.823463], [-61.108048, 8.830382], [-61.106297, 8.835917], [-61.105421, 8.846123], [-61.10297, 8.8587500000001], [-61.102269, 8.868264000000181], [-61.10401999999988, 8.873107000000118], [-61.112425, 8.880200000000116], [-61.116802999999834, 8.88608100000016], [-61.116836, 8.890516000000105], [-61.113126, 8.892775000000142], [-61.107346999999834, 8.896234], [-61.103495, 8.901423], [-61.101919, 8.908861000000115], [-61.101919, 8.924774000000127], [-61.098592, 8.934979000000169], [-61.094039, 8.945703], [-61.091063, 8.952102], [-61.088961, 8.960059000000172], [-61.086335, 8.973031], [-61.07933, 8.982891000000109], [-61.06969999999984, 8.989982000000111], [-61.060157, 8.993311], [-61.051051, 8.995992000000172], [-61.04500999999988, 8.991847], [-61.039581999999825, 8.990809000000127], [-61.032402, 8.991155000000163], [-61.026624, 8.992884], [-61.02172099999984, 8.994959000000165], [-61.017343, 8.999455000000182], [-61.012791, 9.004471], [-61.005436, 9.011388], [-61.00035799999989, 9.015711000000124], [-60.994229, 9.01917], [-60.987225, 9.022974000000147], [-60.980570999999884, 9.027816], [-60.973917, 9.034906], [-60.963936, 9.047875], [-60.957282, 9.056349], [-60.951503999999886, 9.065687], [-60.944499, 9.073988], [-60.937495, 9.080214], [-60.931366, 9.084191], [-60.92576299999985, 9.084883], [-60.920335, 9.083672], [-60.914381, 9.080732000000125], [-60.909478, 9.079176000000189], [-60.902999, 9.077793000000156], [-60.895995, 9.077793000000156], [-60.888291, 9.079003], [-60.880761, 9.081251], [-60.875508, 9.084537000000182], [-60.871655, 9.0897250000001], [-60.871437324999874, 9.090051490000121], [-60.866928, 9.096815], [-60.862725, 9.101830000000177], [-60.853093999999885, 9.103472000000124], [-60.845204, 9.10698600000012], [-60.83773870999994, 9.109418982000136], [-60.836318, 9.109882], [-60.825544, 9.116688000000124], [-60.810247, 9.12935], [-60.800973, 9.142286000000126], [-60.794822999999894, 9.154503], [-60.787215, 9.165243000000146], [-60.781976, 9.171831000000111], [-60.77527, 9.175717], [-60.773159, 9.176649000000111], [-60.740250580999884, 9.171185692000165], [-60.70936234499993, 9.169111109000028], [-60.739411752999956, 9.19718007900002], [-60.740031290999866, 9.199142633000065], [-60.74150137299989, 9.201843699999984], [-60.742971455999964, 9.204544778000013], [-60.743117465999944, 9.207362861000036], [-60.74326348899996, 9.210180933000174], [-60.74451457299989, 9.215330070000164], [-60.74622965999998, 9.21852115400003], [-60.74721372099992, 9.22073121000011], [-60.75134492799998, 9.224916309000093], [-60.75547715099992, 9.22909941000006], [-60.760821413999906, 9.234024532999968], [-60.767115725999986, 9.237727610000036], [-60.77002887999993, 9.240192660000105], [-60.762056620999886, 9.266656454000156], [-60.762299654999936, 9.27101056600003], [-60.76498679499986, 9.275168674000156], [-60.769730041999935, 9.281409830000143], [-60.80138784099995, 9.350029637000091], [-60.80887423199988, 9.35974088000006], [-60.81418253199996, 9.372197208000102], [-60.81703569099989, 9.37621931200016], [-60.82559914899991, 9.390289678000102], [-60.83578669099995, 9.40356200400015], [-60.850447440999915, 9.417246328000147], [-60.862252032999834, 9.425304499000106], [-60.872229546999904, 9.434762728000123], [-60.88220704899999, 9.444220957000141], [-60.8907554779999, 9.450464095000086], [-60.89930390599994, 9.456707233000088], [-60.908669381999914, 9.46475942000012], [-60.92657426699998, 9.474638619000132], [-60.9314575009999, 9.477259671000127], [-60.94446711599994, 9.47729261699999], [-60.949345347999895, 9.477305591000174], [-60.95178145199992, 9.475705541000139], [-60.95177643899996, 9.473297464000098], [-60.95762968999986, 9.46862030300008], [-60.97478452499996, 9.475499427000159], [-60.97682614999985, 9.478541203000077], [-60.97560757999992, 9.47989254900017], [-60.968229236999946, 9.47982158300016], [-60.9686364829999, 9.484601346000147]]]}}, {"type": "Feature", "properties": {"Pais": "Venezuela", "Estado": "Delta Amacuro", "Municipio": "Antonio D\u00edaz", "Parroquia": "Padre Barral"}, "geometry": {"type": "Polygon", "coordinates": [[[-60.675197747999846, 9.084964699000125], [-60.67923496499992, 9.0919738770001], [-60.68535436899998, 9.118430593000141], [-60.68527487299997, 9.120070141000099], [-60.68519537699996, 9.121709689], [-60.68512338199997, 9.124217264000094], [-60.685051398999974, 9.12672483900019], [-60.68469538999989, 9.129230901000085], [-60.68415037299991, 9.131929989000128], [-60.68321633799991, 9.13346803200011], [-60.68219629999999, 9.13597110500018], [-60.68117626199995, 9.138474179000127], [-60.6841609249999, 9.143408808000117], [-60.68617953699987, 9.146409384000094], [-60.69116879199993, 9.152799538000181], [-60.6953730059999, 9.15629261800018], [-60.702640371999905, 9.16288777800014], [-60.70436145899993, 9.164439811000022], [-60.70936234499993, 9.169111109000028], [-60.740250580999884, 9.171185692000165], [-60.773159, 9.176649000000111], [-60.77527, 9.175717], [-60.781976, 9.171831000000111], [-60.787215, 9.165243000000146], [-60.794822999999894, 9.154503], [-60.800973, 9.142286000000126], [-60.810247, 9.12935], [-60.825544, 9.116688000000124], [-60.836318, 9.109882], [-60.83773870999994, 9.109418982000136], [-60.845204, 9.10698600000012], [-60.853093999999885, 9.103472000000124], [-60.862725, 9.101830000000177], [-60.866928, 9.096815], [-60.871437324999874, 9.090051490000121], [-60.871655, 9.0897250000001], [-60.875508, 9.084537000000182], [-60.880761, 9.081251], [-60.888291, 9.079003], [-60.895995, 9.077793000000156], [-60.902999, 9.077793000000156], [-60.909478, 9.079176000000189], [-60.914381, 9.080732000000125], [-60.920335, 9.083672], [-60.92576299999985, 9.084883], [-60.931366, 9.084191], [-60.937495, 9.080214], [-60.944499, 9.073988], [-60.951503999999886, 9.065687], [-60.957282, 9.056349], [-60.963936, 9.047875], [-60.973917, 9.034906], [-60.980570999999884, 9.027816], [-60.987225, 9.022974000000147], [-60.994229, 9.01917], [-61.00035799999989, 9.015711000000124], [-61.005436, 9.011388], [-61.012791, 9.004471], [-61.017343, 8.999455000000182], [-61.02172099999984, 8.994959000000165], [-61.026624, 8.992884], [-61.032402, 8.991155000000163], [-61.039581999999825, 8.990809000000127], [-61.04500999999988, 8.991847], [-61.051051, 8.995992000000172], [-61.060157, 8.993311], [-61.06969999999984, 8.989982000000111], [-61.07933, 8.982891000000109], [-61.086335, 8.973031], [-61.088961, 8.960059000000172], [-61.091063, 8.952102], [-61.094039, 8.945703], [-61.098592, 8.934979000000169], [-61.101919, 8.924774000000127], [-61.101919, 8.908861000000115], [-61.103495, 8.901423], [-61.107346999999834, 8.896234], [-61.113126, 8.892775000000142], [-61.116836, 8.890516000000105], [-61.116802999999834, 8.88608100000016], [-61.112425, 8.880200000000116], [-61.10401999999988, 8.873107000000118], [-61.102269, 8.868264000000181], [-61.10297, 8.8587500000001], [-61.105421, 8.846123], [-61.106297, 8.835917], [-61.108048, 8.830382], [-61.107697, 8.823463], [-61.107698, 8.812245000000189], [-61.1112, 8.808092000000102], [-61.118729, 8.803246], [-61.130636, 8.7984], [-61.139041, 8.791131], [-61.147972, 8.770882000000142], [-61.159353, 8.753402000000108], [-61.163469, 8.74333700000011], [-61.170988, 8.731327], [-61.17718, 8.720626], [-61.181382, 8.712765000000104], [-61.186025, 8.69682500000016], [-61.187352, 8.682412000000113], [-61.18757299999987, 8.666908], [-61.188015, 8.648346000000174], [-61.189563, 8.630877], [-61.19288, 8.614062], [-61.197524, 8.605328000000156], [-61.204156999999896, 8.598122], [-61.212285, 8.586314], [-61.204078, 8.582205000000101], [-61.196184, 8.577069], [-61.19047, 8.572651], [-61.185484, 8.567926], [-61.181641, 8.564536], [-61.17603099999985, 8.56227600000011], [-61.16740899999985, 8.5594], [-61.160553, 8.558373000000131], [-61.154528, 8.559195000000102], [-61.146218, 8.563201000000106], [-61.137804, 8.56987800000013], [-61.132402, 8.575772], [-61.127935, 8.580291000000159], [-61.123365, 8.58861000000013], [-61.12014399999987, 8.595286], [-61.115366, 8.600935000000106], [-61.108822, 8.608432000000107], [-61.102589, 8.61490300000014], [-61.098226, 8.620141000000103], [-61.0936549999999, 8.623222000000112], [-61.088877, 8.62466], [-61.078801, 8.624557], [-61.071218, 8.623838], [-61.06644, 8.622914], [-61.062284, 8.62096200000019], [-61.055325, 8.618908], [-61.05065, 8.617984000000149], [-61.046599, 8.617984000000149], [-61.042132, 8.618497000000161], [-61.03673, 8.620552], [-61.03330199999988, 8.621496], [-61.029043, 8.621940000000109], [-61.020213, 8.627416], [-61.007422, 8.629683], [-61.001827, 8.631884], [-60.99943699999989, 8.633938000000171], [-60.996711, 8.636616], [-60.996919, 8.639390000000105], [-60.998373, 8.643908000000181], [-60.999308, 8.648632], [-61.00097, 8.651713], [-60.998684, 8.657977000000187], [-60.99535999999989, 8.66383100000013], [-60.990894, 8.669629], [-60.990894, 8.674250000000143], [-60.992348, 8.679179], [-60.991413, 8.682260000000156], [-60.989438999999834, 8.683287], [-60.986842, 8.683184], [-60.985283999999865, 8.681849], [-60.983207, 8.679693], [-60.981545, 8.678768], [-60.98009, 8.679487], [-60.979259, 8.681438000000128], [-60.978116999999884, 8.684724], [-60.976766, 8.686881], [-60.974896, 8.687805], [-60.972092, 8.688011], [-60.9674169999999, 8.688319], [-60.963885, 8.688832000000161], [-60.961184, 8.690475], [-60.95941799999986, 8.693248000000153], [-60.95900299999988, 8.696534], [-60.958691, 8.699615000000108], [-60.957652, 8.701566], [-60.955159, 8.702593], [-60.95017299999989, 8.704544], [-60.945498, 8.707214], [-60.94175899999988, 8.709987000000126], [-60.933864, 8.719434000000149], [-60.930955, 8.719783], [-60.927890999999875, 8.72004], [-60.914595, 8.725636000000122], [-60.909141, 8.727484], [-60.902181, 8.728049000000112], [-60.89626, 8.729641], [-60.889716, 8.73092400000013], [-60.878912, 8.737136], [-60.864317, 8.743810000000167], [-60.858604, 8.74509300000011], [-60.84021799999988, 8.74576100000013], [-60.83653, 8.748738], [-60.83092099999982, 8.754282000000103], [-60.82801199999989, 8.76075], [-60.82447999999988, 8.76958], [-60.820637, 8.774817], [-60.81775585499997, 8.777095204000148], [-60.813885, 8.780156], [-60.807756, 8.785608], [-60.801211, 8.791973], [-60.796121, 8.79587400000014], [-60.789519, 8.79906700000015], [-60.788097, 8.798837000000162], [-60.783004, 8.798736000000133], [-60.78245133199988, 8.79892597300011], [-60.777462, 8.800641], [-60.775189, 8.802209], [-60.773377, 8.804573000000119], [-60.771838999999886, 8.807472000000132], [-60.770655, 8.809701000000189], [-60.767636, 8.81257], [-60.765567, 8.813543], [-60.762466, 8.814833], [-60.76004499999988, 8.816249], [-60.756377, 8.817415], [-60.753745, 8.81803900000017], [-60.752154, 8.817894], [-60.74930499999988, 8.81795], [-60.74679599999985, 8.81812500000018], [-60.74379999999985, 8.819868000000156], [-60.741139, 8.821956], [-60.739743, 8.823392], [-60.737783, 8.824593000000107], [-60.73491, 8.825887], [-60.732385, 8.826851], [-60.730324, 8.827373], [-60.72700105699988, 8.828167816000132], [-60.719332, 8.830308000000116], [-60.712410886999976, 8.83246941700014], [-60.70770937199984, 8.835331209000117], [-60.708460238999976, 8.83678211500012], [-60.70903527299993, 8.838026646000117], [-60.71017032999998, 8.838987674000066], [-60.722865773999956, 8.872095766000143], [-60.726636287999895, 8.881928794000146], [-60.726794294999934, 8.883262833000117], [-60.727826352999955, 8.884601870000154], [-60.72943943499996, 8.88579489700004], [-60.761134108999954, 8.931114029000014], [-60.76920764299996, 8.967093992000116], [-60.78328037199992, 8.985549447000096], [-60.712702315999934, 9.041503318000082], [-60.70805509699994, 9.041481343000157], [-60.70586500899998, 9.04271438000012], [-60.70490295999997, 9.04445143200013], [-60.68586912799992, 9.056973870000093], [-60.68479708399997, 9.057473884999979], [-60.68167194199992, 9.059731958000043], [-60.67958885999997, 9.062795557000129], [-60.67684875099991, 9.066361167000082], [-60.67495417899994, 9.071910333000062], [-60.67434865899992, 9.07359139000016], [-60.67437667499996, 9.07670747200001], [-60.675197747999846, 9.084964699000125]]]}}, {"type": "Feature", "properties": {"Pais": "Venezuela", "Estado": "Delta Amacuro", "Municipio": "Antonio D\u00edaz", "Parroquia": "Santos de Abelgas"}, "geometry": {"type": "Polygon", "coordinates": [[[-61.341535, 9.059878], [-61.341535, 9.054322], [-61.421567, 8.946623000000102], [-61.42422299999987, 8.938338000000101], [-61.431995, 8.928234], [-61.436495, 8.924193000000173], [-61.440175999999894, 8.921364], [-61.438949, 8.91530200000011], [-61.436904, 8.912069000000145], [-61.437313, 8.909240000000182], [-61.442221, 8.908430000000124], [-61.451222, 8.908430000000124], [-61.454903, 8.907218], [-61.457766, 8.899539], [-61.462266, 8.873673], [-61.465947, 8.866399], [-61.47372, 8.859124000000122], [-61.48435599999988, 8.85063700000012], [-61.498263999999836, 8.840129], [-61.50480899999985, 8.835683], [-61.506036, 8.833258000000114], [-61.505627, 8.831642000000159], [-61.501946, 8.830833], [-61.497037, 8.829621], [-61.494582, 8.824367], [-61.4954, 8.814668], [-61.501537, 8.803351], [-61.508081, 8.796481], [-61.519126, 8.791631], [-61.530989, 8.788802], [-61.54367, 8.784356000000116], [-61.55062399999986, 8.779911], [-61.553488, 8.77506000000011], [-61.556351, 8.765765], [-61.554306, 8.752832], [-61.555942, 8.743941000000177], [-61.562078, 8.734645000000171], [-61.56533499999989, 8.727358000000152], [-61.568137, 8.724849], [-61.574528, 8.72311800000017], [-61.582539, 8.721344000000101], [-61.588493, 8.718142], [-61.593264, 8.713121], [-61.596941, 8.710222], [-61.60018, 8.707842], [-61.604821, 8.7046390000001], [-61.607841, 8.702086], [-61.610598999999866, 8.6991000000001], [-61.612701, 8.69672], [-61.614801999999884, 8.694642], [-61.61629, 8.692565000000116], [-61.61812, 8.690593], [-61.62421399999988, 8.684472], [-61.627322, 8.681443], [-61.62973, 8.679149000000109], [-61.631569, 8.677375], [-61.634896, 8.673783], [-61.636515, 8.672139], [-61.637654, 8.672009000000173], [-61.638485, 8.67287400000015], [-61.639623, 8.674908], [-61.640893, 8.675817000000109], [-61.64229399999988, 8.677202000000136], [-61.64391399999988, 8.677851], [-61.645445, 8.678197], [-61.649429, 8.677591000000177], [-61.654638, 8.674086], [-61.65744, 8.670797], [-61.661467, 8.666296000000159], [-61.664925, 8.662142000000188], [-61.668515, 8.656559], [-61.670179, 8.653983], [-61.670792, 8.65238200000016], [-61.672018, 8.650391000000127], [-61.673987999999895, 8.647665000000131], [-61.675739, 8.644332], [-61.677577, 8.641692000000148], [-61.679022, 8.64030700000012], [-61.680903999999884, 8.639225000000124], [-61.683137, 8.63762400000013], [-61.685238, 8.636369], [-61.686900999999864, 8.635373], [-61.688828, 8.634161000000177], [-61.690929, 8.633253], [-61.693337, 8.633166], [-61.696269999999856, 8.633339], [-61.699947, 8.634724], [-61.704631, 8.636369], [-61.706907, 8.637797], [-61.71010299999989, 8.639095], [-61.712686, 8.640394000000185], [-61.7154, 8.641043], [-61.7196459999999, 8.641604000000143], [-61.723279, 8.641431], [-61.725337, 8.640652], [-61.72735, 8.639959], [-61.730021, 8.639505], [-61.731246999999826, 8.638942000000156], [-61.731553, 8.63786000000016], [-61.730896, 8.636562], [-61.728750999999875, 8.633749], [-61.72629999999987, 8.631519], [-61.721704, 8.628403000000162], [-61.715881, 8.624248], [-61.714305, 8.622213000000102], [-61.714437, 8.619293], [-61.707283, 8.604532000000177], [-61.680968, 8.601257], [-61.666373, 8.600165000000175], [-61.62924, 8.603194000000144], [-61.604501, 8.602350000000115], [-61.588009, 8.598413000000164], [-61.567819, 8.587166], [-61.545071, 8.579855000000123], [-61.521754, 8.574231], [-61.49963899999983, 8.570686], [-61.481062999999835, 8.576363], [-61.462709, 8.580077], [-61.45474799999988, 8.58269700000011], [-61.437499999999886, 8.587501], [-61.41405999999989, 8.588593000000174], [-61.386417, 8.587719000000163], [-61.350594, 8.585754], [-61.328702, 8.58357], [-61.309905, 8.579858], [-61.292656, 8.575928000000147], [-61.267668, 8.571997000000124], [-61.256611, 8.572652000000119], [-61.24843, 8.576801], [-61.236267, 8.580951], [-61.221894, 8.585755000000177], [-61.212285, 8.586314], [-61.204156999999896, 8.598122], [-61.197524, 8.605328000000156], [-61.19288, 8.614062], [-61.189563, 8.630877], [-61.188015, 8.648346000000174], [-61.18757299999987, 8.666908], [-61.187352, 8.682412000000113], [-61.186025, 8.69682500000016], [-61.181382, 8.712765000000104], [-61.17718, 8.720626], [-61.170988, 8.731327], [-61.163469, 8.74333700000011], [-61.159353, 8.753402000000108], [-61.147972, 8.770882000000142], [-61.139041, 8.791131], [-61.130636, 8.7984], [-61.118729, 8.803246], [-61.1112, 8.808092000000102], [-61.107698, 8.812245000000189], [-61.341535, 9.059878]]]}}]}