{"type": "FeatureCollection", "features": [{"type": "Feature", "properties": {"Pais": "Venezuela", "Estado": "Barinas", "Municipio": "Antonio Jos\u00e9 de Sucre"}, "geometry": {"type": "Polygon", "coordinates": [[[-70.82395, 8.585405], [-70.824189, 8.58615600000013], [-70.8242939999999, 8.586999], [-70.823407, 8.587904], [-70.82310112199997, 8.5881932960001], [-70.822208, 8.589038], [-70.82204399999989, 8.589974], [-70.82229199999989, 8.59121400000015], [-70.82237136099997, 8.591428024000095], [-70.822767, 8.592495], [-70.82333299999988, 8.593818000000113], [-70.823937, 8.59474], [-70.824767, 8.595702], [-70.825135, 8.596096000000102], [-70.832856, 8.595664], [-70.83365732499988, 8.595508179000092], [-70.83517742099997, 8.595212590000017], [-70.83528479899996, 8.595191710000108], [-70.8357218249999, 8.595158875000095], [-70.83577133699998, 8.595134691000055], [-70.8409915339999, 8.590670567000188], [-70.8450256719999, 8.586448441000073], [-70.84825880299991, 8.585283399000161], [-70.85051823899988, 8.585573540999974], [-70.85052489899982, 8.58557439600014], [-70.84948079299994, 8.574663159000181], [-70.84872069299985, 8.56029485199997], [-70.84356442599989, 8.549475637000171], [-70.84153531199996, 8.544735550000098], [-70.84372636299997, 8.538050386000123], [-70.84681942599991, 8.52426006700017], [-70.84560633399991, 8.517897939000079], [-70.84314020699998, 8.512713839000128], [-70.83362574099993, 8.497903561999976], [-70.83072258899995, 8.492274445000078], [-70.83191162199995, 8.488358361000053], [-70.83870184599982, 8.477663085000131], [-70.83957183899986, 8.469187903000034], [-70.83865773699989, 8.457335647000093], [-70.84132282399997, 8.452693532000126], [-70.84594799599995, 8.449824440000043], [-70.84355088599995, 8.447606399000108], [-70.84265083699995, 8.445576361], [-70.83720058399996, 8.440474285000107], [-70.83608695499998, 8.439207581000119], [-70.83347641899991, 8.436238211999978], [-70.83366340899994, 8.435091184000157], [-70.83640751999997, 8.433873144000074], [-70.83980165699995, 8.433093109000083], [-70.84402282699989, 8.431148044], [-70.84689091999996, 8.426043915000037], [-70.85088755699996, 8.41419855100014], [-70.85148103199998, 8.41243959000019], [-70.85605621299999, 8.411058541000045], [-70.86212441899988, 8.40232231400006], [-70.86569154699998, 8.398630225000034], [-70.86992368599994, 8.391054030000134], [-70.87338879099997, 8.384232871], [-70.87873699599999, 8.38122077200012], [-70.89132049799991, 8.378247648000126], [-70.89551167399998, 8.377889616000175], [-70.89705171599991, 8.37485754100004], [-70.89935979399985, 8.370690437000064], [-70.90166986799994, 8.36614233500012], [-70.90549400399988, 8.363123244000178], [-70.90741906799991, 8.359333155], [-70.90745003299998, 8.353635022999981], [-70.90864004599996, 8.344901838000112], [-70.90943903599998, 8.338066679000065], [-70.90945402899996, 8.335407627000166], [-70.90947501199986, 8.331608538000182], [-70.90682588499993, 8.328554489000169], [-70.90685485399996, 8.323235368000155], [-70.90535277199984, 8.319428292000111], [-70.91097392099988, 8.302431900000158], [-70.90827979999989, 8.299674855000035], [-70.90777874999992, 8.294243740000127], [-70.90996680699993, 8.2893506260001], [-70.91142385299997, 8.285430533000067], [-70.91067879499997, 8.279749410000079], [-70.90675058399995, 8.271302245000072], [-70.90869764399991, 8.267637162000142], [-70.91016070099994, 8.266676127000153], [-70.9262773499999, 8.263495985000077], [-70.93579372199991, 8.258478823000075], [-70.94163691199998, 8.249456594000094], [-70.94343679899993, 8.248553268000137], [-70.95066525999994, 8.244925452000189], [-70.96018863699999, 8.242866366000158], [-70.96361379399997, 8.244896391000168], [-70.9660112919999, 8.248553268000137], [-70.96655493399987, 8.24938247800003], [-70.96926910999991, 8.261259718000076], [-70.97514438599995, 8.267027813000084], [-70.98467176899999, 8.266940755000178], [-70.99492818299996, 8.264894662000074], [-71.00102340399997, 8.259574518000079], [-71.00162694499988, 8.25886508200017], [-71.0078456419999, 8.25155531400003], [-71.01046861899994, 8.248553267000034], [-71.01114570099992, 8.247778335000078], [-71.01442587399998, 8.244024117000151], [-71.01833103399997, 8.242610069000023], [-71.03000781899988, 8.243419755000048], [-71.0300833099999, 8.243424990000051], [-71.0301415209999, 8.243429026000172], [-71.02892646899994, 8.242113000000188], [-71.02814442899995, 8.240310964000116], [-71.02725538299995, 8.239174952000099], [-71.02640733399994, 8.23771791900009], [-71.02601731899983, 8.235751877000098], [-71.02477826099988, 8.234389850000127], [-71.02384121499989, 8.23320883000008], [-71.0236631979999, 8.231698805000121], [-71.02402520899994, 8.230983789000106], [-71.02543325799991, 8.22874373500008], [-71.02623027899995, 8.227680700000121], [-71.02697430699999, 8.22599865900014], [-71.02703230499998, 8.224920645000111], [-71.02686129199992, 8.224028619000023], [-71.02509920899996, 8.223429620000104], [-71.0241921789999, 8.222844605000091], [-71.02346413699996, 8.221775594], [-71.0216310639999, 8.221017580000023], [-71.02114103699995, 8.220518580000089], [-71.02213506499987, 8.218467532000034], [-71.02269608199992, 8.216902491000155], [-71.02087299499988, 8.214883456000166], [-71.01883690499983, 8.212407411000186], [-71.01733483199996, 8.210201369000117], [-71.01559274499988, 8.207150320000153], [-71.01374064799995, 8.204627268000138], [-71.01245459399996, 8.203083239000023], [-71.0108395179999, 8.201107211000078], [-71.00997447799989, 8.200131194000107], [-71.00942944699995, 8.198900164000179], [-71.00946244599999, 8.197639142000128], [-71.01059547099987, 8.195632094000132], [-71.0112314999999, 8.194616065], [-71.01207352799997, 8.193414035000046], [-71.01261253899997, 8.192010008000125], [-71.01246553199996, 8.191208989000188], [-71.01286453999995, 8.189668949000122], [-71.01262151999998, 8.188502932], [-71.01334654599992, 8.187210901000128], [-71.01439958999993, 8.186327880000022], [-71.01355353999992, 8.184938854], [-71.01270150399995, 8.183000817000163], [-71.01391254599997, 8.181771776000176], [-71.01464356999998, 8.181052761000103], [-71.01664865099997, 8.180686748000085], [-71.01840171999999, 8.180482730000108], [-71.01831671099995, 8.179016694000097], [-71.01819368799988, 8.176153634000173], [-71.01894471899993, 8.175090611000087], [-71.02059277199999, 8.173673570000176], [-71.02191081899997, 8.171640518000174], [-71.02327886599983, 8.1700434870001], [-71.02494892499988, 8.168534445000091], [-71.02774603399996, 8.16660038700013], [-71.03059414799998, 8.165146339000103], [-71.03323625199994, 8.163878304000036], [-71.03534532099997, 8.162433258000021], [-71.0366423669999, 8.1606302080001], [-71.03698836999996, 8.158403167000131], [-71.03789739999985, 8.157017124000106], [-71.03997148199994, 8.156604105000099], [-71.04113552999996, 8.155376082000032], [-71.04293658799998, 8.15315501800012], [-71.04258057699991, 8.152265003000082], [-71.04221755099996, 8.150778972000126], [-71.04269556899999, 8.15003995000012], [-71.04267655699994, 8.148343925], [-71.04311057399997, 8.147880905000079], [-71.04414861499998, 8.147776897000028], [-71.04496463699991, 8.146323864000124], [-71.04490973799989, 8.145921266000016], [-71.044842, 8.145881], [-71.04212514199997, 8.145775133000086], [-71.03962956999999, 8.14567788900007], [-71.03912773799993, 8.145658335000064], [-71.02268221199995, 8.145017508000024], [-71.014534, 8.1447], [-71.01112099999983, 8.145013], [-71.008744, 8.146035], [-71.006298, 8.147105000000124], [-71.004143, 8.1478], [-71.002109, 8.150582], [-70.999663, 8.150485000000174], [-70.99684799999989, 8.149425], [-70.994329, 8.14824], [-70.99267499999985, 8.147318000000155], [-70.9907649999999, 8.146935], [-70.989954, 8.145108], [-70.987895, 8.143881], [-70.985704, 8.142223000000115], [-70.985618, 8.140024], [-70.986627, 8.138034], [-70.98764299999988, 8.136227000000133], [-70.98763, 8.134713], [-70.9863519999999, 8.132744], [-70.985246, 8.131066000000146], [-70.98446699999988, 8.130041], [-70.984119, 8.128242], [-70.984295, 8.126216000000113], [-70.98439799999989, 8.12472], [-70.985171, 8.122601], [-70.985421, 8.120113000000174], [-70.985117, 8.11884], [-70.983281, 8.118568], [-70.981821, 8.118465], [-70.980073, 8.117501], [-70.97925, 8.115951], [-70.978469, 8.11488], [-70.97765, 8.11404], [-70.97701099999983, 8.113055], [-70.97707, 8.111607], [-70.976976, 8.110372000000154], [-70.975922, 8.109427], [-70.974902, 8.108733], [-70.97356699999989, 8.10768400000012], [-70.97302, 8.106696000000113], [-70.972657, 8.105677000000185], [-70.97251199999982, 8.104926], [-70.970116, 8.103345000000104], [-70.969289, 8.101702000000103], [-70.969054, 8.100426], [-70.96876, 8.099381], [-70.968397, 8.098363], [-70.96749, 8.09764100000018], [-70.966585, 8.096943000000124], [-70.965611, 8.09627], [-70.964909, 8.095448], [-70.964034, 8.094335000000171], [-70.963344, 8.093238], [-70.96264599999989, 8.09250800000018], [-70.961547, 8.091588], [-70.9603, 8.089227000000108], [-70.958635, 8.087411000000145], [-70.957413, 8.086289], [-70.956854, 8.085003], [-70.95647799999983, 8.084237], [-70.956242, 8.083512000000155], [-70.955217, 8.082703], [-70.95384, 8.082367], [-70.952216, 8.082202000000109], [-70.951948, 8.08241900000013], [-70.951541, 8.083261000000164], [-70.951261, 8.083777], [-70.950597, 8.084537], [-70.949307, 8.084634], [-70.9484159999999, 8.08430200000015], [-70.94794599999989, 8.084114], [-70.945921, 8.083757000000162], [-70.945179, 8.083098000000177], [-70.944513, 8.082023], [-70.9432379999999, 8.080719000000158], [-70.942437, 8.079718000000128], [-70.942011, 8.078289], [-70.941653, 8.077385000000163], [-70.94194, 8.073472], [-70.942459, 8.07196], [-70.943955, 8.067037], [-70.944766, 8.063517], [-70.94436799999988, 8.060411000000101], [-70.944008, 8.058888], [-70.943813, 8.056830000000105], [-70.94335599999982, 8.055173000000138], [-70.941553, 8.054555000000164], [-70.940465, 8.05391], [-70.93909, 8.05362], [-70.937678, 8.054134000000147], [-70.936564, 8.05342], [-70.935668, 8.052951000000178], [-70.934553, 8.052214000000106], [-70.93346, 8.05143100000015], [-70.93261799999988, 8.051166], [-70.931942, 8.050435000000164], [-70.93119999999988, 8.049179000000152], [-70.930981, 8.047696], [-70.930568, 8.0453720000001], [-70.929891, 8.044618], [-70.92883499999988, 8.043604], [-70.92755, 8.043264000000136], [-70.92621, 8.043248], [-70.925038, 8.043431000000112], [-70.92421, 8.042913], [-70.924021, 8.041634000000101], [-70.92333999999988, 8.040743], [-70.922625, 8.039578000000176], [-70.92183699999987, 8.03892], [-70.921215, 8.038371], [-70.920976, 8.038174], [-70.92050499999988, 8.037343], [-70.920189, 8.036943000000122], [-70.919503, 8.037130000000104], [-70.919298, 8.037207], [-70.91870999999986, 8.037529], [-70.91854799999987, 8.037535], [-70.917589, 8.036632000000111], [-70.91653799999983, 8.035755], [-70.915616, 8.034621000000186], [-70.914448, 8.033680000000118], [-70.913744, 8.033409], [-70.913144, 8.033432], [-70.91232899999983, 8.033855], [-70.911288, 8.033826000000147], [-70.91056, 8.033534000000145], [-70.90953999999988, 8.032839], [-70.908902, 8.032474], [-70.907574, 8.031585000000177], [-70.906945, 8.031472], [-70.906392, 8.031494], [-70.90573, 8.031704], [-70.904451, 8.032121], [-70.903736, 8.031552], [-70.902704, 8.031157], [-70.90196999999989, 8.030703000000187], [-70.90167899999989, 8.030348000000117], [-70.901194, 8.029747000000157], [-70.90030599999989, 8.028910000000167], [-70.899456, 8.027842], [-70.8987269999999, 8.027503], [-70.89743099999987, 8.026865], [-70.896499, 8.026053], [-70.896084, 8.024876000000177], [-70.89584099999985, 8.023967], [-70.89488099999988, 8.023041], [-70.895007, 8.022118], [-70.894891, 8.020929], [-70.894777, 8.02036], [-70.893827, 8.019686], [-70.89305599999989, 8.019464], [-70.892192, 8.019245000000183], [-70.8915659999999, 8.018581000000154], [-70.890581, 8.018206], [-70.890204, 8.018015], [-70.89006099999989, 8.017309], [-70.890228, 8.016843], [-70.888922, 8.015334], [-70.888092, 8.014770000000112], [-70.887129, 8.013775], [-70.887344, 8.013353000000109], [-70.887916, 8.012023], [-70.88788999999986, 8.010762000000113], [-70.887097, 8.00996600000019], [-70.886088, 8.00895000000014], [-70.885273, 8.008202], [-70.884117, 8.007582000000127], [-70.884063, 8.006781000000103], [-70.883547, 8.005975], [-70.88321899999988, 8.005896], [-70.882997, 8.005514], [-70.883209, 8.004427], [-70.882964, 8.003473], [-70.882305, 8.003155000000106], [-70.881964, 8.002709000000152], [-70.881912, 8.001954], [-70.882232, 8.000679], [-70.881905, 7.999980000000107], [-70.88173299999988, 7.999115000000131], [-70.881667, 7.998016000000177], [-70.881616, 7.99728400000015], [-70.880962, 7.995804], [-70.880913, 7.993738], [-70.88026899999988, 7.991141], [-70.8787339999999, 7.991448000000105], [-70.87723199999988, 7.99003], [-70.8764819999999, 7.988356], [-70.875288, 7.98718], [-70.874009, 7.986903], [-70.87158, 7.987356], [-70.869127, 7.987120000000118], [-70.868325, 7.98593], [-70.86680599999983, 7.985363], [-70.867103, 7.983951000000104], [-70.867295, 7.982842000000176], [-70.867075, 7.981171000000131], [-70.866452, 7.979837], [-70.866216, 7.979018000000167], [-70.865481, 7.978423000000134], [-70.864361, 7.978049000000112], [-70.8629069999999, 7.978031], [-70.862259, 7.976652000000115], [-70.862016, 7.975649], [-70.8611949999999, 7.974575], [-70.861187, 7.973702000000117], [-70.861069, 7.972948], [-70.860111, 7.971281], [-70.8600249999999, 7.970779], [-70.858594, 7.970094], [-70.858191, 7.969097000000147], [-70.85831, 7.968564], [-70.858063, 7.968090000000132], [-70.857434, 7.967905], [-70.856525, 7.967616], [-70.854949, 7.967395000000181], [-70.853811, 7.965849000000162], [-70.85249, 7.965666000000112], [-70.851568, 7.965675000000147], [-70.851329, 7.96476500000017], [-70.85103099999986, 7.963488], [-70.849844, 7.96318500000018], [-70.849363, 7.963271000000191], [-70.846465, 7.960178], [-70.8457939999999, 7.959466000000134], [-70.844253, 7.95759], [-70.842767, 7.957298], [-70.840898, 7.956605], [-70.839665, 7.95566], [-70.834794, 7.953532000000166], [-70.831674, 7.952010000000143], [-70.829577, 7.951394000000164], [-70.827575, 7.950200000000166], [-70.82607499999983, 7.949517000000128], [-70.82416899999987, 7.948412000000189], [-70.823063, 7.948451], [-70.820499, 7.947667], [-70.818361, 7.94585700000016], [-70.81829599999986, 7.944642000000158], [-70.816279, 7.943035], [-70.815288, 7.94238], [-70.813057, 7.94124], [-70.811007, 7.939956], [-70.80903699999982, 7.938347000000135], [-70.80754399999984, 7.937205000000176], [-70.806269, 7.936996], [-70.80509599999988, 7.937106000000142], [-70.802108, 7.93672800000013], [-70.801242, 7.935678000000109], [-70.801281, 7.934827], [-70.801275, 7.933977], [-70.800302, 7.93385], [-70.798457, 7.933845000000133], [-70.796413, 7.932101000000102], [-70.795553, 7.931901], [-70.793505, 7.931398], [-70.793361, 7.930553], [-70.79106499999989, 7.92953000000017], [-70.790092, 7.92940300000015], [-70.788249, 7.930111000000124], [-70.786339, 7.930913], [-70.78306099999986, 7.93015400000013], [-70.782255, 7.928183000000104], [-70.78226, 7.926988000000165], [-70.779581, 7.926874000000169], [-70.777815, 7.92581], [-70.776294, 7.924507], [-70.776001, 7.925390000000107], [-70.775064, 7.926296], [-70.774385, 7.924665000000175], [-70.773947, 7.923325000000148], [-70.77343499999989, 7.922515], [-70.772618, 7.921579], [-70.771266, 7.921856000000105], [-70.770345, 7.922577], [-70.76968899999986, 7.922278], [-70.76936299999988, 7.921508], [-70.76911499999989, 7.921011], [-70.767791, 7.920069], [-70.766139, 7.919621], [-70.76551, 7.918793000000164], [-70.763595, 7.919411000000139], [-70.762074, 7.919464], [-70.760396, 7.919614], [-70.760175, 7.918542000000173], [-70.760188, 7.917599000000109], [-70.75934, 7.917744], [-70.758771, 7.917304], [-70.758513, 7.915842], [-70.758549, 7.914876], [-70.758498, 7.91405], [-70.757, 7.912080000000174], [-70.756382, 7.909528], [-70.756085, 7.907607], [-70.75573899999989, 7.906929000000105], [-70.75473199999988, 7.90714800000012], [-70.753959, 7.903452], [-70.752723, 7.901726], [-70.751561, 7.900135], [-70.751565, 7.898894], [-70.75024799999989, 7.897492], [-70.749945, 7.896100000000104], [-70.74819999999988, 7.895633], [-70.747335, 7.893962000000158], [-70.747043, 7.892180000000167], [-70.74711699999989, 7.890293000000156], [-70.74678299999988, 7.88865], [-70.746229, 7.887267], [-70.746404, 7.886342000000127], [-70.747085, 7.88535300000018], [-70.746429, 7.884388], [-70.74486899999988, 7.884626], [-70.742504, 7.877538000000129], [-70.7417, 7.876279], [-70.74236299999984, 7.875452], [-70.74215799999985, 7.874172000000158], [-70.740954, 7.873364], [-70.739335, 7.872547], [-70.7385809999999, 7.870091], [-70.738516, 7.868852000000174], [-70.73723699999982, 7.867863], [-70.736399, 7.866306000000179], [-70.73619, 7.864935], [-70.735466, 7.863305], [-70.734606, 7.861772], [-70.732293, 7.859555000000114], [-70.731472, 7.858480000000156], [-70.731973, 7.856946], [-70.73133, 7.85568000000012], [-70.730657, 7.854922000000101], [-70.73099399999984, 7.85396900000012], [-70.730684, 7.85234800000012], [-70.7303419999999, 7.850452], [-70.730073, 7.849312000000111], [-70.729762, 7.848335], [-70.728917, 7.847905], [-70.727702, 7.845419], [-70.72775399999989, 7.843579], [-70.726188, 7.842277000000138], [-70.725685, 7.841054], [-70.726435, 7.840086], [-70.726195, 7.839129], [-70.724699, 7.837871], [-70.725031, 7.836802], [-70.726072, 7.835548], [-70.726663, 7.834631], [-70.727069, 7.833032], [-70.7282469999999, 7.83175], [-70.728939, 7.830125], [-70.726138, 7.829133], [-70.724681, 7.826448000000141], [-70.719398, 7.824552], [-70.7174619999999, 7.824464], [-70.715182, 7.826099], [-70.712785, 7.826678000000129], [-70.71122, 7.828174000000104], [-70.709143, 7.827282], [-70.705431, 7.82745], [-70.702274, 7.828490000000158], [-70.699577, 7.82838], [-70.698035, 7.830336000000102], [-70.694439, 7.83041100000014], [-70.69238799999988, 7.831036000000154], [-70.691998, 7.832093], [-70.689135, 7.829985], [-70.688672, 7.82874500000014], [-70.6837359999999, 7.827536], [-70.68013799999983, 7.826578], [-70.677256, 7.826790000000187], [-70.674465, 7.825716000000114], [-70.67317, 7.822984], [-70.670885, 7.82115], [-70.668694, 7.821062], [-70.665397, 7.821091], [-70.662904, 7.818867000000125], [-70.661175, 7.819146000000103], [-70.658758, 7.822022], [-70.65673, 7.822761], [-70.65426, 7.820077], [-70.650803, 7.820933], [-70.649516, 7.823922], [-70.6446279999999, 7.823655000000144], [-70.64312599999988, 7.821153], [-70.644068, 7.819314000000134], [-70.639041, 7.818289], [-70.637082, 7.819693], [-70.63672, 7.824404000000129], [-70.634928, 7.828542], [-70.6336649999999, 7.832611], [-70.62891299999984, 7.830689], [-70.62651, 7.826650000000143], [-70.623282, 7.826403000000141], [-70.619202, 7.827512], [-70.617862, 7.824873], [-70.615576, 7.822878000000173], [-70.611104, 7.824034], [-70.607989, 7.822063], [-70.607732, 7.819444], [-70.608006, 7.817399000000137], [-70.604777, 7.816417], [-70.602819, 7.817913], [-70.600647, 7.814448], [-70.59827299999989, 7.815003000000161], [-70.595369, 7.815812000000108], [-70.59505099999984, 7.819304], [-70.596347, 7.822565], [-70.595105, 7.824726000000112], [-70.59055599999988, 7.81970200000012], [-70.589123, 7.817935], [-70.587118, 7.818743000000154], [-70.587146, 7.821982000000105], [-70.583622, 7.825228], [-70.580415, 7.822981000000141], [-70.5798999999999, 7.817491000000132], [-70.57985199999985, 7.815837], [-70.578027, 7.81322], [-70.574659, 7.811135], [-70.5735739999999, 7.810539000000119], [-70.570601, 7.810911000000146], [-70.569081, 7.812729000000104], [-70.567446, 7.814225], [-70.565093, 7.813700000000154], [-70.562235, 7.814141], [-70.55831299999983, 7.812309], [-70.557088, 7.809393000000114], [-70.556438, 7.805925], [-70.558004, 7.804452], [-70.560168, 7.80261], [-70.557998, 7.800224000000185], [-70.552442, 7.799819], [-70.549515, 7.800697], [-70.546705, 7.80311300000011], [-70.546293, 7.805274], [-70.545557, 7.807113000000129], [-70.545838, 7.810398], [-70.54595499999988, 7.811639000000184], [-70.543901, 7.810447000000124], [-70.541774, 7.805924000000175], [-70.540869, 7.801514000000168], [-70.540336, 7.798712000000137], [-70.539017, 7.795290000000136], [-70.53523799999982, 7.796559000000173], [-70.53182899999985, 7.799643], [-70.531603, 7.802860000000123], [-70.530108, 7.805895], [-70.52620999999988, 7.804476], [-70.522542, 7.802437000000111], [-70.520096, 7.800671], [-70.518159, 7.801524], [-70.518993, 7.803797], [-70.52061, 7.806667000000175], [-70.520981, 7.808689000000129], [-70.520821, 7.809952], [-70.51929899999988, 7.810048000000165], [-70.516484, 7.808396], [-70.51459199999988, 7.807434], [-70.512077, 7.8056], [-70.50889299999989, 7.803881], [-70.50771499999985, 7.8017], [-70.506906, 7.799840000000188], [-70.504532, 7.800555], [-70.504903, 7.802278000000115], [-70.505227, 7.803403000000117], [-70.504075, 7.804094], [-70.503569, 7.805221], [-70.503409, 7.806463000000178], [-70.502164, 7.80635], [-70.49972899999989, 7.803964000000178], [-70.4988469999999, 7.804903], [-70.496236, 7.805172000000141], [-70.493955, 7.803647], [-70.49254999999982, 7.802839000000176], [-70.49189699999988, 7.804193000000112], [-70.491675, 7.807524], [-70.489072, 7.805861000000107], [-70.487996, 7.803698], [-70.489742, 7.800464000000147], [-70.489469, 7.799406], [-70.485862, 7.800474], [-70.48489899999987, 7.804079000000115], [-70.483638, 7.807176], [-70.47969299999988, 7.806107], [-70.477883, 7.802816], [-70.477714, 7.799093], [-70.477745, 7.797255000000177], [-70.480539, 7.797632000000135], [-70.483655, 7.798078], [-70.484653, 7.79691], [-70.481664, 7.79373], [-70.478155, 7.793328000000145], [-70.474617, 7.794396], [-70.474301, 7.797887], [-70.473782, 7.800551], [-70.471457, 7.798659], [-70.469919, 7.796173000000181], [-70.467546, 7.794833000000153], [-70.465436, 7.796825000000126], [-70.46397799999983, 7.797509], [-70.46251, 7.795184], [-70.460722, 7.791985], [-70.458971, 7.791014000000189], [-70.460456, 7.789342], [-70.461223, 7.78838], [-70.462689, 7.785834], [-70.46460899999988, 7.785105000000101], [-70.46373799999986, 7.783701000000121], [-70.460873, 7.783921], [-70.458959, 7.783180000000186], [-70.456511, 7.783149], [-70.45469, 7.78227], [-70.45636599999989, 7.779358000000173], [-70.454125, 7.77942000000013], [-70.451391, 7.78157], [-70.448558, 7.784938000000182], [-70.449301, 7.789260000000183], [-70.447107, 7.789000000000158], [-70.445477, 7.786858], [-70.44407399999989, 7.785429000000136], [-70.441675, 7.78477700000019], [-70.439812, 7.783002], [-70.43970799999988, 7.78042900000014], [-70.439348, 7.778176], [-70.439099, 7.777096], [-70.438994, 7.77466], [-70.437475, 7.773460000000114], [-70.4355819999999, 7.77327], [-70.43154, 7.773372000000109], [-70.432196, 7.771237], [-70.433945, 7.767452], [-70.436262, 7.765921], [-70.438023, 7.764686000000154], [-70.438612, 7.761908000000176], [-70.437183, 7.761398], [-70.434638, 7.762331000000131], [-70.432439, 7.763496], [-70.430331, 7.764775], [-70.427608, 7.764284], [-70.425629, 7.762577], [-70.423324, 7.761489], [-70.419937, 7.759686000000158], [-70.415619, 7.759511], [-70.411711, 7.760554], [-70.407616, 7.762263], [-70.40292999999986, 7.761696], [-70.396692, 7.761928], [-70.392289, 7.765106], [-70.386711, 7.772783], [-70.387107, 7.77715], [-70.39189499999986, 7.780796000000123], [-70.391123, 7.782839], [-70.386566, 7.784455], [-70.380926, 7.785263], [-70.37605, 7.785935], [-70.373003, 7.785235], [-70.374172, 7.782138000000145], [-70.3765709999999, 7.777987], [-70.377533, 7.774682000000155], [-70.37581299999988, 7.771804], [-70.37345, 7.773427], [-70.3718209999999, 7.775971], [-70.366376, 7.779882000000157], [-70.365433, 7.783876], [-70.367103, 7.787351000000172], [-70.36903199999989, 7.789908], [-70.36782399999987, 7.791443000000129], [-70.365797, 7.79015], [-70.36412, 7.7881450000001], [-70.36166, 7.78577], [-70.36002599999983, 7.784478], [-70.35556, 7.786162], [-70.3534949999999, 7.788338000000124], [-70.3516259999999, 7.787826], [-70.35145299999988, 7.785298000000125], [-70.350933, 7.782631], [-70.349161, 7.781154], [-70.346506, 7.780961000000104], [-70.345354, 7.78036], [-70.3429579999999, 7.779042000000118], [-70.341328, 7.777014000000179], [-70.340023, 7.774413], [-70.33874499999985, 7.77604], [-70.337557, 7.778264], [-70.335148, 7.779772], [-70.33300099999985, 7.779581000000121], [-70.330997, 7.778310000000147], [-70.328325, 7.77683], [-70.326412, 7.775835000000143], [-70.324864, 7.775922], [-70.32191399999982, 7.779357], [-70.32042599999988, 7.781351], [-70.318699, 7.785273000000188], [-70.3170899999999, 7.788438], [-70.31455499999987, 7.787257000000182], [-70.312044, 7.785824000000105], [-70.310368, 7.783704], [-70.30905799999988, 7.782206], [-70.306798, 7.781554000000142], [-70.305318, 7.781802], [-70.304153, 7.784049000000152], [-70.30424, 7.7850830000001], [-70.3064389999999, 7.788997000000109], [-70.308492, 7.789625], [-70.31089, 7.790438000000108], [-70.313077, 7.792100000000175], [-70.31383, 7.794009000000187], [-70.3132619999999, 7.796833000000106], [-70.312079, 7.798047000000167], [-70.310597, 7.798662], [-70.308793, 7.799207], [-70.307081, 7.799798], [-70.30538899999988, 7.801124], [-70.30228, 7.803916000000129], [-70.299655, 7.806916000000172], [-70.298837, 7.808889], [-70.29915, 7.811005], [-70.300208, 7.812135000000183], [-70.30101, 7.813585], [-70.301532, 7.81540200000012], [-70.30051, 7.816639000000123], [-70.29939799999988, 7.817393], [-70.298816, 7.818057], [-70.299229, 7.818932000000132], [-70.30063399999983, 7.819695], [-70.30071899999984, 7.821304000000112], [-70.300761, 7.822269], [-70.301282, 7.824454000000173], [-70.3019, 7.825513], [-70.30305599999986, 7.825287000000174], [-70.304442, 7.825384], [-70.30536, 7.826582], [-70.305908, 7.828077], [-70.30518299999989, 7.829913000000147], [-70.304462, 7.830944000000159], [-70.303464, 7.831974000000116], [-70.30318099999988, 7.833168000000171], [-70.302895, 7.834936], [-70.304161, 7.835998000000188], [-70.305145, 7.837885], [-70.304327, 7.839835], [-70.303235, 7.841256], [-70.302699, 7.842288000000167], [-70.30347699999987, 7.843692000000146], [-70.30502299999989, 7.844203000000164], [-70.306704, 7.845243], [-70.305778, 7.84563], [-70.304044, 7.846106], [-70.303255, 7.846770000000106], [-70.303155, 7.848378], [-70.303772, 7.84975900000012], [-70.304812, 7.849762], [-70.305948, 7.848847000000148], [-70.306755, 7.849195000000179], [-70.307027, 7.850299], [-70.3072289999999, 7.851609], [-70.308058, 7.852163], [-70.308882, 7.853729000000158], [-70.310028, 7.85559400000011], [-70.311066, 7.85608000000019], [-70.31184599999989, 7.857094], [-70.312954, 7.857281], [-70.313812, 7.85671], [-70.314762, 7.856093], [-70.315939, 7.856304], [-70.316235, 7.85727], [-70.31670999999983, 7.85934], [-70.317931, 7.860171], [-70.3187559999999, 7.861714], [-70.32065, 7.861789], [-70.321852, 7.86177], [-70.322704, 7.862256000000116], [-70.32350699999989, 7.863363], [-70.32447, 7.86495100000019], [-70.32502, 7.865941], [-70.324759, 7.86731900000018], [-70.324611, 7.869432000000188], [-70.323774, 7.870624], [-70.32249699999983, 7.871998], [-70.322097, 7.873513000000173], [-70.32292599999988, 7.874113], [-70.324219, 7.874163000000124], [-70.325191, 7.873868], [-70.325858, 7.874537], [-70.325783, 7.875708], [-70.32528899999983, 7.877591000000109], [-70.324871, 7.87814], [-70.32463399999989, 7.879403], [-70.325018, 7.881266], [-70.325656, 7.883175], [-70.326645, 7.884120000000109], [-70.327823, 7.884101000000157], [-70.328889, 7.883554000000174], [-70.330162, 7.882846], [-70.33233799999988, 7.881958000000111], [-70.333608, 7.882123], [-70.33429799999988, 7.882769], [-70.336422, 7.883052], [-70.33699499999989, 7.884226000000183], [-70.338098, 7.88547], [-70.33934, 7.8866230000001], [-70.340859, 7.888030000000128], [-70.34076, 7.88947700000017], [-70.340294, 7.89044], [-70.339666, 7.89138], [-70.33922, 7.892734000000132], [-70.339237, 7.894044000000179], [-70.33994699999982, 7.895379000000162], [-70.341474, 7.895017], [-70.342123, 7.894628000000182], [-70.34325499999989, 7.894517], [-70.344545, 7.895372000000123], [-70.34629399999989, 7.896917], [-70.34861299999983, 7.899935], [-70.350519, 7.902446000000111], [-70.351488, 7.902794000000142], [-70.35255, 7.902959000000124], [-70.35411799999986, 7.903561], [-70.357649, 7.904515], [-70.357969, 7.905321000000129], [-70.358425, 7.906632], [-70.35932199999985, 7.907577000000117], [-70.36090899999988, 7.909122], [-70.362424, 7.911539000000175], [-70.362853, 7.913677000000177], [-70.36291199999988, 7.915929000000119], [-70.362604, 7.917513], [-70.362876, 7.918687], [-70.36382, 7.919379000000163], [-70.3651109999999, 7.919981], [-70.366335, 7.920215], [-70.367537, 7.91999], [-70.369249, 7.919512000000111], [-70.37049, 7.921033], [-70.372213, 7.923291000000177], [-70.37301, 7.925821], [-70.372081, 7.926760000000115], [-70.372078, 7.927587000000187], [-70.371542, 7.928527000000145], [-70.370868, 7.929467000000102], [-70.369246, 7.930334], [-70.368203, 7.931043000000102], [-70.368421, 7.933984000000123], [-70.368205, 7.935821], [-70.368732, 7.936788], [-70.3698619999999, 7.937343], [-70.369602, 7.938445], [-70.368809, 7.940051], [-70.369612, 7.941478], [-70.371917, 7.942749], [-70.372653, 7.943395], [-70.373318, 7.94440800000018], [-70.373753, 7.945421000000124], [-70.374678, 7.945148000000131], [-70.376202, 7.945429000000104], [-70.378639, 7.948263000000111], [-70.381168, 7.951212], [-70.382503, 7.952343], [-70.38510899999989, 7.953454], [-70.388568, 7.955028], [-70.38996999999983, 7.956618], [-70.390101, 7.958479000000182], [-70.389958, 7.959421000000134], [-70.39001999999988, 7.960938], [-70.39184, 7.96223], [-70.3923, 7.962668], [-70.391947, 7.964114000000109], [-70.392195, 7.965586], [-70.39330399999989, 7.965451], [-70.3940209999999, 7.965431], [-70.395403, 7.96644600000019], [-70.396758, 7.968174000000147], [-70.397677, 7.969418], [-70.398896, 7.970731000000171], [-70.399602, 7.973008000000107], [-70.40197299999988, 7.975039], [-70.4034779999999, 7.974653000000103], [-70.4051419999999, 7.974682], [-70.40550799999988, 7.975418], [-70.406217, 7.97696], [-70.407346, 7.977905], [-70.408706, 7.978599000000145], [-70.409903, 7.979637], [-70.411496, 7.979872000000114], [-70.413415, 7.979786000000104], [-70.414985, 7.979929], [-70.415952, 7.98069], [-70.415509, 7.981585000000109], [-70.41495, 7.982571000000121], [-70.41559499999988, 7.983239], [-70.417365, 7.985359], [-70.418031, 7.986188], [-70.418975, 7.987064], [-70.42015, 7.987688], [-70.421353, 7.987440000000106], [-70.422348, 7.987052000000176], [-70.424249, 7.985749], [-70.425063, 7.984557000000166], [-70.42509299999989, 7.983064], [-70.425514, 7.98187], [-70.4265979999999, 7.982494], [-70.427404, 7.983209000000159], [-70.428579, 7.983925], [-70.42929299999986, 7.98452500000019], [-70.429588, 7.98572], [-70.43007, 7.986434], [-70.430643, 7.987447], [-70.43207499999983, 7.987796000000117], [-70.43286, 7.987959000000103], [-70.433411, 7.988673000000176], [-70.434337, 7.98828600000013], [-70.435079, 7.987622000000101], [-70.435774, 7.987303000000168], [-70.436488, 7.987833000000137], [-70.437178, 7.988525], [-70.438265, 7.988344000000154], [-70.439513, 7.988348], [-70.44082599999984, 7.989226], [-70.441492, 7.990308], [-70.44199499999985, 7.991550000000188], [-70.442822, 7.992678], [-70.444016, 7.994267], [-70.445666, 7.996711000000175], [-70.446801, 7.999514], [-70.447564, 7.999924], [-70.44853599999988, 8.000654000000111], [-70.448976, 8.001341], [-70.450271, 8.002369000000101], [-70.451563, 8.001721], [-70.45336499999985, 8.002632000000176], [-70.45445299999989, 8.003729], [-70.455844, 8.006316], [-70.455593, 8.007579], [-70.456472, 8.008356], [-70.457097, 8.009134], [-70.458025, 8.011218], [-70.458533, 8.011216], [-70.460428, 8.012058], [-70.459761, 8.013139], [-70.45994899999988, 8.014813000000117], [-70.460805, 8.015521], [-70.461224, 8.01717100000019], [-70.461484, 8.019694], [-70.461048, 8.020706], [-70.460615, 8.023071], [-70.46093999999988, 8.02401], [-70.462723, 8.026596], [-70.462935, 8.028201000000138], [-70.462085, 8.029926], [-70.461556, 8.03102900000016], [-70.46077499999984, 8.032799], [-70.461334, 8.034748], [-70.461247, 8.037295], [-70.460972, 8.038191000000154], [-70.460537, 8.039501], [-70.4600339999999, 8.04182], [-70.459968, 8.042968], [-70.461586, 8.04401700000011], [-70.462698, 8.045825], [-70.462703, 8.047730000000172], [-70.463376, 8.049127000000112], [-70.46504, 8.049946], [-70.467212, 8.050442], [-70.46754, 8.052552], [-70.467219, 8.05358600000011], [-70.46833, 8.054752000000121], [-70.46897899999988, 8.055644], [-70.468314, 8.057712], [-70.468459, 8.060419], [-70.46832499999988, 8.062415], [-70.46844499999986, 8.064503000000116], [-70.469468, 8.067275000000166], [-70.468987, 8.069136000000128], [-70.468461, 8.071226], [-70.468094, 8.072375], [-70.468004, 8.073155], [-70.467753, 8.074693], [-70.467017, 8.075706000000139], [-70.465795, 8.07633], [-70.464687, 8.076564], [-70.464133, 8.076589], [-70.46395399999989, 8.07906800000012], [-70.464281, 8.0807420000001], [-70.466619, 8.083464], [-70.467383, 8.084103], [-70.467407, 8.084424000000126], [-70.466301, 8.085760000000164], [-70.467807, 8.087888], [-70.46831599999985, 8.088413000000116], [-70.46769699999987, 8.090320000000133], [-70.4686, 8.091028000000108], [-70.469092, 8.094261], [-70.469371, 8.095178], [-70.469997, 8.095979000000114], [-70.47110599999985, 8.096410000000105], [-70.471961, 8.096682], [-70.472631, 8.096794], [-70.47318599999988, 8.097136], [-70.4737439999999, 8.098969], [-70.47473899999989, 8.099746], [-70.474767, 8.1020630000001], [-70.47518599999984, 8.103208000000166], [-70.475789, 8.104560000000106], [-70.476163, 8.106417000000135], [-70.47780399999982, 8.107099], [-70.478686, 8.108954], [-70.4791939999999, 8.108860000000107], [-70.479863, 8.108513000000187], [-70.481089, 8.109678], [-70.481252, 8.11022800000012], [-70.48107, 8.11117], [-70.480424, 8.111723], [-70.480472, 8.112319000000127], [-70.480868, 8.113901000000112], [-70.482095, 8.114929], [-70.483553, 8.116139], [-70.484504, 8.117787000000135], [-70.485778, 8.11950300000018], [-70.487628, 8.120780000000138], [-70.489295, 8.122494000000188], [-70.490407, 8.124004], [-70.490963, 8.124667], [-70.492123, 8.126934], [-70.492956, 8.127688], [-70.494827, 8.127841000000103], [-70.496119, 8.12769800000018], [-70.49776199999985, 8.128999], [-70.498483, 8.13099300000016], [-70.498369, 8.131567], [-70.497406, 8.134324], [-70.49667099999982, 8.136186000000123], [-70.495061, 8.13874], [-70.49460199999987, 8.140141000000142], [-70.49421499999983, 8.142415], [-70.494865, 8.143605], [-70.494452, 8.144662], [-70.495193, 8.145439000000124], [-70.496004, 8.146836], [-70.496331, 8.14828000000017], [-70.496865, 8.149402], [-70.49693599999989, 8.150182000000143], [-70.49664, 8.15172], [-70.496249, 8.152341], [-70.496184, 8.154361], [-70.496995, 8.155321], [-70.498245, 8.156463], [-70.49972799999989, 8.15849900000012], [-70.499751, 8.15884300000016], [-70.499409, 8.16038200000014], [-70.50054399999982, 8.16200700000013], [-70.50114599999989, 8.162647000000163], [-70.500435, 8.164324], [-70.500321, 8.16522], [-70.501389, 8.16689], [-70.501514, 8.167382], [-70.502628, 8.169039], [-70.504246, 8.168888000000152], [-70.50484199999988, 8.167919], [-70.506134, 8.167426000000148], [-70.506875, 8.167512000000158], [-70.508284, 8.167203], [-70.50928, 8.167494], [-70.51076199999989, 8.167827000000102], [-70.511784, 8.16860000000014], [-70.5136399999999, 8.169711], [-70.514934, 8.169448000000102], [-70.515344, 8.168365], [-70.514759, 8.167244], [-70.514277, 8.163825], [-70.515502, 8.163746000000117], [-70.5183909999999, 8.163517000000184], [-70.521607, 8.163699000000122], [-70.521945, 8.166200000000117], [-70.521116, 8.166804000000184], [-70.520359, 8.167774000000179], [-70.520898, 8.168988], [-70.52141399999988, 8.17022400000019], [-70.524055, 8.171168000000137], [-70.52387799999985, 8.172525000000178], [-70.521846, 8.173023000000171], [-70.521463, 8.174703], [-70.522651, 8.176279], [-70.526515, 8.176295000000152], [-70.52971, 8.176890000000185], [-70.532653, 8.178015000000187], [-70.533804, 8.18097], [-70.534935, 8.180731], [-70.537571, 8.180641], [-70.53922, 8.181823000000122], [-70.540223, 8.18321600000013], [-70.542353, 8.183613], [-70.541694, 8.185571], [-70.540094, 8.184894], [-70.539386, 8.186485], [-70.540716, 8.188335000000166], [-70.542727, 8.18825], [-70.545766, 8.189765], [-70.54545599999989, 8.19220300000012], [-70.543636, 8.193367000000137], [-70.544278, 8.196279], [-70.543597, 8.198536000000104], [-70.545275, 8.200705000000141], [-70.54636799999986, 8.201592000000176], [-70.5468, 8.204185000000109], [-70.54866199999987, 8.206283000000155], [-70.549217, 8.206570000000113], [-70.550588, 8.207279000000142], [-70.551434, 8.209477000000106], [-70.55211299999985, 8.210873000000163], [-70.553169, 8.209578000000135], [-70.554802, 8.208141], [-70.555752, 8.208317], [-70.5557409999999, 8.2105], [-70.556669, 8.210975], [-70.558878, 8.212933], [-70.56001, 8.212763], [-70.56005, 8.211614000000168], [-70.56094799999988, 8.210918000000163], [-70.56178299999988, 8.211416000000156], [-70.562764, 8.212948], [-70.566222, 8.215057000000115], [-70.566761, 8.216155], [-70.565471, 8.216992000000175], [-70.565455, 8.218187000000114], [-70.56590199999988, 8.219516000000112], [-70.56380999999982, 8.221554], [-70.562633, 8.222], [-70.561765, 8.22389], [-70.562122, 8.225587], [-70.562176, 8.226850000000127], [-70.561935, 8.229058], [-70.560511, 8.23081500000012], [-70.559578, 8.233349000000146], [-70.559225, 8.236200000000167], [-70.559169, 8.238498], [-70.560935, 8.23981600000019], [-70.5615, 8.241489], [-70.561743, 8.24344], [-70.563371, 8.245035], [-70.565332, 8.2477990000001], [-70.568795, 8.250666], [-70.569499, 8.252383000000123], [-70.571161, 8.255563000000166], [-70.57379, 8.25430200000011], [-70.575496, 8.253415], [-70.577122, 8.254505], [-70.575417, 8.255621000000133], [-70.573343, 8.256901], [-70.571716, 8.259441], [-70.572252, 8.260126], [-70.576085, 8.258969], [-70.57607399999989, 8.261037000000101], [-70.574492, 8.26337], [-70.574878, 8.26600800000017], [-70.577976, 8.265823000000125], [-70.579984, 8.265071], [-70.58264, 8.264315], [-70.584931, 8.264595000000156], [-70.585401, 8.265786000000105], [-70.585502, 8.267095], [-70.586874, 8.268255000000124], [-70.5884789999999, 8.269666000000143], [-70.589506, 8.271128000000147], [-70.58958, 8.272001000000103], [-70.59134, 8.272308], [-70.593759, 8.270726], [-70.595268, 8.271541], [-70.595408, 8.271747], [-70.596595, 8.27307], [-70.598122, 8.27303400000011], [-70.59951399999989, 8.273712000000103], [-70.600168, 8.274832], [-70.602361, 8.27408000000014], [-70.60417399999989, 8.271653], [-70.605107, 8.272909], [-70.60401799999988, 8.276478000000168], [-70.602968, 8.278738], [-70.60387999999983, 8.280384], [-70.606649, 8.279236], [-70.608006, 8.278008], [-70.60950999999989, 8.27795], [-70.612087, 8.279445000000123], [-70.61241799999988, 8.280591000000129], [-70.61103, 8.284415000000138], [-70.609861, 8.286125], [-70.609583, 8.289917000000116], [-70.611521, 8.289097], [-70.614472, 8.28741900000017], [-70.616985, 8.285998], [-70.61961, 8.287837000000138], [-70.621177, 8.290604], [-70.619333, 8.291767], [-70.617827, 8.291389], [-70.61626299999989, 8.29273400000011], [-70.61624499999982, 8.293607], [-70.617195, 8.293990000000122], [-70.619234, 8.29441], [-70.61921599999988, 8.295352], [-70.617892, 8.298119000000156], [-70.618475, 8.298918000000185], [-70.62092399999989, 8.302183000000127], [-70.623913, 8.303032], [-70.626155, 8.302738], [-70.627229, 8.304314], [-70.626402, 8.305218], [-70.624578, 8.30580700000013], [-70.62454199999985, 8.307415000000162], [-70.626143, 8.308206], [-70.626876, 8.310842], [-70.62658599999986, 8.312544000000173], [-70.625649, 8.314389], [-70.625665, 8.317054], [-70.626157, 8.318106000000114], [-70.627932, 8.316966], [-70.63000199999988, 8.314882000000182], [-70.631734, 8.314454], [-70.632779, 8.315135000000112], [-70.631682, 8.317349], [-70.630142, 8.318878], [-70.629295, 8.320355], [-70.63096499999989, 8.321053], [-70.632242, 8.321801000000107], [-70.63245899999987, 8.323269], [-70.63179899999989, 8.324929000000111], [-70.630558, 8.326271000000133], [-70.6287109999999, 8.326883000000123], [-70.626925, 8.326301000000115], [-70.626025, 8.326722000000132], [-70.626425, 8.327844], [-70.62738499999989, 8.328979], [-70.628197, 8.330661], [-70.629516, 8.331558], [-70.629934, 8.332295000000101], [-70.629428, 8.334185000000161], [-70.628967, 8.335591], [-70.62934, 8.337480000000141], [-70.630592, 8.339391000000148], [-70.630895, 8.340980000000172], [-70.63175399999989, 8.343261], [-70.632172, 8.344320000000153], [-70.633707, 8.349526], [-70.63386999999989, 8.35060900000019], [-70.635239, 8.353258000000153], [-70.63704499999989, 8.354938], [-70.637857, 8.35604400000011], [-70.63955, 8.35938300000015], [-70.640686, 8.361271], [-70.642517, 8.363596], [-70.646149, 8.363916], [-70.647563, 8.365343000000166], [-70.647867, 8.367347], [-70.648634, 8.369927000000189], [-70.649215, 8.371516], [-70.65123, 8.37319600000012], [-70.654562, 8.374368000000118], [-70.657433, 8.375839000000155], [-70.658753, 8.376668000000166], [-70.66111199999989, 8.376527], [-70.662891, 8.37567300000012], [-70.665115, 8.377767000000176], [-70.667548, 8.380345000000148], [-70.670303, 8.381656], [-70.672063, 8.382967000000178], [-70.674054, 8.384048], [-70.67588599999982, 8.386442000000102], [-70.676629, 8.388215], [-70.677002, 8.39015000000012], [-70.677722, 8.39197], [-70.67851, 8.393190000000118], [-70.681471, 8.393072000000132], [-70.682583, 8.393969], [-70.683418, 8.395212], [-70.683768, 8.397309], [-70.684165, 8.39975], [-70.690279, 8.403753000000165], [-70.691485, 8.40518], [-70.69238899999988, 8.406216], [-70.695495, 8.410014], [-70.696284, 8.411418], [-70.697096, 8.412915], [-70.69763099999983, 8.414759], [-70.699438, 8.416116], [-70.70004, 8.416438], [-70.70152, 8.416505], [-70.702883, 8.415605], [-70.703899, 8.414474], [-70.705706, 8.415763], [-70.706263, 8.416799], [-70.70762799999989, 8.417143000000124], [-70.709111, 8.418685], [-70.70983699999988, 8.423638], [-70.709839, 8.424951], [-70.710745, 8.427162], [-70.712991, 8.427736000000152], [-70.713872, 8.42854100000011], [-70.714867, 8.428977000000145], [-70.7167189999999, 8.429713000000106], [-70.718064, 8.431669000000113], [-70.718183, 8.43342], [-70.718625, 8.434917], [-70.719991, 8.435837], [-70.72078, 8.436712000000114], [-70.7212219999999, 8.438117], [-70.720994, 8.440029000000152], [-70.720994, 8.44026], [-70.722246, 8.442078], [-70.72370399999988, 8.44214600000015], [-70.725046, 8.442536], [-70.72615999999988, 8.444262], [-70.727896, 8.444974000000173], [-70.729703, 8.446216000000106], [-70.730931, 8.447344000000157], [-70.73232, 8.448148], [-70.733619, 8.449161], [-70.733597, 8.450013], [-70.7339, 8.451165000000117], [-70.73487399999988, 8.452546], [-70.734437, 8.454159], [-70.734348, 8.456048], [-70.735255, 8.458513], [-70.735399, 8.461047000000121], [-70.736516, 8.46491600000013], [-70.736588, 8.46602200000018], [-70.73557099999982, 8.466783], [-70.735043, 8.468812], [-70.736319, 8.4707], [-70.736923, 8.472427], [-70.736766, 8.475238000000104], [-70.738713, 8.477079], [-70.739109, 8.478253000000166], [-70.738927, 8.480028000000118], [-70.739023, 8.482078000000115], [-70.73927999999984, 8.483506000000148], [-70.740439, 8.48468], [-70.739887, 8.486385000000155], [-70.741811, 8.48804200000012], [-70.742345, 8.489262000000167], [-70.743021, 8.491726], [-70.743692, 8.492117000000121], [-70.7444129999999, 8.493844], [-70.744231, 8.495826], [-70.746111, 8.498865000000137], [-70.748771, 8.49835400000012], [-70.752266, 8.498695000000112], [-70.752686, 8.500561000000118], [-70.751837, 8.50411000000014], [-70.752675, 8.506897], [-70.754088, 8.508093], [-70.755551, 8.510441000000128], [-70.75631799999985, 8.512560000000121], [-70.757846, 8.512857], [-70.760462, 8.513936000000115], [-70.762731, 8.514463], [-70.765256, 8.516326000000163], [-70.766902, 8.518029000000183], [-70.768454, 8.518833], [-70.768477, 8.518833], [-70.76968099999982, 8.518993], [-70.771371, 8.519912], [-70.773181, 8.522121], [-70.773623, 8.522881], [-70.773789, 8.524955], [-70.773839, 8.527028000000143], [-70.775626, 8.530021000000147], [-70.777367, 8.532576000000176], [-70.777995, 8.534326], [-70.779434, 8.536374], [-70.779689, 8.536651000000177], [-70.781082, 8.539022], [-70.78268199999985, 8.541047000000106], [-70.783935, 8.54245], [-70.78622399999989, 8.542009000000121], [-70.78930299999985, 8.542466000000104], [-70.789627, 8.542765000000145], [-70.789612, 8.54682], [-70.791441, 8.547117000000185], [-70.793151, 8.546216], [-70.794681, 8.547043], [-70.794084, 8.54925500000013], [-70.792376, 8.551746], [-70.791892, 8.552806000000146], [-70.793028, 8.55398], [-70.794832, 8.553056], [-70.79700599999984, 8.552707000000112], [-70.79784399999988, 8.555033], [-70.80038999999988, 8.555167], [-70.803323, 8.555961], [-70.803909, 8.555905], [-70.8046839999999, 8.556291], [-70.805849, 8.555781], [-70.806978, 8.555760000000134], [-70.807781, 8.555211], [-70.80758699999984, 8.554459000000122], [-70.806764, 8.553941], [-70.805961, 8.55274], [-70.80780099999987, 8.551299000000142], [-70.809725, 8.550286], [-70.810819, 8.5508430000001], [-70.81148, 8.552431000000183], [-70.811342, 8.554834], [-70.811242, 8.558441], [-70.8110109999999, 8.559951000000126], [-70.811158, 8.56163800000013], [-70.812453, 8.562957], [-70.813695, 8.563999], [-70.81474899999984, 8.565091000000166], [-70.81529499999988, 8.565313], [-70.816056, 8.56586], [-70.81642399999987, 8.566209000000129], [-70.816566, 8.566606], [-70.816769, 8.567847000000143], [-70.81696499999987, 8.568688], [-70.819098, 8.574293], [-70.819849, 8.57588], [-70.820454, 8.576891], [-70.82132599999983, 8.57763], [-70.822608, 8.578629000000149], [-70.823438, 8.579547], [-70.82371499999988, 8.579897], [-70.82395, 8.585405]]]}}]}