{"type": "FeatureCollection", "features": [{"type": "Feature", "properties": {"Pais": "Venezuela", "Estado": "T\u00e1chira", "Municipio": "Antonio R\u00f3mulo Costa"}, "geometry": {"type": "Polygon", "coordinates": [[[-72.139849, 8.242276000000174], [-72.210556, 8.17017600000014], [-72.217347, 8.166092000000106], [-72.217628, 8.166073], [-72.217276, 8.1649460000001], [-72.217503, 8.164066000000162], [-72.21729, 8.16285], [-72.21741, 8.161417], [-72.217971, 8.160319], [-72.21709, 8.15965000000017], [-72.216876, 8.158434], [-72.21622, 8.157215000000122], [-72.21512399999989, 8.15522], [-72.2138, 8.154436], [-72.212918, 8.153766], [-72.21204099999989, 8.152435], [-72.21082499999989, 8.15209300000015], [-72.209608, 8.151862], [-72.20906, 8.150974000000133], [-72.208844, 8.1502], [-72.207297, 8.149635], [-72.20719799999989, 8.147869], [-72.205989, 8.146423], [-72.20533399999988, 8.144873000000189], [-72.205676, 8.143442], [-72.204359, 8.141666], [-72.204262, 8.139569], [-72.204051, 8.138023], [-72.20483499999989, 8.136706000000174], [-72.204953, 8.135714000000121], [-72.205404, 8.134505000000104], [-72.203648, 8.132062000000133], [-72.202441, 8.13028700000018], [-72.200571, 8.128285], [-72.199476, 8.126400000000103], [-72.198935, 8.124520000000132], [-72.19761199999982, 8.123625000000175], [-72.195178, 8.123052], [-72.193524, 8.121935000000121], [-72.191988, 8.119825000000162], [-72.189563, 8.11803900000018], [-72.187689, 8.116588], [-72.187147, 8.114929], [-72.186178, 8.110728000000108], [-72.18532, 8.106529000000137], [-72.18501, 8.103217], [-72.184918, 8.100458000000174], [-72.18583399999989, 8.095944], [-72.187851, 8.092431], [-72.19031, 8.089033], [-72.1345659999999, 8.130603], [-72.093572, 8.211471], [-72.094238, 8.212241000000176], [-72.09512699999988, 8.213343], [-72.095683, 8.214224000000115], [-72.09624, 8.215215], [-72.097016, 8.215766], [-72.098017, 8.217197000000112], [-72.099571, 8.218408000000125], [-72.10145799999987, 8.22006], [-72.102464, 8.223697000000186], [-72.103465, 8.225239], [-72.10302799999982, 8.227444], [-72.101924, 8.229099], [-72.101485, 8.2306430000001], [-72.102159, 8.234390000000133], [-72.102052, 8.235713], [-72.103054, 8.237806000000148], [-72.10250599999989, 8.240122], [-72.10361499999988, 8.240892], [-72.104947, 8.241883], [-72.106949, 8.244305], [-72.10894799999988, 8.246287], [-72.110057, 8.246947], [-72.1121629999999, 8.247275], [-72.11482199999989, 8.24727200000018], [-72.116706, 8.247600000000148], [-72.117927, 8.24859], [-72.11959, 8.248698], [-72.121143, 8.24946800000015], [-72.122692, 8.248915], [-72.123909, 8.248031], [-72.125014, 8.247037], [-72.127781, 8.246041000000105], [-72.129885, 8.245708], [-72.131211, 8.243832000000111], [-72.132205, 8.242618], [-72.13364499999989, 8.242616], [-72.13463999999982, 8.241843], [-72.135637, 8.241511000000116], [-72.136413, 8.241730000000132], [-72.13763, 8.241067000000157], [-72.13884999999988, 8.241506], [-72.139849, 8.242276000000174]]]}}]}