{"type": "FeatureCollection", "features": [{"type": "Feature", "properties": {"Pais": "Venezuela", "Estado": "M\u00e9rida", "Municipio": "Aricagua"}, "geometry": {"type": "Polygon", "coordinates": [[[-71.096574, 8.368541000000107], [-71.101595, 8.370661], [-71.105852, 8.371233], [-71.108828, 8.37386800000013], [-71.1120049999999, 8.376179], [-71.115285, 8.380529], [-71.119807, 8.385959000000128], [-71.122097, 8.38624300000015], [-71.127448, 8.383127000000115], [-71.13165, 8.381659000000127], [-71.135319, 8.381575000000112], [-71.13694799999985, 8.380975], [-71.136968, 8.37794700000012], [-71.1367029999999, 8.375864], [-71.136724, 8.372972], [-71.138379, 8.369665], [-71.140842, 8.366459000000134], [-71.14436399999988, 8.364428000000146], [-71.145829, 8.365115000000117], [-71.149424, 8.364689], [-71.152096, 8.364370000000122], [-71.15481899999986, 8.364325000000122], [-71.157423, 8.363983], [-71.15925, 8.362783], [-71.162009, 8.360673000000133], [-71.164614, 8.35907], [-71.16697799999986, 8.356829], [-71.16914, 8.353583], [-71.17063599999983, 8.351929000000155], [-71.170087, 8.349438000000134], [-71.167965, 8.346744000000115], [-71.167385, 8.345148], [-71.166964, 8.34199], [-71.166409, 8.339132], [-71.16647099999983, 8.335897], [-71.16846, 8.33474], [-71.171756, 8.333033], [-71.17405999999988, 8.331389000000115], [-71.17499, 8.33041], [-71.17592799999989, 8.32986700000015], [-71.17838499999988, 8.330492000000163], [-71.180042, 8.326936000000103], [-71.181609, 8.324557], [-71.18326699999989, 8.322016000000133], [-71.183705, 8.317771000000107], [-71.18595, 8.309952000000123], [-71.18696199999982, 8.305402], [-71.186336, 8.303117000000157], [-71.183975, 8.300624000000141], [-71.184164, 8.296863000000144], [-71.18554, 8.29389], [-71.186447, 8.290349000000106], [-71.18685099999988, 8.28725], [-71.189138, 8.283143], [-71.19042999999988, 8.278842000000168], [-71.191764, 8.276328], [-71.19371699999988, 8.273188], [-71.194814, 8.270127000000116], [-71.1971769999999, 8.266569], [-71.19946, 8.264227], [-71.202458, 8.261716000000149], [-71.205489, 8.260145], [-71.207397, 8.257257000000152], [-71.208296, 8.255046], [-71.209603, 8.254229], [-71.210727, 8.253527], [-71.21149799999989, 8.252258], [-71.212929, 8.250154], [-71.21562099999989, 8.247188000000165], [-71.218142, 8.245371], [-71.217973, 8.242737000000147], [-71.216815, 8.238282], [-71.216262, 8.234278000000131], [-71.216708, 8.230812], [-71.219412, 8.224821000000134], [-71.222424, 8.221530000000143], [-71.225115, 8.218450000000189], [-71.226807, 8.216963], [-71.229681, 8.215829], [-71.235274, 8.214157000000114], [-71.2373659999999, 8.2133070000001], [-71.238426, 8.21098000000012], [-71.23919399999988, 8.205401], [-71.240877, 8.201049000000182], [-71.242735, 8.19791000000015], [-71.24347, 8.195472], [-71.24785999999989, 8.191569], [-71.253901, 8.182513], [-71.25814499999984, 8.177947], [-71.261214, 8.173693000000185], [-71.263962, 8.167564], [-71.267885, 8.163253], [-71.270285, 8.16107], [-71.268128, 8.158254000000113], [-71.26519599999989, 8.152170000000126], [-71.262499, 8.148467], [-71.25923599999987, 8.143694000000153], [-71.255838, 8.13933400000019], [-71.25315299999988, 8.136685], [-71.25065299999989, 8.134102000000155], [-71.248684, 8.131513], [-71.248332, 8.128927], [-71.248795, 8.126928], [-71.249783, 8.12451], [-71.250381, 8.122234000000162], [-71.250428, 8.120262], [-71.248537, 8.118383], [-71.24673899999988, 8.116571], [-71.245446, 8.116586], [-71.242478, 8.11747], [-71.240637, 8.115956000000153], [-71.238336, 8.112590000000182], [-71.236771, 8.111005], [-71.23553, 8.109461], [-71.23378199999985, 8.107992], [-71.232388, 8.107253000000185], [-71.230333, 8.105146000000104], [-71.22890399999983, 8.103352], [-71.227817, 8.103182000000118], [-71.227536, 8.102750000000128], [-71.227755, 8.101739000000123], [-71.229482, 8.101328], [-71.230143, 8.098456000000112], [-71.230445, 8.096619000000146], [-71.23158099999989, 8.092870000000119], [-71.2318269999999, 8.090139], [-71.231922, 8.088259000000164], [-71.231812, 8.086725], [-71.232804, 8.084536000000128], [-71.23336299999988, 8.082971000000157], [-71.232926, 8.081005000000175], [-71.23295599999989, 8.077498000000105], [-71.232225, 8.074046000000124], [-71.232438, 8.072485], [-71.234459, 8.069390000000169], [-71.234514, 8.066112], [-71.23552499999983, 8.063624], [-71.237089, 8.06103800000011], [-71.237356, 8.060141000000158], [-71.237259, 8.055513], [-71.2374549999999, 8.054457], [-71.239334, 8.053265], [-71.24161299999986, 8.052688], [-71.24331399999983, 8.04994100000016], [-71.24442, 8.047727000000123], [-71.246289, 8.045482000000163], [-71.247268, 8.044279], [-71.24862, 8.043323], [-71.250254, 8.040897], [-71.252004, 8.040441000000158], [-71.254586, 8.038118000000168], [-71.256538, 8.037224], [-71.25821, 8.036036], [-71.25956699999989, 8.035584], [-71.260771, 8.033874], [-71.263089, 8.03265400000015], [-71.264296, 8.033236000000159], [-71.265252, 8.034095], [-71.26560299999989, 8.034504], [-71.266405, 8.034036], [-71.266293, 8.032272000000148], [-71.266114, 8.030647000000158], [-71.266076, 8.029319], [-71.268134, 8.027621], [-71.268855, 8.02603100000016], [-71.26945, 8.023502000000178], [-71.27002199999987, 8.020974], [-71.271307, 8.018300000000181], [-71.272961, 8.015393000000131], [-71.274085, 8.012721], [-71.27442799999989, 8.010425000000168], [-71.27505, 8.00821800000017], [-71.2759779999999, 8.006603], [-71.276122, 8.005019000000118], [-71.277234, 8.003333], [-71.2774409999999, 8.001245000000154], [-71.27835199999987, 8.000089], [-71.27855199999988, 7.999399], [-71.27808, 7.998510000000181], [-71.277727, 7.997873], [-71.278645, 7.997449000000131], [-71.279008, 7.996895000000109], [-71.279445, 7.996039000000167], [-71.280489, 7.994804000000158], [-71.2818079999999, 7.993960000000129], [-71.282918, 7.993528], [-71.2834289999999, 7.992750000000171], [-71.283597, 7.99144200000012], [-71.284502, 7.990459000000158], [-71.28497, 7.989038], [-71.285323, 7.98754700000012], [-71.285952, 7.986242000000118], [-71.28676499999989, 7.98512], [-71.28712, 7.983377], [-71.286547, 7.98248], [-71.286372, 7.980482000000109], [-71.286499, 7.978209], [-71.286508, 7.976212000000146], [-71.28671999999989, 7.975295000000131], [-71.28759999999988, 7.974633], [-71.287859, 7.973601000000144], [-71.2870989999999, 7.973231], [-71.286666, 7.97215000000017], [-71.28588999999988, 7.970402], [-71.285456, 7.969459], [-71.286244, 7.968774], [-71.287536, 7.968871], [-71.2895, 7.968283], [-71.290614, 7.966887], [-71.290421, 7.963902000000189], [-71.29038299999985, 7.962043], [-71.291314, 7.960394000000178], [-71.29315, 7.957693000000177], [-71.293236, 7.954227000000117], [-71.293151, 7.95262], [-71.29350799999986, 7.950418], [-71.293654, 7.948766000000148], [-71.293013, 7.947776000000147], [-71.29288199999985, 7.946215000000109], [-71.29358699999989, 7.943693000000167], [-71.293896, 7.941606000000149], [-71.2937199999999, 7.939860000000124], [-71.29192799999987, 7.938407000000154], [-71.289866, 7.9353], [-71.28883999999988, 7.932954000000166], [-71.28813699999989, 7.930448000000126], [-71.288541, 7.927994], [-71.289819, 7.925979], [-71.290865, 7.924331], [-71.291568, 7.922222], [-71.290813, 7.920934], [-71.29070309299993, 7.920294131000105], [-71.2905209999999, 7.919234], [-71.29038999999989, 7.917604], [-71.29002383599999, 7.916378542000018], [-71.289868, 7.915857], [-71.28952260799997, 7.915394175000017], [-71.289318, 7.915120000000172], [-71.2889237679999, 7.913997594000023], [-71.28775644799993, 7.914588756000114], [-71.28636338599995, 7.913080735000108], [-71.2852313219999, 7.910902695], [-71.28369425299991, 7.910223685000176], [-71.28309123099996, 7.909054667000078], [-71.28277221199994, 7.90848365100004], [-71.2827772089999, 7.907482632000097], [-71.28283321399994, 7.907392629000014], [-71.28285421199996, 7.906615616000124], [-71.28229017599995, 7.905044585999974], [-71.28109312999999, 7.905161591000024], [-71.27981408099987, 7.906817641000089], [-71.27802800999996, 7.907406654000056], [-71.27554590799997, 7.90674765600005], [-71.27306280599993, 7.907121677000021], [-71.27234578399992, 7.908077693000052], [-71.27162075899997, 7.90969973100016], [-71.2703727139999, 7.910644764000097], [-71.2699976969999, 7.909344733000069], [-71.27000067999995, 7.907370696999976], [-71.26946765199983, 7.906188671000052], [-71.26866362099992, 7.905264661], [-71.26690955099991, 7.906288689000178], [-71.26604952799988, 7.908096727000043], [-71.26586152399989, 7.910028773000022], [-71.26641455999999, 7.911095787000022], [-71.26763961499984, 7.912239814999964], [-71.26711459299992, 7.913558841000054], [-71.26652457999995, 7.915085874], [-71.26721361299991, 7.917067913000153], [-71.26694160999989, 7.918335936000176], [-71.26569155999994, 7.9181099380001], [-71.2648785159999, 7.916818920000082], [-71.26411048899996, 7.917523934000144], [-71.26254142499988, 7.917510945], [-71.26092435899994, 7.917384955000102], [-71.26028234799992, 7.91861497400015], [-71.26068235899999, 7.918996987000071], [-71.26102537299994, 7.919906997000055], [-71.26141940399998, 7.921046027000159], [-71.25960133599989, 7.922301062000145], [-71.25808527999988, 7.923664095000049], [-71.25670721599988, 7.92286708000006], [-71.25599318699994, 7.923961108000185], [-71.25569319099992, 7.925046136000105], [-71.25537317599998, 7.926223164000135], [-71.25448514299995, 7.926747181000053], [-71.25386711599998, 7.925888162000092], [-71.25329508899983, 7.925074150000114], [-71.25262606199988, 7.925042154000096], [-71.25261106199997, 7.926488181000138], [-71.25243307199992, 7.927869206000082], [-71.25175404899994, 7.929512245000012], [-71.2491909499999, 7.930439287000183], [-71.24750087799993, 7.931209308], [-71.24614683599998, 7.933624361999989], [-71.24513080099996, 7.935711406000053], [-71.24463779299992, 7.93744244800007], [-71.24397777199994, 7.938902479000035], [-71.24156467699993, 7.939320502000044], [-71.23920158099997, 7.939921532000028], [-71.23771652799996, 7.940572555000188], [-71.2374765209999, 7.941197568000121], [-71.23817754899983, 7.941618567000035], [-71.23871657899991, 7.944131620000064], [-71.23866158699991, 7.945853661000172], [-71.23826657299998, 7.94677967400014], [-71.23722253999995, 7.947536697000146], [-71.23632049299994, 7.945329660000027], [-71.23463341599995, 7.944125644000053], [-71.23319035499992, 7.942458610000187], [-71.23213930799989, 7.942939631000115], [-71.23167430399997, 7.944853669], [-71.23146230599991, 7.946785714999976], [-71.23094228799988, 7.948357743000031], [-71.23071628499991, 7.949624772000163], [-71.23179932199992, 7.949578767000162], [-71.23251335699996, 7.949517769000067], [-71.23247636199989, 7.950986796000052], [-71.23285738699997, 7.952608829000042], [-71.23424043699993, 7.952578822000135], [-71.23487447499991, 7.95309383200015], [-71.23568451999995, 7.955324875000088], [-71.23592153299995, 7.956696898000189], [-71.23500550199998, 7.958070926000175], [-71.2335894449999, 7.957664925000074], [-71.23198537399998, 7.957078921000061], [-71.23092333199992, 7.958087951000095], [-71.23003030099994, 7.959437985000022], [-71.22870425299982, 7.95999400300002], [-71.22839923199996, 7.958691974000033], [-71.22741019099993, 7.957771962000152], [-71.22610513799998, 7.959314998000082], [-71.22470009099999, 7.961524057000133], [-71.22006692199994, 7.965937169000085], [-71.21483072999996, 7.969145268000034], [-71.21096158399996, 7.971545328000047], [-71.20738843599997, 7.97274537200019], [-71.20413932299988, 7.975016440000161], [-71.19979515099993, 7.97575147200007], [-71.19686103299995, 7.977717529000131], [-71.1938159259999, 7.980902617000027], [-71.19132082899995, 7.982860666000136], [-71.18800070399988, 7.985087732000181], [-71.18428856899993, 7.988378813000111], [-71.1817824769999, 7.990909879000071], [-71.18116147199993, 7.993125935000137], [-71.17893039299997, 7.995559997000043], [-71.17658728799984, 7.994988989999968], [-71.17379918099988, 7.995117012000094], [-71.17105506499996, 7.995175029], [-71.16873097399997, 7.996797075000131], [-71.16907199899993, 7.999359121000168], [-71.16970103799991, 8.000537149000138], [-71.17015205699994, 8.001949177000085], [-71.17083609799994, 8.003424197000072], [-71.17194714699997, 8.005370238000069], [-71.16998707799996, 8.006429270000126], [-71.16924205199996, 8.007113294000021], [-71.16797300399992, 8.008085312], [-71.16770700199987, 8.010410371000091], [-71.16756299899993, 8.012021397000183], [-71.16535391599996, 8.012351415000126], [-71.1638138489999, 8.012641437000127], [-71.16275781999991, 8.014756484000088], [-71.16064472299996, 8.012444444000096], [-71.15832062599986, 8.012800467000147], [-71.15574352799996, 8.014104497], [-71.15450147899998, 8.0152365350001], [-71.1534884539999, 8.01631755699998], [-71.15229440899998, 8.018435608000175], [-71.15102036299999, 8.020165649000091], [-71.14927530099999, 8.020576668000047], [-71.14712721299998, 8.020537679000142], [-71.14494311399994, 8.020017686000187], [-71.1425900289999, 8.022004730000106], [-71.14112797999991, 8.023578773000054], [-71.13961691699996, 8.023179773000038], [-71.13696679799989, 8.022510772000032], [-71.13572175199988, 8.022587785000098], [-71.13494072399993, 8.024626829000056], [-71.13427170699998, 8.026525872999969], [-71.13316166899989, 8.028319912000029], [-71.13249865499995, 8.029507939000155], [-71.13123046099997, 8.030831641000077], [-71.13103846299998, 8.031032044000028], [-71.13089959699988, 8.031176987000038], [-71.13018457799996, 8.033054025000126], [-71.13013772499988, 8.033089309], [-71.13005670799987, 8.033150321000107], [-71.12942505299992, 8.03362600500003], [-71.12905052999992, 8.033908051000083], [-71.1284535129999, 8.034978074000037], [-71.12829588399984, 8.035294075000024], [-71.12781549899995, 8.03625710800003], [-71.1266714539999, 8.03853416100003], [-71.12555341499996, 8.039090178000095], [-71.12321631999993, 8.038941192000038], [-71.12157524899993, 8.038890197000171], [-71.12084521899993, 8.03737017100002], [-71.11999016799996, 8.035532128000057], [-71.11939710999985, 8.035294075000024], [-71.11772807699987, 8.034624126000097], [-71.11733922699995, 8.035294075000024], [-71.11662003799995, 8.036533165000037], [-71.11522998899994, 8.039161228000125], [-71.11411993699994, 8.038179217000163], [-71.11195084299987, 8.037337210000032], [-71.1094727389999, 8.037054221000176], [-71.10878272699995, 8.038104248000081], [-71.11134883199998, 8.040060274000098], [-71.11146184099982, 8.040907293000089], [-71.11051981599996, 8.042032317000121], [-71.10779971599993, 8.0441193690001], [-71.10663466599993, 8.043689373000063], [-71.10474157899995, 8.042817365000019], [-71.10381654599996, 8.043689387000086], [-71.10372255399994, 8.045482427000081], [-71.1034345509999, 8.046912457000133], [-71.10333655399995, 8.04948551400014], [-71.10262453999997, 8.051523553000095], [-71.10287955899997, 8.054340612000033], [-71.10205752799993, 8.055668651000019], [-71.09974244899996, 8.057332700000131], [-71.09722434499997, 8.058221723999964], [-71.09521626399999, 8.059234756000137], [-71.09457825499999, 8.061453804000053], [-71.09502128299994, 8.06346285300009], [-71.09531329699996, 8.064993879000156], [-71.09432028199996, 8.06873696800011], [-71.09516831999986, 8.07032299000008], [-71.0948373199999, 8.071915026], [-71.09440230599989, 8.07390007500004], [-71.09320025199997, 8.07294205800008], [-71.09102714999995, 8.070081007000056], [-71.08918708199997, 8.070424031000186], [-71.08703599899997, 8.072176072000104], [-71.08446189999995, 8.072675098], [-71.08278683399993, 8.073130119000098], [-71.08153578799988, 8.074859155000183], [-71.08062775199988, 8.076465194999969], [-71.07976772399996, 8.077152211000168], [-71.0786966799999, 8.077752229000055], [-71.07684160699995, 8.078395260999969], [-71.07480252999994, 8.079088278000029], [-71.07436253299994, 8.082794362000072], [-71.07346950199985, 8.08403339400013], [-71.07042439399999, 8.087000472000113], [-71.06946535899993, 8.089342526999985], [-71.07040240599991, 8.090765550000071], [-71.06857432699991, 8.090649554000038], [-71.06706627299991, 8.091352584000163], [-71.06536221399989, 8.092473615000074], [-71.06295412399993, 8.09602170100004], [-71.06159807699993, 8.097202731000039], [-71.06066104399991, 8.098579763000089], [-71.06035804399983, 8.099390788000164], [-71.0591459929999, 8.099879804000125], [-71.05927199999985, 8.10125382700005], [-71.05789795199985, 8.101746852000076], [-71.05679889999993, 8.101199845], [-71.05632488899988, 8.101647859000138], [-71.05656789799991, 8.103087878000167], [-71.05668691999983, 8.105081923000057], [-71.05682592199997, 8.106019949000029], [-71.05583488699995, 8.106135948000144], [-71.05468083799985, 8.10616395600016], [-71.05360479099988, 8.10658096700007], [-71.05343979899993, 8.108306013000174], [-71.05250676299983, 8.109799051000095], [-71.05136072199986, 8.110194055000079], [-71.04882762099999, 8.110509081000032], [-71.0479575899999, 8.111769114000083], [-71.04666554699998, 8.11372915600009], [-71.04501149099997, 8.115974213000129], [-71.04564251699986, 8.117198242000086], [-71.04593054599997, 8.118568268000104], [-71.04589554999984, 8.119969301000083], [-71.04633457999984, 8.121840338000084], [-71.04685660499996, 8.124261379000131], [-71.04588457799997, 8.125111407000134], [-71.04482152499997, 8.125114416000088], [-71.04430250699994, 8.125586423000186], [-71.04504654899995, 8.126738448000026], [-71.04541656099991, 8.12767046600004], [-71.0445545479999, 8.131135542000038], [-71.04335550199988, 8.131210556000042], [-71.04344950799987, 8.13224157600007], [-71.04437955299989, 8.133388585000034], [-71.04567260399995, 8.134298603], [-71.0467616549999, 8.135373620000053], [-71.04747770199998, 8.13815667900019], [-71.04643666999993, 8.140890743000114], [-71.0470977199999, 8.144271805000074], [-71.04600567499989, 8.144963836000045], [-71.04531264699995, 8.145921850999969], [-71.04490763599989, 8.145905853000102], [-71.04490973799989, 8.145921266000016], [-71.04496463699991, 8.146323864000124], [-71.04414861499998, 8.147776897000028], [-71.04311057399997, 8.147880905000079], [-71.04267655699994, 8.148343925], [-71.04269556899999, 8.15003995000012], [-71.04221755099996, 8.150778972000126], [-71.04258057699991, 8.152265003000082], [-71.04293658799998, 8.15315501800012], [-71.04113552999996, 8.155376082000032], [-71.03997148199994, 8.156604105000099], [-71.03789739999985, 8.157017124000106], [-71.03698836999996, 8.158403167000131], [-71.0366423669999, 8.1606302080001], [-71.03534532099997, 8.162433258000021], [-71.03323625199994, 8.163878304000036], [-71.03059414799998, 8.165146339000103], [-71.02774603399996, 8.16660038700013], [-71.02494892499988, 8.168534445000091], [-71.02327886599983, 8.1700434870001], [-71.02191081899997, 8.171640518000174], [-71.02059277199999, 8.173673570000176], [-71.01894471899993, 8.175090611000087], [-71.01819368799988, 8.176153634000173], [-71.01831671099995, 8.179016694000097], [-71.01840171999999, 8.180482730000108], [-71.01664865099997, 8.180686748000085], [-71.01464356999998, 8.181052761000103], [-71.01391254599997, 8.181771776000176], [-71.01270150399995, 8.183000817000163], [-71.01355353999992, 8.184938854], [-71.01439958999993, 8.186327880000022], [-71.01334654599992, 8.187210901000128], [-71.01262151999998, 8.188502932], [-71.01286453999995, 8.189668949000122], [-71.01246553199996, 8.191208989000188], [-71.01261253899997, 8.192010008000125], [-71.01207352799997, 8.193414035000046], [-71.0112314999999, 8.194616065], [-71.01059547099987, 8.195632094000132], [-71.00946244599999, 8.197639142000128], [-71.00942944699995, 8.198900164000179], [-71.00997447799989, 8.200131194000107], [-71.0108395179999, 8.201107211000078], [-71.01245459399996, 8.203083239000023], [-71.01374064799995, 8.204627268000138], [-71.01559274499988, 8.207150320000153], [-71.01733483199996, 8.210201369000117], [-71.01883690499983, 8.212407411000186], [-71.02087299499988, 8.214883456000166], [-71.02269608199992, 8.216902491000155], [-71.02213506499987, 8.218467532000034], [-71.02114103699995, 8.220518580000089], [-71.0216310639999, 8.221017580000023], [-71.02346413699996, 8.221775594], [-71.0241921789999, 8.222844605000091], [-71.02509920899996, 8.223429620000104], [-71.02686129199992, 8.224028619000023], [-71.02703230499998, 8.224920645000111], [-71.02697430699999, 8.22599865900014], [-71.02623027899995, 8.227680700000121], [-71.02543325799991, 8.22874373500008], [-71.02402520899994, 8.230983789000106], [-71.0236631979999, 8.231698805000121], [-71.02384121499989, 8.23320883000008], [-71.02477826099988, 8.234389850000127], [-71.02601731899983, 8.235751877000098], [-71.02640733399994, 8.23771791900009], [-71.02725538299995, 8.239174952000099], [-71.02814442899995, 8.240310964000116], [-71.02892646899994, 8.242113000000188], [-71.0301415209999, 8.243429026000172], [-71.0300833099999, 8.243424990000051], [-71.03000781899988, 8.243419755000048], [-71.01833103399997, 8.242610069000023], [-71.01442587399998, 8.244024117000151], [-71.01114570099992, 8.247778335000078], [-71.01046861899994, 8.248553267000034], [-71.0078456419999, 8.25155531400003], [-71.00162694499988, 8.25886508200017], [-71.00102340399997, 8.259574518000079], [-70.99492818299996, 8.264894662000074], [-70.98467176899999, 8.266940755000178], [-70.97514438599995, 8.267027813000084], [-70.96926910999991, 8.261259718000076], [-70.96655493399987, 8.24938247800003], [-70.9660112919999, 8.248553268000137], [-70.96361379399997, 8.244896391000168], [-70.96018863699999, 8.242866366000158], [-70.95066525999994, 8.244925452000189], [-70.94343679899993, 8.248553268000137], [-70.94163691199998, 8.249456594000094], [-70.93579372199991, 8.258478823000075], [-70.9262773499999, 8.263495985000077], [-70.91016070099994, 8.266676127000153], [-70.90869764399991, 8.267637162000142], [-70.90675058399995, 8.271302245000072], [-70.91067879499997, 8.279749410000079], [-70.91142385299997, 8.285430533000067], [-70.90996680699993, 8.2893506260001], [-70.90777874999992, 8.294243740000127], [-70.90827979999989, 8.299674855000035], [-70.91097392099988, 8.302431900000158], [-70.91554382499999, 8.299616393000179], [-70.91794273399995, 8.297230628000023], [-70.92682149699988, 8.288400511000134], [-70.93245476899989, 8.295150636000074], [-70.93123972699988, 8.298088699000061], [-70.93663099199995, 8.30508182300008], [-70.9581439129999, 8.312097865000112], [-70.96278911499996, 8.313654885000119], [-70.96523822599988, 8.316900942000075], [-70.97671969799995, 8.31635387100016], [-70.97551468199993, 8.323483030000034], [-70.98211997299995, 8.327784092000115], [-70.9923934339999, 8.333626167000034], [-71.00097084399994, 8.345849386], [-71.00805012599994, 8.343502296000167], [-71.01537742099993, 8.342886246000148], [-71.02198070899988, 8.346201281999981], [-71.02662289999995, 8.346279257000162], [-71.02833899299998, 8.349020308000036], [-71.04201353799988, 8.346291181000083], [-71.0500979219999, 8.3565343570001], [-71.05965338499988, 8.369265584000175], [-71.06870076699988, 8.372868623000159], [-71.08270345099993, 8.374448528000016], [-71.083332, 8.373425], [-71.0840659999999, 8.371730000000184], [-71.08648, 8.372491], [-71.08822, 8.371591], [-71.090198, 8.368279], [-71.093957, 8.368057], [-71.096574, 8.368541000000107]]]}}]}