{
  "type": "FeatureCollection",
  "features": [
    {
      "type": "Feature",
      "properties": {
        "Pais": "Venezuela",
        "Estado": "Mérida",
        "Municipio": "Arzobispo Chacón"
      },
      "geometry": {
        "type": "Polygon",
        "coordinates": [
          [
            [
              -71.232384,
              8.362851
            ],
            [
              -71.234383,
              8.363666000000137
            ],
            [
              -71.237015,
              8.362315
            ],
            [
              -71.241291,
              8.35850500000015
            ],
            [
              -71.243939,
              8.35536400000018
            ],
            [
              -71.247221,
              8.351455
            ],
            [
              -71.251255,
              8.349713000000122
            ],
            [
              -71.256745,
              8.34955200000013
            ],
            [
              -71.259155,
              8.350039
            ],
            [
              -71.262081,
              8.35109100000011
            ],
            [
              -71.26635,
              8.35102
            ],
            [
              -71.269547,
              8.348970000000122
            ],
            [
              -71.272288,
              8.34725
            ],
            [
              -71.27321,
              8.344413
            ],
            [
              -71.274956,
              8.34115
            ],
            [
              -71.276618,
              8.337017
            ],
            [
              -71.27901299999985,
              8.33397200000013
            ],
            [
              -71.283132,
              8.333192
            ],
            [
              -71.286376,
              8.332541
            ],
            [
              -71.290676,
              8.331551
            ],
            [
              -71.294798,
              8.332376
            ],
            [
              -71.297817,
              8.332118
            ],
            [
              -71.29970999999989,
              8.330779
            ],
            [
              -71.302448,
              8.328164
            ],
            [
              -71.30628,
              8.325940000000116
            ],
            [
              -71.308282,
              8.323211
            ],
            [
              -71.309746,
              8.32191
            ],
            [
              -71.31196299999988,
              8.319888000000105
            ],
            [
              -71.312479,
              8.31853000000018
            ],
            [
              -71.314393,
              8.318277
            ],
            [
              -71.317677,
              8.318626000000165
            ],
            [
              -71.320865,
              8.320650000000114
            ],
            [
              -71.32432999999986,
              8.322647000000131
            ],
            [
              -71.325885,
              8.325264000000118
            ],
            [
              -71.329609,
              8.323682000000133
            ],
            [
              -71.332864,
              8.321557
            ],
            [
              -71.336052,
              8.319455000000175
            ],
            [
              -71.338378,
              8.31686
            ],
            [
              -71.3412459999999,
              8.315266000000122
            ],
            [
              -71.3444889999999,
              8.314012000000105
            ],
            [
              -71.34557199999989,
              8.313815000000147
            ],
            [
              -71.345917,
              8.313719
            ],
            [
              -71.346261,
              8.311492000000158
            ],
            [
              -71.346892,
              8.308161
            ],
            [
              -71.348534,
              8.302320000000122
            ],
            [
              -71.3486539999999,
              8.29879
            ],
            [
              -71.349077,
              8.295393
            ],
            [
              -71.34924199999989,
              8.291747000000157
            ],
            [
              -71.349997,
              8.289103
            ],
            [
              -71.353249,
              8.286702
            ],
            [
              -71.35601699999984,
              8.284422000000177
            ],
            [
              -71.359655,
              8.281489
            ],
            [
              -71.363682,
              8.278140000000178
            ],
            [
              -71.36631399999987,
              8.276045
            ],
            [
              -71.36913899999985,
              8.278645
            ],
            [
              -71.37243499999988,
              8.282042000000104
            ],
            [
              -71.375612,
              8.285142
            ],
            [
              -71.37984899999987,
              8.287977000000183
            ],
            [
              -71.38493199999988,
              8.290114
            ],
            [
              -71.388333,
              8.292502000000127
            ],
            [
              -71.39221399999985,
              8.292591000000186
            ],
            [
              -71.396861,
              8.29303700000014
            ],
            [
              -71.398225,
              8.295083000000147
            ],
            [
              -71.401114,
              8.299195
            ],
            [
              -71.404678,
              8.30371
            ],
            [
              -71.407444,
              8.305211
            ],
            [
              -71.41108199999985,
              8.308122
            ],
            [
              -71.41619899999984,
              8.309158000000139
            ],
            [
              -71.418813,
              8.309492
            ],
            [
              -71.42211699999984,
              8.307618
            ],
            [
              -71.42385999999982,
              8.306424
            ],
            [
              -71.424843,
              8.30575
            ],
            [
              -71.427154,
              8.303888
            ],
            [
              -71.430651,
              8.302699
            ],
            [
              -71.432883,
              8.300057
            ],
            [
              -71.435423,
              8.296015000000182
            ],
            [
              -71.439668,
              8.289775
            ],
            [
              -71.44360499999988,
              8.286839000000157
            ],
            [
              -71.44543999999985,
              8.28381400000012
            ],
            [
              -71.44667,
              8.282355
            ],
            [
              -71.448234,
              8.27986
            ],
            [
              -71.449351,
              8.276661
            ],
            [
              -71.45069299999989,
              8.273024
            ],
            [
              -71.452142,
              8.270553000000177
            ],
            [
              -71.451888,
              8.268609
            ],
            [
              -71.452013,
              8.265514000000167
            ],
            [
              -71.454694,
              8.263716000000102
            ],
            [
              -71.457847,
              8.264799000000153
            ],
            [
              -71.463528,
              8.266652
            ],
            [
              -71.46622699999989,
              8.266412
            ],
            [
              -71.469461,
              8.26451500000013
            ],
            [
              -71.472962,
              8.263738000000103
            ],
            [
              -71.476035,
              8.26390600000019
            ],
            [
              -71.48073,
              8.264441
            ],
            [
              -71.483255,
              8.265143
            ],
            [
              -71.485584,
              8.266741
            ],
            [
              -71.488975,
              8.26442900000012
            ],
            [
              -71.491558,
              8.262219
            ],
            [
              -71.494404,
              8.258792
            ],
            [
              -71.494231,
              8.255907
            ],
            [
              -71.494201,
              8.251508
            ],
            [
              -71.495503,
              8.248398
            ],
            [
              -71.495658,
              8.245898000000182
            ],
            [
              -71.49706,
              8.243360000000166
            ],
            [
              -71.49992099999986,
              8.241004
            ],
            [
              -71.502964,
              8.239159
            ],
            [
              -71.50475099999989,
              8.237422
            ],
            [
              -71.507145,
              8.238253
            ],
            [
              -71.509533,
              8.238077
            ],
            [
              -71.512156,
              8.238815000000159
            ],
            [
              -71.514896,
              8.239735
            ],
            [
              -71.515405,
              8.243349000000137
            ],
            [
              -71.51611699999984,
              8.246503000000132
            ],
            [
              -71.519694,
              8.24886000000015
            ],
            [
              -71.522557,
              8.250947000000167
            ],
            [
              -71.524344,
              8.253544
            ],
            [
              -71.524845,
              8.256151000000159
            ],
            [
              -71.525377,
              8.259879
            ],
            [
              -71.525697,
              8.262876
            ],
            [
              -71.526057,
              8.265049
            ],
            [
              -71.527715,
              8.268883
            ],
            [
              -71.529545,
              8.27093100000019
            ],
            [
              -71.533375,
              8.273355
            ],
            [
              -71.53581899999989,
              8.274483
            ],
            [
              -71.537304,
              8.273442000000102
            ],
            [
              -71.538718,
              8.271967000000132
            ],
            [
              -71.54214,
              8.27194400000019
            ],
            [
              -71.544306,
              8.27289
            ],
            [
              -71.545831,
              8.274093000000164
            ],
            [
              -71.549512,
              8.274961
            ],
            [
              -71.55271,
              8.275580000000105
            ],
            [
              -71.556244,
              8.275189
            ],
            [
              -71.55810899999989,
              8.275794
            ],
            [
              -71.562896,
              8.276860000000113
            ],
            [
              -71.57005,
              8.278321
            ],
            [
              -71.571882,
              8.27764400000018
            ],
            [
              -71.574192,
              8.276163
            ],
            [
              -71.575298,
              8.273499
            ],
            [
              -71.57651399999986,
              8.27024
            ],
            [
              -71.57838,
              8.267869000000132
            ],
            [
              -71.5794279999999,
              8.266694
            ],
            [
              -71.58035199999989,
              8.26421500000015
            ],
            [
              -71.58064499999989,
              8.263458
            ],
            [
              -71.579529,
              8.261519
            ],
            [
              -71.57972499999988,
              8.257008000000155
            ],
            [
              -71.579671,
              8.252750000000106
            ],
            [
              -71.580819,
              8.249560000000145
            ],
            [
              -71.58337399999982,
              8.247115000000178
            ],
            [
              -71.585149,
              8.24485900000019
            ],
            [
              -71.58517399999988,
              8.242043
            ],
            [
              -71.58496399999984,
              8.238404
            ],
            [
              -71.585033,
              8.235244
            ],
            [
              -71.58484299999986,
              8.23117000000019
            ],
            [
              -71.583944,
              8.227536
            ],
            [
              -71.584448,
              8.224213
            ],
            [
              -71.586194,
              8.221271
            ],
            [
              -71.586535,
              8.217560000000105
            ],
            [
              -71.586867,
              8.21584
            ],
            [
              -71.588644,
              8.213905
            ],
            [
              -71.591572,
              8.212259
            ],
            [
              -71.593787,
              8.210458
            ],
            [
              -71.604816,
              8.208023
            ],
            [
              -71.608309,
              8.205251
            ],
            [
              -71.609785,
              8.202975
            ],
            [
              -71.611104,
              8.201202
            ],
            [
              -71.61452,
              8.20035300000012
            ],
            [
              -71.616023,
              8.198603000000105
            ],
            [
              -71.618674,
              8.196867
            ],
            [
              -71.622019,
              8.195745000000102
            ],
            [
              -71.62304099999989,
              8.194112000000132
            ],
            [
              -71.624336,
              8.192226
            ],
            [
              -71.626104,
              8.192214000000149
            ],
            [
              -71.626803,
              8.19053700000012
            ],
            [
              -71.62869099999983,
              8.188029
            ],
            [
              -71.631944,
              8.186976000000186
            ],
            [
              -71.63294,
              8.185092
            ],
            [
              -71.635418,
              8.181686000000184
            ],
            [
              -71.636784,
              8.180051
            ],
            [
              -71.634974,
              8.17754600000012
            ],
            [
              -71.631914,
              8.173538000000121
            ],
            [
              -71.62802999999985,
              8.169902
            ],
            [
              -71.626171,
              8.167031000000122
            ],
            [
              -71.62441599999988,
              8.162465
            ],
            [
              -71.621935,
              8.159346
            ],
            [
              -71.62090399999988,
              8.156537000000128
            ],
            [
              -71.62111,
              8.153215000000102
            ],
            [
              -71.621481,
              8.150695000000155
            ],
            [
              -71.622683,
              8.148534
            ],
            [
              -71.623997,
              8.146167000000105
            ],
            [
              -71.626144,
              8.1444580000001
            ],
            [
              -71.628704,
              8.1428370000001
            ],
            [
              -71.630925,
              8.142066
            ],
            [
              -71.632546,
              8.140842
            ],
            [
              -71.634266,
              8.137396
            ],
            [
              -71.63613,
              8.13477300000011
            ],
            [
              -71.636548,
              8.132343000000105
            ],
            [
              -71.63665999999989,
              8.128817
            ],
            [
              -71.637146,
              8.126181
            ],
            [
              -71.635817,
              8.123352000000125
            ],
            [
              -71.629895,
              8.120509
            ],
            [
              -71.625722,
              8.118317000000104
            ],
            [
              -71.623001,
              8.116619000000128
            ],
            [
              -71.618357,
              8.115804
            ],
            [
              -71.614133,
              8.115834000000177
            ],
            [
              -71.609926,
              8.115153000000134
            ],
            [
              -71.6057909999999,
              8.11477
            ],
            [
              -71.603569,
              8.115632000000176
            ],
            [
              -71.6019629999999,
              8.115758
            ],
            [
              -71.59950299999986,
              8.115340000000174
            ],
            [
              -71.596258,
              8.111059000000125
            ],
            [
              -71.593224,
              8.107417
            ],
            [
              -71.590984,
              8.105646
            ],
            [
              -71.58767499999988,
              8.102121000000125
            ],
            [
              -71.58642,
              8.099977
            ],
            [
              -71.585106,
              8.095979000000114
            ],
            [
              -71.58413999999988,
              8.092551000000185
            ],
            [
              -71.58408,
              8.09056
            ],
            [
              -71.58541899999983,
              8.088399
            ],
            [
              -71.585744,
              8.085741
            ],
            [
              -71.585201,
              8.083661
            ],
            [
              -71.58325399999984,
              8.081202000000133
            ],
            [
              -71.581788,
              8.07841900000011
            ],
            [
              -71.580167,
              8.076553
            ],
            [
              -71.578965,
              8.07534800000019
            ],
            [
              -71.57663999999988,
              8.074402
            ],
            [
              -71.575682,
              8.072165
            ],
            [
              -71.574671,
              8.06883
            ],
            [
              -71.572079,
              8.065802000000133
            ],
            [
              -71.570388,
              8.063685000000135
            ],
            [
              -71.56994,
              8.06204
            ],
            [
              -71.567694,
              8.0593760000001
            ],
            [
              -71.565702,
              8.056826000000115
            ],
            [
              -71.564129,
              8.055165
            ],
            [
              -71.562801,
              8.05245
            ],
            [
              -71.561842,
              8.050121000000104
            ],
            [
              -71.56139699999989,
              8.048888
            ],
            [
              -71.5617299999999,
              8.04726
            ],
            [
              -71.562664,
              8.04624600000011
            ],
            [
              -71.563578,
              8.045439000000158
            ],
            [
              -71.563961,
              8.044452
            ],
            [
              -71.56586040599996,
              8.043477108
            ],
            [
              -71.565997,
              8.043407
            ],
            [
              -71.567392,
              8.042710000000113
            ],
            [
              -71.56822493299995,
              8.042196613000044
            ],
            [
              -71.568969,
              8.04173800000018
            ],
            [
              -71.57008999999982,
              8.041158000000166
            ],
            [
              -71.57117121299984,
              8.04031649000018
            ],
            [
              -71.571574,
              8.040003000000127
            ],
            [
              -71.57160495499994,
              8.039870678000057
            ],
            [
              -71.57165285299999,
              8.039647872000103
            ],
            [
              -71.57169460599988,
              8.039405060000036
            ],
            [
              -71.57125763699997,
              8.039321982000104
            ],
            [
              -71.57036659199997,
              8.037908952000066
            ],
            [
              -71.57017857299996,
              8.034460886999966
            ],
            [
              -71.5701705539999,
              8.03189683
            ],
            [
              -71.56918749999994,
              8.02924577900012
            ],
            [
              -71.5678484369999,
              8.025975713000093
            ],
            [
              -71.56678138199999,
              8.024915703000147
            ],
            [
              -71.56676935999997,
              8.021113625000169
            ],
            [
              -71.56789937999991,
              8.013861465000161
            ],
            [
              -71.56921740699994,
              8.010411382000086
            ],
            [
              -71.57053744799998,
              8.007402310000145
            ],
            [
              -71.57052743799994,
              8.004042248000133
            ],
            [
              -71.5690143569999,
              8.002011210000148
            ],
            [
              -71.56679226699998,
              7.999892171000056
            ],
            [
              -71.56401212799989,
              7.996922131000133
            ],
            [
              -71.56215005799993,
              7.995819116000121
            ],
            [
              -71.56017696699985,
              7.994002082000065
            ],
            [
              -71.55851088799994,
              7.99218106100011
            ],
            [
              -71.55776183899997,
              7.989838009000039
            ],
            [
              -71.5571967979999,
              7.985957934000055
            ],
            [
              -71.55614375199991,
              7.983924894999973
            ],
            [
              -71.55325462599995,
              7.982731883000042
            ],
            [
              -71.55106552599995,
              7.980098837000128
            ],
            [
              -71.5493854419999,
              7.97725579400003
            ],
            [
              -71.54824638299993,
              7.976450784000178
            ],
            [
              -71.54650731699991,
              7.976778790000139
            ],
            [
              -71.54251716599998,
              7.977644832000067
            ],
            [
              -71.53974805199994,
              7.977678843000092
            ],
            [
              -71.53740196299998,
              7.978729883000028
            ],
            [
              -71.53555688099988,
              7.978853892000075
            ],
            [
              -71.53546410899986,
              7.97874572600017
            ],
            [
              -71.53451717099995,
              7.977641599000037
            ],
            [
              -71.53451483599991,
              7.977638876000071
            ],
            [
              -71.53119568099999,
              7.974916826000083
            ],
            [
              -71.52881358199988,
              7.973206812
            ],
            [
              -71.52806553799991,
              7.97096576500013
            ],
            [
              -71.52854954499998,
              7.968811722000169
            ],
            [
              -71.52862654199998,
              7.966867674000071
            ],
            [
              -71.52788150299995,
              7.964830637000034
            ],
            [
              -71.52550340299985,
              7.963427618000026
            ],
            [
              -71.52302328499997,
              7.962127609
            ],
            [
              -71.52167222799994,
              7.960813582000071
            ],
            [
              -71.51970613999998,
              7.959507564000035
            ],
            [
              -71.51668500699992,
              7.956065508000165
            ],
            [
              -71.51399688899994,
              7.954461486000127
            ],
            [
              -71.51181677999995,
              7.952543464000087
            ],
            [
              -71.51163175099998,
              7.94630633100013
            ],
            [
              -71.51126070299983,
              7.941503236000187
            ],
            [
              -71.51045964899998,
              7.935273107000114
            ],
            [
              -71.51122565999987,
              7.931070019000117
            ],
            [
              -71.51045460699993,
              7.927089939000155
            ],
            [
              -71.50864851299997,
              7.922406841000111
            ],
            [
              -71.50878848999992,
              7.917392745000029
            ],
            [
              -71.50965550199999,
              7.913188652000088
            ],
            [
              -71.51064952799999,
              7.910721592000073
            ],
            [
              -71.51103953699999,
              7.909182558000055
            ],
            [
              -71.51099551899983,
              7.905910488000075
            ],
            [
              -71.51023538399988,
              7.902111700000148
            ],
            [
              -71.51011746599994,
              7.901522402000069
            ],
            [
              -71.5100754469999,
              7.898351343000172
            ],
            [
              -71.51024543699992,
              7.895690283000079
            ],
            [
              -71.51092245399991,
              7.892511215000127
            ],
            [
              -71.5090513689999,
              7.890692181000077
            ],
            [
              -71.50971439699998,
              7.889844166000159
            ],
            [
              -71.50979635699991,
              7.889738865000027
            ],
            [
              -71.50857424499998,
              7.889392961000055
            ],
            [
              -71.50684334599998,
              7.888315772000169
            ],
            [
              -71.504036,
              7.886111
            ],
            [
              -71.50226736499991,
              7.885456053999974
            ],
            [
              -71.50024999999988,
              7.884709000000157
            ],
            [
              -71.49826658099994,
              7.882762704000072
            ],
            [
              -71.495014,
              7.879571000000112
            ],
            [
              -71.49283799999989,
              7.876212
            ],
            [
              -71.492533,
              7.872057000000154
            ],
            [
              -71.492413,
              7.867811000000188
            ],
            [
              -71.490933,
              7.863537
            ],
            [
              -71.489996,
              7.861674000000107
            ],
            [
              -71.48846399999985,
              7.858547
            ],
            [
              -71.486234,
              7.85684
            ],
            [
              -71.48284799999988,
              7.855749000000117
            ],
            [
              -71.480455,
              7.854616
            ],
            [
              -71.474626,
              7.853308000000141
            ],
            [
              -71.47126999999989,
              7.855797
            ],
            [
              -71.467902,
              7.861316000000159
            ],
            [
              -71.46581099999986,
              7.864613
            ],
            [
              -71.462812,
              7.870110000000182
            ],
            [
              -71.458838,
              7.876522
            ],
            [
              -71.45427599999988,
              7.880705
            ],
            [
              -71.451449,
              7.883425000000159
            ],
            [
              -71.448758,
              7.886903000000132
            ],
            [
              -71.447824,
              7.889516000000185
            ],
            [
              -71.448226,
              7.892433
            ],
            [
              -71.44763,
              7.896837000000176
            ],
            [
              -71.446294,
              7.901445
            ],
            [
              -71.44464,
              7.905157
            ],
            [
              -71.44206899999989,
              7.907488
            ],
            [
              -71.439022,
              7.907935
            ],
            [
              -71.436786,
              7.907674000000156
            ],
            [
              -71.43540199999984,
              7.9076
            ],
            [
              -71.43434,
              7.907803000000172
            ],
            [
              -71.43089,
              7.905517
            ],
            [
              -71.4261259999999,
              7.903181000000188
            ],
            [
              -71.421754,
              7.900754
            ],
            [
              -71.41798,
              7.898835000000133
            ],
            [
              -71.41482599999983,
              7.897422
            ],
            [
              -71.413584,
              7.896614
            ],
            [
              -71.41178899999989,
              7.895781
            ],
            [
              -71.411846,
              7.893302
            ],
            [
              -71.411858,
              7.890709000000129
            ],
            [
              -71.411394,
              7.886369
            ],
            [
              -71.411318,
              7.88272
            ],
            [
              -71.411153,
              7.878289000000109
            ],
            [
              -71.411285,
              7.87464000000017
            ],
            [
              -71.409165,
              7.869262000000163
            ],
            [
              -71.40575599999988,
              7.86312
            ],
            [
              -71.403649,
              7.859920000000102
            ],
            [
              -71.401575,
              7.859637000000134
            ],
            [
              -71.399725,
              7.860618000000102
            ],
            [
              -71.39729099999988,
              7.863178
            ],
            [
              -71.394162,
              7.866609
            ],
            [
              -71.391521,
              7.869031
            ],
            [
              -71.389235,
              7.86950400000012
            ],
            [
              -71.387576,
              7.868970000000161
            ],
            [
              -71.385668,
              7.867654000000186
            ],
            [
              -71.3839,
              7.865880000000118
            ],
            [
              -71.382457,
              7.863854000000174
            ],
            [
              -71.379193,
              7.861317
            ],
            [
              -71.376986,
              7.859885
            ],
            [
              -71.373744,
              7.857599000000107
            ],
            [
              -71.37360720699996,
              7.857339747000026
            ],
            [
              -71.372761,
              7.855736000000149
            ],
            [
              -71.373671,
              7.853467000000137
            ],
            [
              -71.37382436199994,
              7.85309855600002
            ],
            [
              -71.37497799999989,
              7.850327
            ],
            [
              -71.375449,
              7.848241
            ],
            [
              -71.37491061299988,
              7.847231984000132
            ],
            [
              -71.37383164499988,
              7.848074956000062
            ],
            [
              -71.37256158899999,
              7.848367968000161
            ],
            [
              -71.37080851999997,
              7.848452976999965
            ],
            [
              -71.36921145799988,
              7.849503008000056
            ],
            [
              -71.36865535299995,
              7.849993549000089
            ],
            [
              -71.36724338599993,
              7.851239047000092
            ],
            [
              -71.3639412519999,
              7.851983084000096
            ],
            [
              -71.3596310719999,
              7.851392090000047
            ],
            [
              -71.35570492099993,
              7.852455128000088
            ],
            [
              -71.35484489499993,
              7.85373716700002
            ],
            [
              -71.35393286799996,
              7.856464228000164
            ],
            [
              -71.35216181899989,
              7.860290308000174
            ],
            [
              -71.35086376499987,
              7.861502343000041
            ],
            [
              -71.34735662199995,
              7.861694367000098
            ],
            [
              -71.34456151899997,
              7.862578401000064
            ],
            [
              -71.34148239899991,
              7.865067465000095
            ],
            [
              -71.33777426299997,
              7.868701560000147
            ],
            [
              -71.33426355599994,
              7.87091058600015
            ],
            [
              -71.33425713699995,
              7.870914625000012
            ],
            [
              -71.33415227399996,
              7.87100900300004
            ],
            [
              -71.33293708799994,
              7.872102656000038
            ],
            [
              -71.33213906999993,
              7.874968710000189
            ],
            [
              -71.33097903199996,
              7.876340752000033
            ],
            [
              -71.32852593799993,
              7.87805179500009
            ],
            [
              -71.32527982299985,
              7.881412878000106
            ],
            [
              -71.32131467499994,
              7.885665991000053
            ],
            [
              -71.32004562399993,
              7.8858900030001
            ],
            [
              -71.31873955999987,
              7.883887970999979
            ],
            [
              -71.31747550499989,
              7.882964957000183
            ],
            [
              -71.31450238599984,
              7.882424959000105
            ],
            [
              -71.30988819999999,
              7.882634985999971
            ],
            [
              -71.30792411999994,
              7.883293012000081
            ],
            [
              -71.30591103799998,
              7.884616043000051
            ],
            [
              -71.30341796599993,
              7.889655161000064
            ],
            [
              -71.30202492099994,
              7.891486201000021
            ],
            [
              -71.29839578099995,
              7.893123259000106
            ],
            [
              -71.29582768299986,
              7.894558301000188
            ],
            [
              -71.29402160599989,
              7.895882336000057
            ],
            [
              -71.29440563599996,
              7.897720369000183
            ],
            [
              -71.29476265899984,
              7.900109423000117
            ],
            [
              -71.29442865999994,
              7.902472476000185
            ],
            [
              -71.29340063599994,
              7.905153537000047
            ],
            [
              -71.29234460199996,
              7.908660617000123
            ],
            [
              -71.29094855699992,
              7.911294674000033
            ],
            [
              -71.28899749399994,
              7.913949737000053
            ],
            [
              -71.28900049799995,
              7.913958736000041
            ],
            [
              -71.2889237679999,
              7.913997594000023
            ],
            [
              -71.289318,
              7.915120000000172
            ],
            [
              -71.28952260799997,
              7.915394175000017
            ],
            [
              -71.289868,
              7.915857
            ],
            [
              -71.29002383599999,
              7.916378542000018
            ],
            [
              -71.29038999999989,
              7.917604
            ],
            [
              -71.2905209999999,
              7.919234
            ],
            [
              -71.29070309299993,
              7.920294131000105
            ],
            [
              -71.290813,
              7.920934
            ],
            [
              -71.291568,
              7.922222
            ],
            [
              -71.290865,
              7.924331
            ],
            [
              -71.289819,
              7.925979
            ],
            [
              -71.288541,
              7.927994
            ],
            [
              -71.28813699999989,
              7.930448000000126
            ],
            [
              -71.28883999999988,
              7.932954000000166
            ],
            [
              -71.289866,
              7.9353
            ],
            [
              -71.29192799999987,
              7.938407000000154
            ],
            [
              -71.2937199999999,
              7.939860000000124
            ],
            [
              -71.293896,
              7.941606000000149
            ],
            [
              -71.29358699999989,
              7.943693000000167
            ],
            [
              -71.29288199999985,
              7.946215000000109
            ],
            [
              -71.293013,
              7.947776000000147
            ],
            [
              -71.293654,
              7.948766000000148
            ],
            [
              -71.29350799999986,
              7.950418
            ],
            [
              -71.293151,
              7.95262
            ],
            [
              -71.293236,
              7.954227000000117
            ],
            [
              -71.29315,
              7.957693000000177
            ],
            [
              -71.291314,
              7.960394000000178
            ],
            [
              -71.29038299999985,
              7.962043
            ],
            [
              -71.290421,
              7.963902000000189
            ],
            [
              -71.290614,
              7.966887
            ],
            [
              -71.2895,
              7.968283
            ],
            [
              -71.287536,
              7.968871
            ],
            [
              -71.286244,
              7.968774
            ],
            [
              -71.285456,
              7.969459
            ],
            [
              -71.28588999999988,
              7.970402
            ],
            [
              -71.286666,
              7.97215000000017
            ],
            [
              -71.2870989999999,
              7.973231
            ],
            [
              -71.287859,
              7.973601000000144
            ],
            [
              -71.28759999999988,
              7.974633
            ],
            [
              -71.28671999999989,
              7.975295000000131
            ],
            [
              -71.286508,
              7.976212000000146
            ],
            [
              -71.286499,
              7.978209
            ],
            [
              -71.286372,
              7.980482000000109
            ],
            [
              -71.286547,
              7.98248
            ],
            [
              -71.28712,
              7.983377
            ],
            [
              -71.28676499999989,
              7.98512
            ],
            [
              -71.285952,
              7.986242000000118
            ],
            [
              -71.285323,
              7.98754700000012
            ],
            [
              -71.28497,
              7.989038
            ],
            [
              -71.284502,
              7.990459000000158
            ],
            [
              -71.283597,
              7.99144200000012
            ],
            [
              -71.2834289999999,
              7.992750000000171
            ],
            [
              -71.282918,
              7.993528
            ],
            [
              -71.2818079999999,
              7.993960000000129
            ],
            [
              -71.280489,
              7.994804000000158
            ],
            [
              -71.279445,
              7.996039000000167
            ],
            [
              -71.279008,
              7.996895000000109
            ],
            [
              -71.278645,
              7.997449000000131
            ],
            [
              -71.277727,
              7.997873
            ],
            [
              -71.27808,
              7.998510000000181
            ],
            [
              -71.27855199999988,
              7.999399
            ],
            [
              -71.27835199999987,
              8.000089
            ],
            [
              -71.2774409999999,
              8.001245000000154
            ],
            [
              -71.277234,
              8.003333
            ],
            [
              -71.276122,
              8.005019000000118
            ],
            [
              -71.2759779999999,
              8.006603
            ],
            [
              -71.27505,
              8.00821800000017
            ],
            [
              -71.27442799999989,
              8.010425000000168
            ],
            [
              -71.274085,
              8.012721
            ],
            [
              -71.272961,
              8.015393000000131
            ],
            [
              -71.271307,
              8.018300000000181
            ],
            [
              -71.27002199999987,
              8.020974
            ],
            [
              -71.26945,
              8.023502000000178
            ],
            [
              -71.268855,
              8.02603100000016
            ],
            [
              -71.268134,
              8.027621
            ],
            [
              -71.266076,
              8.029319
            ],
            [
              -71.266114,
              8.030647000000158
            ],
            [
              -71.266293,
              8.032272000000148
            ],
            [
              -71.266405,
              8.034036
            ],
            [
              -71.26560299999989,
              8.034504
            ],
            [
              -71.265252,
              8.034095
            ],
            [
              -71.264296,
              8.033236000000159
            ],
            [
              -71.263089,
              8.03265400000015
            ],
            [
              -71.260771,
              8.033874
            ],
            [
              -71.25956699999989,
              8.035584
            ],
            [
              -71.25821,
              8.036036
            ],
            [
              -71.256538,
              8.037224
            ],
            [
              -71.254586,
              8.038118000000168
            ],
            [
              -71.252004,
              8.040441000000158
            ],
            [
              -71.250254,
              8.040897
            ],
            [
              -71.24862,
              8.043323
            ],
            [
              -71.247268,
              8.044279
            ],
            [
              -71.246289,
              8.045482000000163
            ],
            [
              -71.24442,
              8.047727000000123
            ],
            [
              -71.24331399999983,
              8.04994100000016
            ],
            [
              -71.24161299999986,
              8.052688
            ],
            [
              -71.239334,
              8.053265
            ],
            [
              -71.2374549999999,
              8.054457
            ],
            [
              -71.237259,
              8.055513
            ],
            [
              -71.237356,
              8.060141000000158
            ],
            [
              -71.237089,
              8.06103800000011
            ],
            [
              -71.23552499999983,
              8.063624
            ],
            [
              -71.234514,
              8.066112
            ],
            [
              -71.234459,
              8.069390000000169
            ],
            [
              -71.232438,
              8.072485
            ],
            [
              -71.232225,
              8.074046000000124
            ],
            [
              -71.23295599999989,
              8.077498000000105
            ],
            [
              -71.232926,
              8.081005000000175
            ],
            [
              -71.23336299999988,
              8.082971000000157
            ],
            [
              -71.232804,
              8.084536000000128
            ],
            [
              -71.231812,
              8.086725
            ],
            [
              -71.231922,
              8.088259000000164
            ],
            [
              -71.2318269999999,
              8.090139
            ],
            [
              -71.23158099999989,
              8.092870000000119
            ],
            [
              -71.230445,
              8.096619000000146
            ],
            [
              -71.230143,
              8.098456000000112
            ],
            [
              -71.229482,
              8.101328
            ],
            [
              -71.227755,
              8.101739000000123
            ],
            [
              -71.227536,
              8.102750000000128
            ],
            [
              -71.227817,
              8.103182000000118
            ],
            [
              -71.22890399999983,
              8.103352
            ],
            [
              -71.230333,
              8.105146000000104
            ],
            [
              -71.232388,
              8.107253000000185
            ],
            [
              -71.23378199999985,
              8.107992
            ],
            [
              -71.23553,
              8.109461
            ],
            [
              -71.236771,
              8.111005
            ],
            [
              -71.238336,
              8.112590000000182
            ],
            [
              -71.240637,
              8.115956000000153
            ],
            [
              -71.242478,
              8.11747
            ],
            [
              -71.245446,
              8.116586
            ],
            [
              -71.24673899999988,
              8.116571
            ],
            [
              -71.248537,
              8.118383
            ],
            [
              -71.250428,
              8.120262
            ],
            [
              -71.250381,
              8.122234000000162
            ],
            [
              -71.249783,
              8.12451
            ],
            [
              -71.248795,
              8.126928
            ],
            [
              -71.248332,
              8.128927
            ],
            [
              -71.248684,
              8.131513
            ],
            [
              -71.25065299999989,
              8.134102000000155
            ],
            [
              -71.25315299999988,
              8.136685
            ],
            [
              -71.255838,
              8.13933400000019
            ],
            [
              -71.25923599999987,
              8.143694000000153
            ],
            [
              -71.262499,
              8.148467
            ],
            [
              -71.26519599999989,
              8.152170000000126
            ],
            [
              -71.268128,
              8.158254000000113
            ],
            [
              -71.270285,
              8.16107
            ],
            [
              -71.267885,
              8.163253
            ],
            [
              -71.263962,
              8.167564
            ],
            [
              -71.261214,
              8.173693000000185
            ],
            [
              -71.25814499999984,
              8.177947
            ],
            [
              -71.253901,
              8.182513
            ],
            [
              -71.24785999999989,
              8.191569
            ],
            [
              -71.24347,
              8.195472
            ],
            [
              -71.242735,
              8.19791000000015
            ],
            [
              -71.240877,
              8.201049000000182
            ],
            [
              -71.23919399999988,
              8.205401
            ],
            [
              -71.238426,
              8.21098000000012
            ],
            [
              -71.2373659999999,
              8.2133070000001
            ],
            [
              -71.235274,
              8.214157000000114
            ],
            [
              -71.229681,
              8.215829
            ],
            [
              -71.226807,
              8.216963
            ],
            [
              -71.225115,
              8.218450000000189
            ],
            [
              -71.222424,
              8.221530000000143
            ],
            [
              -71.219412,
              8.224821000000134
            ],
            [
              -71.216708,
              8.230812
            ],
            [
              -71.216262,
              8.234278000000131
            ],
            [
              -71.216815,
              8.238282
            ],
            [
              -71.217973,
              8.242737000000147
            ],
            [
              -71.218142,
              8.245371
            ],
            [
              -71.21562099999989,
              8.247188000000165
            ],
            [
              -71.212929,
              8.250154
            ],
            [
              -71.21149799999989,
              8.252258
            ],
            [
              -71.210727,
              8.253527
            ],
            [
              -71.209603,
              8.254229
            ],
            [
              -71.208296,
              8.255046
            ],
            [
              -71.207397,
              8.257257000000152
            ],
            [
              -71.205489,
              8.260145
            ],
            [
              -71.202458,
              8.261716000000149
            ],
            [
              -71.19946,
              8.264227
            ],
            [
              -71.1971769999999,
              8.266569
            ],
            [
              -71.194814,
              8.270127000000116
            ],
            [
              -71.19371699999988,
              8.273188
            ],
            [
              -71.191764,
              8.276328
            ],
            [
              -71.19042999999988,
              8.278842000000168
            ],
            [
              -71.189138,
              8.283143
            ],
            [
              -71.18685099999988,
              8.28725
            ],
            [
              -71.186447,
              8.290349000000106
            ],
            [
              -71.18554,
              8.29389
            ],
            [
              -71.184164,
              8.296863000000144
            ],
            [
              -71.183975,
              8.300624000000141
            ],
            [
              -71.186336,
              8.303117000000157
            ],
            [
              -71.18696199999982,
              8.305402
            ],
            [
              -71.18595,
              8.309952000000123
            ],
            [
              -71.183705,
              8.317771000000107
            ],
            [
              -71.18326699999989,
              8.322016000000133
            ],
            [
              -71.181609,
              8.324557
            ],
            [
              -71.180042,
              8.326936000000103
            ],
            [
              -71.17838499999988,
              8.330492000000163
            ],
            [
              -71.18142499999988,
              8.33147300000013
            ],
            [
              -71.183756,
              8.332857
            ],
            [
              -71.18614,
              8.336005000000114
            ],
            [
              -71.188369,
              8.33819300000016
            ],
            [
              -71.191749,
              8.34018
            ],
            [
              -71.195492,
              8.341815000000167
            ],
            [
              -71.19817599999988,
              8.344981000000132
            ],
            [
              -71.202096,
              8.346109000000183
            ],
            [
              -71.206151,
              8.348449000000187
            ],
            [
              -71.207749,
              8.351565
            ],
            [
              -71.211226,
              8.35653
            ],
            [
              -71.213716,
              8.359149000000173
            ],
            [
              -71.21718,
              8.360605
            ],
            [
              -71.223654,
              8.361254
            ],
            [
              -71.227149,
              8.361815
            ],
            [
              -71.231066,
              8.361337
            ],
            [
              -71.232384,
              8.362851
            ]
          ]
        ]
      }
    }
  ]
}