{
  "type": "FeatureCollection",
  "features": [
    {
      "type": "Feature",
      "properties": {
        "Pais": "Venezuela",
        "Estado": "Yaracuy",
        "Municipio": "Arístides Bastidas"
      },
      "geometry": {
        "type": "Polygon",
        "coordinates": [
          [
            [
              -68.88251,
              10.32395
            ],
            [
              -68.885483,
              10.328404
            ],
            [
              -68.886736,
              10.326857
            ],
            [
              -68.888894,
              10.325348
            ],
            [
              -68.891126,
              10.323496
            ],
            [
              -68.893892,
              10.321697
            ],
            [
              -68.894414,
              10.31904100000014
            ],
            [
              -68.896631,
              10.316569
            ],
            [
              -68.897586,
              10.312749
            ],
            [
              -68.898742,
              10.311411
            ],
            [
              -68.899911,
              10.309086
            ],
            [
              -68.900608,
              10.307328
            ],
            [
              -68.901235,
              10.305546
            ],
            [
              -68.902122,
              10.303401000000179
            ],
            [
              -68.90294399999988,
              10.300934000000154
            ],
            [
              -68.903247,
              10.299033
            ],
            [
              -68.903898,
              10.297229000000186
            ],
            [
              -68.90436099999988,
              10.295514
            ],
            [
              -68.90606499999984,
              10.293127
            ],
            [
              -68.90769199999988,
              10.291313000000116
            ],
            [
              -68.908782,
              10.289675000000102
            ],
            [
              -68.911334,
              10.286700000000167
            ],
            [
              -68.911218,
              10.285822000000167
            ],
            [
              -68.909792,
              10.283878
            ],
            [
              -68.909344,
              10.282524000000137
            ],
            [
              -68.908961,
              10.280275
            ],
            [
              -68.908167,
              10.279361
            ],
            [
              -68.90739699999989,
              10.27867700000013
            ],
            [
              -68.906717,
              10.27732500000019
            ],
            [
              -68.905925,
              10.276894
            ],
            [
              -68.90494899999987,
              10.277014
            ],
            [
              -68.903578,
              10.276861000000167
            ],
            [
              -68.901667,
              10.275816
            ],
            [
              -68.90003699999988,
              10.27509
            ],
            [
              -68.89931399999983,
              10.274428000000114
            ],
            [
              -68.898681,
              10.273283
            ],
            [
              -68.8981179999999,
              10.272115
            ],
            [
              -68.897413,
              10.270465000000115
            ],
            [
              -68.896918,
              10.268952000000183
            ],
            [
              -68.896587,
              10.267645
            ],
            [
              -68.896002,
              10.26673
            ],
            [
              -68.894631,
              10.266944000000137
            ],
            [
              -68.89286499999986,
              10.267046
            ],
            [
              -68.892366,
              10.264729
            ],
            [
              -68.892338,
              10.26353500000016
            ],
            [
              -68.892357,
              10.262639
            ],
            [
              -68.892399,
              10.261812
            ],
            [
              -68.892045,
              10.260482000000138
            ],
            [
              -68.890505,
              10.259181000000126
            ],
            [
              -68.889201,
              10.25866
            ],
            [
              -68.88882599999988,
              10.257928
            ],
            [
              -68.888403,
              10.256896
            ],
            [
              -68.888254,
              10.254692
            ],
            [
              -68.887271,
              10.253205
            ],
            [
              -68.88657099999983,
              10.25247400000012
            ],
            [
              -68.88582299999985,
              10.25172
            ],
            [
              -68.88553899999988,
              10.250482
            ],
            [
              -68.885415,
              10.248851
            ],
            [
              -68.885568,
              10.246646
            ],
            [
              -68.8852839999999,
              10.245476
            ],
            [
              -68.88441599999987,
              10.24371200000013
            ],
            [
              -68.883599,
              10.242982
            ],
            [
              -68.88225099999988,
              10.242806
            ],
            [
              -68.880923,
              10.241963000000169
            ],
            [
              -68.88024599999989,
              10.241370000000131
            ],
            [
              -68.879128,
              10.240687
            ],
            [
              -68.876818,
              10.238725000000102
            ],
            [
              -68.876253,
              10.237098000000174
            ],
            [
              -68.875712,
              10.23586
            ],
            [
              -68.8748,
              10.234555
            ],
            [
              -68.874471,
              10.233799
            ],
            [
              -68.873604,
              10.232104000000106
            ],
            [
              -68.87325099999987,
              10.231188
            ],
            [
              -68.87250299999988,
              10.230135000000132
            ],
            [
              -68.870193,
              10.227874
            ],
            [
              -68.870146,
              10.227875000000154
            ],
            [
              -68.868401,
              10.227379000000155
            ],
            [
              -68.868049,
              10.226591000000155
            ],
            [
              -68.867979,
              10.226578000000131
            ],
            [
              -68.86758,
              10.22559200000012
            ],
            [
              -68.867831,
              10.224557
            ],
            [
              -68.8680829999999,
              10.223890000000154
            ],
            [
              -68.866939,
              10.222564
            ],
            [
              -68.865262,
              10.221609
            ],
            [
              -68.864445,
              10.220741
            ],
            [
              -68.863605,
              10.220010000000116
            ],
            [
              -68.862487,
              10.219488
            ],
            [
              -68.86146099999985,
              10.218644
            ],
            [
              -68.86054999999988,
              10.217547
            ],
            [
              -68.859572,
              10.217116
            ],
            [
              -68.85842999999988,
              10.216227
            ],
            [
              -68.85694,
              10.215592000000129
            ],
            [
              -68.855657,
              10.214749
            ],
            [
              -68.854493,
              10.214044000000115
            ],
            [
              -68.853771,
              10.213795000000118
            ],
            [
              -68.85265,
              10.212354
            ],
            [
              -68.851373,
              10.212568
            ],
            [
              -68.850281,
              10.212574000000188
            ],
            [
              -68.8487229999999,
              10.21237600000012
            ],
            [
              -68.84739499999989,
              10.211511000000144
            ],
            [
              -68.84525699999989,
              10.211385
            ],
            [
              -68.8444669999999,
              10.211435
            ],
            [
              -68.843905,
              10.210382000000152
            ],
            [
              -68.843159,
              10.209904
            ],
            [
              -68.841576,
              10.2092
            ],
            [
              -68.84053,
              10.209068000000173
            ],
            [
              -68.84053,
              10.208931000000177
            ],
            [
              -68.839042,
              10.208870000000104
            ],
            [
              -68.83759599999985,
              10.207454
            ],
            [
              -68.836202,
              10.207462000000135
            ],
            [
              -68.834644,
              10.20733300000012
            ],
            [
              -68.833735,
              10.20667200000014
            ],
            [
              -68.833149,
              10.205503
            ],
            [
              -68.83245,
              10.205278
            ],
            [
              -68.831077,
              10.204688000000147
            ],
            [
              -68.829262,
              10.204009
            ],
            [
              -68.828701,
              10.203346000000124
            ],
            [
              -68.82839599999988,
              10.202498000000105
            ],
            [
              -68.827741,
              10.201583
            ],
            [
              -68.826923,
              10.200462
            ],
            [
              -68.82605499999988,
              10.198445000000163
            ],
            [
              -68.825027,
              10.197234000000151
            ],
            [
              -68.8240239999999,
              10.196297
            ],
            [
              -68.823232,
              10.195773
            ],
            [
              -68.8226939999999,
              10.194881000000123
            ],
            [
              -68.820713,
              10.193628
            ],
            [
              -68.81948099999988,
              10.193291
            ],
            [
              -68.81943399999989,
              10.193314000000157
            ],
            [
              -68.818248,
              10.192953000000102
            ],
            [
              -68.81694299999987,
              10.192110000000184
            ],
            [
              -68.81630899999988,
              10.190644
            ],
            [
              -68.815278,
              10.18860500000011
            ],
            [
              -68.813929,
              10.18813
            ],
            [
              -68.813089,
              10.187285
            ],
            [
              -68.811505,
              10.18653600000016
            ],
            [
              -68.809298,
              10.186593
            ],
            [
              -68.8071139999999,
              10.18653600000016
            ],
            [
              -68.805764,
              10.185993000000167
            ],
            [
              -68.80448899999988,
              10.186620000000175
            ],
            [
              -68.803677,
              10.186854000000153
            ],
            [
              -68.802628,
              10.186148000000173
            ],
            [
              -68.802205,
              10.185024000000112
            ],
            [
              -68.800642,
              10.183448
            ],
            [
              -68.799616,
              10.182489000000146
            ],
            [
              -68.799127,
              10.182193000000154
            ],
            [
              -68.79766399999988,
              10.182362000000126
            ],
            [
              -68.796965,
              10.182021000000134
            ],
            [
              -68.79664899999983,
              10.181949
            ],
            [
              -68.79603,
              10.182535
            ],
            [
              -68.795532,
              10.183346
            ],
            [
              -68.7955429999999,
              10.184058000000107
            ],
            [
              -68.795602,
              10.184791000000189
            ],
            [
              -68.795606,
              10.185043
            ],
            [
              -68.794771,
              10.185194000000138
            ],
            [
              -68.794047,
              10.184953
            ],
            [
              -68.793144,
              10.185174
            ],
            [
              -68.79188,
              10.186089
            ],
            [
              -68.791803,
              10.187077000000158
            ],
            [
              -68.791816,
              10.18788000000012
            ],
            [
              -68.792,
              10.189208
            ],
            [
              -68.792317,
              10.190121
            ],
            [
              -68.792334,
              10.191131
            ],
            [
              -68.79235,
              10.192117
            ],
            [
              -68.791343,
              10.193256000000133
            ],
            [
              -68.79218,
              10.194175
            ],
            [
              -68.793017,
              10.19442800000013
            ],
            [
              -68.79436499999986,
              10.194795000000113
            ],
            [
              -68.795109,
              10.195623
            ],
            [
              -68.795923,
              10.19679600000012
            ],
            [
              -68.796853,
              10.198083
            ],
            [
              -68.79761999999988,
              10.198083
            ],
            [
              -68.798503,
              10.199187
            ],
            [
              -68.799224,
              10.199601
            ],
            [
              -68.800804,
              10.199945
            ],
            [
              -68.801874,
              10.200979000000189
            ],
            [
              -68.802292,
              10.201623
            ],
            [
              -68.80482499999988,
              10.20249600000011
            ],
            [
              -68.806127,
              10.203899
            ],
            [
              -68.806871,
              10.204841
            ],
            [
              -68.807848,
              10.20537
            ],
            [
              -68.808499,
              10.206474000000128
            ],
            [
              -68.814384,
              10.212115
            ],
            [
              -68.818216,
              10.218720000000133
            ],
            [
              -68.818856,
              10.221303000000148
            ],
            [
              -68.820218,
              10.23258
            ],
            [
              -68.820236,
              10.235153
            ],
            [
              -68.820499,
              10.236336000000165
            ],
            [
              -68.82187,
              10.239039000000162
            ],
            [
              -68.824496,
              10.24423000000013
            ],
            [
              -68.82597699999985,
              10.244899
            ],
            [
              -68.85575199999988,
              10.281218
            ],
            [
              -68.8629729999999,
              10.28070200000019
            ],
            [
              -68.864548,
              10.280828000000156
            ],
            [
              -68.865069,
              10.28218900000013
            ],
            [
              -68.86588299999988,
              10.282879
            ],
            [
              -68.866558,
              10.285017000000153
            ],
            [
              -68.866884,
              10.286374
            ],
            [
              -68.86932699999983,
              10.288489
            ],
            [
              -68.8712579999999,
              10.29016700000011
            ],
            [
              -68.87274599999989,
              10.290948
            ],
            [
              -68.87449,
              10.29232700000017
            ],
            [
              -68.875909,
              10.293223
            ],
            [
              -68.877398,
              10.295085
            ],
            [
              -68.878049,
              10.295775000000162
            ],
            [
              -68.8783289999999,
              10.297016000000156
            ],
            [
              -68.880143,
              10.298142
            ],
            [
              -68.880563,
              10.299798000000123
            ],
            [
              -68.88060999999982,
              10.30104
            ],
            [
              -68.880588,
              10.302167
            ],
            [
              -68.880612,
              10.30311
            ],
            [
              -68.88138,
              10.304697
            ],
            [
              -68.882799,
              10.306467
            ],
            [
              -68.883776,
              10.307663
            ],
            [
              -68.884102,
              10.308767
            ],
            [
              -68.884127,
              10.310101000000145
            ],
            [
              -68.88408099999987,
              10.31132
            ],
            [
              -68.88387499999988,
              10.31477
            ],
            [
              -68.885016,
              10.317875000000129
            ],
            [
              -68.885552,
              10.319831000000136
            ],
            [
              -68.884391,
              10.32089000000019
            ],
            [
              -68.883345,
              10.321787
            ],
            [
              -68.882532,
              10.322892
            ],
            [
              -68.88251,
              10.32395
            ]
          ]
        ]
      }
    }
  ]
}