{"type": "FeatureCollection", "features": [{"type": "Feature", "properties": {"Pais": "Venezuela", "Estado": "Zulia", "Municipio": "Baralt", "Parroquia": "San Timoteo"}, "geometry": {"type": "Polygon", "coordinates": [[[-71.03311499999984, 9.897572], [-71.033488, 9.898265000000151], [-71.034255, 9.897871], [-71.03462599999989, 9.8970920000001], [-71.034858, 9.896404000000189], [-71.0360859999999, 9.895351000000119], [-71.03624799999989, 9.894755], [-71.03636399999988, 9.894135], [-71.037407, 9.893586], [-71.038333, 9.894138000000112], [-71.038356, 9.893335], [-71.03875, 9.892418], [-71.0393299999999, 9.89143300000012], [-71.039631, 9.890745], [-71.040141, 9.889599], [-71.041717, 9.887996000000157], [-71.042481, 9.888639], [-71.042944, 9.887974], [-71.043709, 9.88614], [-71.044891, 9.885844], [-71.044937, 9.884628], [-71.0448679999999, 9.883435], [-71.045401, 9.88261000000017], [-71.047139, 9.881786], [-71.047393, 9.882291], [-71.04790299999985, 9.883371], [-71.04906099999982, 9.883786000000157], [-71.049709, 9.884429], [-71.05089, 9.884935], [-71.051586, 9.884845], [-71.052374, 9.884089000000188], [-71.052999, 9.883974], [-71.054135, 9.883677], [-71.055131, 9.883610000000147], [-71.05608, 9.883634], [-71.05709999999982, 9.883315], [-71.057934, 9.882261], [-71.058281, 9.881344], [-71.05839699999984, 9.880656000000158], [-71.060181, 9.88029100000017], [-71.061432, 9.880293000000165], [-71.062752, 9.87979], [-71.063679, 9.879516], [-71.064675, 9.879105], [-71.066088, 9.878946], [-71.0672689999999, 9.879407000000185], [-71.068381, 9.879798], [-71.069492, 9.880465000000186], [-71.070442, 9.880857000000105], [-71.071461, 9.880835], [-71.0729439999999, 9.880264], [-71.074056, 9.8807240000001], [-71.075028, 9.880519], [-71.07593199999985, 9.880016000000126], [-71.0765125179999, 9.879820111000186], [-71.076744, 9.879742], [-71.077554, 9.879697], [-71.07859699999989, 9.878895000000114], [-71.079894, 9.878507000000184], [-71.080867, 9.878325000000189], [-71.08265, 9.87819], [-71.08355399999988, 9.878054000000134], [-71.08517795399996, 9.877777141000081], [-71.085824, 9.877667], [-71.08825599999983, 9.877303], [-71.08953, 9.876777], [-71.091059, 9.875403], [-71.09190970299989, 9.875109715000178], [-71.092518, 9.874900000000139], [-71.09268013599996, 9.874586374000103], [-71.0928009779999, 9.874352626000132], [-71.09304736499996, 9.873758366000175], [-71.08964216199996, 9.867133366000019], [-71.08857501299991, 9.865057172000036], [-71.08455579999992, 9.857278018000102], [-71.0807065859999, 9.848881843000072], [-71.0786914709999, 9.842388700000072], [-71.07740237899992, 9.837463596000077], [-71.07680233899993, 9.833075498000085], [-71.07814736899991, 9.829031386000167], [-71.07790933599995, 9.825518309000188], [-71.07757731499998, 9.82411527700009], [-71.07642225799998, 9.823665273000131], [-71.07579023499994, 9.824139293000087], [-71.07547821299994, 9.822988270000167], [-71.07638724799995, 9.822678253], [-71.07915835699998, 9.821748213000149], [-71.08101744099997, 9.821495200000072], [-71.08345853899988, 9.821066176000102], [-71.0837065479999, 9.821734185000082], [-71.08344753599988, 9.822052192000172], [-71.0835285469999, 9.823062224000068], [-71.08488960499989, 9.823721226999965], [-71.08431859599983, 9.824976259000096], [-71.08370657199998, 9.825794277000114], [-71.08295555199993, 9.826519301000019], [-71.08284455599988, 9.828124347000141], [-71.08248454699998, 9.829220363000047], [-71.0840136079999, 9.829376364999973], [-71.08478863399989, 9.828560344999971], [-71.08589767699993, 9.826898295000149], [-71.08727070899994, 9.824529234000124], [-71.08845674399998, 9.822249171000067], [-71.08925775999995, 9.819139094000036], [-71.08975277099995, 9.816415031000133], [-71.08951973599994, 9.812351937000017], [-71.08711660099988, 9.807391826000071], [-71.08464347099988, 9.802521729000091], [-71.08439028899988, 9.80217408100009], [-71.0808512879999, 9.797314631000177], [-71.07832015899999, 9.793452557000023], [-71.0770610909999, 9.792015533000153], [-71.07800312499995, 9.790765501000124], [-71.07782210999994, 9.790350482000122], [-71.07682107199997, 9.790682506000053], [-71.07549101499995, 9.78924347200001], [-71.0670755989999, 9.778590281000106], [-71.05846416999998, 9.766878055], [-71.0541459619999, 9.761090943000113], [-71.05250887099999, 9.75817988800003], [-71.05238985999983, 9.756411843000024], [-71.0514568079999, 9.75488681400003], [-71.05113878799995, 9.753431786000078], [-71.05082976699998, 9.751993751000043], [-71.0495557139999, 9.752239772000053], [-71.04942270899988, 9.751722759000188], [-71.04937483099997, 9.751507145000119], [-71.0491853769999, 9.752079743000024], [-71.04905745499997, 9.752365025000188], [-71.04898044399982, 9.752536769000187], [-71.048753, 9.753044000000159], [-71.048613, 9.752979], [-71.047895, 9.753826], [-71.046621, 9.75527000000011], [-71.045347, 9.755222], [-71.043332, 9.755654000000106], [-71.042429, 9.755997], [-71.041526, 9.756546000000185], [-71.040808, 9.756774], [-71.03965225499991, 9.756906299000093], [-71.0394189999999, 9.756933], [-71.038192, 9.756816000000128], [-71.036872, 9.756447], [-71.0361999999999, 9.757042000000183], [-71.03599099999985, 9.758717], [-71.035227, 9.759541000000183], [-71.0343, 9.76032], [-71.0329569999999, 9.761648], [-71.03251408199992, 9.762097635999964], [-71.0321, 9.762518000000114], [-71.032007, 9.763482000000124], [-71.03152, 9.764009], [-71.030061, 9.765796], [-71.02924999999988, 9.766505000000166], [-71.028856, 9.766734], [-71.027513, 9.767627], [-71.026424, 9.767854], [-71.024942, 9.767737000000125], [-71.023484, 9.767758], [-71.02174699999989, 9.768535], [-71.02037999999988, 9.768647000000101], [-71.018944, 9.768599], [-71.0168369999999, 9.767242], [-71.015818, 9.766736], [-71.0148, 9.76606900000013], [-71.014083, 9.765081000000123], [-71.012276, 9.765032000000133], [-71.010887, 9.76553500000017], [-71.009613, 9.765716], [-71.00880299999989, 9.765852000000109], [-71.007737, 9.766929], [-71.0073369999999, 9.76718], [-71.0073370049999, 9.767180488000065], [-71.007707, 9.804316000000142], [-71.008237, 9.870184], [-71.03311499999984, 9.897572]]]}}, {"type": "Feature", "properties": {"Pais": "Venezuela", "Estado": "Zulia", "Municipio": "Baralt", "Parroquia": "General Urdaneta"}, "geometry": {"type": "Polygon", "coordinates": [[[-70.988528, 9.768968], [-70.989432, 9.769076], [-70.99047499999989, 9.769090000000176], [-70.99155899999988, 9.76857600000011], [-70.992966, 9.76792200000017], [-70.994416, 9.766876000000138], [-70.9961009999999, 9.766012], [-70.997651, 9.765862], [-70.998118, 9.766272], [-70.99847199999988, 9.766889000000106], [-70.999149, 9.767481], [-70.9996819999999, 9.767477], [-71.000446, 9.767471000000114], [-71.00114, 9.767305], [-71.001438, 9.768249], [-71.00204, 9.768479], [-71.002966, 9.768641000000116], [-71.003985, 9.768872], [-71.00504999999987, 9.768278000000123], [-71.005861, 9.767912], [-71.00646299999988, 9.76773], [-71.0073370049999, 9.767180488000065], [-71.0073369999999, 9.76718], [-71.007737, 9.766929], [-71.00880299999989, 9.765852000000109], [-71.009613, 9.765716], [-71.010887, 9.76553500000017], [-71.012276, 9.765032000000133], [-71.014083, 9.765081000000123], [-71.0148, 9.76606900000013], [-71.015818, 9.766736], [-71.0168369999999, 9.767242], [-71.018944, 9.768599], [-71.02037999999988, 9.768647000000101], [-71.02174699999989, 9.768535], [-71.023484, 9.767758], [-71.024942, 9.767737000000125], [-71.026424, 9.767854], [-71.027513, 9.767627], [-71.028856, 9.766734], [-71.02924999999988, 9.766505000000166], [-71.030061, 9.765796], [-71.03152, 9.764009], [-71.032007, 9.763482000000124], [-71.0321, 9.762518000000114], [-71.03251408199992, 9.762097635999964], [-71.0329569999999, 9.761648], [-71.0343, 9.76032], [-71.035227, 9.759541000000183], [-71.03599099999985, 9.758717], [-71.0361999999999, 9.757042000000183], [-71.036872, 9.756447], [-71.038192, 9.756816000000128], [-71.0394189999999, 9.756933], [-71.03965225499991, 9.756906299000093], [-71.040808, 9.756774], [-71.041526, 9.756546000000185], [-71.042429, 9.755997], [-71.043332, 9.755654000000106], [-71.045347, 9.755222], [-71.046621, 9.75527000000011], [-71.047895, 9.753826], [-71.048613, 9.752979], [-71.048753, 9.753044000000159], [-71.04898044399982, 9.752536769000187], [-71.04905745499997, 9.752365025000188], [-71.0491853769999, 9.752079743000024], [-71.04937483099997, 9.751507145000119], [-71.04927370399992, 9.75105173500009], [-71.04685559499995, 9.749508716000037], [-71.04211737099996, 9.746032667000122], [-71.03929723399995, 9.743153619000111], [-71.03677811499995, 9.740370566000138], [-71.03477401799995, 9.737111495000022], [-71.03248989299988, 9.73203639500008], [-71.03127981599994, 9.728351313000132], [-71.02989972699999, 9.723379205000185], [-71.02888266199994, 9.71903111500012], [-71.02587148599991, 9.71068894299998], [-71.02625949599997, 9.709225905000096], [-71.02729654699988, 9.709788912000022], [-71.02846758399988, 9.708816878999983], [-71.02904460999991, 9.70900787800008], [-71.03020865099995, 9.708654862000174], [-71.03217174599996, 9.709366874000125], [-71.03334678999994, 9.710115880999979], [-71.03452784999996, 9.710221875000059], [-71.03569789499994, 9.711382898000124], [-71.03741195299983, 9.70952284200007], [-71.03862098999986, 9.70726578000017], [-71.03915300699998, 9.705368730000089], [-71.04077605599991, 9.703415681000024], [-71.04224811099994, 9.70253865], [-71.04350916499999, 9.70177462300012], [-71.04561424799994, 9.702281620000065], [-71.04683528099997, 9.698969541000054], [-71.04760930199996, 9.69620347300014], [-71.04868233099995, 9.693624409000108], [-71.04954433599994, 9.689299297000161], [-71.05028434099995, 9.685477208], [-71.04952329699995, 9.683059156000127], [-71.0485112429999, 9.680340093000154], [-71.04796220499986, 9.677672041], [-71.04709114499991, 9.674724974000185], [-71.04676112199996, 9.673252942000033], [-71.04620310199988, 9.673336952000056], [-71.04560708099996, 9.672733936999975], [-71.04511404399994, 9.671259907000092], [-71.04532004499998, 9.669449858000121], [-71.04554604499998, 9.667960829000151], [-71.04602905899998, 9.666338789000065], [-71.04657906599988, 9.664876743000036], [-71.04759110799995, 9.663627716000178], [-71.04760809699997, 9.662931692000143], [-71.04731007299989, 9.66129666], [-71.04873513599995, 9.660771644000135], [-71.04951715499982, 9.658627587000069], [-71.05025116699989, 9.655290500000092], [-71.05076415599996, 9.651352408000037], [-71.05077915799995, 9.650549389000105], [-71.05075920299998, 9.650483442000109], [-71.05029712999988, 9.648956361000103], [-71.05057812999996, 9.647539324000036], [-71.05058819999988, 9.64715226400017], [-71.05065811099996, 9.644465248000074], [-71.0508010929999, 9.64045115700003], [-71.0512381019999, 9.63814109800012], [-71.05210712999997, 9.637537081000119], [-71.05205741999993, 9.635254701000122], [-71.0520441189999, 9.634644015000049], [-71.05268113099993, 9.634104992000118], [-71.0533001469999, 9.631958948000033], [-71.05400617299989, 9.631397929000059], [-71.05949235599996, 9.624542736000137], [-71.06058639399998, 9.623093696000126], [-71.06127741099994, 9.62013261800007], [-71.06088871899993, 9.618160779000107], [-71.06062236499992, 9.616809554000099], [-71.05959830899985, 9.616095538000025], [-71.05825725199998, 9.614247503000115], [-71.05810523899993, 9.61293447200012], [-71.05781570399995, 9.6125714800001], [-71.05684017399989, 9.61134844999998], [-71.05628280899998, 9.611007229000109], [-71.05620758099997, 9.610961174000124], [-71.0540910449999, 9.609665421000102], [-71.05374303199989, 9.609657430000027], [-71.05242398099989, 9.609624433000079], [-71.05224596999983, 9.609642081000118], [-71.05149594099993, 9.609716439000067], [-71.05021588699998, 9.609041436000041], [-71.04937184599999, 9.607642404000103], [-71.04835779199982, 9.606583386000068], [-71.04674772999994, 9.60702640600016], [-71.0453596719999, 9.60609538600005], [-71.0432245749999, 9.605376386000046], [-71.04182050299988, 9.60412436900009], [-71.03968041799993, 9.603612371], [-71.03792133999997, 9.603568380000183], [-71.03558825199991, 9.60332638900013], [-71.03321115399996, 9.603910406000068], [-71.03095506599993, 9.604314430000102], [-71.02839896399996, 9.604641461000085], [-71.02650888199992, 9.60427246400019], [-71.02527382399995, 9.603690455000105], [-71.02211268999997, 9.603244460000042], [-71.02111465399997, 9.603311468000072], [-71.01835453299998, 9.602599472000122], [-71.01695447499986, 9.602105467000058], [-71.01629444399998, 9.60167545700017], [-71.01365632499989, 9.600691455000117], [-71.01226126699993, 9.60001344900013], [-71.01140323899989, 9.600956473000167], [-71.00930814899993, 9.600467475000016], [-71.00854510399995, 9.599553456000024], [-71.00768906799993, 9.599485454000046], [-71.00655702899996, 9.600053475999971], [-71.00648445999997, 9.600035478000109], [-71.00637327199985, 9.60000790200013], [-71.00439993799989, 9.599518478000107], [-71.00290387399991, 9.600055496000152], [-71.00170083099994, 9.600025502000165], [-70.99912871999993, 9.59873449200012], [-70.9970996159999, 9.596110440000075], [-70.99503953399983, 9.596480465000013], [-70.99277144099995, 9.59655248200005], [-70.98964832299998, 9.597566518000065], [-70.98568814599997, 9.596152509999968], [-70.98246800799996, 9.59457549800004], [-70.97894985499994, 9.59481052200016], [-70.97584872799996, 9.595136540000112], [-70.96992248599997, 9.594641568000043], [-70.9675363799999, 9.59377456500016], [-70.96427024199994, 9.592358542000113], [-70.96184013699985, 9.592087556000081], [-70.9600340639999, 9.591768556000147], [-70.95734894199995, 9.59156657300008], [-70.95537986399984, 9.590836563000039], [-70.95403680399988, 9.59040255900004], [-70.94994063399992, 9.590890599999966], [-70.9477185429999, 9.591191614000024], [-70.94503343299988, 9.590875623000102], [-70.94315635399983, 9.589708609000184], [-70.94107327199987, 9.59005563400018], [-70.93971122299996, 9.591937682000093], [-70.93871618299988, 9.59269570000015], [-70.93762713399991, 9.59189469800009], [-70.93654009099987, 9.592561709000165], [-70.93489702099998, 9.592517728000132], [-70.93422301999982, 9.59525179600007], [-70.92886678599984, 9.594031790000031], [-70.92653565699999, 9.589068687000122], [-70.92507559099994, 9.587855670000067], [-70.92246049299996, 9.588386699000012], [-70.92091142999993, 9.589260726000134], [-70.91989539499997, 9.591187780000041], [-70.91867135899997, 9.592725818000133], [-70.9183733569999, 9.594720874000188], [-70.91703230599995, 9.596005912000123], [-70.91582726899998, 9.598623976], [-70.91309614599999, 9.596276935000049], [-70.91084804499997, 9.593630888000064], [-70.91019699399999, 9.59001681500007], [-70.90673984299985, 9.589263813000116], [-70.90819787999999, 9.585610716000133], [-70.90916291399998, 9.584003678000045], [-70.90921090499995, 9.582620641000062], [-70.90900189499996, 9.581551625000088], [-70.9084678609999, 9.580406598000138], [-70.90701979999994, 9.579424577000111], [-70.90606175599999, 9.579161576000104], [-70.90533773299984, 9.57983359900004], [-70.90529534799998, 9.579871774000082], [-70.90447169699996, 9.58061362300009], [-70.90446669899995, 9.581208636000042], [-70.90519173299992, 9.581425637000166], [-70.90603577299993, 9.582748668000079], [-70.9065978079999, 9.583574684000041], [-70.90546476699996, 9.584720714000184], [-70.90384771299983, 9.586533763000034], [-70.90287666899997, 9.587589790000095], [-70.90035357099998, 9.587684809000052], [-70.89857349799996, 9.58883384600017], [-70.89673044599988, 9.592531941000175], [-70.89692749299996, 9.60060143200019], [-70.89722551799991, 9.612806193999972], [-70.89725777399991, 9.612808999000151], [-70.897829, 9.715437000000179], [-70.89854999999989, 9.715054000000123], [-70.900494, 9.714832], [-70.901909, 9.715051], [-70.902271, 9.714060000000131], [-70.903231, 9.712559000000113], [-70.904494, 9.713974000000121], [-70.905438, 9.715943000000152], [-70.90683899999988, 9.717104], [-70.908656, 9.718286], [-70.90825599999988, 9.72015], [-70.909493, 9.72117500000013], [-70.911031, 9.722243], [-70.912616, 9.72331], [-70.913182, 9.72443200000015], [-70.913702, 9.725669], [-70.914266, 9.726607000000172], [-70.91545999999988, 9.727953000000127], [-70.91653699999983, 9.729231], [-70.918243, 9.730942], [-70.920871, 9.73207], [-70.924611, 9.733236], [-70.927223, 9.735123000000101], [-70.92852, 9.737732000000108], [-70.929302, 9.73961], [-70.931122, 9.741090000000156], [-70.933192, 9.742016], [-70.935924, 9.744407], [-70.93585, 9.746522], [-70.93652899999984, 9.747344000000169], [-70.93739, 9.747796], [-70.938849, 9.747739], [-70.939689, 9.748399], [-70.940708, 9.748368000000141], [-70.942214, 9.748333000000116], [-70.943162, 9.748165], [-70.943647, 9.748046000000159], [-70.9444079999999, 9.747603], [-70.945395, 9.746562], [-70.946264, 9.745314], [-70.947633, 9.745533], [-70.948888, 9.74596], [-70.950053, 9.746640000000184], [-70.951187, 9.746539000000155], [-70.951179, 9.748171000000184], [-70.95103199999988, 9.749872], [-70.951465, 9.751638000000185], [-70.951156, 9.75341], [-70.95024099999989, 9.754635000000178], [-70.95025, 9.755692], [-70.95069999999987, 9.756814000000134], [-70.952307, 9.757675000000177], [-70.954309, 9.75878500000016], [-70.955847, 9.759761], [-70.958026, 9.759904], [-70.95895, 9.759644], [-70.95952799999986, 9.75952500000011], [-70.961544, 9.759601], [-70.962792, 9.759269], [-70.96426699999984, 9.758384], [-70.9651879999999, 9.757688], [-70.965871, 9.756442000000106], [-70.967164, 9.755949], [-70.96843499999989, 9.755571], [-70.969539, 9.754689], [-70.969712, 9.75333200000017], [-70.970587, 9.752728000000104], [-70.971632, 9.753018000000111], [-70.972449, 9.753724], [-70.973214, 9.753626000000168], [-70.974189, 9.753871], [-70.974175, 9.754836000000125], [-70.974092, 9.755963], [-70.97368399999988, 9.756908000000124], [-70.973447, 9.75890900000013], [-70.974132, 9.760305000000187], [-70.97479, 9.761334], [-70.97447799999986, 9.762738], [-70.974832, 9.763448000000153], [-70.97527699999989, 9.764042000000131], [-70.976703, 9.765386], [-70.97752, 9.766046000000188], [-70.978917, 9.766839], [-70.979731, 9.76724600000017], [-70.981236, 9.767142], [-70.982069, 9.767021], [-70.982538, 9.767614], [-70.983351, 9.767883], [-70.98451299999988, 9.768265], [-70.985303, 9.768534000000159], [-70.9858579999999, 9.768369000000177], [-70.986996, 9.768728], [-70.987899, 9.768582], [-70.988528, 9.768968]]]}}, {"type": "Feature", "properties": {"Pais": "Venezuela", "Estado": "Zulia", "Municipio": "Baralt", "Parroquia": "Libertador"}, "geometry": {"type": "Polygon", "coordinates": [[[-70.67199764499998, 9.834231658000022], [-70.67485715799995, 9.834240115000057], [-70.68169628399988, 9.834226346000094], [-70.68934407899991, 9.834210950000056], [-70.70549312599991, 9.834178438000038], [-70.79909299999986, 9.83399], [-70.912346, 9.834097], [-70.916501, 9.83393], [-70.920904, 9.830806], [-70.92607899999985, 9.829336000000126], [-70.927669, 9.827054000000146], [-70.933984, 9.823406], [-70.937153, 9.820157], [-70.95062, 9.820436], [-71.007707, 9.804316000000142], [-71.0073370049999, 9.767180488000065], [-71.00646299999988, 9.76773], [-71.005861, 9.767912], [-71.00504999999987, 9.768278000000123], [-71.003985, 9.768872], [-71.002966, 9.768641000000116], [-71.00204, 9.768479], [-71.001438, 9.768249], [-71.00114, 9.767305], [-71.000446, 9.767471000000114], [-70.9996819999999, 9.767477], [-70.999149, 9.767481], [-70.99847199999988, 9.766889000000106], [-70.998118, 9.766272], [-70.997651, 9.765862], [-70.9961009999999, 9.766012], [-70.994416, 9.766876000000138], [-70.992966, 9.76792200000017], [-70.99155899999988, 9.76857600000011], [-70.99047499999989, 9.769090000000176], [-70.989432, 9.769076], [-70.988528, 9.768968], [-70.987899, 9.768582], [-70.986996, 9.768728], [-70.9858579999999, 9.768369000000177], [-70.985303, 9.768534000000159], [-70.98451299999988, 9.768265], [-70.983351, 9.767883], [-70.982538, 9.767614], [-70.982069, 9.767021], [-70.981236, 9.767142], [-70.979731, 9.76724600000017], [-70.978917, 9.766839], [-70.97752, 9.766046000000188], [-70.976703, 9.765386], [-70.97527699999989, 9.764042000000131], [-70.974832, 9.763448000000153], [-70.97447799999986, 9.762738], [-70.97479, 9.761334], [-70.974132, 9.760305000000187], [-70.973447, 9.75890900000013], [-70.97368399999988, 9.756908000000124], [-70.974092, 9.755963], [-70.974175, 9.754836000000125], [-70.974189, 9.753871], [-70.973214, 9.753626000000168], [-70.972449, 9.753724], [-70.971632, 9.753018000000111], [-70.970587, 9.752728000000104], [-70.969712, 9.75333200000017], [-70.969539, 9.754689], [-70.96843499999989, 9.755571], [-70.967164, 9.755949], [-70.965871, 9.756442000000106], [-70.9651879999999, 9.757688], [-70.96426699999984, 9.758384], [-70.962792, 9.759269], [-70.961544, 9.759601], [-70.95952799999986, 9.75952500000011], [-70.95895, 9.759644], [-70.958026, 9.759904], [-70.955847, 9.759761], [-70.954309, 9.75878500000016], [-70.952307, 9.757675000000177], [-70.95069999999987, 9.756814000000134], [-70.95025, 9.755692], [-70.95024099999989, 9.754635000000178], [-70.951156, 9.75341], [-70.951465, 9.751638000000185], [-70.95103199999988, 9.749872], [-70.951179, 9.748171000000184], [-70.951187, 9.746539000000155], [-70.950053, 9.746640000000184], [-70.948888, 9.74596], [-70.947633, 9.745533], [-70.946264, 9.745314], [-70.945395, 9.746562], [-70.9444079999999, 9.747603], [-70.943647, 9.748046000000159], [-70.943162, 9.748165], [-70.942214, 9.748333000000116], [-70.940708, 9.748368000000141], [-70.939689, 9.748399], [-70.938849, 9.747739], [-70.93739, 9.747796], [-70.93652899999984, 9.747344000000169], [-70.93585, 9.746522], [-70.935924, 9.744407], [-70.933192, 9.742016], [-70.931122, 9.741090000000156], [-70.929302, 9.73961], [-70.92852, 9.737732000000108], [-70.927223, 9.735123000000101], [-70.924611, 9.733236], [-70.920871, 9.73207], [-70.918243, 9.730942], [-70.91653699999983, 9.729231], [-70.91545999999988, 9.727953000000127], [-70.914266, 9.726607000000172], [-70.913702, 9.725669], [-70.913182, 9.72443200000015], [-70.912616, 9.72331], [-70.911031, 9.722243], [-70.909493, 9.72117500000013], [-70.90825599999988, 9.72015], [-70.908656, 9.718286], [-70.90683899999988, 9.717104], [-70.905438, 9.715943000000152], [-70.904494, 9.713974000000121], [-70.903231, 9.712559000000113], [-70.902271, 9.714060000000131], [-70.901909, 9.715051], [-70.900494, 9.714832], [-70.89854999999989, 9.715054000000123], [-70.897829, 9.715437000000179], [-70.896851, 9.715948], [-70.896198, 9.716291000000126], [-70.893821, 9.71732], [-70.89100899999988, 9.718927000000122], [-70.889493, 9.72041], [-70.88807, 9.721891], [-70.886855, 9.7233710000001], [-70.885994, 9.725584], [-70.884775, 9.726535], [-70.883456, 9.726706], [-70.882131, 9.726165], [-70.880364, 9.725443], [-70.878457, 9.72736500000019], [-70.875909, 9.727384000000143], [-70.87335799999988, 9.727059], [-70.870908, 9.727698], [-70.868996, 9.728954], [-70.868305, 9.729441000000179], [-70.867737, 9.730779], [-70.866251, 9.73035300000015], [-70.86484, 9.727928], [-70.862552, 9.725855], [-70.860802, 9.724489], [-70.858823, 9.723309000000143], [-70.857058, 9.722794000000135], [-70.855914, 9.721907000000101], [-70.85435499999983, 9.721068000000173], [-70.852312, 9.72055500000016], [-70.85086399999989, 9.719279], [-70.84890499999989, 9.717731], [-70.846555, 9.716508000000147], [-70.845811, 9.716238], [-70.846081, 9.715363], [-70.846023, 9.713961], [-70.844839, 9.713649], [-70.843976, 9.713035], [-70.842939, 9.710974], [-70.841446, 9.709699], [-70.840019, 9.708124000000112], [-70.837911, 9.70809400000013], [-70.836474, 9.708059000000105], [-70.834465, 9.708717], [-70.83249199999989, 9.708364], [-70.831058, 9.708697], [-70.82921099999987, 9.709400000000187], [-70.82836, 9.71011900000019], [-70.827936, 9.709249000000113], [-70.827396, 9.708494], [-70.826052, 9.708390000000122], [-70.824895, 9.708513000000153], [-70.823476, 9.70788], [-70.823053, 9.707148000000188], [-70.821567, 9.70674600000018], [-70.820685, 9.70652200000012], [-70.819668, 9.706806000000142], [-70.818319, 9.706149000000153], [-70.817436, 9.705834], [-70.816849, 9.704965], [-70.815434, 9.704700000000173], [-70.8144319999999, 9.70406400000013], [-70.813386, 9.703658], [-70.81157899999982, 9.703603000000157], [-70.80999899999983, 9.703155], [-70.808375, 9.702868], [-70.807077, 9.702763000000118], [-70.806699, 9.701916], [-70.80671399999989, 9.700996], [-70.805733, 9.700061], [-70.804616, 9.699380000000133], [-70.80384, 9.698076], [-70.802857, 9.696843], [-70.80126699999988, 9.69782], [-70.800157, 9.698058], [-70.798812, 9.697907000000157], [-70.79876350899997, 9.697894599999984], [-70.796978, 9.697438], [-70.79593199999988, 9.697009], [-70.794912, 9.69697], [-70.794211, 9.696194000000162], [-70.7931615469999, 9.6961017590001], [-70.79300499999982, 9.696088], [-70.791911, 9.695453000000157], [-70.791832, 9.694304000000102], [-70.792312, 9.693589], [-70.793188, 9.693008000000134], [-70.792736, 9.691701], [-70.79151999999988, 9.690285], [-70.789961, 9.689538], [-70.78962074199995, 9.689572589000022], [-70.78960359899992, 9.689605841000116], [-70.78905457699989, 9.689661848000071], [-70.78902888199997, 9.689697964], [-70.78851089299997, 9.690426037000123], [-70.78841354599996, 9.690562867999972], [-70.78700449399992, 9.690963883000052], [-70.78637746999982, 9.690807888], [-70.7857504459999, 9.690651892000062], [-70.78437738299988, 9.689903880000031], [-70.78260429499989, 9.688422857000148], [-70.78026120099992, 9.687980854000045], [-70.77900514099991, 9.687414856000146], [-70.77774908099991, 9.686757839000052], [-70.77694403699991, 9.684764799000163], [-70.77499396199994, 9.684272796000016], [-70.77298987999995, 9.685574842000108], [-70.77139781799991, 9.68629886600013], [-70.77004477899999, 9.687894920000076], [-70.76826070199996, 9.687953927000024], [-70.76705764799993, 9.688099941000075], [-70.76540659699998, 9.690088998000022], [-70.76351452299997, 9.690953024000123], [-70.76139244499996, 9.692071069000178], [-70.75982637799996, 9.69320909600009], [-70.75866034699993, 9.694987152000124], [-70.7596573909999, 9.695140142000184], [-70.76072242999993, 9.695018134], [-70.76199747899994, 9.695238136000114], [-70.76251751199999, 9.696383163000064], [-70.76280952999997, 9.69815119499998], [-70.76298455599988, 9.699643236999975], [-70.76401960499999, 9.701451269000017], [-70.76352460099997, 9.703270319000069], [-70.76217255499995, 9.704958362000013], [-70.76174453999994, 9.70643140500016], [-70.76090451699991, 9.70848345100012], [-70.75974348099993, 9.710927519], [-70.75751340599999, 9.712989577000087], [-70.75688038699991, 9.714855622000016], [-70.75690340299997, 9.71758968600011], [-70.75611339299996, 9.720077753], [-70.75457032599991, 9.721237787000064], [-70.75312105499984, 9.722123400999976], [-70.7528192609999, 9.722307820000083], [-70.75169121999994, 9.723166850999974], [-70.75068719999996, 9.725011896000183], [-70.74903413699997, 9.726839952000091], [-70.74810811099991, 9.729673023000089], [-70.74687207499989, 9.731544074000112], [-70.74692709699991, 9.735266164000052], [-70.74709112299996, 9.738321236000047], [-70.74695913699998, 9.741907325], [-70.74684874299999, 9.743241117000082], [-70.74666414799998, 9.745471407000025], [-70.74560312499995, 9.748742488000062], [-70.74549565299998, 9.749390310000024], [-70.74520612199996, 9.751135549000082], [-70.74475511899988, 9.75265558500007], [-70.7446911109999, 9.753253602000086], [-70.74499713499983, 9.753894613000114], [-70.74422710699997, 9.756037666000054], [-70.74320008599989, 9.757860716999971], [-70.74107799599994, 9.759071756000083], [-70.7390469259999, 9.7600047950001], [-70.7371308459999, 9.760846826000034], [-70.73525076799996, 9.760423823000167], [-70.73357068799987, 9.759056806000103], [-70.73395169599996, 9.757422762999965], [-70.73267063499992, 9.756696757000157], [-70.73149259399997, 9.757072773000175], [-70.73056255199992, 9.756688764000103], [-70.7300965309999, 9.75636975599997], [-70.73006551899994, 9.755496743000151], [-70.72982951499995, 9.754992727], [-70.72899847999992, 9.755343742000036], [-70.72761442899997, 9.756066772000167], [-70.72621735999996, 9.755271754000091], [-70.72525831799999, 9.754152734000058], [-70.72395625699988, 9.753610730000162], [-70.72242118499997, 9.752978725000162], [-70.72086211899995, 9.752093718000026], [-70.71993108299995, 9.751571708000029], [-70.71899203499993, 9.750176685000156], [-70.71771797999997, 9.750139691000129], [-70.71495387699997, 9.752112744000044], [-70.71341082299983, 9.753295790000038], [-70.71108273499993, 9.754760838000095], [-70.70817161199994, 9.755769870999984], [-70.7046394759999, 9.75735793300015], [-70.70136135199994, 9.758828994000055], [-70.6982802199999, 9.758966008000073], [-70.69541611499989, 9.75999805300006], [-70.69428406299994, 9.760442063000028], [-70.69313004599991, 9.763806150000107], [-70.69248403799992, 9.767028236000101], [-70.69185901799989, 9.76981330700005], [-70.69161802599996, 9.771607345000177], [-70.69159257899997, 9.771634777000145], [-70.68920893999996, 9.77420442800019], [-70.68994897599998, 9.77560445500012], [-70.68979409899993, 9.777445869000076], [-70.68975998199994, 9.77785150799997], [-70.68892096999991, 9.78094558600003], [-70.68764293299995, 9.783442644000047], [-70.68721993599996, 9.787454751999974], [-70.68753672099996, 9.788625946000082], [-70.68797206599999, 9.790235472], [-70.68818800399993, 9.791033822000031], [-70.68823101499993, 9.793211873000189], [-70.68713698499994, 9.796122957000023], [-70.68625495099997, 9.797106980000137], [-70.68514091599997, 9.798665026000094], [-70.68460227299988, 9.800026953999975], [-70.68427989099996, 9.80084207800013], [-70.68411490299997, 9.802928130000055], [-70.68288485799991, 9.804095162000124], [-70.67891870399984, 9.80592423800016], [-70.67731864999996, 9.806999272000098], [-70.67608959499995, 9.807616287000087], [-70.67386350899989, 9.808254322000039], [-70.6723544539999, 9.809605358000056], [-70.6705443969999, 9.811666421000155], [-70.66938035999993, 9.814645499999983], [-70.66868036099993, 9.818312584000012], [-70.6679573429999, 9.82108665800007], [-70.66763133199993, 9.822117682999988], [-70.66764283299989, 9.822161161000054], [-70.66852939299997, 9.825512764000166], [-70.66913242899994, 9.826692793000177], [-70.66971342699998, 9.827829708000024], [-70.66973545399992, 9.827872811000134], [-70.67094752099996, 9.83001884500004], [-70.67167256399989, 9.831794891000072], [-70.67192457499988, 9.833268923], [-70.67199764499998, 9.834231658000022]]]}}, {"type": "Feature", "properties": {"Pais": "Venezuela", "Estado": "Zulia", "Municipio": "Baralt", "Parroquia": "Manuel Guanipa Matos"}, "geometry": {"type": "Polygon", "coordinates": [[[-70.76088642499991, 10.338675484000078], [-70.76086983099998, 10.339363208000123], [-70.76081044199992, 10.341824571000132], [-70.76107247399995, 10.345832657000074], [-70.76075247599994, 10.347636714000089], [-70.76066647999994, 10.349454758000036], [-70.76074850599997, 10.351953808000019], [-70.76183456399997, 10.354525873000114], [-70.76361964799992, 10.356562910000036], [-70.76612165499984, 10.358376482000153], [-70.76631178599985, 10.356702259000087], [-70.76643499999983, 10.355808], [-70.766764, 10.354891], [-70.766931, 10.353743000000122], [-70.766799, 10.351721000000111], [-70.766575, 10.349539], [-70.76690699999989, 10.34779500000019], [-70.767284, 10.346464], [-70.767756, 10.344627], [-70.76909, 10.342242000000113], [-70.77028, 10.341143000000102], [-70.771306, 10.340227], [-70.772867, 10.339381000000174], [-70.77463499999982, 10.338972], [-70.776543, 10.338541000000134], [-70.778008, 10.338544000000184], [-70.779684, 10.33783700000015], [-70.78036013299993, 10.337403695000091], [-70.780756, 10.337150000000122], [-70.781852, 10.336326], [-70.783575, 10.33555], [-70.78481099999988, 10.334520000000111], [-70.785235, 10.332913], [-70.785566, 10.33149], [-70.785329, 10.330442], [-70.78522399999986, 10.329778], [-70.78521, 10.328951000000131], [-70.785281, 10.327664], [-70.785619, 10.325706], [-70.785584, 10.323640000000182], [-70.78559399999983, 10.321527000000117], [-70.786148, 10.319957000000102], [-70.786752, 10.318616000000134], [-70.787794, 10.317154000000187], [-70.789531, 10.316875], [-70.790909, 10.316028], [-70.79196999999988, 10.315621], [-70.793307, 10.315073], [-70.793776, 10.314032000000111], [-70.794363, 10.31299], [-70.795892, 10.312806000000137], [-70.796068, 10.31223], [-70.796842, 10.31001300000014], [-70.795917, 10.307501000000116], [-70.79530699999987, 10.305834], [-70.795238, 10.304457000000127], [-70.79538999999988, 10.301171], [-70.795224, 10.298211], [-70.795876, 10.295653000000186], [-70.797619, 10.292962000000102], [-70.799236, 10.29117], [-70.800134, 10.289388000000145], [-70.800941, 10.286367000000155], [-70.801348, 10.284386], [-70.800025, 10.283005000000117], [-70.79851599999989, 10.281696000000181], [-70.798481, 10.279675000000111], [-70.798404, 10.277862], [-70.797835, 10.277136], [-70.798017, 10.275595], [-70.7978839999999, 10.274586], [-70.798077, 10.273665], [-70.798683, 10.272485000000131], [-70.799518, 10.271094000000119], [-70.800126, 10.270006], [-70.799811, 10.269184], [-70.79893099999987, 10.267934], [-70.79887999999988, 10.266304000000105], [-70.798191, 10.265419], [-70.799079, 10.26437200000015], [-70.800713, 10.26359], [-70.801738, 10.262449000000174], [-70.802536, 10.261564000000135], [-70.804164, 10.260415000000137], [-70.805057, 10.259689], [-70.806866, 10.259593000000109], [-70.807739, 10.260476], [-70.807497, 10.261237000000108], [-70.808155, 10.261732], [-70.80905399999989, 10.261351000000104], [-70.810034, 10.260303], [-70.809874, 10.259065000000135], [-70.809185, 10.25818], [-70.80896399999989, 10.257449], [-70.809521, 10.256108], [-70.810164, 10.25433100000015], [-70.810993, 10.253951000000143], [-70.812461, 10.254319], [-70.813642, 10.254117], [-70.814726, 10.25375600000018], [-70.815438, 10.253309000000115], [-70.816289, 10.252883], [-70.817288, 10.252937], [-70.81921299999988, 10.252862000000107], [-70.820929, 10.254122], [-70.821331, 10.25590700000015], [-70.822807, 10.256734], [-70.824039, 10.255521], [-70.824157, 10.25428], [-70.824524, 10.252666], [-70.824277, 10.250442], [-70.824447, 10.248143], [-70.824696, 10.246463000000176], [-70.825547, 10.244636000000185], [-70.82666199999989, 10.243379], [-70.827983, 10.241889], [-70.82970299999988, 10.240623000000141], [-70.831612, 10.23963], [-70.833552, 10.239072], [-70.8356, 10.238099], [-70.837687, 10.238022], [-70.838637, 10.23927], [-70.838383, 10.240698000000123], [-70.838393, 10.242627], [-70.838827, 10.243585], [-70.840301, 10.242896], [-70.841042, 10.241484000000128], [-70.841928, 10.2403690000001], [-70.84277799999984, 10.239873000000102], [-70.84336599999989, 10.238992], [-70.844936, 10.238509], [-70.846044, 10.236838000000148], [-70.845634, 10.235880000000122], [-70.844622, 10.235092], [-70.843606, 10.234028], [-70.84307599999988, 10.232911000000115], [-70.84228399999989, 10.231384], [-70.842122, 10.230078], [-70.842519, 10.228832000000125], [-70.843469, 10.228772000000106], [-70.844372, 10.229975], [-70.8452099999999, 10.230146000000104], [-70.84591099999989, 10.230434000000173], [-70.847379, 10.230756000000156], [-70.848083, 10.23125000000016], [-70.848807, 10.231515], [-70.849318, 10.23155300000019], [-70.85032699999988, 10.230849], [-70.851304, 10.229594000000134], [-70.851959, 10.228573], [-70.851549, 10.227707000000123], [-70.851334, 10.227297000000135], [-70.851341, 10.226355000000183], [-70.851883, 10.225521], [-70.852298, 10.225353], [-70.85298999999986, 10.225113], [-70.853398, 10.225911], [-70.853619, 10.226596], [-70.854202, 10.226748], [-70.854334, 10.226333000000125], [-70.854207, 10.225738], [-70.85381499999988, 10.224527], [-70.853031, 10.223436], [-70.85170199999988, 10.223066000000188], [-70.849794, 10.222797000000128], [-70.84931399999982, 10.221863], [-70.849225, 10.22076200000015], [-70.848268, 10.220386000000133], [-70.84807199999989, 10.219815], [-70.848057, 10.218919], [-70.847272, 10.217806000000166], [-70.846125, 10.217249], [-70.8459519999999, 10.216632], [-70.846286, 10.215799], [-70.847206, 10.215326000000118], [-70.84857499999987, 10.215351], [-70.849678, 10.214714000000129], [-70.84982799999989, 10.213977], [-70.849465, 10.213087000000144], [-70.848891, 10.212086000000113], [-70.849702, 10.212050000000147], [-70.851106, 10.212718000000166], [-70.852944, 10.213034], [-70.854168, 10.214026], [-70.855012, 10.214541], [-70.855834, 10.213748000000123], [-70.856745, 10.212747], [-70.857606, 10.212826], [-70.858999, 10.212896000000171], [-70.859665, 10.21245], [-70.860342, 10.21136], [-70.861129, 10.211233], [-70.8615319999999, 10.211755], [-70.861872, 10.21260000000018], [-70.861926, 10.213058], [-70.862018, 10.214366], [-70.86245, 10.215186], [-70.86372299999982, 10.214983000000188], [-70.865095, 10.215191000000175], [-70.866697, 10.215259000000117], [-70.86748299999988, 10.215086], [-70.867243, 10.214607000000171], [-70.866796, 10.214224], [-70.86680899999988, 10.21365], [-70.867449, 10.213112], [-70.866562, 10.212804000000176], [-70.86590299999989, 10.212263000000178], [-70.864885, 10.212416], [-70.86443599999984, 10.211964000000137], [-70.864078, 10.211372], [-70.863534, 10.210760000000164], [-70.862106, 10.210024], [-70.86069199999986, 10.210115], [-70.860359, 10.209684000000152], [-70.860786, 10.208827], [-70.861427, 10.208335], [-70.8617349999999, 10.207389000000148], [-70.861717, 10.206356000000142], [-70.861759, 10.204725000000167], [-70.862588, 10.203036], [-70.863286, 10.201785], [-70.8628149999999, 10.201379], [-70.862122, 10.201574], [-70.861176, 10.201841000000115], [-70.86056799999989, 10.201620000000105], [-70.860258, 10.201097], [-70.861177, 10.200578], [-70.861349, 10.199794], [-70.86206699999985, 10.198383], [-70.864291, 10.196833], [-70.8657419999999, 10.196214000000111], [-70.867464, 10.195131], [-70.868829, 10.193572000000188], [-70.869697, 10.191446000000155], [-70.87039, 10.189897], [-70.871086, 10.188532], [-70.872324, 10.187709], [-70.87287, 10.18570300000016], [-70.873632, 10.184176], [-70.8750629999999, 10.18236300000018], [-70.877686, 10.179773000000125], [-70.879664, 10.178778], [-70.88096999999988, 10.179148000000112], [-70.881452, 10.180197], [-70.881996, 10.180763000000127], [-70.88279, 10.179763], [-70.883125, 10.178978], [-70.883922, 10.17811600000016], [-70.88492799999989, 10.177274000000125], [-70.88546799999983, 10.176278000000138], [-70.885291, 10.175431], [-70.886125, 10.175372000000152], [-70.888373, 10.175154], [-70.888455, 10.175888], [-70.887985, 10.176860000000147], [-70.88763, 10.177829], [-70.888454, 10.178506], [-70.88921, 10.177966], [-70.889711, 10.177384000000131], [-70.89042299999983, 10.17700600000012], [-70.891224, 10.176374], [-70.892211, 10.175716], [-70.893321, 10.176847000000123], [-70.894266, 10.177866], [-70.894859, 10.178568], [-70.895041, 10.17973700000016], [-70.895184, 10.18125], [-70.895569, 10.182071000000178], [-70.895456, 10.1835880000001], [-70.896355, 10.184562], [-70.896738, 10.18393600000013], [-70.897001, 10.183036], [-70.8976449999999, 10.182728], [-70.897588, 10.182109000000139], [-70.897573, 10.181213], [-70.897958, 10.180679000000112], [-70.89897599999989, 10.180503000000101], [-70.900039, 10.180257], [-70.900558, 10.179445000000158], [-70.900425, 10.17846], [-70.900483, 10.177770000000123], [-70.90131, 10.17732100000012], [-70.902441, 10.176982000000123], [-70.903309, 10.176188000000138], [-70.90366, 10.175012], [-70.904111, 10.174293], [-70.9039719999999, 10.172963], [-70.904489, 10.172014000000104], [-70.905579, 10.171951], [-70.906439, 10.172030000000177], [-70.9064259999999, 10.172673], [-70.906213, 10.173733], [-70.906915, 10.174089], [-70.907972, 10.173476000000107], [-70.908833, 10.173623], [-70.909678, 10.174208], [-70.91062099999982, 10.173734000000138], [-70.91075099999989, 10.173181], [-70.911558, 10.172916000000157], [-70.912264, 10.172101], [-70.913078, 10.172226], [-70.913702, 10.173388000000102], [-70.913628, 10.174468000000104], [-70.913356, 10.176195000000178], [-70.913606, 10.177201000000139], [-70.914505, 10.17819800000018], [-70.915855, 10.178452], [-70.918329, 10.179333], [-70.918128, 10.178417], [-70.91732, 10.177305], [-70.91820599999988, 10.176235000000133], [-70.918493, 10.175427], [-70.91834199999988, 10.17474], [-70.918936, 10.17418], [-70.918357, 10.172926], [-70.917938, 10.171532000000184], [-70.919059, 10.170619000000158], [-70.920554, 10.169838], [-70.920863, 10.168961], [-70.92145899999986, 10.168515000000127], [-70.921609, 10.167824000000167], [-70.922221, 10.166988000000117], [-70.9227939999999, 10.167898], [-70.923388, 10.16871500000019], [-70.92418, 10.168887], [-70.924583, 10.168077000000153], [-70.924474, 10.167160000000138], [-70.924318, 10.166198000000122], [-70.924985, 10.16582000000011], [-70.92566099999988, 10.166016000000127], [-70.92590599999983, 10.165461], [-70.92589, 10.164497], [-70.92637799999989, 10.164582000000166], [-70.92687499999988, 10.165148000000102], [-70.927293, 10.165142000000117], [-70.927621, 10.164011000000187], [-70.9280389999999, 10.164028000000144], [-70.92869799999983, 10.163237], [-70.929615, 10.162603], [-70.93024899999989, 10.163052], [-70.930684, 10.16405600000013], [-70.931102, 10.165381], [-70.931854, 10.165921], [-70.93212099999988, 10.16529700000018], [-70.932521, 10.164257], [-70.93241699999987, 10.163639000000103], [-70.932756, 10.163128], [-70.932695, 10.162303], [-70.932517, 10.161387000000104], [-70.933238, 10.161491], [-70.93452799999983, 10.162274000000139], [-70.935168, 10.163068000000123], [-70.935549, 10.162328000000173], [-70.935935, 10.161839], [-70.93578, 10.160923], [-70.935417, 10.160056000000111], [-70.93524699999989, 10.1596], [-70.935397, 10.158908000000167], [-70.936394, 10.15887], [-70.93723399999982, 10.15915600000011], [-70.937508, 10.158922], [-70.937915, 10.158273], [-70.938438, 10.157645000000116], [-70.939203, 10.15761], [-70.939701, 10.156867], [-70.93907799999988, 10.15577500000012], [-70.938134, 10.154871000000128], [-70.936731, 10.154248], [-70.936233, 10.15361300000012], [-70.936377, 10.152601], [-70.936909, 10.152501000000143], [-70.936833, 10.15213400000016], [-70.936106, 10.151686], [-70.93571, 10.151578000000143], [-70.936255, 10.150903], [-70.936894, 10.150319], [-70.93728, 10.149831000000177], [-70.938148, 10.14906000000019], [-70.938852, 10.148177], [-70.939301, 10.146011000000158], [-70.93907799999988, 10.145165000000134], [-70.938529, 10.145633000000146], [-70.93774899999988, 10.14615], [-70.937915, 10.144976], [-70.93808399999989, 10.144055], [-70.93869699999988, 10.143311], [-70.93941399999989, 10.143162000000132], [-70.939375, 10.142244], [-70.939144, 10.141008], [-70.939341, 10.140293], [-70.939927, 10.139342], [-70.939735, 10.138932], [-70.939337, 10.138755000000174], [-70.939005, 10.138346], [-70.938972, 10.137750000000153], [-70.93928199999988, 10.136918], [-70.939983, 10.135897000000114], [-70.94128699999987, 10.134821000000102], [-70.941246, 10.133811], [-70.942096, 10.133293000000151], [-70.943144, 10.133529000000124], [-70.943662, 10.133980000000179], [-70.944283, 10.133626000000163], [-70.9445429999999, 10.132589000000166], [-70.94452399999983, 10.13151], [-70.944547, 10.130178000000171], [-70.945007, 10.128609], [-70.944936, 10.127187000000163], [-70.944378, 10.125795], [-70.944187, 10.124167], [-70.94414, 10.12276700000018], [-70.944126, 10.12201], [-70.94411799999989, 10.120219], [-70.944183, 10.118633000000102], [-70.944788, 10.118693], [-70.945131, 10.118458], [-70.94485899999984, 10.117452], [-70.945106, 10.116989000000103], [-70.945523, 10.115651], [-70.94632699999988, 10.115179000000126], [-70.947129, 10.115947], [-70.947627, 10.116583000000105], [-70.948299, 10.116549000000134], [-70.948675, 10.115510000000143], [-70.94934, 10.113731], [-70.95020099999988, 10.112523], [-70.951391, 10.111609000000158], [-70.951972, 10.111692], [-70.952008, 10.112404], [-70.952206, 10.113158], [-70.952724, 10.113586000000112], [-70.95289799999983, 10.112895000000151], [-70.953136, 10.110572000000104], [-70.953289, 10.108733], [-70.952876, 10.10768300000018], [-70.951593, 10.107266000000152], [-70.951064, 10.106195000000184], [-70.951963, 10.105860000000177], [-70.953675, 10.105581], [-70.954774, 10.106115000000102], [-70.956597, 10.106867], [-70.958459, 10.107252], [-70.959292, 10.107124000000113], [-70.96069199999988, 10.10627600000015], [-70.961893, 10.105982000000154], [-70.962874, 10.106357], [-70.96347799999984, 10.105085], [-70.963622, 10.104049], [-70.963929, 10.103057], [-70.963141, 10.103069000000175], [-70.96225, 10.102532000000167], [-70.962304, 10.101636], [-70.962633, 10.100574000000165], [-70.963411, 10.099965], [-70.964385, 10.099927], [-70.96431699999988, 10.098711], [-70.963966, 10.097201], [-70.96485099999984, 10.096062], [-70.965708, 10.096026], [-70.966535, 10.095554000000106], [-70.967571, 10.095124], [-70.96901, 10.095148], [-70.969699, 10.09477], [-70.970377, 10.093749000000116], [-70.971459, 10.093319], [-70.972455, 10.093143000000111], [-70.97343999999987, 10.092485000000181], [-70.973909, 10.092776000000129], [-70.974341, 10.093573000000163], [-70.975195, 10.093353], [-70.97661, 10.093377], [-70.977241, 10.0936430000001], [-70.97865, 10.094608000000164], [-70.979858, 10.094704], [-70.98014199999989, 10.093735], [-70.979831, 10.09183400000012], [-70.979813, 10.090847], [-70.980552, 10.090652], [-70.981452, 10.090385], [-70.98230099999984, 10.08989], [-70.982361, 10.089315000000113], [-70.98173, 10.08902600000016], [-70.980777, 10.088926], [-70.9800699999999, 10.088271], [-70.980247, 10.087786], [-70.980863, 10.087203000000159], [-70.981634, 10.086226000000124], [-70.982421, 10.086145000000158], [-70.982968, 10.086918], [-70.983741, 10.087342], [-70.984137, 10.087428000000102], [-70.98479999999984, 10.086866000000157], [-70.9853169999999, 10.0872710000001], [-70.985539, 10.088003], [-70.985458, 10.08867], [-70.986412, 10.088862], [-70.987086, 10.088943], [-70.9875229999999, 10.088730000000169], [-70.98780699999986, 10.087761000000114], [-70.987971, 10.086495000000184], [-70.988155, 10.085115], [-70.988326, 10.084285], [-70.988906, 10.084299], [-70.98930799999988, 10.084729], [-70.989683, 10.084953000000155], [-70.989954, 10.084513000000129], [-70.98994, 10.083732000000168], [-70.990897, 10.082752], [-70.990818, 10.082202], [-70.99035, 10.081980000000158], [-70.989561, 10.081969000000129], [-70.988789, 10.081568000000175], [-70.988129, 10.08095800000018], [-70.987469, 10.080348000000129], [-70.986904, 10.079898], [-70.987245, 10.079502000000105], [-70.987825, 10.079516], [-70.98809799999987, 10.079213], [-70.98788, 10.078689], [-70.98729, 10.078078], [-70.986819, 10.077672], [-70.986834, 10.077235000000144], [-70.9866449999999, 10.077009], [-70.9865, 10.076689000000101], [-70.98662999999982, 10.076182], [-70.986507, 10.075794], [-70.98606399999989, 10.07564], [-70.985463, 10.075741000000164], [-70.984727, 10.07612], [-70.984276, 10.076862000000176], [-70.984331, 10.077343], [-70.984414, 10.078123], [-70.984471, 10.078696], [-70.98410299999989, 10.078885], [-70.983663, 10.07889200000011], [-70.9827269999999, 10.07847], [-70.982372, 10.078017], [-70.982152, 10.077423], [-70.982133, 10.076298], [-70.982606, 10.075533000000178], [-70.98296, 10.07454], [-70.982815, 10.074221], [-70.982535, 10.074088000000188], [-70.98205399999989, 10.074462], [-70.98147399999988, 10.074471], [-70.981235, 10.074016], [-70.980735, 10.0733120000001], [-70.98051, 10.072374], [-70.980194, 10.07155200000011], [-70.980418, 10.071089], [-70.981629, 10.071369], [-70.982308, 10.071726000000126], [-70.982691, 10.071077], [-70.982726, 10.07048], [-70.982667, 10.069746], [-70.982611, 10.069173], [-70.98209499999984, 10.068836], [-70.98172199999988, 10.06875], [-70.981244, 10.069286], [-70.980874, 10.069314], [-70.980457, 10.069321000000116], [-70.979951, 10.069604], [-70.979652, 10.069724], [-70.979113, 10.069411], [-70.978782, 10.069048], [-70.978496, 10.068616], [-70.97837, 10.068067], [-70.97830799999986, 10.067127], [-70.97853, 10.066572], [-70.978425, 10.06590800000015], [-70.978907, 10.065602], [-70.979488, 10.065662], [-70.980117, 10.065813000000105], [-70.980401, 10.066176], [-70.98072099999985, 10.065895000000125], [-70.980875, 10.065388], [-70.98105, 10.064834], [-70.980968, 10.064078], [-70.980497, 10.063717], [-70.979959, 10.06345000000016], [-70.979046, 10.062913000000151], [-70.978734, 10.06234400000011], [-70.979378, 10.062036], [-70.980074, 10.062025], [-70.980919, 10.062609], [-70.98146, 10.063082], [-70.98202, 10.063257], [-70.982622, 10.063202], [-70.983104, 10.062919], [-70.983643, 10.061923], [-70.983695, 10.060912000000144], [-70.983714, 10.060636], [-70.984211, 10.059917], [-70.984679, 10.058830000000171], [-70.98464399999989, 10.058165], [-70.984493, 10.057479000000114], [-70.98358999999982, 10.057539000000133], [-70.982923, 10.057893], [-70.9823459999999, 10.058040000000176], [-70.981627, 10.05800500000015], [-70.98097599999988, 10.057947000000127], [-70.97989299999989, 10.05699900000019], [-70.97914, 10.056368], [-70.978667, 10.055893], [-70.979189, 10.055219], [-70.979828, 10.054612], [-70.979588, 10.054156000000148], [-70.979346, 10.053609], [-70.9798919999999, 10.05295800000016], [-70.98038599999984, 10.052031], [-70.981074, 10.05163], [-70.981651, 10.051438000000132], [-70.981591, 10.050681], [-70.981205, 10.049814], [-70.98051599999985, 10.048861000000102], [-70.980316, 10.048083], [-70.98079899999982, 10.047846000000163], [-70.981685, 10.048108000000127], [-70.981464, 10.047399], [-70.980911, 10.046306], [-70.980775, 10.045160000000124], [-70.981568, 10.0454], [-70.982338, 10.045664000000102], [-70.982839, 10.045151], [-70.98371, 10.044563], [-70.98460199999988, 10.04386], [-70.98387, 10.043068], [-70.982634, 10.042697], [-70.98142599999983, 10.042578], [-70.981415, 10.041935], [-70.98209, 10.040777], [-70.981842, 10.039862], [-70.9819849999999, 10.038735], [-70.982135, 10.03804300000013], [-70.98272299999985, 10.03716100000014], [-70.982568, 10.03629100000012], [-70.981873, 10.036301], [-70.981277, 10.036701000000107], [-70.98076, 10.036319000000105], [-70.980648, 10.035241], [-70.981113, 10.033971000000179], [-70.982659, 10.033557], [-70.9835149999999, 10.033406000000127], [-70.984481, 10.032931], [-70.984626, 10.031942000000186], [-70.98421, 10.030754000000115], [-70.983669, 10.028972], [-70.983877, 10.027614], [-70.984366, 10.02636600000011], [-70.984814, 10.025510000000168], [-70.9858, 10.024851000000183], [-70.98642499999988, 10.024819], [-70.987543, 10.025077], [-70.98812, 10.024930000000154], [-70.98875999999984, 10.024369], [-70.989252, 10.023351], [-70.990276, 10.022256], [-70.990955, 10.021258000000103], [-70.991832, 10.019706], [-70.992806, 10.018428], [-70.993975, 10.017606], [-70.994035, 10.015745], [-70.993662, 10.01435000000015], [-70.993812, 10.013636], [-70.99464299999988, 10.012062000000185], [-70.995123, 10.010378000000117], [-70.994701, 10.008800000000122], [-70.996809, 10.00867600000015], [-70.998491, 10.009384000000125], [-70.999627, 10.008035], [-70.999814, 10.006815000000188], [-71.001159, 10.005508], [-71.00174, 10.004259000000104], [-71.008347, 9.99613], [-71.00501, 9.994077000000175], [-71.004382, 9.990507], [-71.001884, 9.989058], [-71.000548, 9.984933000000126], [-71.000025, 9.983558], [-70.999523, 9.981954], [-70.99935, 9.980738000000144], [-70.998544, 9.978791000000172], [-70.997572, 9.976547], [-70.997666, 9.97418], [-70.998065, 9.972155000000157], [-70.99867099999989, 9.970059000000106], [-70.998148, 9.968616000000111], [-70.99788899999987, 9.965677], [-70.99829, 9.963881000000185], [-70.998618, 9.961741], [-70.998561, 9.960593], [-70.997989, 9.958966], [-70.997562, 9.95789], [-70.997776, 9.956003], [-70.998117, 9.955242], [-70.99830899999989, 9.953425000000152], [-70.998114, 9.952416000000142], [-70.998358, 9.95124200000015], [-70.998249, 9.949428000000182], [-70.99836, 9.94644], [-70.99842899999987, 9.943866], [-70.999788, 9.940362], [-71.001001, 9.936193], [-71.001832, 9.933907], [-71.00312999999989, 9.933289000000116], [-71.004683, 9.931915000000117], [-71.005703, 9.930678], [-71.006815, 9.928891], [-71.00816, 9.927264], [-71.00680099999988, 9.92718], [-70.898117, 9.927076000000113], [-70.8968129999999, 9.927075], [-70.896834, 9.927312], [-70.895225, 9.928186000000153], [-70.894043, 9.929204], [-70.891687, 9.93009300000017], [-70.88817299999982, 9.92890100000011], [-70.88605399999989, 9.929563], [-70.883923, 9.931716000000165], [-70.883332, 9.932167], [-70.88168499999989, 9.93249], [-70.87957, 9.932693], [-70.878628, 9.933026], [-70.875569, 9.933675], [-70.874003, 9.937248000000125], [-70.87321, 9.937648], [-70.870955, 9.936939000000109], [-70.870666, 9.936361], [-70.871572, 9.934084000000155], [-70.8704039999999, 9.933266000000174], [-70.869413, 9.932706], [-70.868234, 9.931526], [-70.86705599999982, 9.930181000000175], [-70.86504, 9.92733], [-70.864027, 9.92698200000018], [-70.860987, 9.92627], [-70.858783, 9.927727000000175], [-70.856414, 9.928353], [-70.854046, 9.928812], [-70.851846, 9.929275000000189], [-70.84947, 9.931227], [-70.84591099999989, 9.933491000000117], [-70.84444499999984, 9.9338580000001], [-70.84319999999985, 9.93494], [-70.835706, 9.938738000000114], [-70.83177264799997, 9.937009681], [-70.81085137299993, 9.927816852000149], [-70.79508914299987, 9.920890912000118], [-70.79158741699996, 9.919352250000031], [-70.79076713999984, 9.91899182000003], [-70.79171307999997, 9.92027726100008], [-70.82981937399995, 9.974111269000105], [-70.84534776499999, 9.996048735000159], [-70.86526181299996, 10.02428551700001], [-70.88104056399987, 10.046658727000022], [-70.88260062699999, 10.048049750000132], [-70.88223462799982, 10.049952795000081], [-70.8816046149999, 10.052122857000086], [-70.8800265669999, 10.05482392800019], [-70.87824550599998, 10.056777984], [-70.87667444899995, 10.057847023000136], [-70.87525438399996, 10.057805029000178], [-70.87337230899993, 10.057810041999971], [-70.87146523799993, 10.0582300640001], [-70.87025018599996, 10.059006082000167], [-70.86921715299991, 10.060139117000062], [-70.86790610599996, 10.061746169000116], [-70.86528601999999, 10.06452425200007], [-70.86147388399996, 10.06853637], [-70.85980682699989, 10.069541400000048], [-70.85826375599993, 10.069827416000066], [-70.85429058799991, 10.069411438000145], [-70.85262952399995, 10.070094465000068], [-70.85078445399989, 10.07037348200015], [-70.84823035399995, 10.071309517000032], [-70.84679029799997, 10.07223454700005], [-70.84515923899994, 10.073490591000052], [-70.84304616799989, 10.075759652000102], [-70.84229314199996, 10.077360694000049], [-70.84206314799991, 10.079188742000156], [-70.84166515899994, 10.08270283000013], [-70.84153715799994, 10.084248868000145], [-70.84222020999994, 10.087982947000114], [-70.84264324599997, 10.09030599800019], [-70.84298126399995, 10.091874040999983], [-70.84255225899989, 10.09389608400005], [-70.84153622499986, 10.095810143000051], [-70.83908214299993, 10.098234211999966], [-70.81314610699997, 10.109768745], [-70.78737014699988, 10.121232087000124], [-70.78590309599991, 10.122525120000034], [-70.78499905999996, 10.124364171000082], [-70.78397403199989, 10.125221203000137], [-70.78183494999985, 10.126549243000056], [-70.77895683499992, 10.12798429500009], [-70.77865482899989, 10.128896322000173], [-70.77821581599989, 10.130274361000033], [-70.7772467829999, 10.131312391000165], [-70.77494370799997, 10.133085441000105], [-70.7724935999999, 10.133808478000162], [-70.77033451599988, 10.134310498000161], [-70.76838343699984, 10.133904501000018], [-70.76417925599998, 10.133085507000146], [-70.76246918199996, 10.132828518999986], [-70.7609731309999, 10.133571546000098], [-70.7578150029999, 10.135434604000068], [-70.75625994699993, 10.136823648000075], [-70.75471889199997, 10.138052683000069], [-70.7531508379999, 10.139189730000112], [-70.75113075999991, 10.141039785000146], [-70.74970571499995, 10.142698833999987], [-70.74806265199999, 10.143725858000039], [-70.74506053399995, 10.14502791200016], [-70.7436184799999, 10.145906942000067], [-70.74238743899991, 10.146819968000102], [-70.73938032699988, 10.149364055000035], [-70.73770627699992, 10.151610114000107], [-70.73614121799994, 10.153253164000034], [-70.73467516599993, 10.155466227999966], [-70.73447917199996, 10.157521276000182], [-70.73481619599988, 10.15909031200016], [-70.73516322599994, 10.16084235599999], [-70.73530324299998, 10.163087410000117], [-70.73521025799988, 10.164885457000139], [-70.73502725799995, 10.166733503000103], [-70.73435824899991, 10.169525564000082], [-70.73402324499983, 10.171565617000056], [-70.73286121799998, 10.174267691000125], [-70.73142317799989, 10.177926787000047], [-70.7309371739999, 10.179767834000018], [-70.73053716099997, 10.181006866000075], [-70.73023316199993, 10.182768919000125], [-70.72926112999988, 10.184656962000076], [-70.72808508799994, 10.185291987000141], [-70.72705904599997, 10.186586023000075], [-70.72565800699994, 10.188266074000126], [-70.72383994799998, 10.190864149000049], [-70.72262490099996, 10.1925352], [-70.72132286399989, 10.193889239000043], [-70.71948678699994, 10.195247278000068], [-70.71745371399993, 10.195512295000071], [-70.71640966499996, 10.195565303000024], [-70.71431057999996, 10.195443314000102], [-70.71132345499996, 10.196584366000025], [-70.70960639899982, 10.197545395000077], [-70.70811134499985, 10.198770433000163], [-70.70581025999996, 10.201025506000121], [-70.70466422599998, 10.202693553000017], [-70.70398820699995, 10.204014584], [-70.70195114399996, 10.207336674999965], [-70.7032161979999, 10.208858712000051], [-70.7041692439999, 10.209751728000072], [-70.70558132099995, 10.212759789000188], [-70.7065373769999, 10.214595825], [-70.70726641599992, 10.216098862000138], [-70.70836448099993, 10.219328933000156], [-70.70865351199996, 10.22177398700012], [-70.70760248999994, 10.226171097000133], [-70.7072104859999, 10.228030141000147], [-70.70687048899993, 10.229541191000067], [-70.7055894529999, 10.232641269000112], [-70.70456942099997, 10.234486316000073], [-70.70400539999991, 10.235733356000026], [-70.70223534999985, 10.239707456000076], [-70.70182534599996, 10.241222503000074], [-70.70124033499997, 10.242493535999984], [-70.69982829399999, 10.245323608000035], [-70.69932827499991, 10.246889647000046], [-70.69869726299993, 10.24818569000007], [-70.69718422799997, 10.252193799000167], [-70.69648120099998, 10.253884843000094], [-70.6958961929999, 10.255614887000036], [-70.69544118999994, 10.258488955000189], [-70.69520519899993, 10.260223999], [-70.69507719799998, 10.261794043000066], [-70.69535923599989, 10.26543412600006], [-70.69578326299995, 10.267320161999976], [-70.69656930199989, 10.269027209000114], [-70.69650431499997, 10.271811273000083], [-70.69617031399991, 10.273437312000055], [-70.69574630999995, 10.27513636000009], [-70.6950183049999, 10.278139432000103], [-70.69449628999996, 10.279728471], [-70.69386127099995, 10.281392518000132], [-70.6936313199999, 10.282950982000102], [-70.69334527599995, 10.284889614000122], [-70.69305427299997, 10.286467654000091], [-70.69202023799994, 10.288060692000101], [-70.69065619399987, 10.290451762999965], [-70.69011618199994, 10.292156807000026], [-70.68982218599996, 10.293665846000067], [-70.6901832129999, 10.296589907000168], [-70.69077925199991, 10.298213941000085], [-70.69133928799988, 10.300606005000077], [-70.69118828899991, 10.300722], [-70.69201165299995, 10.301125793000097], [-70.69615350999999, 10.303157033000161], [-70.70043068799993, 10.303536019000035], [-70.70316780699989, 10.303833006000048], [-70.70769098599999, 10.30357897000016], [-70.71092712499996, 10.303183938000132], [-70.71511829399998, 10.303267919000064], [-70.71886744899996, 10.30332890200009], [-70.72200458099996, 10.304156901000113], [-70.72483570099985, 10.304471885000055], [-70.72834284899994, 10.304820875000132], [-70.73081595999992, 10.306302888000118], [-70.73318607999994, 10.309376952000093], [-70.73545618899993, 10.311879997000176], [-70.73757929699997, 10.314668056000187], [-70.73949239899991, 10.317902119000166], [-70.74222053199998, 10.320268165000186], [-70.74502166199989, 10.32223918699998], [-70.74762977199998, 10.323622209000064], [-70.75063290899993, 10.324548217000086], [-70.75493609699998, 10.325891212000101], [-70.75795622099997, 10.325805199000172], [-70.76001030399982, 10.326826206000021], [-70.76123137099995, 10.328831247000096], [-70.76259343899994, 10.33006227500016], [-70.76408551499992, 10.332893334], [-70.76338148999997, 10.333841361000054], [-70.76233145199996, 10.33487239100009], [-70.76096840999998, 10.336766444000034], [-70.76088642499991, 10.338675484000078]]]}}, {"type": "Feature", "properties": {"Pais": "Venezuela", "Estado": "Zulia", "Municipio": "Baralt", "Parroquia": "Marcelino Brice\u00f1o"}, "geometry": {"type": "Polygon", "coordinates": [[[-70.86484, 9.727928], [-70.866251, 9.73035300000015], [-70.867737, 9.730779], [-70.868305, 9.729441000000179], [-70.868996, 9.728954], [-70.870908, 9.727698], [-70.87335799999988, 9.727059], [-70.875909, 9.727384000000143], [-70.878457, 9.72736500000019], [-70.880364, 9.725443], [-70.882131, 9.726165], [-70.883456, 9.726706], [-70.884775, 9.726535], [-70.885994, 9.725584], [-70.886855, 9.7233710000001], [-70.88807, 9.721891], [-70.889493, 9.72041], [-70.89100899999988, 9.718927000000122], [-70.893821, 9.71732], [-70.896198, 9.716291000000126], [-70.896851, 9.715948], [-70.897829, 9.715437000000179], [-70.89725777399991, 9.612808999000151], [-70.89722551799991, 9.612806193999972], [-70.89692749299996, 9.60060143200019], [-70.89673044599988, 9.592531941000175], [-70.89634365599994, 9.59223635800015], [-70.8944783419999, 9.590810915000077], [-70.89237025099999, 9.589621907000094], [-70.88993914899993, 9.58868489800011], [-70.88801706599997, 9.588137896000148], [-70.88539994999996, 9.587361889000135], [-70.88421989699992, 9.5875469020001], [-70.88165079899983, 9.587985931000105], [-70.87889669199996, 9.588401960000112], [-70.87546954099997, 9.58760395100012], [-70.87169838499995, 9.588618002999965], [-70.86956930299993, 9.589125024000111], [-70.86811024699989, 9.588554025], [-70.86598115399988, 9.589313055000105], [-70.86415308599999, 9.589293057000077], [-70.86214000499996, 9.590579103000039], [-70.86119297699992, 9.591452134000065], [-70.85982692199997, 9.59170514400006], [-70.85906187699999, 9.590606118999972], [-70.85711679499997, 9.590425132], [-70.85563473899992, 9.589968129000113], [-70.8545686889999, 9.589099108000084], [-70.85340962699996, 9.587449086000163], [-70.85171955999988, 9.586970077000046], [-70.84864042699996, 9.587089105000132], [-70.84662634399984, 9.586908107000056], [-70.84574530099997, 9.585579081000049], [-70.84514226899995, 9.58500707200011], [-70.84331419199998, 9.585422091000055], [-70.84325620199996, 9.58553457500011], [-70.78962074199995, 9.689572589000022], [-70.789961, 9.689538], [-70.79151999999988, 9.690285], [-70.792736, 9.691701], [-70.793188, 9.693008000000134], [-70.792312, 9.693589], [-70.791832, 9.694304000000102], [-70.791911, 9.695453000000157], [-70.79300499999982, 9.696088], [-70.7931615469999, 9.6961017590001], [-70.794211, 9.696194000000162], [-70.794912, 9.69697], [-70.79593199999988, 9.697009], [-70.796978, 9.697438], [-70.79876350899997, 9.697894599999984], [-70.798812, 9.697907000000157], [-70.800157, 9.698058], [-70.80126699999988, 9.69782], [-70.802857, 9.696843], [-70.80384, 9.698076], [-70.804616, 9.699380000000133], [-70.805733, 9.700061], [-70.80671399999989, 9.700996], [-70.806699, 9.701916], [-70.807077, 9.702763000000118], [-70.808375, 9.702868], [-70.80999899999983, 9.703155], [-70.81157899999982, 9.703603000000157], [-70.813386, 9.703658], [-70.8144319999999, 9.70406400000013], [-70.815434, 9.704700000000173], [-70.816849, 9.704965], [-70.817436, 9.705834], [-70.818319, 9.706149000000153], [-70.819668, 9.706806000000142], [-70.820685, 9.70652200000012], [-70.821567, 9.70674600000018], [-70.823053, 9.707148000000188], [-70.823476, 9.70788], [-70.824895, 9.708513000000153], [-70.826052, 9.708390000000122], [-70.827396, 9.708494], [-70.827936, 9.709249000000113], [-70.82836, 9.71011900000019], [-70.82921099999987, 9.709400000000187], [-70.831058, 9.708697], [-70.83249199999989, 9.708364], [-70.834465, 9.708717], [-70.836474, 9.708059000000105], [-70.837911, 9.70809400000013], [-70.840019, 9.708124000000112], [-70.841446, 9.709699], [-70.842939, 9.710974], [-70.843976, 9.713035], [-70.844839, 9.713649], [-70.846023, 9.713961], [-70.846081, 9.715363], [-70.845811, 9.716238], [-70.846555, 9.716508000000147], [-70.84890499999989, 9.717731], [-70.85086399999989, 9.719279], [-70.852312, 9.72055500000016], [-70.85435499999983, 9.721068000000173], [-70.855914, 9.721907000000101], [-70.857058, 9.722794000000135], [-70.858823, 9.723309000000143], [-70.860802, 9.724489], [-70.862552, 9.725855], [-70.86484, 9.727928]]]}}, {"type": "Feature", "properties": {"Pais": "Venezuela", "Estado": "Zulia", "Municipio": "Baralt", "Parroquia": "Pueblo Nuevo"}, "geometry": {"type": "Polygon", "coordinates": [[[-70.81085137299993, 9.927816852000149], [-70.83177264799997, 9.937009681], [-70.835706, 9.938738000000114], [-70.84319999999985, 9.93494], [-70.84444499999984, 9.9338580000001], [-70.84591099999989, 9.933491000000117], [-70.84947, 9.931227], [-70.851846, 9.929275000000189], [-70.854046, 9.928812], [-70.856414, 9.928353], [-70.858783, 9.927727000000175], [-70.860987, 9.92627], [-70.864027, 9.92698200000018], [-70.86504, 9.92733], [-70.86705599999982, 9.930181000000175], [-70.868234, 9.931526], [-70.869413, 9.932706], [-70.8704039999999, 9.933266000000174], [-70.871572, 9.934084000000155], [-70.870666, 9.936361], [-70.870955, 9.936939000000109], [-70.87321, 9.937648], [-70.874003, 9.937248000000125], [-70.875569, 9.933675], [-70.878628, 9.933026], [-70.87957, 9.932693], [-70.88168499999989, 9.93249], [-70.883332, 9.932167], [-70.883923, 9.931716000000165], [-70.88605399999989, 9.929563], [-70.88817299999982, 9.92890100000011], [-70.891687, 9.93009300000017], [-70.894043, 9.929204], [-70.895225, 9.928186000000153], [-70.896834, 9.927312], [-70.8968129999999, 9.927075], [-70.898117, 9.927076000000113], [-71.00680099999988, 9.92718], [-71.00816, 9.927264], [-71.009666, 9.925729], [-71.010987, 9.924997], [-71.011937, 9.924678000000142], [-71.012401, 9.923073], [-71.013281, 9.921996], [-71.012402, 9.919609], [-71.012472, 9.91837], [-71.013654, 9.916673], [-71.01465, 9.91610100000014], [-71.016318, 9.91592], [-71.017755, 9.915854000000138], [-71.018635, 9.91496], [-71.02041899999989, 9.91416], [-71.021856, 9.91368100000011], [-71.022807, 9.912742], [-71.023294, 9.911779], [-71.024104, 9.911344000000156], [-71.024777, 9.910336], [-71.024985, 9.909901000000161], [-71.025101, 9.908914], [-71.025935, 9.908480000000168], [-71.02600499999988, 9.907471000000157], [-71.026492, 9.907035000000178], [-71.02758099999988, 9.906051000000105], [-71.027882, 9.905501], [-71.028068, 9.90451400000012], [-71.02848499999982, 9.903919], [-71.029505, 9.903140000000121], [-71.02976, 9.902659], [-71.030269, 9.901627000000133], [-71.031127, 9.900849000000107], [-71.03223899999983, 9.900415], [-71.032726, 9.89919900000018], [-71.033097, 9.898466], [-71.033488, 9.898265000000151], [-71.03311499999984, 9.897572], [-71.008237, 9.870184], [-71.007707, 9.804316000000142], [-70.95062, 9.820436], [-70.937153, 9.820157], [-70.933984, 9.823406], [-70.927669, 9.827054000000146], [-70.92607899999985, 9.829336000000126], [-70.920904, 9.830806], [-70.916501, 9.83393], [-70.912346, 9.834097], [-70.79909299999986, 9.83399], [-70.70549312599991, 9.834178438000038], [-70.68934407899991, 9.834210950000056], [-70.68169628399988, 9.834226346000094], [-70.67485715799995, 9.834240115000057], [-70.67199764499998, 9.834231658000022], [-70.67207660299994, 9.8352719720001], [-70.67224561299997, 9.837171017000117], [-70.67233050399989, 9.837860384000066], [-70.67245964099999, 9.838909048000119], [-70.67242265199997, 9.840972099], [-70.67235365899995, 9.84241613200004], [-70.67289368099995, 9.844287173000055], [-70.67367972899996, 9.845466196000189], [-70.67484078899992, 9.846892224000044], [-70.67661987699995, 9.849224266000078], [-70.67787493799989, 9.850694295000096], [-70.6791329919999, 9.852439333000063], [-70.68017904899995, 9.853889366000033], [-70.68134310099998, 9.855520397000078], [-70.6812971089999, 9.857010431000106], [-70.6815881359999, 9.859206479000079], [-70.68197516299995, 9.861628531000122], [-70.68284221999994, 9.86356257500006], [-70.68418027999996, 9.864389580000022], [-70.68512332199992, 9.865291607000131], [-70.68634638799995, 9.867655651000177], [-70.68761045099984, 9.869698686], [-70.68849449899989, 9.871242720000055], [-70.69068960799996, 9.873430763000158], [-70.69245988699998, 9.874467677000155], [-70.69282370299999, 9.874680777000037], [-70.6939757479999, 9.875510787000167], [-70.69422604699992, 9.875808274000178], [-70.69452192799997, 9.876159935000032], [-70.6953059469999, 9.877091761000031], [-70.69591684599993, 9.877817829000094], [-70.69676798599994, 9.878549167000187], [-70.69733090999995, 9.879032857000084], [-70.69886998599992, 9.88084189100016], [-70.7001300519999, 9.882883933000187], [-70.70055606499989, 9.882869929000094], [-70.70197802499996, 9.883449498000175], [-70.70221380099991, 9.883604172], [-70.70229313999994, 9.88357793400013], [-70.70336819399995, 9.883222921000026], [-70.70624430599997, 9.882925888000045], [-70.70897542099993, 9.88377690200008], [-70.71106577599994, 9.884365268000124], [-70.71275558799988, 9.884840895000139], [-70.71576571399999, 9.885663904000069], [-70.71996890499997, 9.886972903000128], [-70.72384406699996, 9.888149909000163], [-70.7272562149999, 9.889470927000048], [-70.73029434499995, 9.890568933000111], [-70.73371050299988, 9.892072947000031], [-70.7362236109999, 9.89235393600012], [-70.73795168599997, 9.89289993500006], [-70.73994078399988, 9.895205983000096], [-70.74060681299994, 9.896180004000144], [-70.74210787599998, 9.897073017000025], [-70.74423397399994, 9.897796014000107], [-70.74540203699985, 9.899656053000058], [-70.74587406299992, 9.901550094000186], [-70.74545606099997, 9.904375169000105], [-70.7451643259999, 9.905634773000031], [-70.74460904699998, 9.90803226100013], [-70.74447706199999, 9.909936299000151], [-70.74602013599991, 9.91192734800012], [-70.7483022429999, 9.913724375000015], [-70.75054533899998, 9.915911413000174], [-70.75309545499994, 9.917017416000078], [-70.75533355099992, 9.917531424000174], [-70.75871369499998, 9.918211417], [-70.76105480699982, 9.919320425000137], [-70.76404493599995, 9.920326431000035], [-70.76721906999995, 9.92119343000013], [-70.77025919099998, 9.921030412000107], [-70.77381733199991, 9.919805362000034], [-70.77694446199996, 9.919251329000076], [-70.77853352899996, 9.91982233900012], [-70.78140564199992, 9.919295304000116], [-70.78505879099987, 9.91825225600013], [-70.78831592399996, 9.91849823800004], [-70.79073088599995, 9.918979830000126], [-70.79074730499997, 9.918983104], [-70.79076303499994, 9.918986241000027], [-70.79076713999984, 9.91899182000003], [-70.79158741699996, 9.919352250000031], [-70.79508914299987, 9.920890912000118], [-70.81085137299993, 9.927816852000149]]]}}]}