{"type": "FeatureCollection", "features": [{"type": "Feature", "properties": {"Pais": "Venezuela", "Estado": "Miranda", "Municipio": "Baruta", "Parroquia": "Nuestra Se\u00f1ora del Rosario de Baruta"}, "geometry": {"type": "Polygon", "coordinates": [[[-66.87361737999993, 10.487338837000038], [-66.87449542699994, 10.487652841000113], [-66.87521245899995, 10.488143848000107], [-66.87566447999995, 10.488532863000103], [-66.87674953599992, 10.489400871000157], [-66.87798958899992, 10.490199888000063], [-66.87851061099997, 10.490550896000173], [-66.87952165899998, 10.49078690000016], [-66.88039369699999, 10.490736886000093], [-66.88061070599991, 10.49057088100011], [-66.88060989999985, 10.490568125999971], [-66.88033168899995, 10.489616863000037], [-66.88050370199994, 10.489536863000183], [-66.88043369399992, 10.48930785500005], [-66.88100070899986, 10.488180816000181], [-66.88010266399988, 10.487594805000072], [-66.88003266699997, 10.487355804000117], [-66.88036967999994, 10.487012785000047], [-66.88061510699993, 10.486949755000182], [-66.88070068799982, 10.48692778300017], [-66.88107270599994, 10.486765786000149], [-66.88128271599999, 10.48679377500008], [-66.88137871499998, 10.486763774000167], [-66.88149871999985, 10.486694772000135], [-66.88168772699993, 10.486527774000024], [-66.88220274899993, 10.486072756], [-66.88242675999999, 10.486116757], [-66.88315278999994, 10.486464760000104], [-66.88332379899998, 10.486494760000085], [-66.8833438069999, 10.486364751999986], [-66.8833147979999, 10.486155752000116], [-66.88326379399996, 10.485996749000037], [-66.88309278399993, 10.48588675100018], [-66.88254776799988, 10.485628737000127], [-66.88239675499989, 10.485409733000154], [-66.88219574199996, 10.485041730000148], [-66.88206574199995, 10.48468271500019], [-66.88206573999997, 10.484373707000032], [-66.8821167299999, 10.484064699000044], [-66.88229874699988, 10.483875694000119], [-66.8825717499999, 10.48367569100003], [-66.88267275099992, 10.483576689000188], [-66.88267275099992, 10.4834366770001], [-66.88261274699994, 10.483217673000127], [-66.88253175299997, 10.483117678000099], [-66.88228973099984, 10.483038675000046], [-66.88198771899988, 10.482959671000117], [-66.88181571599995, 10.48290967500003], [-66.88165471099995, 10.482840675000034], [-66.88155369699996, 10.482730665000133], [-66.88165470999996, 10.48255166399997], [-66.88188771899996, 10.482391655000185], [-66.88249373999992, 10.48210164700015], [-66.8828067479999, 10.481862643999989], [-66.88301475699996, 10.481593628000155], [-66.88299076199985, 10.481423628000073], [-66.88288774899996, 10.48122062300007], [-66.8827607419999, 10.481123621000052], [-66.88253573799994, 10.481077621000168], [-66.88213971199997, 10.480937624000035], [-66.88206370899997, 10.480894616], [-66.88202470799996, 10.480824622000114], [-66.88202470799996, 10.480766619000178], [-66.88205171699997, 10.48071161900009], [-66.88214071499993, 10.480638609000096], [-66.88232272199991, 10.480608607000079], [-66.88251673099995, 10.480556610000122], [-66.88277374599994, 10.480419600000175], [-66.88292175399982, 10.480320598000162], [-66.88307575699997, 10.48018159000003], [-66.88330975799994, 10.479901589], [-66.88334776499988, 10.479783584000131], [-66.8833477639999, 10.479636571000128], [-66.88326776299994, 10.479387566000014], [-66.88306074399998, 10.47913856200006], [-66.88295673799996, 10.479003564000038], [-66.88291073599999, 10.47892456000011], [-66.88289874399987, 10.478822555000079], [-66.88292273799982, 10.478731559000039], [-66.88296774499997, 10.478641556000127], [-66.88306273899985, 10.478532550000182], [-66.88320775399995, 10.47836254800012], [-66.88346775999997, 10.478039538000075], [-66.8836097599999, 10.47786352900016], [-66.88364976499992, 10.477763522000146], [-66.88363776099999, 10.47763151600003], [-66.8835937579999, 10.477492520999988], [-66.88354876099999, 10.477344516000073], [-66.88352875099997, 10.47722451300001], [-66.88352075699999, 10.477136509000047], [-66.88351975099994, 10.477052502000106], [-66.88352475199997, 10.476936507000175], [-66.88352475199997, 10.476785498000027], [-66.8835197489999, 10.476665495000134], [-66.88349975099993, 10.47652549500009], [-66.88341074999994, 10.476209487000062], [-66.88326873499994, 10.475838481000096], [-66.88318772899999, 10.475655472000142], [-66.88298972199993, 10.47556647600004], [-66.88278671299992, 10.475545476000093], [-66.88265171299997, 10.475585470000055], [-66.88243369899993, 10.475737474000027], [-66.88212468799998, 10.47601849200015], [-66.88201967699996, 10.476036491000116], [-66.88189468199994, 10.47600748400015], [-66.88179767599996, 10.475924483000085], [-66.88172966699995, 10.47580248100013], [-66.88172066699991, 10.475643478000052], [-66.88174267299996, 10.475455479], [-66.88181766799994, 10.47511746400005], [-66.88186566599984, 10.474825461000137], [-66.88186766299998, 10.474521444000118], [-66.88172665399998, 10.474194439000144], [-66.8815326539999, 10.473891440000045], [-66.88138763699988, 10.473697435000076], [-66.88128063899984, 10.473588430000177], [-66.88122263399993, 10.47346542300005], [-66.88120863199993, 10.473412422000024], [-66.88120263599995, 10.473359421000168], [-66.88120062499996, 10.47326742000007], [-66.88118863399995, 10.473180421000109], [-66.88118562999995, 10.473097419000169], [-66.88117162699996, 10.47299141700006], [-66.88115663199989, 10.472916409000106], [-66.88113762799998, 10.47285840600017], [-66.88112862899987, 10.472819406000156], [-66.88109562299996, 10.472668409000164], [-66.88105861999992, 10.472523395000053], [-66.88101861299992, 10.47237639499997], [-66.88099561199988, 10.47229139500007], [-66.88097361599995, 10.472217392000061], [-66.88096461699996, 10.472155392000104], [-66.88096861299994, 10.472081389000095], [-66.88100161799991, 10.472007386000087], [-66.8810476189999, 10.47193438800008], [-66.88107461599992, 10.471901384000034], [-66.88116861599997, 10.471686375000104], [-66.88119262199984, 10.471640374000117], [-66.88122362799999, 10.471557372000177], [-66.88124562199994, 10.471451370000125], [-66.88126862299998, 10.471360374000028], [-66.88130162699997, 10.47124836400019], [-66.88133262099996, 10.471167361000141], [-66.88137361999998, 10.471095356000149], [-66.88140762999996, 10.471044353000082], [-66.8814566339999, 10.47100036300003], [-66.88149063299988, 10.470988359999978], [-66.88151563199983, 10.470988359999978], [-66.88154063099995, 10.470992357000057], [-66.88159363299997, 10.471017355000185], [-66.88187664199995, 10.471160357000088], [-66.88193565199992, 10.47120835600009], [-66.88194765499998, 10.471232361000034], [-66.88265667999991, 10.47159836200018], [-66.8828506889999, 10.471500365000168], [-66.88295769799987, 10.471464356000126], [-66.88316171199995, 10.47143235600015], [-66.88336371499997, 10.471382356999982], [-66.88348271499996, 10.471335351], [-66.88357872599983, 10.47124035700017], [-66.88368572199988, 10.471089347000088], [-66.88376172399995, 10.470969344000025], [-66.88382872699998, 10.470831342000167], [-66.88386473399993, 10.470655333000082], [-66.88385272999994, 10.470444334000092], [-66.88381673199996, 10.470279324000103], [-66.88380472899996, 10.470139324000058], [-66.88381673099997, 10.46999831900007], [-66.88391272899992, 10.469857313000091], [-66.88404373199995, 10.469705310000052], [-66.88425874199987, 10.469552301000078], [-66.88440174799996, 10.469482306000089], [-66.88456875899993, 10.469399291000059], [-66.88481976699984, 10.469317293000188], [-66.88503377399996, 10.469294292000143], [-66.88527279099992, 10.469247285000108], [-66.88534879299982, 10.469210283000052], [-66.88540179499995, 10.469148282000162], [-66.88548379199989, 10.469039288000033], [-66.88558579899995, 10.468929276000154], [-66.88568780499998, 10.468848272], [-66.88584280199984, 10.468776279], [-66.88592581699987, 10.468738272000166], [-66.88599780999988, 10.468686275000039], [-66.88605581399997, 10.468624263000038], [-66.88614381899998, 10.468471266999984], [-66.88621582299999, 10.468319263000012], [-66.88624982099992, 10.468281257000115], [-66.88632782199983, 10.468166254999971], [-66.88668684299995, 10.467790243000138], [-66.88729486099999, 10.467275223000172], [-66.88741387199997, 10.467175216000157], [-66.88749586999984, 10.467094224], [-66.88754487399996, 10.467022219], [-66.88758787099988, 10.466908210999975], [-66.88762186899987, 10.466774206000025], [-66.88764087099992, 10.466622204000032], [-66.88766586999998, 10.466536198000028], [-66.88770387699998, 10.466446195000117], [-66.88773987299993, 10.46637819900019], [-66.88778988299998, 10.466333192000093], [-66.88795688299996, 10.466251194000051], [-66.88801688499996, 10.4662151980001], [-66.8881138889999, 10.466133189000175], [-66.88830690399988, 10.465910186000087], [-66.8884318989999, 10.465806181000119], [-66.88858390399997, 10.465711176000184], [-66.88877591399995, 10.46554416600003], [-66.88887991899998, 10.465388164999979], [-66.88900391999982, 10.465288157999964], [-66.88920593499995, 10.465156162000085], [-66.88977095499996, 10.464639144000103], [-66.89013818399997, 10.464512683], [-66.89043598599983, 10.46441013100008], [-66.89101600499993, 10.464493130000108], [-66.89139802399995, 10.463787109], [-66.89142802199984, 10.463192094000078], [-66.89148901599998, 10.462881088000131], [-66.89154600299992, 10.46283285200002], [-66.89206204199996, 10.462396069000022], [-66.89229404399998, 10.461794053000176], [-66.89205503299996, 10.461023031000138], [-66.89205002799997, 10.460563015000105], [-66.89229804299998, 10.460143002000052], [-66.8923090379999, 10.459741000000179], [-66.89256504599996, 10.459358981000094], [-66.89258904899998, 10.45887997300008], [-66.89250103899997, 10.458109944000057], [-66.89251903599995, 10.457746943000132], [-66.89217201099996, 10.456956919000163], [-66.89220200899985, 10.456431910000106], [-66.89325404899995, 10.455513881000115], [-66.89333605699989, 10.455053863000046], [-66.89334005199993, 10.454755853000108], [-66.89356706399997, 10.454386843000123], [-66.8939160679999, 10.453972837000151], [-66.8944450919999, 10.453468815000178], [-66.89476410499998, 10.452853802], [-66.89560512999998, 10.451824770000144], [-66.89571813399988, 10.451636758000063], [-66.89570813899996, 10.451306749000025], [-66.89549612999991, 10.451015741000106], [-66.89490809199992, 10.450716741], [-66.89463708499989, 10.450386734000176], [-66.89477409099993, 10.449654710000175], [-66.89558611899997, 10.448560674000078], [-66.89632514099992, 10.448224665000055], [-66.89648914799983, 10.447946651000166], [-66.89605212899988, 10.446871626000132], [-66.89593711099997, 10.446301611000138], [-66.89612812199988, 10.445168579000153], [-66.89603910599988, 10.444255558], [-66.89608310499989, 10.443588539000189], [-66.8960221019999, 10.442571515000054], [-66.89573007699988, 10.441574488000072], [-66.89569107499995, 10.441295482000044], [-66.89581007299995, 10.440946469000039], [-66.89581507399998, 10.440751469000077], [-66.89569706599991, 10.440473457000166], [-66.89564106899991, 10.439994449000153], [-66.89579143899994, 10.439697722], [-66.89654009399993, 10.438220398], [-66.89681009999998, 10.437197364000099], [-66.89675810099988, 10.436958363000144], [-66.89645007999997, 10.436537348], [-66.89637606999997, 10.43562333400007], [-66.89715210199995, 10.434659294000085], [-66.89746510899994, 10.434213289000184], [-66.89797212899998, 10.434323285000062], [-66.89810813499992, 10.434291285000086], [-66.89818013999985, 10.434207277000041], [-66.89822214299994, 10.434123282000144], [-66.89830514499988, 10.433773264000138], [-66.89771011399995, 10.432763243000124], [-66.89814913199996, 10.431967219000171], [-66.89831412799992, 10.43109919300008], [-66.89937917599985, 10.430168166999977], [-66.89977018299987, 10.429546153000047], [-66.89968317499995, 10.42814111700011], [-66.90009118499995, 10.427151087000084], [-66.89997716299996, 10.42513003400012], [-66.8992941219999, 10.423322988], [-66.89820506699994, 10.422026950999964], [-66.89564094899998, 10.419718912000064], [-66.89647897199995, 10.41700683], [-66.89652796399992, 10.416857831000016], [-66.89619894399988, 10.41508278100008], [-66.89554790399984, 10.41354775200017], [-66.89566689599991, 10.412148710000054], [-66.89567689999996, 10.412032704000012], [-66.8957870139999, 10.411991096000122], [-66.89514287299988, 10.411166295000044], [-66.89506774499989, 10.410977640000112], [-66.894324, 10.409110000000169], [-66.89415878499995, 10.40889523900006], [-66.89344639399997, 10.407969209000157], [-66.89251, 10.406752], [-66.891693, 10.404527], [-66.89177132599991, 10.401449644000138], [-66.891776, 10.401266], [-66.89192899999989, 10.397545], [-66.892105, 10.394260000000145], [-66.89242299999984, 10.391963], [-66.89354999999989, 10.388743], [-66.894263, 10.386903000000189], [-66.894491, 10.385454], [-66.894417, 10.384008000000108], [-66.894616, 10.383008000000132], [-66.8950109999999, 10.380859000000157], [-66.895911, 10.379363000000183], [-66.894803, 10.37859600000013], [-66.89575899999988, 10.372275000000116], [-66.891543, 10.371015000000114], [-66.891234, 10.369972000000132], [-66.890491, 10.369322000000182], [-66.889922, 10.368758], [-66.889701, 10.367888], [-66.889088, 10.367194000000154], [-66.88808499999982, 10.367111], [-66.886427, 10.366639], [-66.88577, 10.365684000000101], [-66.88485, 10.364599], [-66.88415, 10.363862000000154], [-66.883451, 10.363386], [-66.882405, 10.36339], [-66.880834, 10.362787], [-66.88013499999988, 10.362311], [-66.878042, 10.362233], [-66.877122, 10.360799], [-66.875508, 10.360588000000178], [-66.874114, 10.360725000000116], [-66.872325, 10.359949], [-66.871277, 10.359518], [-66.870011, 10.358913000000143], [-66.868658, 10.358483], [-66.867306, 10.3580970000001], [-66.866519, 10.35736], [-66.865294, 10.35619], [-66.864901, 10.355886000000112], [-66.864203, 10.355759], [-66.862897, 10.356112], [-66.862026, 10.356203], [-66.86115399999989, 10.356207], [-66.859933, 10.35599400000018], [-66.858632, 10.356500000000153], [-66.857357, 10.356321], [-66.8565789999999, 10.356225000000109], [-66.855968, 10.356694], [-66.855012, 10.356929], [-66.853269, 10.356718], [-66.852092, 10.356723000000102], [-66.85056699999984, 10.356773], [-66.849085, 10.356561], [-66.848125, 10.35626000000019], [-66.847163, 10.355611000000124], [-66.84607299999988, 10.355224], [-66.845375, 10.355226], [-66.844544, 10.354446], [-66.84432399999986, 10.353837], [-66.843974, 10.353403], [-66.843406, 10.3531440000001], [-66.842882, 10.352798], [-66.842139, 10.352104], [-66.841004, 10.35163], [-66.840131, 10.351198], [-66.839475, 10.350591], [-66.838339, 10.349986000000115], [-66.83712, 10.35007800000011], [-66.836376, 10.349341], [-66.83524199999988, 10.349085000000173], [-66.83454199999989, 10.348217], [-66.833669, 10.347828000000106], [-66.832926, 10.347352000000114], [-66.83253, 10.346396], [-66.832005, 10.345701000000133], [-66.831349, 10.345312], [-66.830649, 10.344488000000126], [-66.82995099999988, 10.344316000000106], [-66.829122, 10.343884], [-66.827855, 10.343106], [-66.82694, 10.343196], [-66.82559, 10.343202000000133], [-66.825065, 10.342638], [-66.824731, 10.341094000000169], [-66.82166299999989, 10.341824000000145], [-66.820384, 10.342042], [-66.81916, 10.34347], [-66.81816599999985, 10.344301], [-66.817562, 10.34389], [-66.816746, 10.343803], [-66.816311, 10.344023], [-66.816445, 10.344719], [-66.81649, 10.345198], [-66.816361, 10.345634], [-66.81592499999988, 10.345635000000186], [-66.815271, 10.345464], [-66.814355, 10.345163], [-66.813788, 10.34516500000018], [-66.813372, 10.345513], [-66.81287599999985, 10.34590900000012], [-66.81187399999988, 10.34591300000011], [-66.811088, 10.345568000000128], [-66.810825, 10.345133], [-66.809863, 10.344136000000162], [-66.80912, 10.343572], [-66.80837499999984, 10.3424], [-66.807764, 10.342141], [-66.806239, 10.342191000000128], [-66.80475899999988, 10.342588000000148], [-66.803452, 10.342768], [-66.802186, 10.342207], [-66.801751, 10.342339000000152], [-66.801642, 10.343031], [-66.80083999999988, 10.343518000000188], [-66.800319, 10.343869], [-66.799098, 10.343612000000121], [-66.79875, 10.343918], [-66.798666, 10.344746000000157], [-66.798187, 10.344835], [-66.79779599999983, 10.344924000000162], [-66.797535, 10.345229000000131], [-66.796445, 10.3450160000001], [-66.795792, 10.345062], [-66.795793, 10.345541], [-66.795903, 10.346152000000131], [-66.795535, 10.346456], [-66.794881, 10.346285000000137], [-66.794532, 10.346286], [-66.794579, 10.347026], [-66.79506, 10.347634], [-66.795193, 10.348199], [-66.79467099999988, 10.348288000000139], [-66.793582, 10.348423], [-66.79306, 10.348817], [-66.792408, 10.349299], [-66.791883, 10.348735], [-66.791272, 10.348302], [-66.790672, 10.34833], [-66.79009599999989, 10.348568], [-66.788746, 10.348573000000101], [-66.788355, 10.34901], [-66.78818299999989, 10.349751], [-66.78766, 10.349622000000181], [-66.786829, 10.34871100000015], [-66.785693, 10.347845], [-66.785086, 10.347387], [-66.784438, 10.347825], [-66.783691, 10.348462000000154], [-66.782863, 10.348509], [-66.782337, 10.347771], [-66.78168199999988, 10.347381], [-66.781147, 10.347401000000104], [-66.780314, 10.347909], [-66.779682, 10.348434000000111], [-66.77894, 10.348306], [-66.778633, 10.347741000000156], [-66.778067, 10.347744], [-66.776716, 10.347749000000135], [-66.776148, 10.347359], [-66.774623, 10.347322000000133], [-66.772341, 10.347066], [-66.771207, 10.347552000000178], [-66.77066, 10.347990000000152], [-66.770099, 10.349342], [-66.76918999999987, 10.35100000000017], [-66.767665, 10.351180000000113], [-66.767512, 10.35261800000012], [-66.767422, 10.353950000000168], [-66.76724, 10.355351], [-66.766689, 10.357282000000168], [-66.765952, 10.359421], [-66.765377, 10.361329000000183], [-66.764782, 10.364133], [-66.76418699999988, 10.36614], [-66.764333, 10.367772], [-66.76689799999986, 10.367093000000125], [-66.76839599999988, 10.366709000000185], [-66.76883, 10.366623000000175], [-66.76961199999988, 10.366709000000185], [-66.774128, 10.366922], [-66.776169, 10.366794], [-66.777081, 10.366559], [-66.77784, 10.366089], [-66.77988099999982, 10.364594000000125], [-66.780901, 10.363996], [-66.782139, 10.363719], [-66.784245, 10.363633], [-66.78613299999984, 10.363398000000132], [-66.788912, 10.363291000000174], [-66.789845, 10.363141], [-66.791408, 10.362735000000157], [-66.792624, 10.362714], [-66.793493, 10.362586], [-66.794209, 10.362735000000157], [-66.795815, 10.36324800000017], [-66.797314, 10.364038000000164], [-66.798074, 10.364337], [-66.798421, 10.364401000000157], [-66.79892099999984, 10.364294], [-66.80009299999989, 10.36344], [-66.801743, 10.362287], [-66.804413, 10.360813000000121], [-66.80504299999984, 10.360408000000177], [-66.806779, 10.358635], [-66.807691, 10.357888], [-66.808798, 10.357418], [-66.810579, 10.356948000000102], [-66.811924, 10.356948000000102], [-66.813118, 10.357161000000133], [-66.815398, 10.357717], [-66.816657, 10.357717], [-66.817612, 10.357546000000184], [-66.818263, 10.357375], [-66.81882799999988, 10.357418], [-66.819392, 10.357396], [-66.819741, 10.357183000000134], [-66.82013099999989, 10.356692], [-66.820739, 10.355859], [-66.820978, 10.355795], [-66.8219979999999, 10.355538000000138], [-66.822433, 10.355538000000138], [-66.822975, 10.355624000000148], [-66.823388, 10.355837000000179], [-66.824017, 10.356692], [-66.82456, 10.357674], [-66.824755, 10.358763000000124], [-66.824973, 10.359681], [-66.825233, 10.360536000000138], [-66.825602, 10.361176000000114], [-66.825971, 10.361433], [-66.826536, 10.361561], [-66.82729499999988, 10.361539000000164], [-66.8287069999999, 10.361433], [-66.829184, 10.361475], [-66.830422, 10.361817], [-66.831355, 10.361881], [-66.832115, 10.361796], [-66.832983, 10.361603000000116], [-66.83337399999988, 10.361689000000126], [-66.83461099999982, 10.36233], [-66.834959, 10.36265], [-66.835632, 10.363461], [-66.835719, 10.36376], [-66.835849, 10.364316], [-66.83649999999989, 10.365127], [-66.839387, 10.368117000000154], [-66.83999499999987, 10.368950000000154], [-66.840516, 10.370060000000137], [-66.84056, 10.370594], [-66.840429, 10.371214], [-66.839843, 10.372623], [-66.838931, 10.374098000000117], [-66.837542, 10.375699], [-66.834307, 10.378625], [-66.833938, 10.379202], [-66.833808, 10.379629], [-66.833569, 10.380846000000133], [-66.833526, 10.38311], [-66.833569, 10.383793], [-66.83387299999987, 10.384199], [-66.83419899999984, 10.38464800000014], [-66.83461099999982, 10.385203], [-66.835132, 10.385908], [-66.843403, 10.385576000000185], [-66.844626, 10.385702], [-66.8464029999999, 10.388026], [-66.849046, 10.390421000000117], [-66.8492399999999, 10.391962], [-66.849509, 10.393389], [-66.850493, 10.394880000000114], [-66.850807, 10.398144000000173], [-66.850548, 10.399428], [-66.847892, 10.4022930000001], [-66.84744499999988, 10.404488000000185], [-66.847787, 10.405577], [-66.84877299999988, 10.407415], [-66.84911599999987, 10.408504000000107], [-66.850098, 10.409628], [-66.84998999999988, 10.410869], [-66.8487889999999, 10.41169100000019], [-66.84822999999983, 10.41243100000014], [-66.848008, 10.413653000000181], [-66.848461, 10.414474], [-66.8490809999999, 10.415215000000103], [-66.85027699999989, 10.41633800000011], [-66.851497, 10.416723000000161], [-66.850931, 10.417517000000146], [-66.850398, 10.418092000000115], [-66.849947, 10.418704000000105], [-66.849514, 10.419368000000134], [-66.848958, 10.419963000000166], [-66.848644, 10.420156000000134], [-66.848019, 10.420803], [-66.847551, 10.421484], [-66.847587, 10.421972000000153], [-66.84744999999987, 10.422443], [-66.84757499999989, 10.423279], [-66.848013, 10.4238], [-66.84811999999988, 10.424479], [-66.847832, 10.425194], [-66.84789499999982, 10.425277], [-66.847925, 10.425539], [-66.84797, 10.42573], [-66.84802499999984, 10.425883], [-66.848098, 10.426108], [-66.848171, 10.426313000000107], [-66.848217, 10.42641], [-66.848444, 10.426815], [-66.848459, 10.426891000000182], [-66.8485, 10.427035], [-66.848506, 10.427139], [-66.8484959999999, 10.427239], [-66.848469, 10.427354], [-66.84843599999982, 10.427439], [-66.8484069999999, 10.427537000000143], [-66.848371, 10.427616000000114], [-66.848327, 10.427724000000183], [-66.848292, 10.42777], [-66.84822999999983, 10.427827], [-66.848186, 10.427884], [-66.848128, 10.427938], [-66.848049, 10.428035000000136], [-66.847977, 10.428077], [-66.847915, 10.42812], [-66.84782799999988, 10.428177000000176], [-66.847703, 10.428268], [-66.84761999999989, 10.42836], [-66.847539, 10.428434], [-66.847437, 10.428523], [-66.847343, 10.428605], [-66.84725, 10.428679000000159], [-66.847183, 10.428756000000135], [-66.8471239999999, 10.428833000000111], [-66.84707199999986, 10.428927], [-66.847004, 10.429047], [-66.846962, 10.429148], [-66.846883, 10.429222000000152], [-66.846758, 10.429307], [-66.846624, 10.429436], [-66.846476, 10.429576000000111], [-66.8462889999999, 10.429721], [-66.846102, 10.429809], [-66.84602299999983, 10.429864000000123], [-66.8459969999999, 10.429916000000162], [-66.845922, 10.43002300000012], [-66.845847, 10.43011300000012], [-66.84577699999988, 10.43019900000013], [-66.845702, 10.430267], [-66.845628, 10.430353], [-66.845565, 10.430484], [-66.845503, 10.430538000000126], [-66.845511, 10.430782], [-66.845958, 10.432231], [-66.845884, 10.432243000000142], [-66.845833, 10.432318000000123], [-66.845796, 10.432361000000128], [-66.845739, 10.432428000000186], [-66.845646, 10.432495], [-66.84552699999989, 10.432568], [-66.845402, 10.432647], [-66.845308, 10.432733], [-66.845176, 10.432883000000174], [-66.845006, 10.433044000000166], [-66.844928, 10.433092], [-66.844862, 10.43315], [-66.84479, 10.433233], [-66.844749, 10.433347], [-66.844714, 10.433420000000183], [-66.84469199999984, 10.4335], [-66.844688, 10.433553000000188], [-66.84469999999988, 10.43359], [-66.844756, 10.433704], [-66.844796, 10.433781], [-66.844839, 10.43388], [-66.84485599999982, 10.433991], [-66.844862, 10.434126000000163], [-66.844883, 10.434234], [-66.844869, 10.434392000000173], [-66.844867, 10.434597], [-66.844877, 10.434715], [-66.844881, 10.434818], [-66.84490099999988, 10.434926], [-66.844964, 10.435046], [-66.844995, 10.435103], [-66.845057, 10.435155], [-66.845186, 10.435217], [-66.84528499999988, 10.435285000000135], [-66.84541399999989, 10.435383], [-66.84553199999988, 10.435497000000112], [-66.845797, 10.435665000000142], [-66.845886, 10.435953000000154], [-66.845974, 10.436149], [-66.846065, 10.436351], [-66.846194, 10.436641], [-66.846333, 10.43695300000013], [-66.84636099999989, 10.437031], [-66.84636599999988, 10.43709100000018], [-66.84636199999989, 10.437143], [-66.846352, 10.437187000000108], [-66.846327, 10.437250000000176], [-66.846304, 10.437288000000137], [-66.846268, 10.437338000000182], [-66.846172, 10.437431], [-66.84604, 10.43757], [-66.84591099999989, 10.437720000000184], [-66.845801, 10.437852], [-66.845622, 10.438144], [-66.845409, 10.43849500000016], [-66.845291, 10.438627], [-66.845229, 10.438644], [-66.845089, 10.438800000000185], [-66.845016, 10.439158000000134], [-66.8451, 10.439181], [-66.845144, 10.43924600000014], [-66.845168, 10.439372000000105], [-66.845172, 10.439499000000126], [-66.84519999999986, 10.43968000000018], [-66.845268, 10.439836000000128], [-66.84536, 10.44001900000012], [-66.84538, 10.440179], [-66.845343, 10.44025], [-66.845154, 10.440470000000175], [-66.84498699999989, 10.44064400000019], [-66.844798, 10.440925000000163], [-66.844686, 10.441210000000126], [-66.844638, 10.441405], [-66.844636, 10.44173400000011], [-66.844566, 10.442088], [-66.844476, 10.442344000000162], [-66.84440699999988, 10.44242], [-66.84427199999982, 10.442569000000105], [-66.844021, 10.442865], [-66.843947, 10.442957], [-66.84361299999989, 10.443128000000172], [-66.843393, 10.443322], [-66.843314, 10.44350100000014], [-66.843282, 10.44358300000016], [-66.843229, 10.443763000000104], [-66.843264, 10.443943000000104], [-66.84327899999988, 10.444071], [-66.843262, 10.444266], [-66.843109, 10.444563], [-66.843019, 10.444766000000186], [-66.842928, 10.445187], [-66.842936, 10.445557], [-66.842969, 10.445973], [-66.843061, 10.446323], [-66.84319799999986, 10.446663000000115], [-66.843317, 10.446823], [-66.843388, 10.446998000000121], [-66.843346, 10.447151000000133], [-66.843345, 10.447289000000183], [-66.84332599999988, 10.447379000000183], [-66.843305, 10.447441], [-66.843282, 10.447487], [-66.843246, 10.447533000000135], [-66.843192, 10.447586], [-66.843148, 10.447619000000145], [-66.843091, 10.447655000000111], [-66.843025, 10.447739000000126], [-66.84291, 10.447836000000166], [-66.84254, 10.448034], [-66.842134, 10.448201000000154], [-66.841884, 10.44828600000011], [-66.841759, 10.448388], [-66.841636, 10.448558], [-66.841645, 10.448562], [-66.841685, 10.448563], [-66.841734, 10.448569], [-66.84183399999989, 10.448602000000108], [-66.841932, 10.448634], [-66.842049, 10.448657], [-66.842186, 10.448692000000108], [-66.842234, 10.448711], [-66.842326, 10.448757000000171], [-66.84240899999986, 10.448797], [-66.84259, 10.448856], [-66.84299299999986, 10.448924], [-66.84327699999989, 10.44898400000011], [-66.843354, 10.448941000000104], [-66.84349099999986, 10.448891], [-66.843629, 10.448916000000168], [-66.843707, 10.448974], [-66.84376, 10.449069], [-66.844006, 10.449123], [-66.844141, 10.449172], [-66.844337, 10.44929100000013], [-66.844408, 10.449356], [-66.844516, 10.449436], [-66.844644, 10.449477], [-66.84469999999988, 10.449516], [-66.844765, 10.449564000000123], [-66.84482899999989, 10.449632], [-66.844875, 10.449713], [-66.84490099999988, 10.449773], [-66.84490799999986, 10.449788000000183], [-66.844934, 10.44984], [-66.844939, 10.44985], [-66.84498799999989, 10.449891], [-66.84503299999989, 10.449901000000125], [-66.845084, 10.449915], [-66.845139, 10.449928], [-66.84515699999986, 10.449933000000101], [-66.845189, 10.449942000000135], [-66.845227, 10.44995100000017], [-66.845314, 10.449975], [-66.845349, 10.44999], [-66.845379, 10.450005], [-66.845428, 10.450026], [-66.845467, 10.45003800000012], [-66.845538, 10.450056000000188], [-66.845565, 10.450059], [-66.845601, 10.450061], [-66.845632, 10.450062000000116], [-66.8458, 10.45005], [-66.845842, 10.450046], [-66.845902, 10.45004500000016], [-66.845979, 10.45004100000017], [-66.84602799999988, 10.45003000000014], [-66.8461, 10.450016], [-66.846129, 10.450012], [-66.846181, 10.45002], [-66.846207, 10.45003000000014], [-66.846224, 10.450036000000125], [-66.846309, 10.450072], [-66.84632499999987, 10.450080000000185], [-66.84636599999988, 10.450103000000126], [-66.84640799999988, 10.450115], [-66.846426, 10.45012000000014], [-66.846511, 10.45014], [-66.8465819999999, 10.450158000000101], [-66.84662, 10.450171], [-66.846637, 10.450177], [-66.84669, 10.450200000000166], [-66.8467399999999, 10.450229], [-66.846765, 10.450256], [-66.846791, 10.450287000000117], [-66.846818, 10.450306], [-66.84685799999988, 10.450325], [-66.846887, 10.450351], [-66.84690599999988, 10.450378000000171], [-66.846927, 10.450404], [-66.846964, 10.450426], [-66.847012, 10.450454], [-66.847099, 10.450502000000142], [-66.847147, 10.450527], [-66.847173, 10.450538], [-66.847255, 10.450578000000178], [-66.84728499999989, 10.450593], [-66.847337, 10.45060500000011], [-66.847377, 10.450606], [-66.847436, 10.45061], [-66.847467, 10.450619], [-66.847519, 10.450633], [-66.84757499999989, 10.450626], [-66.847595, 10.450623000000178], [-66.847679, 10.450593], [-66.847845, 10.450558000000115], [-66.848004, 10.450683], [-66.848047, 10.450718], [-66.84807299999989, 10.450744], [-66.848083, 10.450758000000178], [-66.848095, 10.450774], [-66.84811699999989, 10.450802], [-66.848136, 10.45082900000017], [-66.848386, 10.45086700000013], [-66.848486, 10.450921000000164], [-66.84853, 10.45087100000012], [-66.848588, 10.45083300000016], [-66.84868, 10.450778], [-66.84872799999982, 10.45075], [-66.848777, 10.450719000000106], [-66.848883, 10.450669], [-66.84897699999982, 10.450648000000115], [-66.849103, 10.450645], [-66.849207, 10.450655000000154], [-66.84933099999989, 10.450659000000144], [-66.849381, 10.450614000000144], [-66.849394, 10.450517000000104], [-66.849302, 10.450436], [-66.84919, 10.450364], [-66.84910999999988, 10.450295], [-66.84907199999986, 10.450207], [-66.849113, 10.450105000000121], [-66.84924399999989, 10.45007900000013], [-66.849394, 10.450084000000174], [-66.84956299999988, 10.45012400000013], [-66.84969399999989, 10.450167000000135], [-66.84981899999985, 10.450219000000175], [-66.849931, 10.45025], [-66.85003199999989, 10.45025], [-66.85011899999989, 10.450195000000122], [-66.850202, 10.450096], [-66.850245, 10.449972000000116], [-66.85032699999988, 10.449739], [-66.850461, 10.449593], [-66.850683, 10.449467], [-66.85093499999982, 10.449394], [-66.851133, 10.449386000000175], [-66.851242, 10.449446000000137], [-66.851303, 10.449560000000133], [-66.851305, 10.449696], [-66.85131499999989, 10.449812], [-66.851351, 10.44990300000012], [-66.851457, 10.44990300000012], [-66.851569, 10.449860000000115], [-66.851661, 10.449815000000115], [-66.851762, 10.449748], [-66.85185399999983, 10.449667000000147], [-66.852004, 10.449555], [-66.852166, 10.449432], [-66.852268, 10.449348], [-66.852336, 10.449284], [-66.852387, 10.449225000000126], [-66.85243, 10.449168], [-66.852449, 10.449089], [-66.852435, 10.448975], [-66.852401, 10.448911000000123], [-66.852365, 10.448856], [-66.852329, 10.448813], [-66.852297, 10.448780000000113], [-66.852261, 10.448749], [-66.852217, 10.448723], [-66.852166, 10.448692000000108], [-66.852125, 10.448654000000147], [-66.852089, 10.448613000000137], [-66.852058, 10.44855100000018], [-66.852058, 10.44845400000014], [-66.852048, 10.448359], [-66.852043, 10.44826300000011], [-66.852053, 10.448173000000168], [-66.852108, 10.448092], [-66.852224, 10.448023], [-66.852428, 10.447949000000108], [-66.852638, 10.447892], [-66.852747, 10.447856], [-66.852795, 10.447811], [-66.85282199999989, 10.447745000000111], [-66.8528199999999, 10.447685], [-66.852791, 10.447633], [-66.852747, 10.447566], [-66.852682, 10.447485], [-66.852629, 10.44740000000013], [-66.852585, 10.447323000000154], [-66.852544, 10.447235], [-66.8525, 10.447126], [-66.852469, 10.447047], [-66.852452, 10.446983000000102], [-66.85244699999987, 10.446909], [-66.852452, 10.446855], [-66.852479, 10.446755], [-66.852522, 10.446622], [-66.852544, 10.44652200000013], [-66.852607, 10.446393000000114], [-66.852672, 10.446255], [-66.85272999999984, 10.44612700000016], [-66.85277599999989, 10.445991000000106], [-66.852798, 10.445879], [-66.852805, 10.445784], [-66.852803, 10.445715000000177], [-66.852788, 10.44564400000013], [-66.852766, 10.445536000000118], [-66.85272999999984, 10.445441], [-66.852699, 10.445379], [-66.852665, 10.44532], [-66.852595, 10.44525300000015], [-66.852493, 10.445187], [-66.852365, 10.44512500000019], [-66.8522339999999, 10.4450700000001], [-66.852162, 10.445042], [-66.852096, 10.445013000000188], [-66.852041, 10.444973], [-66.8519869999999, 10.444908], [-66.851963, 10.444818], [-66.851961, 10.444735], [-66.85199199999988, 10.444604], [-66.8520769999999, 10.444361], [-66.85221, 10.443997000000138], [-66.85227, 10.443907000000138], [-66.852338, 10.443857], [-66.852435, 10.443819000000133], [-66.852638, 10.443754], [-66.852788, 10.443711], [-66.852933, 10.44362800000016], [-66.853122, 10.443526], [-66.853224, 10.443533000000116], [-66.853369, 10.443635], [-66.85347799999982, 10.443769], [-66.853599, 10.443933000000186], [-66.853681, 10.444137000000183], [-66.85377799999986, 10.444363], [-66.85385799999989, 10.444492], [-66.854, 10.444635000000176], [-66.85415299999988, 10.444773], [-66.85435399999983, 10.444961000000148], [-66.85448199999985, 10.445127000000184], [-66.854591, 10.445287000000121], [-66.854632, 10.445389], [-66.8547, 10.445608], [-66.854763, 10.445791], [-66.854845, 10.445915000000184], [-66.854978, 10.445967], [-66.855104, 10.445929], [-66.855176, 10.445843], [-66.855203, 10.445722], [-66.855227, 10.445598], [-66.855256, 10.445437], [-66.855334, 10.445318], [-66.855474, 10.445191], [-66.855648, 10.44507700000014], [-66.85602299999988, 10.444858000000124], [-66.85626799999983, 10.444716], [-66.856601, 10.444731000000104], [-66.856618, 10.444775], [-66.856598, 10.44481500000012], [-66.856588, 10.4448450000001], [-66.856582, 10.44490900000011], [-66.856577, 10.444923000000188], [-66.856755, 10.445189], [-66.85695, 10.445454], [-66.857714, 10.445431], [-66.857707, 10.445450000000108], [-66.857707, 10.445472000000109], [-66.857712, 10.445489000000123], [-66.857716, 10.445500000000152], [-66.85772799999984, 10.445512], [-66.857744, 10.445518], [-66.85773199999988, 10.445622000000128], [-66.85773199999988, 10.445818], [-66.857783, 10.446036000000106], [-66.857827, 10.446157000000142], [-66.857861, 10.446207000000186], [-66.857974, 10.446287], [-66.85818399999982, 10.44613800000019], [-66.858108, 10.445908000000145], [-66.858102, 10.445792000000154], [-66.858102, 10.445760000000178], [-66.85815899999989, 10.445548], [-66.858209, 10.445358000000112], [-66.85826899999984, 10.445247000000165], [-66.85831599999989, 10.44523], [-66.858348, 10.445234], [-66.858452, 10.445307000000184], [-66.858498, 10.445442000000128], [-66.858585, 10.445721000000106], [-66.858693, 10.446068], [-66.858783, 10.446140000000185], [-66.85888, 10.446128], [-66.859305, 10.445924], [-66.859371, 10.445902], [-66.859479, 10.445886], [-66.85955799999982, 10.4459], [-66.859657, 10.445938000000126], [-66.859749, 10.446015000000102], [-66.859965, 10.446343], [-66.860014, 10.446417000000167], [-66.860245, 10.446695], [-66.860267, 10.446719], [-66.861432, 10.446679000000188], [-66.862466, 10.446682], [-66.862429, 10.446875], [-66.862361, 10.447144], [-66.862388, 10.447292], [-66.86235799999986, 10.447455], [-66.8623199999999, 10.447589000000164], [-66.862288, 10.447675000000174], [-66.862248, 10.447756], [-66.862201, 10.447832000000176], [-66.862157, 10.447893], [-66.862085, 10.447965000000181], [-66.86193, 10.448101], [-66.86181699999986, 10.4482], [-66.86177, 10.448258], [-66.86172999999985, 10.448336000000154], [-66.861706, 10.448397], [-66.86169499999988, 10.448498], [-66.861698, 10.448588], [-66.86171, 10.448694000000103], [-66.861743, 10.448793000000137], [-66.861793, 10.448876], [-66.862025, 10.449162000000115], [-66.862092, 10.44924900000018], [-66.862127, 10.44929800000017], [-66.86214499999988, 10.44933500000019], [-66.86216, 10.449393], [-66.86216, 10.449451], [-66.862149, 10.449506000000156], [-66.862128, 10.449555], [-66.862096, 10.449607000000128], [-66.862044, 10.449671], [-66.861963, 10.449752], [-66.861741, 10.449938], [-66.861668, 10.450022], [-66.861616, 10.4501], [-66.861584, 10.450169], [-66.86156099999988, 10.450245000000166], [-66.861553, 10.450328000000127], [-66.861553, 10.450456], [-66.86156799999986, 10.450586000000158], [-66.861595, 10.450756000000183], [-66.861622, 10.450866], [-66.86164799999989, 10.450932], [-66.861684, 10.450987000000111], [-66.861722, 10.451036], [-66.861778, 10.451085], [-66.86185099999983, 10.451140000000123], [-66.86194399999988, 10.451206000000127], [-66.862, 10.451255], [-66.862038, 10.451307], [-66.86210299999988, 10.451409], [-66.862173, 10.451498000000129], [-66.862667, 10.452332000000183], [-66.86290799999989, 10.452641], [-66.863005, 10.452742000000171], [-66.863057, 10.452782000000127], [-66.86311299999988, 10.452817], [-66.86318, 10.452843], [-66.863335, 10.452894000000128], [-66.863514, 10.452929], [-66.863748, 10.452945000000113], [-66.86416, 10.452950000000158], [-66.86448399999989, 10.452923], [-66.864709, 10.452888], [-66.864872, 10.452876], [-66.86498599999987, 10.452876], [-66.8650679999999, 10.452887], [-66.865129, 10.45291], [-66.865254, 10.452982000000134], [-66.8653159999999, 10.453035000000114], [-66.865372, 10.453068000000144], [-66.865437, 10.453092], [-66.86551, 10.453117000000134], [-66.86572299999983, 10.453160000000139], [-66.865791, 10.45318], [-66.865838, 10.453206], [-66.86586099999988, 10.453226], [-66.86685699999987, 10.452954000000148], [-66.867929, 10.452769000000103], [-66.8690309999999, 10.452744000000166], [-66.869095, 10.452776000000142], [-66.869165, 10.452825000000132], [-66.869257, 10.452881000000161], [-66.869335, 10.452939000000129], [-66.869419, 10.452986000000124], [-66.869523, 10.453028], [-66.86961, 10.453056], [-66.86964199999989, 10.453066], [-66.869756, 10.453091], [-66.869927, 10.453112], [-66.870047, 10.453132], [-66.870154, 10.453161], [-66.870242, 10.45319700000016], [-66.870408, 10.453297], [-66.8704469999999, 10.453329], [-66.87056299999989, 10.453429], [-66.87068099999988, 10.453521], [-66.87076999999988, 10.453586], [-66.870828, 10.453696], [-66.87085999999988, 10.453756], [-66.870819, 10.454805], [-66.87063499999982, 10.454956], [-66.868586, 10.456703000000175], [-66.868303, 10.456895], [-66.867925, 10.457076000000143], [-66.86722599999985, 10.457405000000165], [-66.866884, 10.457584], [-66.866783, 10.457656000000156], [-66.86655599999983, 10.457882], [-66.866285, 10.45823300000012], [-66.86610599999989, 10.458575000000167], [-66.865986, 10.45888], [-66.865937, 10.459004000000164], [-66.86576799999989, 10.459363000000167], [-66.865541, 10.459712], [-66.865326, 10.460004], [-66.865266, 10.460069000000146], [-66.865046, 10.460375], [-66.864941, 10.460534], [-66.864886, 10.46063800000013], [-66.864765, 10.46095], [-66.86466, 10.461234000000104], [-66.864544, 10.461546000000169], [-66.864285, 10.462339], [-66.864122, 10.462805], [-66.86398799999989, 10.463097], [-66.86385099999984, 10.463357], [-66.863754, 10.463534000000152], [-66.863675, 10.463659000000177], [-66.86356399999988, 10.46381], [-66.863414, 10.463986], [-66.863242, 10.464193000000137], [-66.86302199999989, 10.464416], [-66.86278, 10.464670000000183], [-66.862547, 10.46491900000018], [-66.86239499999988, 10.465127000000166], [-66.862242, 10.465359000000149], [-66.86207, 10.465643], [-66.861874, 10.466053], [-66.861763, 10.46642], [-66.861668, 10.466779], [-66.861632, 10.466934], [-66.861573, 10.46725], [-66.8614869999999, 10.467639000000133], [-66.86126599999983, 10.468650000000139], [-66.861144, 10.469198000000176], [-66.86111199999988, 10.469432], [-66.861071, 10.46964800000012], [-66.86102099999988, 10.470033000000171], [-66.860997, 10.47024], [-66.8609909999999, 10.470461], [-66.860973, 10.470682], [-66.860951, 10.471205000000168], [-66.86093099999982, 10.471638], [-66.860889, 10.47205300000013], [-66.860839, 10.472329], [-66.860776, 10.472537], [-66.86072699999988, 10.472696], [-66.860625, 10.472895], [-66.860532, 10.473054], [-66.86039999999986, 10.473257000000103], [-66.860245, 10.473438000000158], [-66.859919, 10.473782], [-66.859541, 10.474177], [-66.859364, 10.474392], [-66.859206, 10.474586000000102], [-66.859077, 10.47478000000018], [-66.858932, 10.475013000000104], [-66.858772, 10.475297000000126], [-66.858634, 10.475634000000127], [-66.858389, 10.47629], [-66.858247, 10.476644], [-66.85806, 10.477093], [-66.85789199999982, 10.477390000000128], [-66.857724, 10.477623], [-66.857539, 10.477825], [-66.857342, 10.477983000000165], [-66.857201, 10.478078], [-66.857039, 10.478154000000131], [-66.85678, 10.478270000000123], [-66.856434, 10.47838400000012], [-66.856101, 10.478473], [-66.855592, 10.478663], [-66.854803, 10.478959], [-66.854349, 10.47927], [-66.854033, 10.479643], [-66.853829, 10.48000900000011], [-66.853706, 10.480436000000111], [-66.853661, 10.480985], [-66.853739, 10.481438], [-66.853925, 10.4818810000001], [-66.854094, 10.482148000000166], [-66.854393, 10.482158], [-66.854638, 10.48219100000017], [-66.855037, 10.482348], [-66.855582, 10.482586], [-66.856509, 10.48302], [-66.85781, 10.483683000000156], [-66.861633, 10.48551], [-66.86194199999989, 10.485649000000137], [-66.86236353199996, 10.48580399600013], [-66.863106, 10.486077], [-66.864515, 10.486514000000113], [-66.86581799999988, 10.486862000000144], [-66.86693237299988, 10.48713473200013], [-66.867244, 10.487211], [-66.86834984499984, 10.487389088000043], [-66.86891726999988, 10.487480467000069], [-66.8689991839999, 10.487509870000054], [-66.86949020399987, 10.487612866000063], [-66.87048424599988, 10.487677864000148], [-66.87152428799993, 10.487519859000088], [-66.87279034999989, 10.487317840000173], [-66.87361737999993, 10.487338837000038]]]}}, {"type": "Feature", "properties": {"Pais": "Venezuela", "Estado": "Miranda", "Municipio": "Baruta", "Parroquia": "El Cafetal"}, "geometry": {"type": "Polygon", "coordinates": [[[-66.8498709999999, 10.456302], [-66.849624, 10.456324000000109], [-66.849524, 10.456328], [-66.849464, 10.456365000000119], [-66.849434, 10.456407], [-66.849371, 10.456523], [-66.849317, 10.456621000000155], [-66.849221, 10.45666400000016], [-66.848962, 10.45665], [-66.848837, 10.456579], [-66.84852, 10.456218], [-66.848433, 10.456104], [-66.848299, 10.455973], [-66.848176, 10.4559], [-66.84798599999988, 10.455832], [-66.84778199999988, 10.455825000000175], [-66.847357, 10.455788000000155], [-66.84723999999989, 10.455776], [-66.847116, 10.455765], [-66.846961, 10.45575], [-66.84690399999988, 10.45574500000015], [-66.8468, 10.455931], [-66.84670099999988, 10.456091000000185], [-66.846599, 10.456246], [-66.84649699999989, 10.456318000000124], [-66.846391, 10.456345], [-66.846169, 10.456371], [-66.845625, 10.456376000000148], [-66.845173, 10.456373], [-66.84511399999985, 10.456313], [-66.84503599999988, 10.456253], [-66.844939, 10.456289], [-66.844846, 10.456403], [-66.844798, 10.45659], [-66.844728, 10.456781], [-66.84463, 10.456899], [-66.84448699999984, 10.456939], [-66.84435799999983, 10.456901], [-66.844082, 10.456763], [-66.843884, 10.456775000000107], [-66.843759, 10.456861000000117], [-66.843652, 10.457029000000148], [-66.843564, 10.457101], [-66.8434079999999, 10.457154], [-66.8431619999999, 10.457108000000119], [-66.842955, 10.457075], [-66.84273, 10.456973000000119], [-66.84261499999985, 10.45689], [-66.84248599999984, 10.456857000000127], [-66.84232899999989, 10.456911000000161], [-66.842086, 10.457058], [-66.841835, 10.457335], [-66.841756, 10.457476], [-66.84169899999989, 10.457683], [-66.841645, 10.457854], [-66.8415399999999, 10.457945000000109], [-66.841378, 10.458042000000148], [-66.841213, 10.458022], [-66.841086, 10.457958], [-66.840994, 10.457966], [-66.840921, 10.458107], [-66.840838, 10.458241], [-66.84072, 10.458300000000179], [-66.840551, 10.458273], [-66.84044399999988, 10.458168], [-66.840341, 10.458067], [-66.840231, 10.458], [-66.84011599999985, 10.457972], [-66.8399189999999, 10.457984000000124], [-66.83974599999988, 10.458021], [-66.839533, 10.458120000000179], [-66.839376, 10.45817], [-66.83931899999988, 10.458194000000105], [-66.839231, 10.458210000000179], [-66.839143, 10.458186000000126], [-66.839046, 10.458008000000177], [-66.839007, 10.457916000000182], [-66.838934, 10.457852], [-66.838858, 10.457837], [-66.838738, 10.457869000000187], [-66.838453, 10.458033000000114], [-66.838289, 10.458087], [-66.838155, 10.458049000000187], [-66.838022, 10.457980000000134], [-66.8378699999999, 10.457931], [-66.837757, 10.457921], [-66.8376229999999, 10.457957], [-66.83728799999989, 10.45815800000014], [-66.83703299999985, 10.45833400000015], [-66.83674099999985, 10.458590000000186], [-66.83653399999986, 10.458734], [-66.836419, 10.458791], [-66.83628499999986, 10.458822000000168], [-66.83613, 10.458812], [-66.835939, 10.458758], [-66.83576, 10.458763], [-66.835441, 10.458859], [-66.835268, 10.458883], [-66.83512699999989, 10.458928], [-66.834918, 10.45906600000012], [-66.834772, 10.45917400000019], [-66.83461999999986, 10.45925300000016], [-66.83453399999985, 10.459262], [-66.834463, 10.459248], [-66.834325, 10.459192], [-66.83424899999989, 10.459172], [-66.834052, 10.45899100000014], [-66.83386599999989, 10.458846], [-66.83368, 10.458740000000148], [-66.8335009999999, 10.458691], [-66.83332499999989, 10.458694], [-66.83309, 10.458775], [-66.832976, 10.458838], [-66.83287699999988, 10.458876], [-66.832773, 10.458887], [-66.832649, 10.458827], [-66.832597, 10.458731000000114], [-66.832595, 10.458639000000119], [-66.832564, 10.458452000000136], [-66.832553, 10.458327], [-66.8325349999999, 10.458261000000107], [-66.83245099999988, 10.458165000000179], [-66.832417, 10.458064], [-66.832368, 10.457854], [-66.832299, 10.457744000000162], [-66.83206, 10.457635], [-66.83190599999983, 10.457554], [-66.8317919999999, 10.457384], [-66.831712, 10.457247], [-66.831653, 10.457162000000153], [-66.83154499999989, 10.457066], [-66.831444, 10.457044000000167], [-66.831312, 10.457078000000138], [-66.83119, 10.457161], [-66.831007, 10.457242000000178], [-66.83083199999987, 10.457250000000158], [-66.8306199999999, 10.457253], [-66.830468, 10.457207000000153], [-66.830344, 10.457087000000172], [-66.830225, 10.456949000000122], [-66.830101, 10.456839], [-66.830032, 10.456829000000141], [-66.829811, 10.456851], [-66.82961299999982, 10.456849], [-66.829318, 10.456783], [-66.828964, 10.45665300000013], [-66.828697, 10.456587000000184], [-66.828485, 10.456577], [-66.8282999999999, 10.45660800000013], [-66.828069, 10.456684], [-66.827713, 10.456809], [-66.827566, 10.456803], [-66.827447, 10.45665700000012], [-66.827341, 10.456551], [-66.82715699999983, 10.456531000000155], [-66.827018, 10.456585000000189], [-66.826935, 10.456699], [-66.826906, 10.456822000000102], [-66.826919, 10.456899], [-66.826928, 10.456977000000109], [-66.82683099999986, 10.457086], [-66.826729, 10.457158000000163], [-66.826521, 10.45718], [-66.82632299999983, 10.457124], [-66.826071, 10.45696700000019], [-66.826025, 10.456852], [-66.825939, 10.456696000000136], [-66.825489, 10.456337], [-66.825365, 10.456277000000114], [-66.825144, 10.456280000000163], [-66.824904, 10.456361000000129], [-66.82465799999983, 10.456478], [-66.824385, 10.456636000000117], [-66.824131, 10.456721], [-66.82404799999989, 10.456697], [-66.82397, 10.45661500000017], [-66.823925, 10.45647300000013], [-66.8238429999999, 10.456358], [-66.823774, 10.456321], [-66.823687, 10.456279000000109], [-66.823553, 10.4562600000001], [-66.823402, 10.456200000000138], [-66.823319, 10.456122], [-66.82328699999988, 10.45604400000019], [-66.82328399999983, 10.455902000000151], [-66.823322, 10.45577], [-66.82333099999988, 10.455707000000189], [-66.82329, 10.455638], [-66.823152, 10.455564], [-66.8230099999999, 10.455490000000168], [-66.822918, 10.455393000000129], [-66.82290499999982, 10.455297], [-66.822984, 10.455207], [-66.8231, 10.45512500000018], [-66.82321599999989, 10.455021000000102], [-66.8232579999999, 10.454917], [-66.82329199999987, 10.454679], [-66.823275, 10.454533], [-66.823139, 10.454217], [-66.822873, 10.453987000000154], [-66.82254299999988, 10.453725000000134], [-66.822433, 10.453633], [-66.822356, 10.453436], [-66.822325, 10.453226], [-66.822321, 10.45308], [-66.822285, 10.453039], [-66.822119, 10.453033000000119], [-66.821944, 10.453032], [-66.82182399999982, 10.452990000000113], [-66.821719, 10.45288], [-66.82166399999988, 10.452742000000171], [-66.82166499999988, 10.452624000000185], [-66.821731, 10.452510000000188], [-66.82191099999989, 10.452388], [-66.822065, 10.452188], [-66.822103, 10.452033000000142], [-66.822076, 10.451901], [-66.8219979999999, 10.451836000000185], [-66.821943, 10.451818000000117], [-66.8218, 10.45183], [-66.821643, 10.451820000000112], [-66.821588, 10.451774], [-66.821537, 10.451701], [-66.821521, 10.451743000000135], [-66.82125699999989, 10.452372000000139], [-66.821266, 10.452603], [-66.821289, 10.452764], [-66.821331, 10.45294], [-66.821404, 10.453171000000168], [-66.821485, 10.45336200000014], [-66.821632, 10.45365], [-66.821948, 10.454146], [-66.822021, 10.45428], [-66.822079, 10.454403000000127], [-66.822102, 10.454514], [-66.82211699999988, 10.454633000000172], [-66.822129, 10.454876000000183], [-66.822136, 10.455201], [-66.82204799999988, 10.455235], [-66.82150399999989, 10.455313000000103], [-66.82133399999987, 10.455332], [-66.820559, 10.455381], [-66.8201289999999, 10.455674000000101], [-66.81988299999989, 10.456027], [-66.819699, 10.456331000000148], [-66.8195879999999, 10.456805], [-66.819675, 10.45744800000017], [-66.8195889999999, 10.457607], [-66.81934299999989, 10.457692000000122], [-66.819011, 10.457706], [-66.818891, 10.457888], [-66.81891699999989, 10.45802700000013], [-66.818948, 10.458091], [-66.818997, 10.458168], [-66.819053, 10.458252], [-66.819074, 10.458283000000165], [-66.819097, 10.458347000000117], [-66.81911, 10.45841600000017], [-66.819107, 10.458572000000117], [-66.819107, 10.458680000000129], [-66.819125, 10.458775], [-66.819143, 10.458885], [-66.81915, 10.45898000000011], [-66.819148, 10.459056], [-66.819135, 10.459123], [-66.819044, 10.459361], [-66.818974, 10.45954], [-66.819115, 10.459618000000148], [-66.819441, 10.459792000000164], [-66.819699, 10.459896], [-66.819977, 10.460008], [-66.82024399999983, 10.460109000000102], [-66.82058699999988, 10.460232000000133], [-66.821287, 10.460471], [-66.821905, 10.460678], [-66.822014, 10.46072], [-66.822059, 10.460745000000145], [-66.82208, 10.460759], [-66.82224, 10.460959], [-66.82236499999982, 10.461124], [-66.822591, 10.461433], [-66.82274199999983, 10.461649000000136], [-66.8228299999999, 10.461745], [-66.822902, 10.461808000000133], [-66.82299, 10.461858], [-66.823174, 10.461921], [-66.823134, 10.46203], [-66.823118, 10.462095], [-66.823109, 10.462161], [-66.823112, 10.462232], [-66.82299499999988, 10.462708], [-66.82292199999989, 10.462915], [-66.822664, 10.463608], [-66.82275, 10.46402], [-66.82323, 10.46465000000012], [-66.823672, 10.465329000000168], [-66.823857, 10.465911000000176], [-66.8240899999999, 10.465959], [-66.824434, 10.465958000000171], [-66.824853, 10.466722000000118], [-66.825111, 10.466951], [-66.825689, 10.46735], [-66.82575, 10.467897], [-66.825849, 10.468091], [-66.8259589999999, 10.468175], [-66.82611899999989, 10.468126], [-66.826279, 10.468223], [-66.826377, 10.468283000000156], [-66.826525, 10.468258], [-66.826611, 10.468307], [-66.82682, 10.468634], [-66.827004, 10.468937], [-66.827005, 10.469277000000147], [-66.827017, 10.469495], [-66.82711499999988, 10.469592], [-66.827214, 10.470005000000185], [-66.82720199999989, 10.47043], [-66.827067, 10.471062], [-66.82688, 10.471377000000189], [-66.82689, 10.471442], [-66.82690899999989, 10.471606000000122], [-66.826961, 10.471994], [-66.826982, 10.472119], [-66.827006, 10.472225], [-66.827035, 10.472336], [-66.827058, 10.472424000000103], [-66.82708899999989, 10.472509], [-66.82715699999983, 10.472703], [-66.827187, 10.472786], [-66.82724299999984, 10.472908000000189], [-66.827271, 10.472957000000179], [-66.827314, 10.47302100000013], [-66.827439, 10.473201], [-66.827519, 10.473314], [-66.82758599999988, 10.473405000000128], [-66.827612, 10.473429000000124], [-66.827639, 10.473442000000148], [-66.827674, 10.473451000000182], [-66.827704, 10.473457000000167], [-66.827806, 10.473464], [-66.82795, 10.4734610000001], [-66.828009, 10.473467], [-66.82808299999988, 10.473476000000119], [-66.828163, 10.473505], [-66.82821299999989, 10.473531], [-66.828294, 10.473594000000105], [-66.828526, 10.473803], [-66.828632, 10.473909], [-66.828686, 10.473989000000131], [-66.828697, 10.474017000000117], [-66.82870199999985, 10.47404], [-66.82870899999989, 10.474079], [-66.82870899999989, 10.474121], [-66.828699, 10.474169], [-66.828652, 10.474320000000148], [-66.828456, 10.474857000000156], [-66.828337, 10.475177], [-66.828099, 10.475842000000114], [-66.82807, 10.475928000000124], [-66.828054, 10.475958000000105], [-66.82820499999985, 10.477429], [-66.828802, 10.477692], [-66.83145499999989, 10.47883], [-66.832516, 10.479254], [-66.8334569999999, 10.479658], [-66.834618, 10.480203000000188], [-66.83503699999989, 10.480504], [-66.835457, 10.480745], [-66.835657, 10.480846], [-66.836038, 10.480908], [-66.836599, 10.481150000000184], [-66.83828099999988, 10.481857], [-66.839682, 10.48246300000011], [-66.840944, 10.482889], [-66.8439489999999, 10.483943000000181], [-66.84428899999989, 10.48408400000011], [-66.845151, 10.484249], [-66.84577399999984, 10.484293], [-66.84665799999988, 10.48422], [-66.84933099999989, 10.483999], [-66.850315, 10.483907], [-66.85073799999986, 10.483731], [-66.851183, 10.483316000000173], [-66.851265, 10.483078], [-66.85152899999986, 10.482583], [-66.85203299999989, 10.482289], [-66.852656, 10.482193000000166], [-66.85358, 10.48216], [-66.854094, 10.482148000000166], [-66.853925, 10.4818810000001], [-66.853739, 10.481438], [-66.853661, 10.480985], [-66.853706, 10.480436000000111], [-66.853829, 10.48000900000011], [-66.854033, 10.479643], [-66.854349, 10.47927], [-66.854803, 10.478959], [-66.855592, 10.478663], [-66.855532, 10.478511], [-66.855507, 10.478448], [-66.855489, 10.478415], [-66.855472, 10.478392], [-66.85544, 10.478360000000123], [-66.8554089999999, 10.478339000000119], [-66.85532099999989, 10.478287], [-66.85514299999983, 10.478197000000137], [-66.855079, 10.478158], [-66.85502, 10.478119], [-66.854977, 10.478078], [-66.85494699999987, 10.47804100000019], [-66.854927, 10.47802], [-66.854891, 10.477975], [-66.85485999999986, 10.477934], [-66.85483, 10.477886000000126], [-66.854796, 10.477825], [-66.85477999999989, 10.477793], [-66.854765, 10.477755000000116], [-66.85468, 10.477648000000158], [-66.854392, 10.477337], [-66.85402799999986, 10.476988], [-66.85349, 10.476396000000136], [-66.853475, 10.476358000000175], [-66.8534499999999, 10.476286], [-66.853394, 10.476191], [-66.853293, 10.4760950000001], [-66.8532459999999, 10.476023000000168], [-66.85320399999989, 10.475903000000187], [-66.85311, 10.475702], [-66.853001, 10.475293], [-66.852949, 10.474762000000112], [-66.85293, 10.474274], [-66.852877, 10.474005], [-66.852746, 10.473741000000189], [-66.85252, 10.473521000000119], [-66.852344, 10.47323], [-66.852261, 10.473087], [-66.852271, 10.473010000000102], [-66.8523679999999, 10.472875000000101], [-66.852406, 10.472819000000129], [-66.852424, 10.472778000000119], [-66.85243999999989, 10.472722], [-66.852446, 10.4726730000001], [-66.852446, 10.472621], [-66.85243899999983, 10.472591], [-66.852431, 10.472567], [-66.85239599999983, 10.47250200000019], [-66.852348, 10.472418000000175], [-66.85234, 10.472397], [-66.852332, 10.47237100000018], [-66.852331, 10.472334000000103], [-66.852334, 10.47229], [-66.852342, 10.47224000000017], [-66.85240499999986, 10.472013], [-66.852452, 10.471873000000187], [-66.852465, 10.471844], [-66.852474, 10.471825000000138], [-66.85248699999988, 10.471808000000124], [-66.852501, 10.471794], [-66.852519, 10.471783000000187], [-66.852565, 10.471764], [-66.852603, 10.471756], [-66.852667, 10.471746000000167], [-66.852795, 10.471734], [-66.852917, 10.471725], [-66.852953, 10.471719], [-66.85297999999983, 10.471711], [-66.853002, 10.471702], [-66.85302699999988, 10.471687], [-66.853053, 10.471665], [-66.853084, 10.471636000000103], [-66.853135, 10.471577], [-66.853208, 10.471464], [-66.853104, 10.471199000000183], [-66.852974, 10.470898000000147], [-66.85293699999983, 10.4708], [-66.852924, 10.470713000000103], [-66.852917, 10.470625], [-66.852923, 10.470551], [-66.85293899999988, 10.470499000000189], [-66.852963, 10.470448], [-66.852992, 10.470407], [-66.853089, 10.4703090000001], [-66.85318799999988, 10.470222], [-66.853236, 10.470185000000129], [-66.853377, 10.470116000000132], [-66.853549, 10.470033000000171], [-66.853604, 10.469992000000161], [-66.853677, 10.46992], [-66.85376, 10.469813000000102], [-66.8538999999999, 10.46961400000015], [-66.853996, 10.469466000000125], [-66.854046, 10.469368], [-66.854091, 10.469128], [-66.854085, 10.469096], [-66.854069, 10.469029], [-66.85406, 10.46899400000018], [-66.854031, 10.468959], [-66.853988, 10.468893], [-66.853878, 10.46877400000011], [-66.853733, 10.468654000000129], [-66.853436, 10.468431000000123], [-66.8533, 10.468320000000176], [-66.8532019999999, 10.468215], [-66.85311399999989, 10.468086], [-66.853046, 10.467969], [-66.853035, 10.467948000000149], [-66.853007, 10.467885], [-66.852993, 10.46780600000011], [-66.852964, 10.467624000000171], [-66.852972, 10.46744], [-66.85298199999988, 10.46735], [-66.853011, 10.467222000000106], [-66.85305, 10.467087000000106], [-66.853136, 10.466813], [-66.853146, 10.466734], [-66.853133, 10.466673000000185], [-66.853077, 10.466591000000108], [-66.853021, 10.466486000000145], [-66.852993, 10.46640900000017], [-66.85298399999988, 10.466349], [-66.85298499999988, 10.46629], [-66.853016, 10.465888], [-66.853036, 10.46569], [-66.853034, 10.46560600000015], [-66.85302999999988, 10.465557], [-66.853016, 10.4655130000001], [-66.852921, 10.46534], [-66.852833, 10.465156], [-66.852749, 10.465029], [-66.852727, 10.46499000000017], [-66.852708, 10.464941], [-66.852672, 10.464653000000169], [-66.852655, 10.464583], [-66.852628, 10.46451900000011], [-66.85258, 10.464445], [-66.852522, 10.464385], [-66.852436, 10.464321], [-66.852249, 10.464200000000176], [-66.852075, 10.464069000000165], [-66.851754, 10.4637570000001], [-66.85156599999988, 10.463549000000114], [-66.851508, 10.463461000000166], [-66.851477, 10.463374], [-66.851473, 10.463296000000184], [-66.851483, 10.463199000000145], [-66.851507, 10.463118000000179], [-66.851702, 10.462531000000126], [-66.851833, 10.462201000000164], [-66.851935, 10.462002], [-66.851999, 10.461901], [-66.852063, 10.461830000000191], [-66.852185, 10.461702], [-66.852219, 10.461651000000131], [-66.85223299999984, 10.461598], [-66.852286, 10.461586], [-66.85240499999986, 10.461589000000174], [-66.853175, 10.461618], [-66.853208, 10.461615000000165], [-66.85324, 10.461605], [-66.853307, 10.461577], [-66.853397, 10.46153500000014], [-66.853468, 10.461522000000116], [-66.853583, 10.461503000000164], [-66.853708, 10.461482], [-66.853872, 10.461426000000188], [-66.85390399999989, 10.46138], [-66.853962, 10.461281], [-66.854008, 10.46118300000012], [-66.854076, 10.461039000000142], [-66.854134, 10.460941], [-66.854205, 10.460853], [-66.85427699999985, 10.460773000000131], [-66.85430999999983, 10.460734000000116], [-66.854345, 10.460679], [-66.854361, 10.460640000000126], [-66.854424, 10.46048], [-66.854414, 10.46045], [-66.854414, 10.460401000000104], [-66.854422, 10.460375], [-66.85423399999985, 10.460256000000186], [-66.853999, 10.460171], [-66.8537419999999, 10.459816], [-66.85344299999986, 10.459315000000117], [-66.853191, 10.458569], [-66.853146, 10.458500000000186], [-66.853099, 10.458413], [-66.853037, 10.458322], [-66.852951, 10.458193], [-66.852899, 10.458091], [-66.85285899999985, 10.457976], [-66.85281599999985, 10.457733000000133], [-66.852811, 10.45748], [-66.852853, 10.457118], [-66.8528639999999, 10.456995000000177], [-66.852891, 10.456874000000141], [-66.852944, 10.45671], [-66.85307299999988, 10.456434000000115], [-66.853101, 10.456239000000153], [-66.853037, 10.455998000000136], [-66.852907, 10.455675], [-66.852674, 10.455361000000153], [-66.852468, 10.455221000000108], [-66.852306, 10.455138], [-66.852177, 10.45508000000018], [-66.852025, 10.45503500000018], [-66.851885, 10.455022], [-66.8517839999999, 10.45504], [-66.851706, 10.455159000000151], [-66.85165499999988, 10.455243000000166], [-66.851626, 10.455308], [-66.85156399999988, 10.455378000000167], [-66.85151, 10.455442000000119], [-66.851483, 10.455464000000177], [-66.851426, 10.455506], [-66.851369, 10.455543000000148], [-66.851303, 10.455543000000148], [-66.85117, 10.455551], [-66.850914, 10.455550000000187], [-66.850809, 10.455615], [-66.850807, 10.45591000000013], [-66.85081599999984, 10.455961], [-66.850844, 10.45606], [-66.850848, 10.456173], [-66.850843, 10.456229], [-66.8508, 10.456308], [-66.85069, 10.456378], [-66.850557, 10.456396], [-66.850448, 10.456381], [-66.850363, 10.456366000000173], [-66.850254, 10.456347], [-66.850108, 10.456318000000124], [-66.85, 10.456298], [-66.8498709999999, 10.456302]]]}}, {"type": "Feature", "properties": {"Pais": "Venezuela", "Estado": "Miranda", "Municipio": "Baruta", "Parroquia": "Las Minas de Baruta"}, "geometry": {"type": "Polygon", "coordinates": [[[-66.84690399999988, 10.45574500000015], [-66.846961, 10.45575], [-66.847116, 10.455765], [-66.84723999999989, 10.455776], [-66.847357, 10.455788000000155], [-66.84778199999988, 10.455825000000175], [-66.84798599999988, 10.455832], [-66.848176, 10.4559], [-66.848299, 10.455973], [-66.848433, 10.456104], [-66.84852, 10.456218], [-66.848837, 10.456579], [-66.848962, 10.45665], [-66.849221, 10.45666400000016], [-66.849317, 10.456621000000155], [-66.849371, 10.456523], [-66.849434, 10.456407], [-66.849464, 10.456365000000119], [-66.849524, 10.456328], [-66.849624, 10.456324000000109], [-66.8498709999999, 10.456302], [-66.85, 10.456298], [-66.850108, 10.456318000000124], [-66.850254, 10.456347], [-66.850363, 10.456366000000173], [-66.850448, 10.456381], [-66.850557, 10.456396], [-66.85069, 10.456378], [-66.8508, 10.456308], [-66.850843, 10.456229], [-66.850848, 10.456173], [-66.850844, 10.45606], [-66.85081599999984, 10.455961], [-66.850807, 10.45591000000013], [-66.850809, 10.455615], [-66.850914, 10.455550000000187], [-66.85117, 10.455551], [-66.851303, 10.455543000000148], [-66.851369, 10.455543000000148], [-66.851426, 10.455506], [-66.851483, 10.455464000000177], [-66.85151, 10.455442000000119], [-66.85156399999988, 10.455378000000167], [-66.851626, 10.455308], [-66.85165499999988, 10.455243000000166], [-66.851706, 10.455159000000151], [-66.8517839999999, 10.45504], [-66.851885, 10.455022], [-66.852025, 10.45503500000018], [-66.852177, 10.45508000000018], [-66.852306, 10.455138], [-66.852468, 10.455221000000108], [-66.852674, 10.455361000000153], [-66.852907, 10.455675], [-66.853037, 10.455998000000136], [-66.853101, 10.456239000000153], [-66.85307299999988, 10.456434000000115], [-66.852944, 10.45671], [-66.852891, 10.456874000000141], [-66.8528639999999, 10.456995000000177], [-66.852853, 10.457118], [-66.852811, 10.45748], [-66.85281599999985, 10.457733000000133], [-66.85285899999985, 10.457976], [-66.852899, 10.458091], [-66.852951, 10.458193], [-66.853037, 10.458322], [-66.853099, 10.458413], [-66.853146, 10.458500000000186], [-66.853191, 10.458569], [-66.85344299999986, 10.459315000000117], [-66.8537419999999, 10.459816], [-66.853999, 10.460171], [-66.85423399999985, 10.460256000000186], [-66.854422, 10.460375], [-66.854414, 10.460401000000104], [-66.854414, 10.46045], [-66.854424, 10.46048], [-66.854361, 10.460640000000126], [-66.854345, 10.460679], [-66.85430999999983, 10.460734000000116], [-66.85427699999985, 10.460773000000131], [-66.854205, 10.460853], [-66.854134, 10.460941], [-66.854076, 10.461039000000142], [-66.854008, 10.46118300000012], [-66.853962, 10.461281], [-66.85390399999989, 10.46138], [-66.853872, 10.461426000000188], [-66.853708, 10.461482], [-66.853583, 10.461503000000164], [-66.853468, 10.461522000000116], [-66.853397, 10.46153500000014], [-66.853307, 10.461577], [-66.85324, 10.461605], [-66.853208, 10.461615000000165], [-66.853175, 10.461618], [-66.85240499999986, 10.461589000000174], [-66.852286, 10.461586], [-66.85223299999984, 10.461598], [-66.852219, 10.461651000000131], [-66.852185, 10.461702], [-66.852063, 10.461830000000191], [-66.851999, 10.461901], [-66.851935, 10.462002], [-66.851833, 10.462201000000164], [-66.851702, 10.462531000000126], [-66.851507, 10.463118000000179], [-66.851483, 10.463199000000145], [-66.851473, 10.463296000000184], [-66.851477, 10.463374], [-66.851508, 10.463461000000166], [-66.85156599999988, 10.463549000000114], [-66.851754, 10.4637570000001], [-66.852075, 10.464069000000165], [-66.852249, 10.464200000000176], [-66.852436, 10.464321], [-66.852522, 10.464385], [-66.85258, 10.464445], [-66.852628, 10.46451900000011], [-66.852655, 10.464583], [-66.852672, 10.464653000000169], [-66.852708, 10.464941], [-66.852727, 10.46499000000017], [-66.852749, 10.465029], [-66.852833, 10.465156], [-66.852921, 10.46534], [-66.853016, 10.4655130000001], [-66.85302999999988, 10.465557], [-66.853034, 10.46560600000015], [-66.853036, 10.46569], [-66.853016, 10.465888], [-66.85298499999988, 10.46629], [-66.85298399999988, 10.466349], [-66.852993, 10.46640900000017], [-66.853021, 10.466486000000145], [-66.853077, 10.466591000000108], [-66.853133, 10.466673000000185], [-66.853146, 10.466734], [-66.853136, 10.466813], [-66.85305, 10.467087000000106], [-66.853011, 10.467222000000106], [-66.85298199999988, 10.46735], [-66.852972, 10.46744], [-66.852964, 10.467624000000171], [-66.852993, 10.46780600000011], [-66.853007, 10.467885], [-66.853035, 10.467948000000149], [-66.853046, 10.467969], [-66.85311399999989, 10.468086], [-66.8532019999999, 10.468215], [-66.8533, 10.468320000000176], [-66.853436, 10.468431000000123], [-66.853733, 10.468654000000129], [-66.853878, 10.46877400000011], [-66.853988, 10.468893], [-66.854031, 10.468959], [-66.85406, 10.46899400000018], [-66.854069, 10.469029], [-66.854085, 10.469096], [-66.854091, 10.469128], [-66.854046, 10.469368], [-66.853996, 10.469466000000125], [-66.8538999999999, 10.46961400000015], [-66.85376, 10.469813000000102], [-66.853677, 10.46992], [-66.853604, 10.469992000000161], [-66.853549, 10.470033000000171], [-66.853377, 10.470116000000132], [-66.853236, 10.470185000000129], [-66.85318799999988, 10.470222], [-66.853089, 10.4703090000001], [-66.852992, 10.470407], [-66.852963, 10.470448], [-66.85293899999988, 10.470499000000189], [-66.852923, 10.470551], [-66.852917, 10.470625], [-66.852924, 10.470713000000103], [-66.85293699999983, 10.4708], [-66.852974, 10.470898000000147], [-66.853104, 10.471199000000183], [-66.853208, 10.471464], [-66.853135, 10.471577], [-66.853084, 10.471636000000103], [-66.853053, 10.471665], [-66.85302699999988, 10.471687], [-66.853002, 10.471702], [-66.85297999999983, 10.471711], [-66.852953, 10.471719], [-66.852917, 10.471725], [-66.852795, 10.471734], [-66.852667, 10.471746000000167], [-66.852603, 10.471756], [-66.852565, 10.471764], [-66.852519, 10.471783000000187], [-66.852501, 10.471794], [-66.85248699999988, 10.471808000000124], [-66.852474, 10.471825000000138], [-66.852465, 10.471844], [-66.852452, 10.471873000000187], [-66.85240499999986, 10.472013], [-66.852342, 10.47224000000017], [-66.852334, 10.47229], [-66.852331, 10.472334000000103], [-66.852332, 10.47237100000018], [-66.85234, 10.472397], [-66.852348, 10.472418000000175], [-66.85239599999983, 10.47250200000019], [-66.852431, 10.472567], [-66.85243899999983, 10.472591], [-66.852446, 10.472621], [-66.852446, 10.4726730000001], [-66.85243999999989, 10.472722], [-66.852424, 10.472778000000119], [-66.852406, 10.472819000000129], [-66.8523679999999, 10.472875000000101], [-66.852271, 10.473010000000102], [-66.852261, 10.473087], [-66.852344, 10.47323], [-66.85252, 10.473521000000119], [-66.852746, 10.473741000000189], [-66.852877, 10.474005], [-66.85293, 10.474274], [-66.852949, 10.474762000000112], [-66.853001, 10.475293], [-66.85311, 10.475702], [-66.85320399999989, 10.475903000000187], [-66.8532459999999, 10.476023000000168], [-66.853293, 10.4760950000001], [-66.853394, 10.476191], [-66.8534499999999, 10.476286], [-66.853475, 10.476358000000175], [-66.85349, 10.476396000000136], [-66.85402799999986, 10.476988], [-66.854392, 10.477337], [-66.85468, 10.477648000000158], [-66.854765, 10.477755000000116], [-66.85477999999989, 10.477793], [-66.854796, 10.477825], [-66.85483, 10.477886000000126], [-66.85485999999986, 10.477934], [-66.854891, 10.477975], [-66.854927, 10.47802], [-66.85494699999987, 10.47804100000019], [-66.854977, 10.478078], [-66.85502, 10.478119], [-66.855079, 10.478158], [-66.85514299999983, 10.478197000000137], [-66.85532099999989, 10.478287], [-66.8554089999999, 10.478339000000119], [-66.85544, 10.478360000000123], [-66.855472, 10.478392], [-66.855489, 10.478415], [-66.855507, 10.478448], [-66.855532, 10.478511], [-66.855592, 10.478663], [-66.856101, 10.478473], [-66.856434, 10.47838400000012], [-66.85678, 10.478270000000123], [-66.857039, 10.478154000000131], [-66.857201, 10.478078], [-66.857342, 10.477983000000165], [-66.857539, 10.477825], [-66.857724, 10.477623], [-66.85789199999982, 10.477390000000128], [-66.85806, 10.477093], [-66.858247, 10.476644], [-66.858389, 10.47629], [-66.858634, 10.475634000000127], [-66.858772, 10.475297000000126], [-66.858932, 10.475013000000104], [-66.859077, 10.47478000000018], [-66.859206, 10.474586000000102], [-66.859364, 10.474392], [-66.859541, 10.474177], [-66.859919, 10.473782], [-66.860245, 10.473438000000158], [-66.86039999999986, 10.473257000000103], [-66.860532, 10.473054], [-66.860625, 10.472895], [-66.86072699999988, 10.472696], [-66.860776, 10.472537], [-66.860839, 10.472329], [-66.860889, 10.47205300000013], [-66.86093099999982, 10.471638], [-66.860951, 10.471205000000168], [-66.860973, 10.470682], [-66.8609909999999, 10.470461], [-66.860997, 10.47024], [-66.86102099999988, 10.470033000000171], [-66.861071, 10.46964800000012], [-66.86111199999988, 10.469432], [-66.861144, 10.469198000000176], [-66.86126599999983, 10.468650000000139], [-66.8614869999999, 10.467639000000133], [-66.861573, 10.46725], [-66.861632, 10.466934], [-66.861668, 10.466779], [-66.861763, 10.46642], [-66.861874, 10.466053], [-66.86207, 10.465643], [-66.862242, 10.465359000000149], [-66.86239499999988, 10.465127000000166], [-66.862547, 10.46491900000018], [-66.86278, 10.464670000000183], [-66.86302199999989, 10.464416], [-66.863242, 10.464193000000137], [-66.863414, 10.463986], [-66.86356399999988, 10.46381], [-66.863675, 10.463659000000177], [-66.863754, 10.463534000000152], [-66.86385099999984, 10.463357], [-66.86398799999989, 10.463097], [-66.864122, 10.462805], [-66.864285, 10.462339], [-66.864544, 10.461546000000169], [-66.86466, 10.461234000000104], [-66.864765, 10.46095], [-66.864886, 10.46063800000013], [-66.864941, 10.460534], [-66.865046, 10.460375], [-66.865266, 10.460069000000146], [-66.865326, 10.460004], [-66.865541, 10.459712], [-66.86576799999989, 10.459363000000167], [-66.865937, 10.459004000000164], [-66.865986, 10.45888], [-66.86610599999989, 10.458575000000167], [-66.866285, 10.45823300000012], [-66.86655599999983, 10.457882], [-66.866783, 10.457656000000156], [-66.866884, 10.457584], [-66.86722599999985, 10.457405000000165], [-66.867925, 10.457076000000143], [-66.868303, 10.456895], [-66.868586, 10.456703000000175], [-66.87063499999982, 10.454956], [-66.870819, 10.454805], [-66.87085999999988, 10.453756], [-66.870828, 10.453696], [-66.87076999999988, 10.453586], [-66.87068099999988, 10.453521], [-66.87056299999989, 10.453429], [-66.8704469999999, 10.453329], [-66.870408, 10.453297], [-66.870242, 10.45319700000016], [-66.870154, 10.453161], [-66.870047, 10.453132], [-66.869927, 10.453112], [-66.869756, 10.453091], [-66.86964199999989, 10.453066], [-66.86961, 10.453056], [-66.869523, 10.453028], [-66.869419, 10.452986000000124], [-66.869335, 10.452939000000129], [-66.869257, 10.452881000000161], [-66.869165, 10.452825000000132], [-66.869095, 10.452776000000142], [-66.8690309999999, 10.452744000000166], [-66.867929, 10.452769000000103], [-66.86685699999987, 10.452954000000148], [-66.86586099999988, 10.453226], [-66.865838, 10.453206], [-66.865791, 10.45318], [-66.86572299999983, 10.453160000000139], [-66.86551, 10.453117000000134], [-66.865437, 10.453092], [-66.865372, 10.453068000000144], [-66.8653159999999, 10.453035000000114], [-66.865254, 10.452982000000134], [-66.865129, 10.45291], [-66.8650679999999, 10.452887], [-66.86498599999987, 10.452876], [-66.864872, 10.452876], [-66.864709, 10.452888], [-66.86448399999989, 10.452923], [-66.86416, 10.452950000000158], [-66.863748, 10.452945000000113], [-66.863514, 10.452929], [-66.863335, 10.452894000000128], [-66.86318, 10.452843], [-66.86311299999988, 10.452817], [-66.863057, 10.452782000000127], [-66.863005, 10.452742000000171], [-66.86290799999989, 10.452641], [-66.862667, 10.452332000000183], [-66.862173, 10.451498000000129], [-66.86210299999988, 10.451409], [-66.862038, 10.451307], [-66.862, 10.451255], [-66.86194399999988, 10.451206000000127], [-66.86185099999983, 10.451140000000123], [-66.861778, 10.451085], [-66.861722, 10.451036], [-66.861684, 10.450987000000111], [-66.86164799999989, 10.450932], [-66.861622, 10.450866], [-66.861595, 10.450756000000183], [-66.86156799999986, 10.450586000000158], [-66.861553, 10.450456], [-66.861553, 10.450328000000127], [-66.86156099999988, 10.450245000000166], [-66.861584, 10.450169], [-66.861616, 10.4501], [-66.861668, 10.450022], [-66.861741, 10.449938], [-66.861963, 10.449752], [-66.862044, 10.449671], [-66.862096, 10.449607000000128], [-66.862128, 10.449555], [-66.862149, 10.449506000000156], [-66.86216, 10.449451], [-66.86216, 10.449393], [-66.86214499999988, 10.44933500000019], [-66.862127, 10.44929800000017], [-66.862092, 10.44924900000018], [-66.862025, 10.449162000000115], [-66.861793, 10.448876], [-66.861743, 10.448793000000137], [-66.86171, 10.448694000000103], [-66.861698, 10.448588], [-66.86169499999988, 10.448498], [-66.861706, 10.448397], [-66.86172999999985, 10.448336000000154], [-66.86177, 10.448258], [-66.86181699999986, 10.4482], [-66.86193, 10.448101], [-66.862085, 10.447965000000181], [-66.862157, 10.447893], [-66.862201, 10.447832000000176], [-66.862248, 10.447756], [-66.862288, 10.447675000000174], [-66.8623199999999, 10.447589000000164], [-66.86235799999986, 10.447455], [-66.862388, 10.447292], [-66.862361, 10.447144], [-66.862429, 10.446875], [-66.862466, 10.446682], [-66.861432, 10.446679000000188], [-66.860267, 10.446719], [-66.860245, 10.446695], [-66.860014, 10.446417000000167], [-66.859965, 10.446343], [-66.859749, 10.446015000000102], [-66.859657, 10.445938000000126], [-66.85955799999982, 10.4459], [-66.859479, 10.445886], [-66.859371, 10.445902], [-66.859305, 10.445924], [-66.85888, 10.446128], [-66.858783, 10.446140000000185], [-66.858693, 10.446068], [-66.858585, 10.445721000000106], [-66.858498, 10.445442000000128], [-66.858452, 10.445307000000184], [-66.858348, 10.445234], [-66.85831599999989, 10.44523], [-66.85826899999984, 10.445247000000165], [-66.858209, 10.445358000000112], [-66.85815899999989, 10.445548], [-66.858102, 10.445760000000178], [-66.858102, 10.445792000000154], [-66.858108, 10.445908000000145], [-66.85818399999982, 10.44613800000019], [-66.857974, 10.446287], [-66.857861, 10.446207000000186], [-66.857827, 10.446157000000142], [-66.857783, 10.446036000000106], [-66.85773199999988, 10.445818], [-66.85773199999988, 10.445622000000128], [-66.857744, 10.445518], [-66.85772799999984, 10.445512], [-66.857716, 10.445500000000152], [-66.857712, 10.445489000000123], [-66.857707, 10.445472000000109], [-66.857707, 10.445450000000108], [-66.857714, 10.445431], [-66.85695, 10.445454], [-66.856755, 10.445189], [-66.856577, 10.444923000000188], [-66.856582, 10.44490900000011], [-66.856588, 10.4448450000001], [-66.856598, 10.44481500000012], [-66.856618, 10.444775], [-66.856601, 10.444731000000104], [-66.85626799999983, 10.444716], [-66.85602299999988, 10.444858000000124], [-66.855648, 10.44507700000014], [-66.855474, 10.445191], [-66.855334, 10.445318], [-66.855256, 10.445437], [-66.855227, 10.445598], [-66.855203, 10.445722], [-66.855176, 10.445843], [-66.855104, 10.445929], [-66.854978, 10.445967], [-66.854845, 10.445915000000184], [-66.854763, 10.445791], [-66.8547, 10.445608], [-66.854632, 10.445389], [-66.854591, 10.445287000000121], [-66.85448199999985, 10.445127000000184], [-66.85435399999983, 10.444961000000148], [-66.85415299999988, 10.444773], [-66.854, 10.444635000000176], [-66.85385799999989, 10.444492], [-66.85377799999986, 10.444363], [-66.853681, 10.444137000000183], [-66.853599, 10.443933000000186], [-66.85347799999982, 10.443769], [-66.853369, 10.443635], [-66.853224, 10.443533000000116], [-66.853122, 10.443526], [-66.852933, 10.44362800000016], [-66.852788, 10.443711], [-66.852638, 10.443754], [-66.852435, 10.443819000000133], [-66.852338, 10.443857], [-66.85227, 10.443907000000138], [-66.85221, 10.443997000000138], [-66.8520769999999, 10.444361], [-66.85199199999988, 10.444604], [-66.851961, 10.444735], [-66.851963, 10.444818], [-66.8519869999999, 10.444908], [-66.852041, 10.444973], [-66.852096, 10.445013000000188], [-66.852162, 10.445042], [-66.8522339999999, 10.4450700000001], [-66.852365, 10.44512500000019], [-66.852493, 10.445187], [-66.852595, 10.44525300000015], [-66.852665, 10.44532], [-66.852699, 10.445379], [-66.85272999999984, 10.445441], [-66.852766, 10.445536000000118], [-66.852788, 10.44564400000013], [-66.852803, 10.445715000000177], [-66.852805, 10.445784], [-66.852798, 10.445879], [-66.85277599999989, 10.445991000000106], [-66.85272999999984, 10.44612700000016], [-66.852672, 10.446255], [-66.852607, 10.446393000000114], [-66.852544, 10.44652200000013], [-66.852522, 10.446622], [-66.852479, 10.446755], [-66.852452, 10.446855], [-66.85244699999987, 10.446909], [-66.852452, 10.446983000000102], [-66.852469, 10.447047], [-66.8525, 10.447126], [-66.852544, 10.447235], [-66.852585, 10.447323000000154], [-66.852629, 10.44740000000013], [-66.852682, 10.447485], [-66.852747, 10.447566], [-66.852791, 10.447633], [-66.8528199999999, 10.447685], [-66.85282199999989, 10.447745000000111], [-66.852795, 10.447811], [-66.852747, 10.447856], [-66.852638, 10.447892], [-66.852428, 10.447949000000108], [-66.852224, 10.448023], [-66.852108, 10.448092], [-66.852053, 10.448173000000168], [-66.852043, 10.44826300000011], [-66.852048, 10.448359], [-66.852058, 10.44845400000014], [-66.852058, 10.44855100000018], [-66.852089, 10.448613000000137], [-66.852125, 10.448654000000147], [-66.852166, 10.448692000000108], [-66.852217, 10.448723], [-66.852261, 10.448749], [-66.852297, 10.448780000000113], [-66.852329, 10.448813], [-66.852365, 10.448856], [-66.852401, 10.448911000000123], [-66.852435, 10.448975], [-66.852449, 10.449089], [-66.85243, 10.449168], [-66.852387, 10.449225000000126], [-66.852336, 10.449284], [-66.852268, 10.449348], [-66.852166, 10.449432], [-66.852004, 10.449555], [-66.85185399999983, 10.449667000000147], [-66.851762, 10.449748], [-66.851661, 10.449815000000115], [-66.851569, 10.449860000000115], [-66.851457, 10.44990300000012], [-66.851351, 10.44990300000012], [-66.85131499999989, 10.449812], [-66.851305, 10.449696], [-66.851303, 10.449560000000133], [-66.851242, 10.449446000000137], [-66.851133, 10.449386000000175], [-66.85093499999982, 10.449394], [-66.850683, 10.449467], [-66.850461, 10.449593], [-66.85032699999988, 10.449739], [-66.850245, 10.449972000000116], [-66.850202, 10.450096], [-66.85011899999989, 10.450195000000122], [-66.85003199999989, 10.45025], [-66.849931, 10.45025], [-66.84981899999985, 10.450219000000175], [-66.84969399999989, 10.450167000000135], [-66.84956299999988, 10.45012400000013], [-66.849394, 10.450084000000174], [-66.84924399999989, 10.45007900000013], [-66.849113, 10.450105000000121], [-66.84907199999986, 10.450207], [-66.84910999999988, 10.450295], [-66.84919, 10.450364], [-66.849302, 10.450436], [-66.849394, 10.450517000000104], [-66.849381, 10.450614000000144], [-66.84933099999989, 10.450659000000144], [-66.849207, 10.450655000000154], [-66.849103, 10.450645], [-66.84897699999982, 10.450648000000115], [-66.848883, 10.450669], [-66.848777, 10.450719000000106], [-66.84872799999982, 10.45075], [-66.84868, 10.450778], [-66.848588, 10.45083300000016], [-66.84853, 10.45087100000012], [-66.848486, 10.450921000000164], [-66.84848099999988, 10.450981000000127], [-66.84848099999988, 10.45103500000016], [-66.84849799999989, 10.451107], [-66.848537, 10.451204000000132], [-66.848597, 10.451295000000187], [-66.848675, 10.451395000000105], [-66.848716, 10.451461], [-66.848755, 10.451545], [-66.848757, 10.451623000000154], [-66.848769, 10.451702000000125], [-66.848803, 10.451775000000112], [-66.848835, 10.451863000000117], [-66.84889, 10.451933], [-66.848924, 10.452016000000128], [-66.848973, 10.452123000000142], [-66.848985, 10.452223], [-66.848963, 10.452285], [-66.84890699999988, 10.452330000000188], [-66.848808, 10.452337], [-66.848714, 10.452335], [-66.8486099999999, 10.452330000000188], [-66.84853, 10.452344], [-66.848447, 10.452411000000154], [-66.848379, 10.452502], [-66.84831799999989, 10.452634000000103], [-66.848299, 10.452717], [-66.848312, 10.452782000000127], [-66.84838, 10.452870000000132], [-66.848423, 10.452932], [-66.848458, 10.452997000000153], [-66.848536, 10.453085000000158], [-66.848605, 10.453168], [-66.848648, 10.453236], [-66.848741, 10.45336900000018], [-66.84877299999988, 10.453450000000146], [-66.84877399999988, 10.453516], [-66.848764, 10.45359400000018], [-66.848725, 10.453672], [-66.848677, 10.453709], [-66.848622, 10.453727000000129], [-66.848542, 10.453740000000153], [-66.848457, 10.453747], [-66.848387, 10.453747], [-66.848291, 10.453743], [-66.848216, 10.453707], [-66.84811799999989, 10.453631], [-66.847923, 10.453551000000175], [-66.847762, 10.453525000000127], [-66.847669, 10.453532000000166], [-66.847615, 10.453540000000146], [-66.84752999999989, 10.453592000000185], [-66.84739, 10.453744000000142], [-66.847184, 10.454006000000163], [-66.8470339999999, 10.454261], [-66.84694, 10.454456], [-66.84688, 10.454622000000143], [-66.846795, 10.454984], [-66.84677999999985, 10.455103000000122], [-66.84679, 10.455165000000136], [-66.846805, 10.45522], [-66.846855, 10.455281000000127], [-66.846923, 10.455350000000124], [-66.846959, 10.455405], [-66.846964, 10.455498000000148], [-66.84695199999987, 10.455619000000183], [-66.84690399999988, 10.45574500000015]]]}}]}