{
  "type": "FeatureCollection",
  "features": [
    {
      "type": "Feature",
      "properties": {
        "Pais": "Venezuela",
        "Estado": "Sucre",
        "Municipio": "Bermúdez",
        "Parroquia": "Bolivar"
      },
      "geometry": {
        "type": "Polygon",
        "coordinates": [
          [
            [
              -63.385903277999944,
              10.691188201000102
            ],
            [
              -63.38590527799994,
              10.691538208000054
            ],
            [
              -63.385998288999986,
              10.69197422000002
            ],
            [
              -63.38617929299994,
              10.692410231000167
            ],
            [
              -63.38671832699998,
              10.692844242000092
            ],
            [
              -63.38707433499985,
              10.692842241
            ],
            [
              -63.387249338999936,
              10.692403224000032
            ],
            [
              -63.3875153539999,
              10.692226221
            ],
            [
              -63.38787036699989,
              10.692049218000022
            ],
            [
              -63.38813738799996,
              10.691960207000022
            ],
            [
              -63.38849139599995,
              10.69169519900015
            ],
            [
              -63.38866639899993,
              10.691256182000132
            ],
            [
              -63.38893241399995,
              10.691080184000157
            ],
            [
              -63.38919942299998,
              10.690990179999972
            ],
            [
              -63.389557441999955,
              10.691163183000185
            ],
            [
              -63.389913461999924,
              10.691160177000086
            ],
            [
              -63.3901794759999,
              10.690984167000124
            ],
            [
              -63.39017546499991,
              10.69045915700002
            ],
            [
              -63.39025746899995,
              10.689496125000062
            ],
            [
              -63.390160458999844,
              10.688447099000143
            ],
            [
              -63.39042546699994,
              10.688095080999972
            ],
            [
              -63.390690475999975,
              10.687831078000102
            ],
            [
              -63.390861479999955,
              10.68686804500004
            ],
            [
              -63.391123482999944,
              10.68625402500004
            ],
            [
              -63.391920520999975,
              10.685548
            ],
            [
              -63.39271754699996,
              10.684842980000099
            ],
            [
              -63.39315656599996,
              10.684052951000012
            ],
            [
              -63.39341657999995,
              10.683000919
            ],
            [
              -63.39349957899998,
              10.682213895000075
            ],
            [
              -63.393940585999985,
              10.68159787500008
            ],
            [
              -63.394382609999866,
              10.681157863000124
            ],
            [
              -63.39499663299995,
              10.67992882800013
            ],
            [
              -63.39544165099983,
              10.679750819000049
            ],
            [
              -63.39597766899993,
              10.680009827000163
            ],
            [
              -63.3962476829999,
              10.680269829000167
            ],
            [
              -63.39678271799994,
              10.680266822000021
            ],
            [
              -63.396958715999915,
              10.68000282100013
            ],
            [
              -63.39686671099997,
              10.679653808000126
            ],
            [
              -63.39650869199994,
              10.679480805000082
            ],
            [
              -63.396238677999975,
              10.679132798000182
            ],
            [
              -63.396056667999915,
              10.67860977600003
            ],
            [
              -63.39623067799994,
              10.67808376000005
            ],
            [
              -63.3967606949999,
              10.677467740000054
            ],
            [
              -63.39738372299985,
              10.677375735000169
            ],
            [
              -63.39809575099997,
              10.677283730000113
            ],
            [
              -63.39916580899995,
              10.677275731000066
            ],
            [
              -63.39976741399988,
              10.677507215000048
            ],
            [
              -63.40005984599992,
              10.6776197370001
            ],
            [
              -63.40050887599995,
              10.678053736000038
            ],
            [
              -63.40051386899995,
              10.678666762000148
            ],
            [
              -63.40016186199995,
              10.679280783000081
            ],
            [
              -63.399808847999964,
              10.679720794000161
            ],
            [
              -63.39981685999999,
              10.680770826000128
            ],
            [
              -63.39990785899988,
              10.681032827000081
            ],
            [
              -63.39999986399994,
              10.681468839000104
            ],
            [
              -63.40000587499998,
              10.682168864000175
            ],
            [
              -63.40009988099996,
              10.682867883000029
            ],
            [
              -63.40019188499991,
              10.683217889000048
            ],
            [
              -63.40028388999991,
              10.683566902000052
            ],
            [
              -63.400196890999894,
              10.683829910000156
            ],
            [
              -63.399934875999975,
              10.684531935000052
            ],
            [
              -63.39967087299988,
              10.684970940000028
            ],
            [
              -63.399584868999966,
              10.685408963000157
            ],
            [
              -63.39958987399996,
              10.686020972000051
            ],
            [
              -63.39959287999994,
              10.686457989000075
            ],
            [
              -63.399861888999965,
              10.68663198600018
            ],
            [
              -63.40003989899998,
              10.686629986000185
            ],
            [
              -63.40021490299995,
              10.6861919750001
            ],
            [
              -63.40030190199997,
              10.685928967000166
            ],
            [
              -63.40056791599994,
              10.685663959000067
            ],
            [
              -63.40092193599992,
              10.685399945000086
            ],
            [
              -63.401630956999895,
              10.684869929000115
            ],
            [
              -63.402336983999874,
              10.683989907000125
            ],
            [
              -63.40286800699994,
              10.683461879000163
            ],
            [
              -63.403038005999974,
              10.682410853000022
            ],
            [
              -63.40276299699997,
              10.681450826000116
            ],
            [
              -63.40249197599991,
              10.680927816000178
            ],
            [
              -63.40248597599992,
              10.680139787000087
            ],
            [
              -63.40247897099988,
              10.67926576400015
            ],
            [
              -63.40291797799989,
              10.678387742000155
            ],
            [
              -63.403449000999956,
              10.677858720000074
            ],
            [
              -63.404068028999916,
              10.677242698999976
            ],
            [
              -63.40424103299995,
              10.676628678999975
            ],
            [
              -63.40504007099997,
              10.676186667000024
            ],
            [
              -63.405842102999884,
              10.676180656000156
            ],
            [
              -63.40619812199998,
              10.676090651000095
            ],
            [
              -63.40673013999992,
              10.675824649000106
            ],
            [
              -63.40726016899998,
              10.675121617000173
            ],
            [
              -63.4074351729999,
              10.674682612000026
            ],
            [
              -63.407254157999944,
              10.674421604000088
            ],
            [
              -63.40627310999986,
              10.674340606000158
            ],
            [
              -63.40582909799997,
              10.67451861500001
            ],
            [
              -63.405562088999886,
              10.674520615
            ],
            [
              -63.40520306399998,
              10.67426060200006
            ],
            [
              -63.404932054999904,
              10.67373759200018
            ],
            [
              -63.40448403099998,
              10.673478584000065
            ],
            [
              -63.40412700499991,
              10.673393585000042
            ],
            [
              -63.403767991999985,
              10.67313358299998
            ],
            [
              -63.403497976999915,
              10.672784572000182
            ],
            [
              -63.40366898099995,
              10.671821550000061
            ],
            [
              -63.40366197599997,
              10.670946522000122
            ],
            [
              -63.40418799299988,
              10.669806485000038
            ],
            [
              -63.40462800599988,
              10.669015462000061
            ],
            [
              -63.40524903399995,
              10.66866144300019
            ],
            [
              -63.4058710679999,
              10.66848244
            ],
            [
              -63.40631408699994,
              10.668129427000054
            ],
            [
              -63.40648909099997,
              10.667690410000034
            ],
            [
              -63.40702411399991,
              10.667687404000162
            ],
            [
              -63.40773714699992,
              10.667682410000054
            ],
            [
              -63.408271163999984,
              10.667591399000116
            ],
            [
              -63.40835617499988,
              10.667065383000079
            ],
            [
              -63.40835516899989,
              10.666890380000098
            ],
            [
              -63.408085153999934,
              10.666542374000073
            ],
            [
              -63.40781513999997,
              10.66619435500013
            ],
            [
              -63.40709810699997,
              10.665762356000187
            ],
            [
              -63.40694709499991,
              10.665690352000126
            ],
            [
              -63.40761812199992,
              10.66544033700012
            ],
            [
              -63.408104149999986,
              10.665076327000179
            ],
            [
              -63.40854916599989,
              10.664694318000102
            ],
            [
              -63.409057189999885,
              10.664313303000142
            ],
            [
              -63.40950320099995,
              10.664121292000118
            ],
            [
              -63.40994922499982,
              10.664055293000104
            ],
            [
              -63.410268241999916,
              10.664054286000066
            ],
            [
              -63.410843270999976,
              10.664050286000133
            ],
            [
              -63.41135428899997,
              10.664111278000178
            ],
            [
              -63.41180231199991,
              10.664298282
            ],
            [
              -63.412441342999955,
              10.664547284000037
            ],
            [
              -63.413207377999925,
              10.664543283000114
            ],
            [
              -63.41378140099988,
              10.664413272000104
            ],
            [
              -63.414289423999946,
              10.664032269000131
            ],
            [
              -63.41467143499989,
              10.66371424800019
            ],
            [
              -63.4147324409999,
              10.663335245000042
            ],
            [
              -63.41447542199995,
              10.662894232000042
            ],
            [
              -63.41415440399993,
              10.662706223000043
            ],
            [
              -63.413451374999966,
              10.662521219000155
            ],
            [
              -63.41302435399996,
              10.662471224
            ],
            [
              -63.412727343999904,
              10.662473224
            ],
            [
              -63.412494332999984,
              10.662526227000058
            ],
            [
              -63.411983303999875,
              10.662466228000142
            ],
            [
              -63.411982309999985,
              10.662276230000032
            ],
            [
              -63.412235314999975,
              10.661959215000024
            ],
            [
              -63.41261733799996,
              10.661705204000043
            ],
            [
              -63.413190355999916,
              10.661512200000061
            ],
            [
              -63.413764390999916,
              10.661446187000024
            ],
            [
              -63.41478543099993,
              10.66131418700013
            ],
            [
              -63.41529345499987,
              10.660932167000112
            ],
            [
              -63.416442506999886,
              10.66086316000019
            ],
            [
              -63.417016530999945,
              10.660860153000044
            ],
            [
              -63.41765455399991,
              10.660793147
            ],
            [
              -63.41787156399994,
              10.660682153000039
            ],
            [
              -63.41806157599984,
              10.660513144
            ],
            [
              -63.41828958199994,
              10.660222133
            ],
            [
              -63.418988610999975,
              10.659713119000173
            ],
            [
              -63.419688645999884,
              10.659267099000033
            ],
            [
              -63.42019866899983,
              10.659201087000099
            ],
            [
              -63.42051968699991,
              10.65945210200016
            ],
            [
              -63.420520680999914,
              10.659704100000056
            ],
            [
              -63.420458681999946,
              10.660020109000186
            ],
            [
              -63.4201416759999,
              10.660338130000127
            ],
            [
              -63.41975865899991,
              10.66040312400014
            ],
            [
              -63.41905963099998,
              10.66097515500013
            ],
            [
              -63.41842359599997,
              10.661420170000099
            ],
            [
              -63.41765956099988,
              10.661740180000095
            ],
            [
              -63.41676651999995,
              10.661808180000037
            ],
            [
              -63.41600149099992,
              10.661876192000022
            ],
            [
              -63.415820477999944,
              10.661952194000094
            ],
            [
              -63.41569447799992,
              10.662163207000049
            ],
            [
              -63.41574848599993,
              10.662382212000125
            ],
            [
              -63.41606849699997,
              10.662443205000102
            ],
            [
              -63.416770532999976,
              10.66244020900001
            ],
            [
              -63.41709054399996,
              10.662564208000106
            ],
            [
              -63.417474556999935,
              10.662878216000138
            ],
            [
              -63.41766856899983,
              10.663318224000136
            ],
            [
              -63.41775957999988,
              10.663557226000023
            ],
            [
              -63.4179895879999,
              10.66369523800006
            ],
            [
              -63.41850061699995,
              10.663693225000145
            ],
            [
              -63.41888262799989,
              10.663564220000069
            ],
            [
              -63.41932865199988,
              10.663436220000108
            ],
            [
              -63.41951965699997,
              10.66324521600012
            ],
            [
              -63.41955966199998,
              10.663044209000077
            ],
            [
              -63.41951665099998,
              10.662803197000073
            ],
            [
              -63.41919663899995,
              10.662679197999978
            ],
            [
              -63.418749620999904,
              10.662618194000117
            ],
            [
              -63.41855661499994,
              10.662367190000111
            ],
            [
              -63.41855460299996,
              10.661988176000023
            ],
            [
              -63.418744613999934,
              10.661734178000131
            ],
            [
              -63.41918963099994,
              10.66141615700002
            ],
            [
              -63.41950864799992,
              10.661288158
            ],
            [
              -63.41995467199996,
              10.661159153000085
            ],
            [
              -63.42046368899997,
              10.660967142000118
            ],
            [
              -63.42129272999995,
              10.660710125000037
            ],
            [
              -63.42205775899998,
              10.660706124000171
            ],
            [
              -63.42263278899998,
              10.660766123000087
            ],
            [
              -63.423398823999946,
              10.660762122
            ],
            [
              -63.424739887999976,
              10.66081711400011
            ],
            [
              -63.42576092999997,
              10.660875112000099
            ],
            [
              -63.42703999399993,
              10.661183108000046
            ],
            [
              -63.42768001799993,
              10.66155911500016
            ],
            [
              -63.42793804299998,
              10.662062128000116
            ],
            [
              -63.42813304899994,
              10.662693150999985
            ],
            [
              -63.42813704999992,
              10.66332416299997
            ],
            [
              -63.42833006899991,
              10.663702183000169
            ],
            [
              -63.42871508699989,
              10.664078191000044
            ],
            [
              -63.42903709899997,
              10.66451819800011
            ],
            [
              -63.42948712299989,
              10.6651472100001
            ],
            [
              -63.42993714799991,
              10.66571322700014
            ],
            [
              -63.43096119499984,
              10.666149234000045
            ],
            [
              -63.431664235999904,
              10.666335231000062
            ],
            [
              -63.432367265999915,
              10.666520234000188
            ],
            [
              -63.43281428299997,
              10.666518233000147
            ],
            [
              -63.43345231899997,
              10.666514233000157
            ],
            [
              -63.43389933599991,
              10.6664492270001
            ],
            [
              -63.43472737099995,
              10.666191217000062
            ],
            [
              -63.435427404999984,
              10.665746202000093
            ],
            [
              -63.435935416999826,
              10.66536418100003
            ],
            [
              -63.43637943899995,
              10.664856161999978
            ],
            [
              -63.43669544999989,
              10.664286143000027
            ],
            [
              -63.43701045499995,
              10.663653131000046
            ],
            [
              -63.43700645399997,
              10.662833103000025
            ],
            [
              -63.43700144699983,
              10.66207508600013
            ],
            [
              -63.436997445999964,
              10.661318063000067
            ],
            [
              -63.43693144499997,
              10.66087604400019
            ],
            [
              -63.43680143399996,
              10.660561041000165
            ],
            [
              -63.43648041599988,
              10.660247033000132
            ],
            [
              -63.43603339799995,
              10.660186040000156
            ],
            [
              -63.43571437999992,
              10.660188041000026
            ],
            [
              -63.43520635699997,
              10.660570049
            ],
            [
              -63.43488834599998,
              10.66082405900005
            ],
            [
              -63.43425032199991,
              10.660828060000142
            ],
            [
              -63.43380229899998,
              10.66070406199998
            ],
            [
              -63.43335227399996,
              10.66001204500003
            ],
            [
              -63.43321926799996,
              10.659192017000066
            ],
            [
              -63.43315125399994,
              10.658307991000072
            ],
            [
              -63.43314725399995,
              10.657739984000045
            ],
            [
              -63.43320624599994,
              10.656792951000114
            ],
            [
              -63.433393250999984,
              10.656096934
            ],
            [
              -63.433773261999875,
              10.655589920000182
            ],
            [
              -63.43409128499991,
              10.655272905000118
            ],
            [
              -63.43459929599993,
              10.65489089600004
            ],
            [
              -63.4353623369999,
              10.654444875000024
            ],
            [
              -63.43618936599995,
              10.653934855999978
            ],
            [
              -63.43778143499998,
              10.653231830000095
            ],
            [
              -63.4386094699999,
              10.652974814000174
            ],
            [
              -63.43937450999988,
              10.652717798000026
            ],
            [
              -63.44013953999996,
              10.652650791000099
            ],
            [
              -63.44115482199993,
              10.652586221000035
            ],
            [
              -63.44117730699992,
              10.652113156999974
            ],
            [
              -63.4412265659999,
              10.65092695400017
            ],
            [
              -63.441292955999984,
              10.649328216000072
            ],
            [
              -63.441395223999905,
              10.646865508000019
            ],
            [
              -63.441406,
              10.646606
            ],
            [
              -63.441048,
              10.645817000000136
            ],
            [
              -63.432856,
              10.64152700000011
            ],
            [
              -63.417632,
              10.654941000000122
            ],
            [
              -63.411759,
              10.659182
            ],
            [
              -63.397844,
              10.66763
            ],
            [
              -63.3905529999999,
              10.663391000000104
            ],
            [
              -63.38317799999987,
              10.653039000000149
            ],
            [
              -63.351806,
              10.648528000000113
            ],
            [
              -63.339031,
              10.632628000000125
            ],
            [
              -63.331585,
              10.622666
            ],
            [
              -63.33101,
              10.622648
            ],
            [
              -63.330749,
              10.622323000000108
            ],
            [
              -63.310316,
              10.621994
            ],
            [
              -63.28775,
              10.621662000000129
            ],
            [
              -63.27772199999987,
              10.621469000000161
            ],
            [
              -63.272262999999896,
              10.650416000000178
            ],
            [
              -63.27252234699995,
              10.657662395000159
            ],
            [
              -63.272639081999955,
              10.660924058000091
            ],
            [
              -63.272686,
              10.662235
            ],
            [
              -63.27425,
              10.663142000000107
            ],
            [
              -63.272793,
              10.664497000000154
            ],
            [
              -63.270964999999876,
              10.665968
            ],
            [
              -63.27055341599993,
              10.667117449000159
            ],
            [
              -63.26907982499995,
              10.671232811000095
            ],
            [
              -63.26776924799998,
              10.674892918000182
            ],
            [
              -63.26768142099991,
              10.67513819800007
            ],
            [
              -63.26763715999988,
              10.675261807000084
            ],
            [
              -63.26766677799992,
              10.675387382000054
            ],
            [
              -63.269002842999896,
              10.67593539699999
            ],
            [
              -63.26969287899988,
              10.676648414000113
            ],
            [
              -63.2708899349999,
              10.677186425000116
            ],
            [
              -63.2715169629999,
              10.677511430000095
            ],
            [
              -63.27270201099998,
              10.677326416000085
            ],
            [
              -63.27303803299992,
              10.677099403000057
            ],
            [
              -63.27337404299993,
              10.676871397000184
            ],
            [
              -63.273537055999896,
              10.676480391000155
            ],
            [
              -63.27358905099993,
              10.676201382999977
            ],
            [
              -63.27341204399994,
              10.675759365000033
            ],
            [
              -63.27312201999996,
              10.675318352000033
            ],
            [
              -63.27277900699988,
              10.67504535400019
            ],
            [
              -63.27271799699997,
              10.674768346000178
            ],
            [
              -63.272712,
              10.674434326999972
            ],
            [
              -63.273047015999964,
              10.674151321000181
            ],
            [
              -63.27332602699994,
              10.673925313000154
            ],
            [
              -63.273660036999956,
              10.67358630300015
            ],
            [
              -63.27400005699991,
              10.673581299000091
            ],
            [
              -63.27428407199989,
              10.673688305000098
            ],
            [
              -63.27484909599991,
              10.67362430300011
            ],
            [
              -63.275128106999944,
              10.673397290000082
            ],
            [
              -63.27534711299984,
              10.672949274000132
            ],
            [
              -63.27539710899998,
              10.672559262
            ],
            [
              -63.275387112999965,
              10.67189224200007
            ],
            [
              -63.275377104999905,
              10.671281226000133
            ],
            [
              -63.27525209399988,
              10.670559207000167
            ],
            [
              -63.27501508199998,
              10.669896185000027
            ],
            [
              -63.27472305899988,
              10.669288175000133
            ],
            [
              -63.274262036999914,
              10.668795167000042
            ],
            [
              -63.27397202499992,
              10.668354154000042
            ],
            [
              -63.273738006999906,
              10.667857136000123
            ],
            [
              -63.27373301399996,
              10.667524122000145
            ],
            [
              -63.273726010999894,
              10.667079110999964
            ],
            [
              -63.27383201299989,
              10.666632101000118
            ],
            [
              -63.274332028999936,
              10.666069081000103
            ],
            [
              -63.27617710299995,
              10.664707028000123
            ],
            [
              -63.2773521549999,
              10.663910999000052
            ],
            [
              -63.27791217599997,
              10.663568995000162
            ],
            [
              -63.27841620299995,
              10.663282985000137
            ],
            [
              -63.278923221999946,
              10.66316397200012
            ],
            [
              -63.27971326299996,
              10.66304097200009
            ],
            [
              -63.281127325999876,
              10.663019962000135
            ],
            [
              -63.28191935299998,
              10.663007955000126
            ],
            [
              -63.282766392999974,
              10.66293994299997
            ],
            [
              -63.283275423999896,
              10.662932940000019
            ],
            [
              -63.284238460999916,
              10.663028945000065
            ],
            [
              -63.28492249999994,
              10.663352944000167
            ],
            [
              -63.28532351699988,
              10.66362494800012
            ],
            [
              -63.28770763299997,
              10.664144954000108
            ],
            [
              -63.289180694999914,
              10.664289949000135
            ],
            [
              -63.291512814999976,
              10.665089955999974
            ],
            [
              -63.29350090499997,
              10.665615959999968
            ],
            [
              -63.295948016999944,
              10.66652497300015
            ],
            [
              -63.29902116399995,
              10.667701992000104
            ],
            [
              -63.30090526299995,
              10.668730018000076
            ],
            [
              -63.30244333199994,
              10.669430023000189
            ],
            [
              -63.302790354999956,
              10.66987004200007
            ],
            [
              -63.30302336799997,
              10.670311043000083
            ],
            [
              -63.30295836399989,
              10.67047405600016
            ],
            [
              -63.302959370999986,
              10.670706057000075
            ],
            [
              -63.303032370999915,
              10.670867059000045
            ],
            [
              -63.30308837699994,
              10.671015065000063
            ],
            [
              -63.30318337299997,
              10.671153078000032
            ],
            [
              -63.30332238299991,
              10.671308072000045
            ],
            [
              -63.3034853989999,
              10.67144507900008
            ],
            [
              -63.30360839699995,
              10.671526082000128
            ],
            [
              -63.30380040799997,
              10.671505079000099
            ],
            [
              -63.30394641699996,
              10.671410074000107
            ],
            [
              -63.30399841299999,
              10.671131066000157
            ],
            [
              -63.304016409999974,
              10.67096205900009
            ],
            [
              -63.303934409999954,
              10.670687049000094
            ],
            [
              -63.303950408999924,
              10.670483049999973
            ],
            [
              -63.30409841699992,
              10.670351042999982
            ],
            [
              -63.30460743599991,
              10.670343046000141
            ],
            [
              -63.30479944699994,
              10.670277036000186
            ],
            [
              -63.30508346099998,
              10.670322041000077
            ],
            [
              -63.30534447499997,
              10.670443037000155
            ],
            [
              -63.30597550099998,
              10.670935051000185
            ],
            [
              -63.30768659099988,
              10.67179907200017
            ],
            [
              -63.30791459999995,
              10.671973069000103
            ],
            [
              -63.308042601999944,
              10.672219071000029
            ],
            [
              -63.308186614999954,
              10.672512078000182
            ],
            [
              -63.308267620999914,
              10.672774092
            ],
            [
              -63.308316626999954,
              10.67299009300001
            ],
            [
              -63.30838762899998,
              10.673234109000134
            ],
            [
              -63.30858763599991,
              10.673483114000078
            ],
            [
              -63.30880964999989,
              10.673636109000029
            ],
            [
              -63.309018654999875,
              10.673725118
            ],
            [
              -63.30952867899998,
              10.673829119000175
            ],
            [
              -63.3097876949999,
              10.67386211000013
            ],
            [
              -63.31000770899993,
              10.673845116000166
            ],
            [
              -63.31026471299987,
              10.67381810500018
            ],
            [
              -63.310598735999974,
              10.673534106000034
            ],
            [
              -63.31093274699998,
              10.673196089000044
            ],
            [
              -63.3114997699999,
              10.673243091000188
            ],
            [
              -63.31201279899989,
              10.673513097000125
            ],
            [
              -63.313320859999976,
              10.673938092000071
            ],
            [
              -63.314859934999845,
              10.67463810900017
            ],
            [
              -63.315150951999954,
              10.674893109000095
            ],
            [
              -63.31529395899997,
              10.67512411600012
            ],
            [
              -63.31542195999998,
              10.675402129000133
            ],
            [
              -63.315498969999965,
              10.675685133000115
            ],
            [
              -63.31556397799994,
              10.676240155000187
            ],
            [
              -63.31545797599995,
              10.676631161000046
            ],
            [
              -63.31478794399993,
              10.677197185000125
            ],
            [
              -63.31462793599991,
              10.67781219800014
            ],
            [
              -63.31446893299989,
              10.678481218000059
            ],
            [
              -63.314477935999946,
              10.679037233000145
            ],
            [
              -63.31481795499991,
              10.679032241000073
            ],
            [
              -63.31532297599995,
              10.678802224000151
            ],
            [
              -63.31565999099996,
              10.678630222000152
            ],
            [
              -63.31579261799993,
              10.678628167000056
            ],
            [
              -63.31611201099997,
              10.67862321900003
            ],
            [
              -63.316793043999894,
              10.678724216000091
            ],
            [
              -63.317078052999875,
              10.678887214999975
            ],
            [
              -63.317025051999906,
              10.679163230000029
            ],
            [
              -63.31704205799991,
              10.67934923100006
            ],
            [
              -63.31709106399995,
              10.679503232000059
            ],
            [
              -63.31720306499983,
              10.679608241000153
            ],
            [
              -63.317407079999896,
              10.679717246
            ],
            [
              -63.317549080999925,
              10.679747246000034
            ],
            [
              -63.317657082999915,
              10.679712242000164
            ],
            [
              -63.31804911099994,
              10.679484236000121
            ],
            [
              -63.31844012099987,
              10.679144219000136
            ],
            [
              -63.318584130999966,
              10.67902921700005
            ],
            [
              -63.31880413399995,
              10.678997217000017
            ],
            [
              -63.31904914699999,
              10.679037209000171
            ],
            [
              -63.319765185999984,
              10.679382221000083
            ],
            [
              -63.320482218999985,
              10.679902225000149
            ],
            [
              -63.32137626799988,
              10.680333242000188
            ],
            [
              -63.32227030399997,
              10.680590237000047
            ],
            [
              -63.323164352999925,
              10.680934243000081
            ],
            [
              -63.323879385999874,
              10.68119224500009
            ],
            [
              -63.324863427999844,
              10.681710260999978
            ],
            [
              -63.325491461999945,
              10.682318269
            ],
            [
              -63.32567347199989,
              10.682755285000098
            ],
            [
              -63.32567647799988,
              10.683192291000069
            ],
            [
              -63.325501473999964,
              10.683630315000073
            ],
            [
              -63.32559347899996,
              10.683980321000035
            ],
            [
              -63.32586248699988,
              10.684153324000079
            ],
            [
              -63.32621950099997,
              10.684326327000065
            ],
            [
              -63.326752524999904,
              10.684060313000089
            ],
            [
              -63.3271055379999,
              10.683620302
            ],
            [
              -63.32745755699989,
              10.682918276
            ],
            [
              -63.32744954599997,
              10.681956249000109
            ],
            [
              -63.327355540999974,
              10.68125623700007
            ],
            [
              -63.32708452099996,
              10.680821219000165
            ],
            [
              -63.32672451299999,
              10.680298210000103
            ],
            [
              -63.32627448899996,
              10.679776194000112
            ],
            [
              -63.32591346299995,
              10.679166174000102
            ],
            [
              -63.32564244199989,
              10.678643164000164
            ],
            [
              -63.32555043699995,
              10.678207152000141
            ],
            [
              -63.32554643699996,
              10.67768214300014
            ],
            [
              -63.325722446999976,
              10.677418129000102
            ],
            [
              -63.32616645899992,
              10.67715312100006
            ],
            [
              -63.32652247899989,
              10.677150115000131
            ],
            [
              -63.32723351199991,
              10.676883107000094
            ],
            [
              -63.327677524999956,
              10.67661809800012
            ],
            [
              -63.327942544999985,
              10.676354084000081
            ],
            [
              -63.32829354699999,
              10.675652071
            ],
            [
              -63.32855455599997,
              10.674775043000125
            ],
            [
              -63.328725558999906,
              10.673724005
            ],
            [
              -63.32876455799993,
              10.673458999000104
            ],
            [
              -63.32879455899996,
              10.673288997999975
            ],
            [
              -63.32882455899994,
              10.673009991000072
            ],
            [
              -63.32880756399993,
              10.672761978000096
            ],
            [
              -63.32880455899988,
              10.672499975000164
            ],
            [
              -63.32869255799994,
              10.672253962000127
            ],
            [
              -63.32853353799993,
              10.671888961000036
            ],
            [
              -63.32837253099984,
              10.671606951000172
            ],
            [
              -63.328277523999986,
              10.671452939000062
            ],
            [
              -63.32826052899998,
              10.67119093600013
            ],
            [
              -63.328163522999944,
              10.670973930000116
            ],
            [
              -63.328114516999904,
              10.670711928000117
            ],
            [
              -63.328165517999935,
              10.670403913000087
            ],
            [
              -63.3281415109999,
              10.670139912000025
            ],
            [
              -63.32821851799997,
              10.669906905
            ],
            [
              -63.32833852199997,
              10.669702894000125
            ],
            [
              -63.32878254599984,
              10.669437885000093
            ],
            [
              -63.32890754199997,
              10.66937687800015
            ],
            [
              -63.329063555999824,
              10.669267883000089
            ],
            [
              -63.32931355799997,
              10.668996868000136
            ],
            [
              -63.329454564999935,
              10.668878862000156
            ],
            [
              -63.329784579999966,
              10.668798862000074
            ],
            [
              -63.330147600999965,
              10.668796862000079
            ],
            [
              -63.33064961899987,
              10.66881285900007
            ],
            [
              -63.33287672299991,
              10.668710841000177
            ],
            [
              -63.33510482199989,
              10.668695823000178
            ],
            [
              -63.33733293199987,
              10.668680816000062
            ],
            [
              -63.33920700999994,
              10.668930817000103
            ],
            [
              -63.34072608699995,
              10.669445815000074
            ],
            [
              -63.34447926199988,
              10.670820833000164
            ],
            [
              -63.34725240799992,
              10.672201865000034
            ],
            [
              -63.35011453899995,
              10.67340788000007
            ],
            [
              -63.352887671999895,
              10.67478891200011
            ],
            [
              -63.356827862999864,
              10.677211951000118
            ],
            [
              -63.35799493199988,
              10.678340981000076
            ],
            [
              -63.358445950999965,
              10.679037999000059
            ],
            [
              -63.358806975999926,
              10.679648020000172
            ],
            [
              -63.35881297499998,
              10.680348033000087
            ],
            [
              -63.35854696099989,
              10.680612047000068
            ],
            [
              -63.35819095299985,
              10.680614047000063
            ],
            [
              -63.35774492899998,
              10.680617053000105
            ],
            [
              -63.35765792999996,
              10.680880061000039
            ],
            [
              -63.35774793499996,
              10.68105506400002
            ],
            [
              -63.35810594299994,
              10.681227062000062
            ],
            [
              -63.35855196699998,
              10.68122405600019
            ],
            [
              -63.35899698599991,
              10.68122106100003
            ],
            [
              -63.35925499599995,
              10.681295063000107
            ],
            [
              -63.35949300999994,
              10.681448058000058
            ],
            [
              -63.35980403499991,
              10.68174106500004
            ],
            [
              -63.35990703699997,
              10.682095079000021
            ],
            [
              -63.3600830499999,
              10.682403081000132
            ],
            [
              -63.360257051999895,
              10.682556089000173
            ],
            [
              -63.3604350629999,
              10.682699091000075
            ],
            [
              -63.361512115999915,
              10.683741123000175
            ],
            [
              -63.361606120999966,
              10.684353130999966
            ],
            [
              -63.3617921419999,
              10.685314164000033
            ],
            [
              -63.36179614199989,
              10.685926173000098
            ],
            [
              -63.36180215299993,
              10.686626198000056
            ],
            [
              -63.36162814399995,
              10.687240218000056
            ],
            [
              -63.36189915299997,
              10.687763228000165
            ],
            [
              -63.362171178999915,
              10.688286249000157
            ],
            [
              -63.362175178999905,
              10.688898258000108
            ],
            [
              -63.36217917899995,
              10.689423280000028
            ],
            [
              -63.36218317899994,
              10.689860285
            ],
            [
              -63.36262920299998,
              10.689945295000143
            ],
            [
              -63.36298421699996,
              10.689767287000166
            ],
            [
              -63.36333523099995,
              10.689065261000167
            ],
            [
              -63.363510233999875,
              10.688539245000129
            ],
            [
              -63.363776248999955,
              10.688363236000043
            ],
            [
              -63.363951252999925,
              10.688011230000086
            ],
            [
              -63.36394824699988,
              10.68757421200013
            ],
            [
              -63.36358723299992,
              10.686964204000105
            ],
            [
              -63.36313720899983,
              10.686442188000115
            ],
            [
              -63.36251018099989,
              10.68600917100008
            ],
            [
              -63.362328170999945,
              10.685485168000127
            ],
            [
              -63.36214715499989,
              10.685137149000013
            ],
            [
              -63.36214115599995,
              10.6844371360001
            ],
            [
              -63.36267117299991,
              10.683821115
            ],
            [
              -63.36346720499995,
              10.682941081000024
            ],
            [
              -63.36462224999997,
              10.682408059000181
            ],
            [
              -63.36568730299996,
              10.681876043000045
            ],
            [
              -63.36639732999993,
              10.68143401900005
            ],
            [
              -63.36719636799995,
              10.680992007000043
            ],
            [
              -63.36826441499994,
              10.680808992000095
            ],
            [
              -63.369066446999966,
              10.680803986000058
            ],
            [
              -63.36960146999991,
              10.680799986000068
            ],
            [
              -63.36995448399989,
              10.680447979000178
            ],
            [
              -63.369952483999896,
              10.680097961000172
            ],
            [
              -63.37039550199995,
              10.679744948000177
            ],
            [
              -63.3711065359999,
              10.679565944000103
            ],
            [
              -63.37199857199994,
              10.679559944000175
            ],
            [
              -63.372802615999944,
              10.679816939000034
            ],
            [
              -63.37316162899998,
              10.680163952000044
            ],
            [
              -63.37322366999996,
              10.680458629000157
            ],
            [
              -63.37325363499991,
              10.680600957000024
            ],
            [
              -63.37343564399998,
              10.681036969000047
            ],
            [
              -63.37379366399995,
              10.681296982000163
            ],
            [
              -63.37432969299988,
              10.681467986000087
            ],
            [
              -63.374773716999925,
              10.681202977000112
            ],
            [
              -63.375485743999945,
              10.681110960000069
            ],
            [
              -63.376023773999975,
              10.681544971000164
            ],
            [
              -63.37656380199991,
              10.682152992000113
            ],
            [
              -63.37676180899996,
              10.68216699200002
            ],
            [
              -63.37690281699997,
              10.682088991000057
            ],
            [
              -63.377096825999956,
              10.681886978000136
            ],
            [
              -63.377451838999946,
              10.681709974000057
            ],
            [
              -63.37807586099996,
              10.681705974000067
            ],
            [
              -63.37852289199998,
              10.681877971000176
            ],
            [
              -63.38057998599993,
              10.682825986000012
            ],
            [
              -63.38326611999997,
              10.684470025000053
            ],
            [
              -63.38550923599985,
              10.686379061000082
            ],
            [
              -63.386856302999945,
              10.687682088000031
            ],
            [
              -63.38712731099997,
              10.688118099000121
            ],
            [
              -63.38713231699995,
              10.68881711900002
            ],
            [
              -63.38749233599998,
              10.68925213600005
            ],
            [
              -63.38749633599997,
              10.689690146000089
            ],
            [
              -63.38749834799995,
              10.690040153000155
            ],
            [
              -63.38705532899996,
              10.690305161000083
            ],
            [
              -63.38678830899988,
              10.690394172000026
            ],
            [
              -63.386343290999946,
              10.690485171000034
            ],
            [
              -63.38607828199986,
              10.690749185000016
            ],
            [
              -63.385903277999944,
              10.691188201000102
            ]
          ]
        ]
      }
    },
    {
      "type": "Feature",
      "properties": {
        "Pais": "Venezuela",
        "Estado": "Sucre",
        "Municipio": "Bermúdez",
        "Parroquia": "Macarapana"
      },
      "geometry": {
        "type": "Polygon",
        "coordinates": [
          [
            [
              -63.170753,
              10.628204000000153
            ],
            [
              -63.170720999999844,
              10.62968300000017
            ],
            [
              -63.17331,
              10.632557
            ],
            [
              -63.17392,
              10.63403000000011
            ],
            [
              -63.17492799999985,
              10.636958
            ],
            [
              -63.175736,
              10.639457
            ],
            [
              -63.178616,
              10.64064500000012
            ],
            [
              -63.180201,
              10.642727
            ],
            [
              -63.18254899999988,
              10.643979000000115
            ],
            [
              -63.185361,
              10.646548
            ],
            [
              -63.187074,
              10.648971000000188
            ],
            [
              -63.187655,
              10.650972
            ],
            [
              -63.187503999999876,
              10.653343
            ],
            [
              -63.187907,
              10.655603
            ],
            [
              -63.18864,
              10.658633
            ],
            [
              -63.189216,
              10.661163000000158
            ],
            [
              -63.188566,
              10.663230000000112
            ],
            [
              -63.191222,
              10.663372000000152
            ],
            [
              -63.19445899999988,
              10.665359
            ],
            [
              -63.196384,
              10.667657000000133
            ],
            [
              -63.198774,
              10.667572000000177
            ],
            [
              -63.224733,
              10.671255
            ],
            [
              -63.230211,
              10.660399000000155
            ],
            [
              -63.223348,
              10.65687
            ],
            [
              -63.170753,
              10.628204000000153
            ]
          ]
        ]
      }
    },
    {
      "type": "Feature",
      "properties": {
        "Pais": "Venezuela",
        "Estado": "Sucre",
        "Municipio": "Bermúdez",
        "Parroquia": "Santa Catalina"
      },
      "geometry": {
        "type": "Polygon",
        "coordinates": [
          [
            [
              -63.26721273099986,
              10.670123238000087
            ],
            [
              -63.267623743999934,
              10.671062263000067
            ],
            [
              -63.26763274699988,
              10.671618279000029
            ],
            [
              -63.26753374799995,
              10.672509307000041
            ],
            [
              -63.26731875199994,
              10.673236331000169
            ],
            [
              -63.26750175699988,
              10.67406735600008
            ],
            [
              -63.267512757999896,
              10.674734364000017
            ],
            [
              -63.26763715999988,
              10.675261807000084
            ],
            [
              -63.26768142099991,
              10.67513819800007
            ],
            [
              -63.26776924799998,
              10.674892918000182
            ],
            [
              -63.26907982499995,
              10.671232811000095
            ],
            [
              -63.27055341599993,
              10.667117449000159
            ],
            [
              -63.270964999999876,
              10.665968
            ],
            [
              -63.272793,
              10.664497000000154
            ],
            [
              -63.27425,
              10.663142000000107
            ],
            [
              -63.272686,
              10.662235
            ],
            [
              -63.272639081999955,
              10.660924058000091
            ],
            [
              -63.27252234699995,
              10.657662395000159
            ],
            [
              -63.272262999999896,
              10.650416000000178
            ],
            [
              -63.27772199999987,
              10.621469000000161
            ],
            [
              -63.26668599999988,
              10.590257000000122
            ],
            [
              -63.26668499999988,
              10.590256
            ],
            [
              -63.263975,
              10.582591
            ],
            [
              -63.261405,
              10.55904100000015
            ],
            [
              -63.261405,
              10.55904
            ],
            [
              -63.258629,
              10.533604
            ],
            [
              -63.25810799999988,
              10.532200000000103
            ],
            [
              -63.207305,
              10.541756
            ],
            [
              -63.2082,
              10.56364
            ],
            [
              -63.236554,
              10.58532600000018
            ],
            [
              -63.231078,
              10.597088
            ],
            [
              -63.2281,
              10.598606
            ],
            [
              -63.225015,
              10.599852000000169
            ],
            [
              -63.222731,
              10.602793000000133
            ],
            [
              -63.2181599999999,
              10.604154000000108
            ],
            [
              -63.216561,
              10.605399
            ],
            [
              -63.212562,
              10.607776000000172
            ],
            [
              -63.21165,
              10.610264000000143
            ],
            [
              -63.208499,
              10.610175
            ],
            [
              -63.20653999999985,
              10.615851
            ],
            [
              -63.205923,
              10.616069
            ],
            [
              -63.206407,
              10.616097000000138
            ],
            [
              -63.2098299999999,
              10.616479
            ],
            [
              -63.238425,
              10.640659
            ],
            [
              -63.242084,
              10.644110000000126
            ],
            [
              -63.256772999999896,
              10.64056
            ],
            [
              -63.256259,
              10.641578
            ],
            [
              -63.25677499999989,
              10.643726000000129
            ],
            [
              -63.25693099999984,
              10.64507900000018
            ],
            [
              -63.257009,
              10.649662000000149
            ],
            [
              -63.257603,
              10.653386
            ],
            [
              -63.257207,
              10.65467
            ],
            [
              -63.257347,
              10.655795
            ],
            [
              -63.25248563299982,
              10.66194932000019
            ],
            [
              -63.25164699999988,
              10.663011
            ],
            [
              -63.25249386799999,
              10.66577378300019
            ],
            [
              -63.25276,
              10.666642000000138
            ],
            [
              -63.25917202199997,
              10.67116465700019
            ],
            [
              -63.25941355399988,
              10.671335019000026
            ],
            [
              -63.25952148099992,
              10.671411144000047
            ],
            [
              -63.25957927499991,
              10.671457263000036
            ],
            [
              -63.259660388999976,
              10.671490313000106
            ],
            [
              -63.26010841199991,
              10.671619325000108
            ],
            [
              -63.26056442999999,
              10.671779319000052
            ],
            [
              -63.26164448299994,
              10.67215233200011
            ],
            [
              -63.26215650599994,
              10.672311332999982
            ],
            [
              -63.26345756399991,
              10.672292322000146
            ],
            [
              -63.26464862299997,
              10.672497320000048
            ],
            [
              -63.26522365499994,
              10.673100339000086
            ],
            [
              -63.26551066199988,
              10.673374342000102
            ],
            [
              -63.265963686999896,
              10.673367339000151
            ],
            [
              -63.266299696999965,
              10.673195326000041
            ],
            [
              -63.26629369999995,
              10.67280631900013
            ],
            [
              -63.266230690999976,
              10.672418306000054
            ],
            [
              -63.265999676999854,
              10.672087304000058
            ],
            [
              -63.26541965299998,
              10.671206284000164
            ],
            [
              -63.26501562999988,
              10.670712271000014
            ],
            [
              -63.26494862299984,
              10.67004525100009
            ],
            [
              -63.265227633999984,
              10.669819243000063
            ],
            [
              -63.26573665199993,
              10.669811235000111
            ],
            [
              -63.26618967699994,
              10.669805237000105
            ],
            [
              -63.26721273099986,
              10.670123238000087
            ]
          ]
        ]
      }
    },
    {
      "type": "Feature",
      "properties": {
        "Pais": "Venezuela",
        "Estado": "Sucre",
        "Municipio": "Bermúdez",
        "Parroquia": "Santa Rosa"
      },
      "geometry": {
        "type": "Polygon",
        "coordinates": [
          [
            [
              -63.25056097999993,
              10.672372391000067
            ],
            [
              -63.25073798699998,
              10.672870402000171
            ],
            [
              -63.25085999399994,
              10.67342441900007
            ],
            [
              -63.25103500199998,
              10.67375543300011
            ],
            [
              -63.251319016999844,
              10.673807428000089
            ],
            [
              -63.25160103199988,
              10.673747424000055
            ],
            [
              -63.25159703399993,
              10.673525415000086
            ],
            [
              -63.25159202999987,
              10.673191408999969
            ],
            [
              -63.25141702199994,
              10.67286040600004
            ],
            [
              -63.251186007999934,
              10.672585397000148
            ],
            [
              -63.25095699299982,
              10.672366393000118
            ],
            [
              -63.25066897999994,
              10.67203737799997
            ],
            [
              -63.250607970999965,
              10.671815380999988
            ],
            [
              -63.25071397299996,
              10.67131335900001
            ],
            [
              -63.250931985999955,
              10.670810344000074
            ],
            [
              -63.25137599699991,
              10.670302324000147
            ],
            [
              -63.25205002699994,
              10.669959315000085
            ],
            [
              -63.25255504799998,
              10.669729309000047
            ],
            [
              -63.25351609799998,
              10.669715303000146
            ],
            [
              -63.25447913499994,
              10.66975629600006
            ],
            [
              -63.255442183999946,
              10.66985329400012
            ],
            [
              -63.25595321399993,
              10.669951300000037
            ],
            [
              -63.25828931999996,
              10.670921308
            ],
            [
              -63.258401319999905,
              10.670977312000048
            ],
            [
              -63.25957927499991,
              10.671457263000036
            ],
            [
              -63.25952148099992,
              10.671411144000047
            ],
            [
              -63.25941355399988,
              10.671335019000026
            ],
            [
              -63.25917202199997,
              10.67116465700019
            ],
            [
              -63.25276,
              10.666642000000138
            ],
            [
              -63.25249386799999,
              10.66577378300019
            ],
            [
              -63.25164699999988,
              10.663011
            ],
            [
              -63.25248563299982,
              10.66194932000019
            ],
            [
              -63.257347,
              10.655795
            ],
            [
              -63.257207,
              10.65467
            ],
            [
              -63.257603,
              10.653386
            ],
            [
              -63.257009,
              10.649662000000149
            ],
            [
              -63.25693099999984,
              10.64507900000018
            ],
            [
              -63.25677499999989,
              10.643726000000129
            ],
            [
              -63.256259,
              10.641578
            ],
            [
              -63.256772999999896,
              10.64056
            ],
            [
              -63.242084,
              10.644110000000126
            ],
            [
              -63.238425,
              10.640659
            ],
            [
              -63.2098299999999,
              10.616479
            ],
            [
              -63.206407,
              10.616097000000138
            ],
            [
              -63.205923,
              10.616069
            ],
            [
              -63.18475599999988,
              10.614847
            ],
            [
              -63.184458,
              10.615125000000148
            ],
            [
              -63.184408,
              10.615171
            ],
            [
              -63.170762,
              10.627874
            ],
            [
              -63.170759,
              10.627877000000126
            ],
            [
              -63.170535,
              10.627894
            ],
            [
              -63.170753,
              10.628204000000153
            ],
            [
              -63.223348,
              10.65687
            ],
            [
              -63.230211,
              10.660399000000155
            ],
            [
              -63.237526999999886,
              10.66220200000015
            ],
            [
              -63.23716399999989,
              10.663814000000116
            ],
            [
              -63.23919786799996,
              10.666045247000056
            ],
            [
              -63.241292311999985,
              10.668342947000099
            ],
            [
              -63.24274926899989,
              10.669941296000104
            ],
            [
              -63.24348653999988,
              10.670750116000079
            ],
            [
              -63.24399966399989,
              10.671268400000145
            ],
            [
              -63.244266685999946,
              10.671409404000087
            ],
            [
              -63.244662699999935,
              10.671458395000116
            ],
            [
              -63.24500070899995,
              10.671342398000036
            ],
            [
              -63.24607476399996,
              10.67127138100011
            ],
            [
              -63.246358777999944,
              10.671378387000061
            ],
            [
              -63.24653178699998,
              10.671598396999968
            ],
            [
              -63.24687179599994,
              10.671648392000122
            ],
            [
              -63.24709580599989,
              10.671478390000118
            ],
            [
              -63.24737582199998,
              10.67130738200018
            ],
            [
              -63.247714836999876,
              10.67130237800012
            ],
            [
              -63.24800284999998,
              10.671576382000012
            ],
            [
              -63.24834186399988,
              10.67157137800018
            ],
            [
              -63.24874088299987,
              10.671787388999974
            ],
            [
              -63.24897290199988,
              10.672118391000026
            ],
            [
              -63.2495399259999,
              10.672220393000146
            ],
            [
              -63.2500489439999,
              10.672213389999968
            ],
            [
              -63.25056097999993,
              10.672372391000067
            ]
          ]
        ]
      }
    },
    {
      "type": "Feature",
      "properties": {
        "Pais": "Venezuela",
        "Estado": "Sucre",
        "Municipio": "Bermúdez",
        "Parroquia": "Santa Teresa"
      },
      "geometry": {
        "type": "Polygon",
        "coordinates": [
          [
            [
              -63.214276833999975,
              10.692454270000155
            ],
            [
              -63.21487823899997,
              10.692687520000106
            ],
            [
              -63.21566948999998,
              10.692996182000059
            ],
            [
              -63.21581649399991,
              10.693072183000027
            ],
            [
              -63.21615451499997,
              10.69301217900005
            ],
            [
              -63.21637152299991,
              10.692453158000035
            ],
            [
              -63.216705532999924,
              10.692058143000168
            ],
            [
              -63.21726955199995,
              10.691995134000024
            ],
            [
              -63.21766557799998,
              10.691989137000121
            ],
            [
              -63.21828460799992,
              10.69175713200002
            ],
            [
              -63.21879362699997,
              10.69175012900007
            ],
            [
              -63.21958665999995,
              10.691794126000048
            ],
            [
              -63.220209689999876,
              10.691896117000056
            ],
            [
              -63.22066271399996,
              10.691889114000105
            ],
            [
              -63.22116773499994,
              10.691659108000067
            ],
            [
              -63.22144674499998,
              10.69137709500012
            ],
            [
              -63.22155474599998,
              10.691042083000127
            ],
            [
              -63.22183276299995,
              10.69076008200011
            ],
            [
              -63.22234078799988,
              10.690696069000069
            ],
            [
              -63.22278679799996,
              10.690301065000085
            ],
            [
              -63.22400984799998,
              10.688948014000118
            ],
            [
              -63.224457868999934,
              10.688663009000095
            ],
            [
              -63.224910893999834,
              10.688656999000102
            ],
            [
              -63.22519490799988,
              10.68876400500011
            ],
            [
              -63.225817925999934,
              10.688810002000082
            ],
            [
              -63.226273955999886,
              10.689026002
            ],
            [
              -63.226729972999976,
              10.689186008000092
            ],
            [
              -63.22746701299985,
              10.689342004000025
            ],
            [
              -63.22803403599994,
              10.689389006
            ],
            [
              -63.22842805099998,
              10.689272004000088
            ],
            [
              -63.228933070999915,
              10.688986987000078
            ],
            [
              -63.229434092999895,
              10.688533979000056
            ],
            [
              -63.22937208999991,
              10.688145966000036
            ],
            [
              -63.229367085999854,
              10.68786795200009
            ],
            [
              -63.229533091999826,
              10.687587951000125
            ],
            [
              -63.229869113999825,
              10.687415938000186
            ],
            [
              -63.230205122999905,
              10.68718793100004
            ],
            [
              -63.230486132999886,
              10.687072928000077
            ],
            [
              -63.23093815199991,
              10.687010926000085
            ],
            [
              -63.231334177999884,
              10.687004916000092
            ],
            [
              -63.23161618199998,
              10.687000918000138
            ],
            [
              -63.23178419899983,
              10.686886909
            ],
            [
              -63.231779194999945,
              10.686552902000187
            ],
            [
              -63.23171818499998,
              10.686275893000072
            ],
            [
              -63.23160118199996,
              10.686055895000038
            ],
            [
              -63.23108815299997,
              10.685784885000146
            ],
            [
              -63.23068913399999,
              10.685623885000155
            ],
            [
              -63.230060106999986,
              10.685187876000043
            ],
            [
              -63.22982909399997,
              10.684857868000108
            ],
            [
              -63.229488079999896,
              10.684807860000035
            ],
            [
              -63.229096063999975,
              10.685035878000065
            ],
            [
              -63.228813043999935,
              10.685039877000122
            ],
            [
              -63.22841103199988,
              10.684656868000161
            ],
            [
              -63.228407021999885,
              10.684378854000101
            ],
            [
              -63.228401023999936,
              10.684044847000052
            ],
            [
              -63.22856303099985,
              10.683541832000117
            ],
            [
              -63.22866402899996,
              10.682761808000066
            ],
            [
              -63.22876502699995,
              10.681981784000186
            ],
            [
              -63.22903803999998,
              10.681365765000066
            ],
            [
              -63.229706060999945,
              10.680688748000136
            ],
            [
              -63.23009607699993,
              10.68029373200011
            ],
            [
              -63.23043209899987,
              10.680121730999986
            ],
            [
              -63.23088211899989,
              10.679948724000155
            ],
            [
              -63.23127312899999,
              10.679609701000118
            ],
            [
              -63.231548140999905,
              10.67916069100005
            ],
            [
              -63.23159914299998,
              10.678770679000138
            ],
            [
              -63.231652143999895,
              10.67854667100005
            ],
            [
              -63.231645140999944,
              10.678102665000097
            ],
            [
              -63.23163813699989,
              10.677657642000156
            ],
            [
              -63.23168514099996,
              10.677100632000077
            ],
            [
              -63.23185014099994,
              10.676764626000136
            ],
            [
              -63.232184150999956,
              10.676425603999974
            ],
            [
              -63.232630172999905,
              10.676030599000057
            ],
            [
              -63.23313319399989,
              10.675633584000025
            ],
            [
              -63.23414523499997,
              10.675284566000073
            ],
            [
              -63.234933274999946,
              10.67499555000012
            ],
            [
              -63.23549630099984,
              10.674819550000166
            ],
            [
              -63.23617132499999,
              10.674587533000022
            ],
            [
              -63.23786540499992,
              10.674451521000151
            ],
            [
              -63.238714442999935,
              10.67443852000008
            ],
            [
              -63.239050452999834,
              10.67426650700014
            ],
            [
              -63.23933046899998,
              10.674040499000057
            ],
            [
              -63.239669483999876,
              10.674035495
            ],
            [
              -63.24018350699998,
              10.674361506000082
            ],
            [
              -63.24080754099998,
              10.674463507999974
            ],
            [
              -63.24116358399988,
              10.67451630800008
            ],
            [
              -63.24148857499995,
              10.674564503999989
            ],
            [
              -63.242069681999965,
              10.674676084000168
            ],
            [
              -63.242566616999966,
              10.67477150100018
            ],
            [
              -63.242968639999845,
              10.67515451000014
            ],
            [
              -63.24325865199995,
              10.67559452900008
            ],
            [
              -63.24349367599996,
              10.676147540000045
            ],
            [
              -63.24378268299995,
              10.676532548000125
            ],
            [
              -63.244354709999925,
              10.676968557000066
            ],
            [
              -63.24464273499996,
              10.677298566000104
            ],
            [
              -63.24492574399994,
              10.677294567000047
            ],
            [
              -63.24509475499997,
              10.677236563
            ],
            [
              -63.24514674999995,
              10.676957556000104
            ],
            [
              -63.24519975099997,
              10.676734553000074
            ],
            [
              -63.24519575199997,
              10.676456539000128
            ],
            [
              -63.24502173799988,
              10.676236530000153
            ],
            [
              -63.24456571999991,
              10.676020530000017
            ],
            [
              -63.244281704999935,
              10.675913524000066
            ],
            [
              -63.24388369199988,
              10.675808529000165
            ],
            [
              -63.243653672999926,
              10.67558952500002
            ],
            [
              -63.24347767099994,
              10.67514651300013
            ],
            [
              -63.24347166099989,
              10.674813500000027
            ],
            [
              -63.24352266299985,
              10.674423488000059
            ],
            [
              -63.24350966199995,
              10.673644470000113
            ],
            [
              -63.24327263899994,
              10.67298144700004
            ],
            [
              -63.243265635999876,
              10.672536436000087
            ],
            [
              -63.24354064799991,
              10.6720314210001
            ],
            [
              -63.24372184899988,
              10.671730213000046
            ],
            [
              -63.24399966399989,
              10.671268400000145
            ],
            [
              -63.24348653999988,
              10.670750116000079
            ],
            [
              -63.24274926899989,
              10.669941296000104
            ],
            [
              -63.241292311999985,
              10.668342947000099
            ],
            [
              -63.23919786799996,
              10.666045247000056
            ],
            [
              -63.23716399999989,
              10.663814000000116
            ],
            [
              -63.237526999999886,
              10.66220200000015
            ],
            [
              -63.230211,
              10.660399000000155
            ],
            [
              -63.224733,
              10.671255
            ],
            [
              -63.198774,
              10.667572000000177
            ],
            [
              -63.196384,
              10.667657000000133
            ],
            [
              -63.192774,
              10.67112
            ],
            [
              -63.19109999999989,
              10.673263000000134
            ],
            [
              -63.189587999999844,
              10.67531
            ],
            [
              -63.189368,
              10.678255
            ],
            [
              -63.188754999999844,
              10.680103000000145
            ],
            [
              -63.189993,
              10.683036000000186
            ],
            [
              -63.202958019999926,
              10.688064368000028
            ],
            [
              -63.20895739499991,
              10.69039117300008
            ],
            [
              -63.214276833999975,
              10.692454270000155
            ]
          ]
        ]
      }
    }
  ]
}