{"type": "FeatureCollection", "features": [{"type": "Feature", "properties": {"Pais": "Venezuela", "Estado": "Monagas", "Municipio": "Bol\u00edvar", "Parroquia": "Bol\u00edvar"}, "geometry": {"type": "Polygon", "coordinates": [[[-63.124261755999896, 10.222864221000066], [-63.12596283899995, 10.223253230000012], [-63.1269658839999, 10.22351522700012], [-63.127997937999965, 10.224212243000068], [-63.129304, 10.224538249000034], [-63.13105806899995, 10.223940220000031], [-63.13045603499995, 10.22254818000016], [-63.131386070999895, 10.221251137000024], [-63.13149606299993, 10.219459089000054], [-63.131830082999954, 10.218560066], [-63.13220508799998, 10.217362027000092], [-63.133460137999975, 10.215989986000181], [-63.13506620599992, 10.214843937000126], [-63.13761531199998, 10.21313387300006], [-63.13828333999999, 10.211379829], [-63.13886434899996, 10.208549738999977], [-63.138832338999975, 10.20655468600006], [-63.139050330999964, 10.204302620000021], [-63.13930334199995, 10.202692575000128], [-63.13922832299994, 10.200927526000044], [-63.13991334999997, 10.20025250800012], [-63.140988392999986, 10.199250471000084], [-63.14165841999994, 10.197635422000133], [-63.142876469999976, 10.196861388000059], [-63.14404452199983, 10.195881357000019], [-63.145305561999976, 10.193523284000037], [-63.146868633999986, 10.192560244000163], [-63.14742265199993, 10.190924205000044], [-63.14797465899994, 10.189218149000112], [-63.147660631999884, 10.18699709200007], [-63.14707759299995, 10.18399900500009], [-63.1463675519999, 10.181737945000066], [-63.14645754799989, 10.18015290000011], [-63.148787648999985, 10.179271865000146], [-63.14871063099997, 10.177390809000087], [-63.14912765099996, 10.175939767000102], [-63.15046769999998, 10.174085713000181], [-63.15124272299988, 10.171803643000032], [-63.15243776499989, 10.16960657200002], [-63.15291178099994, 10.167397502000028], [-63.153556795999975, 10.165690452000035], [-63.15606289699991, 10.162741354000104], [-63.157408944999986, 10.161346312000148], [-63.15908002399988, 10.161299297000085], [-63.16050508099994, 10.160477275000062], [-63.16256718199992, 10.160218254000029], [-63.16492628099991, 10.159681230000047], [-63.16714638299993, 10.15916820000001], [-63.16990950899992, 10.157821150000132], [-63.17224460199998, 10.157238125000106], [-63.17451470699996, 10.155554067000025], [-63.17645978799993, 10.153829], [-63.17786683999992, 10.151858939000022], [-63.17869487399997, 10.151387920000047], [-63.18014893999998, 10.150885903000187], [-63.18255303899997, 10.14890183600005], [-63.18397409699986, 10.147757798000043], [-63.185273148999954, 10.146293744000104], [-63.18838427299988, 10.144038660000035], [-63.19578488899998, 10.161637682000105], [-63.201508745999945, 10.154780837000033], [-63.202373239999986, 10.153672957000026], [-63.21217866099994, 10.141106949000175], [-63.221596210999905, 10.12903801300007], [-63.226726, 10.12246400000015], [-63.223649, 10.121174000000167], [-63.222733, 10.120475], [-63.221113999999886, 10.11942], [-63.21963, 10.118110000000172], [-63.218687, 10.115897000000189], [-63.21728599999989, 10.113966000000119], [-63.21583, 10.111509], [-63.215389, 10.110116], [-63.21444, 10.108821], [-63.213555, 10.107273], [-63.212005, 10.10614800000019], [-63.21036, 10.104909], [-63.208486, 10.103835000000117], [-63.207313, 10.103094000000112], [-63.205565, 10.101237], [-63.20431, 10.099672000000112], [-63.202988, 10.09836], [-63.20120899999989, 10.097421], [-63.19958999999989, 10.096388], [-63.197601, 10.095384], [-63.195815, 10.094009], [-63.193747, 10.092478000000142], [-63.192192, 10.089632], [-63.190151, 10.089707], [-63.18815, 10.08939], [-63.18655599999988, 10.08838], [-63.185575, 10.086582], [-63.18507, 10.08555600000011], [-63.183839, 10.084036], [-63.183161, 10.082348], [-63.182579, 10.080819], [-63.18177, 10.079614000000163], [-63.181418, 10.077921], [-63.180443, 10.076489], [-63.179363, 10.074347000000103], [-63.178374, 10.073466], [-63.177272, 10.072816000000103], [-63.176495, 10.072138000000109], [-63.17534099999983, 10.071099000000117], [-63.174667, 10.069571000000167], [-63.173935, 10.068847000000119], [-63.172746, 10.068474], [-63.171741, 10.068029000000138], [-63.170737, 10.06765300000012], [-63.169735, 10.067414], [-63.169273, 10.066136], [-63.169249, 10.064645], [-63.168408, 10.06429], [-63.166932, 10.063461000000189], [-63.16597399999989, 10.061593000000187], [-63.165398, 10.060431000000108], [-63.165041, 10.058509], [-63.165251, 10.057129000000145], [-63.163963, 10.056413], [-63.16281, 10.055465], [-63.162221, 10.053454000000158], [-63.160838, 10.052671], [-63.160169, 10.051487000000122], [-63.159549, 10.05044], [-63.15888, 10.049279], [-63.15783, 10.047504], [-63.15735099999989, 10.045148], [-63.156733, 10.044284000000118], [-63.155799, 10.042508], [-63.156455, 10.041443], [-63.156508, 10.04041], [-63.156416, 10.039057000000184], [-63.155408, 10.037029], [-63.15508, 10.035359], [-63.154844, 10.033733], [-63.154615, 10.032497], [-63.153799, 10.030833], [-63.153809, 10.030007000000126], [-63.153995, 10.028628], [-63.15409, 10.027295], [-63.153598, 10.02705], [-63.153295, 10.025517], [-63.153396, 10.024575], [-63.153312, 10.023704000000123], [-63.153248, 10.022604], [-63.152743, 10.021555000000149], [-63.151514, 10.021595], [-63.14967, 10.019464000000141], [-63.148875, 10.019085], [-63.148499, 10.020215000000121], [-63.14845, 10.021523000000172], [-63.147627, 10.022269], [-63.146839, 10.022303], [-63.145323, 10.021842000000106], [-63.145236999999895, 10.020811], [-63.144734999999855, 10.019877], [-63.145252, 10.018906000000186], [-63.146488, 10.017833], [-63.1461139999999, 10.01623300000017], [-63.144918, 10.014047000000119], [-63.143127, 10.012374], [-63.141308, 10.013248], [-63.139185999999825, 10.014034], [-63.137166, 10.013925000000143], [-63.136148999999875, 10.012723000000165], [-63.135691999999835, 10.011766], [-63.135396, 10.010645000000181], [-63.134736, 10.009989], [-63.134332, 10.009398], [-63.133654, 10.009086], [-63.132838, 10.008845000000122], [-63.131893, 10.009271000000183], [-63.130423, 10.010164], [-63.130168, 10.01019], [-63.129636, 10.010244], [-63.129047, 10.011124], [-63.129711, 10.012032], [-63.129215, 10.012934], [-63.128905, 10.013833], [-63.128029, 10.014166], [-63.12785, 10.014582000000132], [-63.127382, 10.014336], [-63.126639, 10.014323], [-63.12691299999989, 10.015467], [-63.127187, 10.016656000000182], [-63.12639, 10.017539], [-63.125188, 10.017831], [-63.12445899999989, 10.018644000000165], [-63.12353899999988, 10.017739], [-63.122642, 10.016788], [-63.121891, 10.016271], [-63.121132, 10.016694], [-63.119802, 10.017699000000107], [-63.118595, 10.019115], [-63.11832799999985, 10.018385], [-63.116902, 10.019162], [-63.11623, 10.02061700000013], [-63.115268, 10.02141], [-63.114091, 10.021793000000116], [-63.112878, 10.022843000000137], [-63.111908, 10.023086000000148], [-63.110718, 10.022666], [-63.11133199999989, 10.021878], [-63.1103389999999, 10.022166], [-63.109255, 10.02259400000014], [-63.108191, 10.02277000000015], [-63.107349, 10.023837000000128], [-63.1069609999999, 10.025679000000139], [-63.106655, 10.026830000000132], [-63.106576, 10.027680000000146], [-63.106782, 10.028916], [-63.10554699999989, 10.028635000000122], [-63.104443, 10.029178], [-63.103114, 10.030252000000132], [-63.10158299999989, 10.031673000000126], [-63.100598, 10.031067], [-63.100291, 10.032149], [-63.10062799999986, 10.032902], [-63.100342999999896, 10.033938], [-63.099528, 10.033766], [-63.098769, 10.034167], [-63.097705, 10.034365], [-63.098224, 10.034931], [-63.0986, 10.035224], [-63.098579, 10.035339], [-63.097684, 10.03592500000019], [-63.097948, 10.036518], [-63.098716, 10.036645], [-63.098821, 10.037401000000102], [-63.098575, 10.038001], [-63.09925, 10.038106], [-63.098354, 10.038669], [-63.09768, 10.038587000000177], [-63.097366, 10.039280000000133], [-63.096111, 10.039205000000152], [-63.094706, 10.039844], [-63.093340999999896, 10.040069], [-63.092196, 10.039580000000115], [-63.091922999999895, 10.038460000000157], [-63.091607, 10.037592000000132], [-63.090986, 10.037922], [-63.090241, 10.037749000000133], [-63.089029, 10.037421000000165], [-63.08821299999988, 10.037180000000149], [-63.087806999999884, 10.037943], [-63.087405, 10.037420000000111], [-63.086680999999885, 10.038601], [-63.08579999999989, 10.038613], [-63.084617, 10.038652], [-63.083003, 10.039316], [-63.082353999999896, 10.039325000000133], [-63.08179699999988, 10.039333000000113], [-63.081253, 10.040098000000171], [-63.080556999999885, 10.040107], [-63.079833, 10.039842000000135], [-63.07913699999989, 10.039828], [-63.07875, 10.040316], [-63.07798, 10.040051000000176], [-63.078016999999875, 10.039431], [-63.07761, 10.038656], [-63.076987, 10.038871], [-63.075735, 10.038957], [-63.075071, 10.038049], [-63.073839, 10.037974], [-63.073287, 10.038257], [-63.073159, 10.038993], [-63.071591, 10.039565], [-63.070131, 10.039722000000154], [-63.070216, 10.039194000000123], [-63.070643, 10.038362], [-63.070932999999854, 10.037623], [-63.07044, 10.037437], [-63.07034899999985, 10.037402], [-63.069416, 10.038539000000128], [-63.067712, 10.03932], [-63.066743, 10.039677000000154], [-63.066923, 10.040776000000108], [-63.066029, 10.04143100000016], [-63.065235, 10.042566], [-63.064526999999885, 10.04331000000019], [-63.063554, 10.044837], [-63.06297, 10.046038000000124], [-63.061854999999866, 10.047384], [-63.061346, 10.048975], [-63.061181, 10.050262], [-63.060445, 10.052107], [-63.059513, 10.053314000000114], [-63.059009, 10.055157], [-63.059217, 10.056530000000123], [-63.058685, 10.058121000000142], [-63.05842899999982, 10.059501], [-63.057542, 10.060614000000157], [-63.056563, 10.061798], [-63.055793, 10.063002], [-63.054439999999886, 10.064007], [-63.052448, 10.064217], [-63.050265, 10.064132], [-63.049441999999885, 10.066369000000122], [-63.049635, 10.068225], [-63.050126, 10.068471000000102], [-63.050036, 10.070124], [-63.049828, 10.071595000000116], [-63.04832099999987, 10.0732220000001], [-63.047349, 10.073373000000174], [-63.045407999999895, 10.075327000000186], [-63.043207, 10.076986000000147], [-63.042761, 10.076671], [-63.040692, 10.076446], [-63.039222, 10.075985000000117], [-63.038198, 10.077215], [-63.03890599999988, 10.077962], [-63.036864, 10.077967000000115], [-63.035307, 10.07785], [-63.034641, 10.07825], [-63.034256367999944, 10.078375054000162], [-63.033463, 10.078633], [-63.031579, 10.079828], [-63.029593, 10.080406000000153], [-63.02778499999988, 10.081991000000187], [-63.02683599999989, 10.083611000000133], [-63.02572128399993, 10.084342635000155], [-63.02548, 10.084501], [-63.02490199999983, 10.086092], [-63.024005, 10.086632000000122], [-63.022960999999896, 10.08806900000019], [-63.022521, 10.089566], [-63.022617, 10.09124], [-63.02282499999984, 10.092659], [-63.020395, 10.093059], [-63.020032, 10.095037000000104], [-63.019753, 10.096510000000137], [-63.021149, 10.098166], [-63.020946634999916, 10.098840405000146], [-63.02092205599996, 10.098922317000188], [-63.020592081999894, 10.099625495999987], [-63.020751363999864, 10.099736272000087], [-63.02166940899997, 10.100550288000136], [-63.02304548699988, 10.102436339000121], [-63.026054639999984, 10.104827395000086], [-63.02844675499995, 10.106424430000175], [-63.029681823999965, 10.108196463000127], [-63.03080488299992, 10.110200520000149], [-63.03242596699994, 10.112909591000175], [-63.03465608399995, 10.114507620000154], [-63.03734421399997, 10.115664644000162], [-63.04071536699996, 10.11750067600019], [-63.04262947299998, 10.119630729000107], [-63.04378553299995, 10.12080875200013], [-63.04504760099991, 10.122810798000046], [-63.04541263299984, 10.125283865000142], [-63.04548264399995, 10.128242954000086], [-63.04469662699995, 10.13132804700001], [-63.04401361499998, 10.135100156000135], [-63.043871628999966, 10.137832235000133], [-63.044476662999955, 10.140807310000184], [-63.046497770999906, 10.143831393000028], [-63.048386876999984, 10.14584743800009], [-63.0500829639999, 10.147407475000136], [-63.05286910099994, 10.15035253700006], [-63.054666200999975, 10.153861626000094], [-63.05561526199989, 10.15662470600006], [-63.056662323999944, 10.159639784000149], [-63.05590230099983, 10.162907885000095], [-63.054753267999956, 10.16654898400003], [-63.05383523799998, 10.168650055000057], [-63.05326322299999, 10.170631110000102], [-63.05411027399998, 10.172776163000037], [-63.05482731099988, 10.174074203000146], [-63.05629438999995, 10.174375197000188], [-63.059820541999954, 10.174189179000052], [-63.06274368299995, 10.175572208000176], [-63.06533882399998, 10.17817525900017], [-63.06602986299998, 10.18071233400002], [-63.06571487299993, 10.184204429000033], [-63.06523685899998, 10.186253491000116], [-63.064148818999854, 10.189319582000053], [-63.06350181199997, 10.192403669000043], [-63.06300879499992, 10.194979751000062], [-63.06399785999997, 10.19732980700013], [-63.06577695499993, 10.19969187400011], [-63.06709301299992, 10.200637894000067], [-63.070326166999905, 10.20102888200006], [-63.07337162099992, 10.201008367000043], [-63.07344631299998, 10.201007864000076], [-63.07344631299998, 10.201006871000118], [-63.07373832199988, 10.201004871000123], [-63.076729461999946, 10.200803848000078], [-63.080200610999896, 10.200067809000018], [-63.08236370999998, 10.198890763000179], [-63.084247776999916, 10.196226670000101], [-63.08514279899998, 10.192703566000091], [-63.085900821999985, 10.189342469999985], [-63.08736187699998, 10.18638637600003], [-63.08975297099994, 10.184953334000113], [-63.0948471989999, 10.18414927900011], [-63.09884638699998, 10.18450727100003], [-63.10195653699998, 10.185886290000042], [-63.103356600999916, 10.186349292000159], [-63.10547670699992, 10.188270343], [-63.107974841999976, 10.190599390000102], [-63.110093948999975, 10.193850472000122], [-63.11142202699989, 10.19559951499997], [-63.112988105999875, 10.197665571000073], [-63.1146202029999, 10.200970650000045], [-63.115432253999984, 10.203780725000115], [-63.11761836499994, 10.20691781000005], [-63.11867042199992, 10.208806855000148], [-63.11955647999997, 10.21191593300017], [-63.11857744499997, 10.214545018000024], [-63.118160790999866, 10.218837636999979], [-63.11816045099994, 10.21884114200003], [-63.11829447199989, 10.221409215000108], [-63.11964853499995, 10.221849217000113], [-63.12106360299998, 10.221784206000166], [-63.12312769199997, 10.221686198000043], [-63.124261755999896, 10.222864221000066]]]}}]}