{"type": "FeatureCollection", "features": [{"type": "Feature", "properties": {"Pais": "Venezuela", "Estado": "Barinas", "Municipio": "Bol\u00edvar", "Parroquia": "Barinitas"}, "geometry": {"type": "Polygon", "coordinates": [[[-70.454766, 8.852722000000142], [-70.4556209999999, 8.852857], [-70.456754, 8.853037], [-70.45821, 8.853216000000145], [-70.458605, 8.853813000000173], [-70.459163, 8.854616], [-70.46046, 8.855646], [-70.460764, 8.85638100000017], [-70.461967, 8.856814], [-70.46229, 8.854863], [-70.46219, 8.852817000000186], [-70.46281899999985, 8.850701], [-70.46248899999989, 8.848806000000138], [-70.462885, 8.846953], [-70.462594, 8.845058000000165], [-70.4629149999999, 8.843054000000109], [-70.462664, 8.840893000000165], [-70.462909, 8.838775], [-70.462729, 8.83733500000011], [-70.46294799999987, 8.835214000000121], [-70.46304, 8.835122000000126], [-70.463961, 8.83429], [-70.463957, 8.83325600000012], [-70.463261, 8.832499], [-70.46332499999988, 8.831188], [-70.463503, 8.82937], [-70.463476, 8.828312000000153], [-70.46298399999989, 8.826497], [-70.46269999999987, 8.824750000000108], [-70.462763, 8.82291], [-70.463407, 8.822172], [-70.464188, 8.82118000000014], [-70.465136, 8.821223000000145], [-70.466131, 8.821587], [-70.466335, 8.820598000000132], [-70.467764, 8.818337], [-70.467964, 8.817694000000188], [-70.468559, 8.816196], [-70.468926, 8.815551], [-70.469614, 8.814191000000108], [-70.47021, 8.812993], [-70.470967, 8.811265000000105], [-70.470825, 8.810645000000136], [-70.470496, 8.809197], [-70.470882, 8.807402], [-70.47125, 8.806941000000108], [-70.47114899999985, 8.804687000000115], [-70.470472, 8.802804], [-70.46993799999984, 8.802185], [-70.46968, 8.800943000000132], [-70.471323, 8.801812], [-70.4725729999999, 8.802198], [-70.475741, 8.802946000000134], [-70.47698999999989, 8.80337800000018], [-70.47768399999984, 8.803560000000118], [-70.478657, 8.804269], [-70.47973, 8.807002000000182], [-70.480607, 8.80693], [-70.48183, 8.80648900000017], [-70.482225, 8.807062000000144], [-70.483084, 8.808301], [-70.48387, 8.808229], [-70.485834, 8.808406000000161], [-70.486413, 8.808887], [-70.487202, 8.80985], [-70.48838499999982, 8.811134], [-70.489865, 8.8112670000001], [-70.491945, 8.811558], [-70.492269, 8.811741], [-70.49401099999989, 8.814172], [-70.49563199999983, 8.814856], [-70.497084, 8.814092], [-70.49826099999984, 8.813835], [-70.49914199999989, 8.814476], [-70.500531, 8.815184], [-70.50214099999988, 8.812982], [-70.501585, 8.809917], [-70.501711, 8.807648000000142], [-70.5004699999999, 8.804582000000153], [-70.500775, 8.800671], [-70.50072399999988, 8.799521], [-70.50067299999984, 8.798371000000145], [-70.5007609999999, 8.797221], [-70.50071, 8.795979000000102], [-70.499944, 8.794924], [-70.498944, 8.793157], [-70.499654, 8.791613000000154], [-70.500344, 8.790829000000144], [-70.50084599999985, 8.78924000000012], [-70.500702, 8.787860000000137], [-70.500466, 8.786412], [-70.500204, 8.784573000000137], [-70.500082, 8.782780000000116], [-70.49993599999988, 8.780918], [-70.500372, 8.780157000000145], [-70.500805, 8.778660000000116], [-70.501078, 8.777624000000174], [-70.50098, 8.77606], [-70.50076599999989, 8.77452], [-70.500738, 8.773232], [-70.50029599999982, 8.772337], [-70.498928, 8.771261], [-70.498372, 8.770918000000108], [-70.49802099999988, 8.769654000000116], [-70.497742, 8.769264], [-70.497233, 8.769151], [-70.494462, 8.76923], [-70.492201, 8.769997000000103], [-70.49076799999989, 8.76974900000016], [-70.490627, 8.769106], [-70.4909009999999, 8.768162000000132], [-70.490898, 8.767564], [-70.490408, 8.766140000000178], [-70.489619, 8.7653150000001], [-70.48993799999988, 8.764095], [-70.491163, 8.764389], [-70.492361, 8.763534], [-70.491386, 8.762181000000169], [-70.490735, 8.761079000000109], [-70.491794, 8.760178000000167], [-70.491792, 8.759672], [-70.491508, 8.757948], [-70.492616, 8.757599000000141], [-70.49334899999985, 8.756148000000167], [-70.492907, 8.755183], [-70.494428, 8.754488], [-70.495975, 8.754298], [-70.49766, 8.753947], [-70.497451, 8.753718000000163], [-70.495621, 8.752345], [-70.494512, 8.75207300000011], [-70.49393299999986, 8.751707], [-70.49360699999988, 8.751064000000156], [-70.493256, 8.749915000000101], [-70.49235299999987, 8.749344000000121], [-70.491773, 8.748541000000102], [-70.491444, 8.74730000000011], [-70.49181199999987, 8.746655], [-70.492454, 8.745433000000162], [-70.492197, 8.744859], [-70.493214, 8.745063], [-70.494692, 8.744942], [-70.495296, 8.74579100000011], [-70.495532, 8.747078], [-70.496207, 8.74841], [-70.49704, 8.748775], [-70.498396, 8.747091], [-70.498507, 8.745803], [-70.499289, 8.74511], [-70.5005139999999, 8.745220000000131], [-70.50159999999988, 8.745469000000128], [-70.502316, 8.745515000000182], [-70.50342499999988, 8.74685200000016], [-70.50321799999989, 8.74841], [-70.503119, 8.749518000000137], [-70.504412, 8.750625], [-70.506957, 8.750541], [-70.509363, 8.750158000000113], [-70.5102169999999, 8.751196], [-70.511625, 8.752717000000132], [-70.51322099999987, 8.752768], [-70.515743, 8.75243200000017], [-70.51708599999989, 8.751815], [-70.519396, 8.753892000000178], [-70.520248, 8.755435000000148], [-70.522073, 8.756705], [-70.523188, 8.756342], [-70.524841, 8.755877000000112], [-70.52562399999988, 8.756505], [-70.527198, 8.756274], [-70.528374, 8.756981000000167], [-70.528922, 8.757608000000175], [-70.52962699999989, 8.75800100000015], [-70.53033499999987, 8.758003000000144], [-70.53057499999983, 8.757143], [-70.53120599999988, 8.756676000000141], [-70.532154, 8.755916000000127], [-70.53302, 8.755722], [-70.533687, 8.755841000000146], [-70.53471, 8.755766000000165], [-70.53561699999983, 8.75526], [-70.536602, 8.754715], [-70.537234, 8.754169], [-70.537279, 8.753074], [-70.537831, 8.752802], [-70.538577, 8.752882000000113], [-70.539052, 8.752336], [-70.539646, 8.751478], [-70.540275, 8.751323], [-70.541221, 8.750817], [-70.542287, 8.749920000000145], [-70.54295799999989, 8.749414], [-70.54382599999985, 8.748869], [-70.544381, 8.747971000000177], [-70.54516699999988, 8.747973000000172], [-70.545598, 8.748326], [-70.54590799999988, 8.749187], [-70.546571, 8.750205000000108], [-70.54723899999988, 8.750441], [-70.54794799999985, 8.750169000000142], [-70.548342, 8.749896000000149], [-70.549483, 8.749782], [-70.550228, 8.750175000000127], [-70.551678, 8.751], [-70.55277699999988, 8.75155], [-70.55403399999989, 8.75176800000014], [-70.55486099999985, 8.75145700000013], [-70.55557, 8.751146000000176], [-70.55682699999988, 8.751266000000157], [-70.55765199999985, 8.751542], [-70.558556, 8.751584], [-70.559461, 8.751429000000144], [-70.560249, 8.751040000000103], [-70.561548, 8.75077000000016], [-70.562412, 8.750850000000185], [-70.562886, 8.749638000000118], [-70.563078, 8.748616], [-70.563644, 8.747409], [-70.56434999999982, 8.746389], [-70.565385, 8.745043], [-70.566496, 8.743823], [-70.56697, 8.743199], [-70.567799, 8.742536], [-70.568391, 8.742068], [-70.56898399999989, 8.741366], [-70.569344, 8.74023300000016], [-70.569741, 8.739296], [-70.570259, 8.737929000000122], [-70.570579, 8.736757000000125], [-70.571131, 8.736484], [-70.571996, 8.736369], [-70.572823, 8.736058], [-70.574166, 8.734748], [-70.575921, 8.735948000000178], [-70.57927399999988, 8.737338], [-70.580592, 8.73764100000011], [-70.582791, 8.736521000000153], [-70.586358, 8.734072], [-70.589251, 8.732954], [-70.593163, 8.731425], [-70.595613, 8.732559], [-70.599128, 8.733282], [-70.60275899999988, 8.734028], [-70.60572, 8.733853000000181], [-70.610001, 8.733015000000137], [-70.612867, 8.733851], [-70.614854, 8.735282], [-70.615823, 8.736802000000125], [-70.618412, 8.737522000000183], [-70.620307, 8.738769000000161], [-70.62058199999984, 8.740310000000136], [-70.621203, 8.742082], [-70.623514, 8.74356], [-70.625892, 8.746510000000114], [-70.627322, 8.748767000000157], [-70.6289589999999, 8.752013000000147], [-70.630113, 8.753488000000118], [-70.630945, 8.753812000000153], [-70.63217, 8.754482000000166], [-70.633347, 8.756003], [-70.63457, 8.757754000000148], [-70.636557, 8.759162000000117], [-70.637459, 8.759394000000157], [-70.637898, 8.759441], [-70.639006, 8.761054000000172], [-70.640601, 8.761840000000177], [-70.641293, 8.763106000000107], [-70.642314, 8.764113000000123], [-70.642755, 8.765149], [-70.642851, 8.765938000000176], [-70.642895, 8.767121000000145], [-70.64303799999988, 8.768354], [-70.643133, 8.769241], [-70.64362099999988, 8.770819], [-70.645098, 8.772942], [-70.646331, 8.774473], [-70.647663, 8.775651], [-70.648798, 8.776894], [-70.650129, 8.77852300000012], [-70.65136199999989, 8.779807000000176], [-70.65235, 8.780500000000131], [-70.653389, 8.780995], [-70.654676, 8.781490000000133], [-70.655714, 8.782035000000121], [-70.657049, 8.782777], [-70.658633, 8.783175], [-70.660319, 8.783031000000108], [-70.662204, 8.78278900000015], [-70.66369199999986, 8.782545], [-70.665427, 8.782598000000178], [-70.666466, 8.782946], [-70.667159, 8.783292000000188], [-70.668248, 8.783590000000174], [-70.669538, 8.783199000000138], [-70.670681, 8.7825610000001], [-70.672419, 8.781973000000107], [-70.67311299999989, 8.781974], [-70.674845, 8.782668], [-70.675935, 8.782769], [-70.67672799999986, 8.782771], [-70.678168, 8.782914000000176], [-70.679247, 8.783159], [-70.680706, 8.783834000000127], [-70.68195915799998, 8.78435467300011], [-70.682333, 8.78451], [-70.68331499999988, 8.784755], [-70.68398762299995, 8.784691867000106], [-70.68473199999988, 8.784622000000127], [-70.685717, 8.784415], [-70.687112, 8.78402100000011], [-70.688542, 8.783173000000147], [-70.6923667079999, 8.78169252900011], [-70.69247725499997, 8.781649738000056], [-70.69267485799992, 8.781580896000037], [-70.69506250799992, 8.778278502000148], [-70.69818061899991, 8.77612743400016], [-70.70054671599985, 8.774905398000158], [-70.70318981299994, 8.773587352000163], [-70.70362582499996, 8.772522330000129], [-70.70402783899993, 8.77154029900015], [-70.7037688239999, 8.771356299000047], [-70.70498046199998, 8.768104540000024], [-70.704909, 8.768092], [-70.70479584999998, 8.768070968000075], [-70.70464, 8.76804200000015], [-70.702916, 8.768138], [-70.701669, 8.768058], [-70.699774, 8.768021], [-70.69879760299989, 8.767829987000084], [-70.698767, 8.767824], [-70.698194, 8.767487], [-70.697862, 8.766844000000162], [-70.698177, 8.766395000000102], [-70.698897, 8.76637600000015], [-70.699537, 8.766025], [-70.699584, 8.765474000000154], [-70.69979699999988, 8.762853000000177], [-70.7002717449999, 8.761170261000132], [-70.70047099999988, 8.760464], [-70.700521, 8.75830400000018], [-70.700502, 8.755453], [-70.700529, 8.753016000000173], [-70.700325, 8.750027000000102], [-70.70109099999985, 8.748144000000138], [-70.700056, 8.744923], [-70.699063, 8.743541000000107], [-70.696474, 8.742109], [-70.696083, 8.740338000000122], [-70.69638499999985, 8.739327000000117], [-70.696063, 8.73836], [-70.695488, 8.736566000000153], [-70.695489, 8.735600000000147], [-70.69551499999989, 8.733668], [-70.695287, 8.731921], [-70.694688, 8.730425], [-70.6950599999999, 8.728862], [-70.695246, 8.728242], [-70.695478, 8.727668], [-70.695367, 8.724955], [-70.695462, 8.723346], [-70.69609, 8.72100300000011], [-70.696577, 8.720131], [-70.696163, 8.719095], [-70.69558599999982, 8.718358000000137], [-70.69535599999989, 8.717507], [-70.694963, 8.717023000000154], [-70.694293, 8.716699000000176], [-70.692997, 8.717477], [-70.692326, 8.717614], [-70.690961, 8.717449], [-70.689943, 8.717975], [-70.688971, 8.718455000000176], [-70.687305, 8.718634], [-70.68651899999986, 8.718494], [-70.68584799999985, 8.718331], [-70.684924, 8.717616], [-70.68451, 8.716558], [-70.68361, 8.71536], [-70.682986, 8.714875], [-70.682501, 8.714506], [-70.682293, 8.714207], [-70.67905, 8.702864000000147], [-70.678727, 8.70261100000016], [-70.6783109999999, 8.702425], [-70.67706299999986, 8.701250000000186], [-70.67655599999983, 8.700237], [-70.675169, 8.699681], [-70.673415, 8.69753800000018], [-70.6736489999999, 8.695539000000167], [-70.67293499999988, 8.694181], [-70.670877, 8.693968], [-70.668472, 8.693386], [-70.667271, 8.692739000000131], [-70.665216, 8.690619], [-70.662928, 8.689854], [-70.660755, 8.689158000000134], [-70.658933, 8.686095], [-70.658102, 8.684828000000152], [-70.656601, 8.68344500000012], [-70.655215, 8.682337000000132], [-70.654291, 8.681369000000132], [-70.65397, 8.680127], [-70.65323199999983, 8.678675000000169], [-70.65289, 8.675847], [-70.651875, 8.674511], [-70.65053499999988, 8.673564], [-70.64965699999988, 8.672872000000154], [-70.649128, 8.671031], [-70.648853, 8.669996], [-70.647467, 8.668981], [-70.646984, 8.667393000000175], [-70.64562099999989, 8.666676000000166], [-70.644812, 8.666168], [-70.644537, 8.664995], [-70.644401, 8.663408000000118], [-70.643696, 8.661351], [-70.6432099999999, 8.660960000000102], [-70.642143, 8.660016000000155], [-70.6417009999999, 8.65856500000018], [-70.64075, 8.657115], [-70.63986999999986, 8.656793000000107], [-70.638641, 8.655988], [-70.636927, 8.65493000000015], [-70.63586, 8.653687000000161], [-70.634977, 8.652329], [-70.633308, 8.650741], [-70.633006, 8.650211000000127], [-70.631614, 8.647978000000137], [-70.62932, 8.646621], [-70.626397, 8.642615], [-70.62567599999988, 8.640726000000143], [-70.62357, 8.640959], [-70.622598, 8.640707], [-70.621369, 8.639556000000141], [-70.62087999999989, 8.637943], [-70.620739, 8.636146], [-70.620321, 8.635594], [-70.620157, 8.63458], [-70.619647, 8.633982], [-70.61795599999988, 8.633016000000111], [-70.617492, 8.632394000000147], [-70.617398, 8.631242], [-70.61616899999984, 8.630207], [-70.614476, 8.628826000000174], [-70.612643, 8.625556000000131], [-70.611483, 8.624382], [-70.610742, 8.624014000000102], [-70.609098, 8.623348], [-70.606874, 8.622243], [-70.60592399999985, 8.621714], [-70.602614, 8.62139500000012], [-70.600579, 8.622365], [-70.598868, 8.623335], [-70.595049, 8.623546], [-70.592504, 8.624009], [-70.5909329999999, 8.625969], [-70.589662, 8.62779], [-70.586122, 8.629153], [-70.583946, 8.628740000000164], [-70.581285, 8.629457000000116], [-70.578048, 8.631534], [-70.574995, 8.632919], [-70.573585, 8.634625], [-70.57243, 8.636147000000165], [-70.568844, 8.636749], [-70.567154, 8.636589000000129], [-70.56497799999983, 8.637167], [-70.563125, 8.636639], [-70.561342, 8.635811], [-70.5591179999999, 8.634938000000147], [-70.557474, 8.634409], [-70.55687199999988, 8.633949], [-70.555968, 8.632913], [-70.556058, 8.631714], [-70.555873, 8.631484000000171], [-70.555801, 8.629917], [-70.555938, 8.62842000000012], [-70.555705, 8.627107], [-70.55377999999985, 8.624643000000106], [-70.551326, 8.624484], [-70.55084, 8.624392000000114], [-70.548942, 8.624624], [-70.547184, 8.62534], [-70.544432, 8.626678], [-70.543551, 8.625665], [-70.542069, 8.626219000000106], [-70.541469, 8.627257], [-70.539894, 8.626382], [-70.538594, 8.62378], [-70.538592, 8.622513], [-70.535606, 8.622215], [-70.53449399999988, 8.621663], [-70.53271099999989, 8.620973], [-70.531901, 8.621274], [-70.530189, 8.621759], [-70.530003, 8.621045], [-70.529747, 8.620308], [-70.528539, 8.616645], [-70.526895, 8.616623000000175], [-70.52467499999989, 8.617731000000163], [-70.523101, 8.617686], [-70.52212599999984, 8.615452], [-70.521869, 8.613747], [-70.521104, 8.613333], [-70.518628, 8.614049], [-70.518071, 8.612805], [-70.51688799999988, 8.611539000000164], [-70.51512899999989, 8.611333000000172], [-70.514642, 8.61078], [-70.513021, 8.609813000000145], [-70.51184099999989, 8.610137000000122], [-70.510568, 8.610391], [-70.508092, 8.610854000000131], [-70.506449, 8.610855], [-70.503926, 8.611110000000167], [-70.502999, 8.610074], [-70.502997, 8.608599], [-70.502117, 8.60777], [-70.502288, 8.60696200000018], [-70.5017299999999, 8.606252], [-70.500825, 8.605313000000137], [-70.499735, 8.604215], [-70.498136, 8.602934000000118], [-70.4971809999999, 8.600847000000101], [-70.49668899999989, 8.599309], [-70.494902, 8.597271], [-70.493416, 8.595507], [-70.49193199999985, 8.593996000000118], [-70.489613, 8.591937], [-70.488363, 8.591391], [-70.486907, 8.591305], [-70.4855199999999, 8.591012], [-70.484523, 8.590189], [-70.48456299999987, 8.588648], [-70.485043, 8.587267], [-70.484992, 8.585889], [-70.48302299999989, 8.583640000000173], [-70.48302286799998, 8.583640143000082], [-70.479484, 8.587469], [-70.47835, 8.589491], [-70.47858, 8.590595], [-70.478347, 8.592686], [-70.477121, 8.594019], [-70.47644899999989, 8.595926], [-70.476539, 8.598065000000133], [-70.477276, 8.599652], [-70.478383, 8.601240000000132], [-70.479629, 8.601886], [-70.480297, 8.603381000000184], [-70.478887, 8.604575000000182], [-70.476484, 8.605192000000102], [-70.47489, 8.60599400000018], [-70.473641, 8.607165], [-70.473178, 8.60831400000012], [-70.47264499999989, 8.609646], [-70.471373, 8.610196], [-70.470356, 8.611091], [-70.470748, 8.61192], [-70.47151, 8.613093000000106], [-70.47019099999989, 8.61428700000016], [-70.468133, 8.6161], [-70.466836, 8.618811], [-70.466488, 8.620673], [-70.467087, 8.621938000000114], [-70.469327, 8.62208], [-70.470875, 8.622588], [-70.47161299999988, 8.623785000000169], [-70.47068499999983, 8.626634], [-70.46805, 8.627941000000135], [-70.466848, 8.6286750000001], [-70.467008, 8.629824000000156], [-70.467538, 8.63109], [-70.467143, 8.633434], [-70.46577899999988, 8.634306], [-70.464209, 8.633361], [-70.461924, 8.632185000000106], [-70.459707, 8.632250000000113], [-70.45831999999984, 8.632984000000135], [-70.457508, 8.6358350000001], [-70.45789799999983, 8.638157], [-70.457804, 8.639376], [-70.457664, 8.640732], [-70.456854, 8.64183400000013], [-70.45635, 8.642479], [-70.45548899999989, 8.643694], [-70.455972, 8.645236], [-70.456295, 8.646340000000123], [-70.456985, 8.648042], [-70.457283, 8.650365], [-70.456565, 8.651789000000122], [-70.455732, 8.652869000000123], [-70.455568, 8.654708], [-70.456098, 8.655927], [-70.456258, 8.657813], [-70.45570099999986, 8.65967400000011], [-70.454869, 8.66027], [-70.452558, 8.660750000000121], [-70.4517489999999, 8.661599], [-70.451562, 8.663139], [-70.45216099999988, 8.664405], [-70.453524, 8.664683], [-70.45498, 8.663627000000133], [-70.45574399999987, 8.662709], [-70.456554, 8.660963000000152], [-70.457479, 8.66013700000019], [-70.458543, 8.658989], [-70.460623, 8.657819], [-70.46265599999987, 8.658144000000163], [-70.464594, 8.659757], [-70.46582099999989, 8.660576000000106], [-70.466418, 8.661916000000133], [-70.467251, 8.663118000000111], [-70.468855, 8.664465000000177], [-70.470844, 8.666642], [-70.47077699999988, 8.668754000000149], [-70.47067, 8.670463000000154], [-70.469146, 8.672595000000172], [-70.467166, 8.671842], [-70.467082, 8.673333000000127], [-70.46610899999985, 8.6736], [-70.465046, 8.673612000000105], [-70.463755, 8.673302], [-70.46206499999988, 8.673607], [-70.46305, 8.674512000000163], [-70.46278399999989, 8.675657], [-70.460027, 8.674139], [-70.458986, 8.6742670000001], [-70.458813, 8.675344], [-70.45754, 8.675584], [-70.457322, 8.676616000000138], [-70.458268, 8.676808], [-70.459376, 8.676934000000188], [-70.458833, 8.678099], [-70.457373, 8.6785220000001], [-70.455544, 8.678917000000126], [-70.453749, 8.678166000000147], [-70.452222, 8.678335000000118], [-70.450113, 8.679027000000133], [-70.448647, 8.680070000000114], [-70.446358, 8.682619000000159], [-70.445395, 8.68424], [-70.444336, 8.686204000000146], [-70.44495599999988, 8.688942], [-70.445317, 8.689818], [-70.44632399999989, 8.690792000000158], [-70.446791, 8.690360000000112], [-70.448312, 8.690719000000172], [-70.449047, 8.691163000000131], [-70.45136999999988, 8.689876], [-70.450839, 8.692236], [-70.44957699999986, 8.693693], [-70.449943, 8.694064], [-70.45016099999987, 8.695443], [-70.449273, 8.696422], [-70.447341, 8.695508], [-70.446053, 8.694876], [-70.445558, 8.693586], [-70.444769, 8.693854], [-70.443773, 8.69648500000011], [-70.443903, 8.697358], [-70.44459, 8.698008000000186], [-70.443721, 8.699446000000137], [-70.442662, 8.699114], [-70.44186999999988, 8.69972700000011], [-70.441021, 8.701486000000159], [-70.441381, 8.7025], [-70.440971, 8.704264], [-70.438949, 8.705461], [-70.437269, 8.707121000000143], [-70.435443, 8.709538], [-70.433374, 8.710712], [-70.431651, 8.712004], [-70.430152, 8.714033], [-70.42884, 8.71588], [-70.426736, 8.718363000000181], [-70.424514, 8.72112], [-70.424161, 8.721737000000132], [-70.423138, 8.72478000000018], [-70.423073, 8.726594], [-70.422143, 8.729523], [-70.421079, 8.73197], [-70.42, 8.733636], [-70.41975199999985, 8.735424000000137], [-70.419826, 8.737284], [-70.42095, 8.739375], [-70.414588, 8.739399], [-70.412919, 8.739284000000112], [-70.410287, 8.739075], [-70.408194, 8.738068], [-70.406054, 8.737106], [-70.405133, 8.734411], [-70.403107, 8.733634], [-70.4011799999999, 8.732238000000166], [-70.39951, 8.730477000000121], [-70.398522, 8.727551000000119], [-70.397868, 8.725961], [-70.39651499999985, 8.724938000000122], [-70.395875, 8.724197], [-70.393857, 8.722570000000132], [-70.39363799999984, 8.72142], [-70.392573, 8.721639], [-70.39239299999986, 8.723474000000124], [-70.392585, 8.72506], [-70.39181799999989, 8.725535], [-70.390333, 8.726117000000158], [-70.389011, 8.72661], [-70.3876049999999, 8.726252000000102], [-70.385818, 8.72465], [-70.384983, 8.724849], [-70.383995, 8.724311000000114], [-70.3837769999999, 8.723000000000184], [-70.382595, 8.723333], [-70.38179, 8.72293500000012], [-70.3808949999999, 8.722342], [-70.37993, 8.721746000000167], [-70.37841, 8.721295000000111], [-70.376109, 8.7203090000001], [-70.3748619999999, 8.720182], [-70.3729919999999, 8.722368], [-70.372046, 8.72454], [-70.371091, 8.72526500000015], [-70.369451, 8.725226000000134], [-70.36831299999983, 8.723493], [-70.36752199999984, 8.721649000000127], [-70.365879, 8.719566], [-70.364836, 8.717650000000162], [-70.362924, 8.717035], [-70.360803, 8.716417], [-70.359421, 8.715944], [-70.35705, 8.715072], [-70.356854, 8.716126], [-70.35548199999982, 8.717031000000134], [-70.354743, 8.716955], [-70.353729, 8.716692000000137], [-70.35183399999988, 8.716766], [-70.35044999999985, 8.71877300000017], [-70.349075, 8.719744], [-70.333691, 8.738788000000113], [-70.335409, 8.738611], [-70.336173, 8.739044], [-70.336554, 8.740288], [-70.336518, 8.74155], [-70.335853, 8.743313], [-70.335233, 8.745258], [-70.334728, 8.747205], [-70.33420299999983, 8.748853000000167], [-70.334371, 8.750485], [-70.335395, 8.752102], [-70.336173, 8.75289], [-70.336642, 8.754502], [-70.337299, 8.75579400000015], [-70.338562, 8.756633000000136], [-70.34037599999988, 8.75773], [-70.34237499999989, 8.758943000000102], [-70.343247, 8.759549000000163], [-70.34424, 8.761901], [-70.34404099999989, 8.763299000000131], [-70.343493, 8.764947], [-70.342486, 8.766269], [-70.342123, 8.76796400000012], [-70.342461, 8.768771], [-70.343534, 8.770136], [-70.345043, 8.771712], [-70.34637199999986, 8.77282700000012], [-70.347731, 8.773346], [-70.34916, 8.773704], [-70.35023799999988, 8.774564000000112], [-70.351592, 8.775519], [-70.352856, 8.776243000000136], [-70.354819, 8.776492000000133], [-70.355512, 8.776498000000117], [-70.357143, 8.777479], [-70.35894999999988, 8.77935600000012], [-70.360422, 8.780059], [-70.361808, 8.780141], [-70.363313, 8.779858000000104], [-70.364808, 8.780653], [-70.365796, 8.781259], [-70.367742, 8.783069], [-70.368731, 8.783561], [-70.370253, 8.783482000000106], [-70.371755, 8.78345400000012], [-70.3744099999999, 8.783193], [-70.37665, 8.78284], [-70.378593, 8.783294000000183], [-70.380462, 8.782828000000166], [-70.38184799999988, 8.782570000000135], [-70.384553, 8.783251000000178], [-70.387328, 8.783978000000104], [-70.388622, 8.784157], [-70.389246, 8.784155], [-70.39056399999987, 8.784611], [-70.391074, 8.785046], [-70.391423, 8.785942], [-70.39177399999988, 8.787022], [-70.392539, 8.787686000000122], [-70.392841, 8.788306], [-70.393651, 8.78867200000019], [-70.394967, 8.788598], [-70.396123, 8.788755000000151], [-70.397074, 8.789925], [-70.3982309999999, 8.790266], [-70.398945, 8.789804], [-70.400192, 8.789501], [-70.401557, 8.789841], [-70.40306, 8.790319], [-70.40449, 8.789601000000118], [-70.405575, 8.789321], [-70.408119, 8.790348000000108], [-70.410043, 8.791928], [-70.41171, 8.793119], [-70.413421, 8.793458], [-70.415987, 8.793932], [-70.41712399999983, 8.795400000000143], [-70.417547, 8.797262], [-70.41754999999989, 8.798205], [-70.417531, 8.79937800000016], [-70.418023, 8.801101], [-70.418973, 8.801811], [-70.42059099999989, 8.802242000000149], [-70.421864, 8.802928], [-70.42219, 8.803617], [-70.42226099999988, 8.803846], [-70.4234, 8.80556700000011], [-70.425111, 8.80609], [-70.426474, 8.806063000000108], [-70.427263, 8.80704900000012], [-70.427617, 8.808958000000189], [-70.42803999999984, 8.811003], [-70.429571, 8.812562000000128], [-70.430751, 8.813156], [-70.432395, 8.814254000000119], [-70.433902, 8.815445000000125], [-70.43457399999983, 8.816017], [-70.435062, 8.816775000000177], [-70.43592399999989, 8.818911000000185], [-70.436211, 8.821440000000166], [-70.436219, 8.823602000000164], [-70.436066, 8.826063], [-70.436027, 8.827903], [-70.43654199999986, 8.829856000000177], [-70.43592299999989, 8.831100000000106], [-70.43553699999984, 8.832758000000126], [-70.436073, 8.834182000000169], [-70.43737, 8.835097], [-70.439798, 8.835503], [-70.442042, 8.836277000000166], [-70.442649, 8.837954], [-70.443303, 8.839584], [-70.44427899999982, 8.841053000000102], [-70.445343, 8.841578], [-70.44578799999988, 8.843186000000173], [-70.446275, 8.843622], [-70.447711, 8.844422000000122], [-70.448411, 8.846259], [-70.448947, 8.847614], [-70.449552, 8.848601], [-70.4497879999999, 8.84993400000019], [-70.45053099999984, 8.851035], [-70.4514109999999, 8.851538], [-70.452017, 8.853054], [-70.452504, 8.853558], [-70.45287499999989, 8.85381], [-70.453887, 8.852611], [-70.454766, 8.852722000000142]]]}}, {"type": "Feature", "properties": {"Pais": "Venezuela", "Estado": "Barinas", "Municipio": "Bol\u00edvar", "Parroquia": "Altamira"}, "geometry": {"type": "Polygon", "coordinates": [[[-70.538385, 8.899598], [-70.539424, 8.900705], [-70.54027899999983, 8.901305], [-70.541481, 8.9020900000001], [-70.54198799999983, 8.903172], [-70.542103, 8.903632000000187], [-70.543666, 8.906349], [-70.544885, 8.908376], [-70.54728799999987, 8.910553000000107], [-70.54976639599994, 8.911592009], [-70.549795, 8.911604], [-70.551107, 8.913772000000165], [-70.55223446299993, 8.916454258000044], [-70.55241299999989, 8.916879], [-70.55419999999987, 8.91891], [-70.55599299999989, 8.920284], [-70.5571149999999, 8.922545], [-70.55843, 8.924432], [-70.55836635099996, 8.925923635000117], [-70.55834678299993, 8.9263822260001], [-70.55829269399999, 8.927478471000143], [-70.55887867399991, 8.927212582000095], [-70.56043872299995, 8.92618355000019], [-70.56127275499995, 8.924519505000092], [-70.56267880599984, 8.922343447000173], [-70.56331358099993, 8.921306036000033], [-70.56347182799988, 8.921047416000135], [-70.56485187399994, 8.918664357000068], [-70.56621792199991, 8.916925313000036], [-70.56773696399995, 8.914540242000157], [-70.56863999699993, 8.912875204000045], [-70.56996704799997, 8.911688176000041], [-70.57104608499998, 8.910986151000145], [-70.57252114699997, 8.910532135000096], [-70.57345417199991, 8.90935010000004], [-70.57450620999992, 8.908350066000082], [-70.57521523999998, 8.907744053000158], [-70.57562224799989, 8.905325996000158], [-70.57631426599994, 8.903433949000032], [-70.5769942849999, 8.902345925000077], [-70.57780830899992, 8.900911882000173], [-70.57782630499992, 8.900520880000158], [-70.57826631299992, 8.897114797000143], [-70.57857931799998, 8.896329775000027], [-70.57788328299995, 8.89449874200011], [-70.57724424199989, 8.891771684000105], [-70.57705722299988, 8.889934641000082], [-70.57738222599994, 8.88827660600009], [-70.57770322199997, 8.88471051700003], [-70.57676716099996, 8.882239466000101], [-70.5763031429999, 8.880475434000175], [-70.57685114799989, 8.87823937900015], [-70.57741416499994, 8.87701534200005], [-70.57796017099997, 8.87466428600004], [-70.57753313799998, 8.87216423700005], [-70.57627908099988, 8.870156195000163], [-70.57559104399996, 8.868992178000042], [-70.57342694999988, 8.868144164], [-70.57260990299989, 8.865924127000085], [-70.57234687999988, 8.863629069000126], [-70.57217086399999, 8.862574054000106], [-70.57127082899984, 8.861090022999974], [-70.56977075799989, 8.859704996000062], [-70.56892871999986, 8.859094994000031], [-70.56783466999991, 8.858692987999973], [-70.56760065499992, 8.858488980000175], [-70.5680246629999, 8.857334950000052], [-70.56898469899994, 8.85642793400018], [-70.57062876499992, 8.854708886000026], [-70.57369687499994, 8.85221380900009], [-70.57475191899994, 8.851512788999969], [-70.57617600399988, 8.85025947000014], [-70.57644497799993, 8.850022749000175], [-70.57801203299994, 8.847775691000038], [-70.58047612999997, 8.846850646000178], [-70.5821101969999, 8.846142623000105], [-70.58313322399988, 8.84472858700019], [-70.58334622999996, 8.843370560000153], [-70.58375424099995, 8.842722545000129], [-70.58528130199983, 8.842659531000038], [-70.58780141799997, 8.844146546000047], [-70.59150457999993, 8.84580457100003], [-70.59453070699993, 8.847034583000038], [-70.59761284499996, 8.847251572000118], [-70.60053096399992, 8.84733256000004], [-70.60302106599988, 8.846614527999975], [-70.60520214099989, 8.84525647900017], [-70.60661020099997, 8.845010470000148], [-70.60720822699994, 8.844728458000077], [-70.60852726799993, 8.84301241500009], [-70.60970230899989, 8.84088435700005], [-70.61098035299995, 8.839513328000066], [-70.61170637399988, 8.838448293000113], [-70.61201038799999, 8.836996255000088], [-70.61201938099987, 8.835939241000176], [-70.61214838099988, 8.83520221900011], [-70.61367744199993, 8.835300218000157], [-70.61583453199995, 8.835619205000171], [-70.62008971899996, 8.837041218000138], [-70.62212579599992, 8.836949207000089], [-70.62434889499986, 8.83703819200008], [-70.62531293799987, 8.838084215000038], [-70.62642599899993, 8.83993225000006], [-70.62811707799989, 8.841682274000107], [-70.62978315699996, 8.843340310000144], [-70.63121122199993, 8.844519329000093], [-70.63357531599996, 8.844721316], [-70.63582240899996, 8.844810312999982], [-70.63758548499993, 8.845088303000068], [-70.63978457799988, 8.845086293000122], [-70.64185565399993, 8.844189264000022], [-70.64447975199988, 8.841469190000055], [-70.64570879099995, 8.839915142000052], [-70.6480158729999, 8.837659081000027], [-70.64948092699996, 8.836447042000032], [-70.6508809899999, 8.835627023000086], [-70.65429312399988, 8.834575975000178], [-70.65551616499982, 8.83263092499999], [-70.65707421499997, 8.831463892000158], [-70.65940131399992, 8.830678859000159], [-70.6610703579999, 8.827487789999964], [-70.66144557299998, 8.82423586700014], [-70.66146335999991, 8.824081708000051], [-70.6631334199999, 8.822706667999967], [-70.66392044499992, 8.82101962400003], [-70.6639384319999, 8.818997574000036], [-70.6625203669999, 8.816876542000045], [-70.66265835999997, 8.815105494000079], [-70.66436541799999, 8.812994438000032], [-70.66599846999998, 8.810585374000027], [-70.67139668499988, 8.80762628400015], [-70.67586885499998, 8.806264226000053], [-70.6784889629999, 8.804946179000126], [-70.67990101199985, 8.80322914300018], [-70.68267811399994, 8.801542088000133], [-70.68497318899995, 8.798505004000049], [-70.68603921599993, 8.795251926000162], [-70.68685724099987, 8.792461856000045], [-70.6881102779999, 8.789367779000088], [-70.68913829999997, 8.786689717000058], [-70.69074935799995, 8.784349654000152], [-70.69263242299996, 8.781639588000075], [-70.69267485799992, 8.781580896000037], [-70.69247725499997, 8.781649738000056], [-70.6923667079999, 8.78169252900011], [-70.688542, 8.783173000000147], [-70.687112, 8.78402100000011], [-70.685717, 8.784415], [-70.68473199999988, 8.784622000000127], [-70.68398762299995, 8.784691867000106], [-70.68331499999988, 8.784755], [-70.682333, 8.78451], [-70.68195915799998, 8.78435467300011], [-70.680706, 8.783834000000127], [-70.679247, 8.783159], [-70.678168, 8.782914000000176], [-70.67672799999986, 8.782771], [-70.675935, 8.782769], [-70.674845, 8.782668], [-70.67311299999989, 8.781974], [-70.672419, 8.781973000000107], [-70.670681, 8.7825610000001], [-70.669538, 8.783199000000138], [-70.668248, 8.783590000000174], [-70.667159, 8.783292000000188], [-70.666466, 8.782946], [-70.665427, 8.782598000000178], [-70.66369199999986, 8.782545], [-70.662204, 8.78278900000015], [-70.660319, 8.783031000000108], [-70.658633, 8.783175], [-70.657049, 8.782777], [-70.655714, 8.782035000000121], [-70.654676, 8.781490000000133], [-70.653389, 8.780995], [-70.65235, 8.780500000000131], [-70.65136199999989, 8.779807000000176], [-70.650129, 8.77852300000012], [-70.648798, 8.776894], [-70.647663, 8.775651], [-70.646331, 8.774473], [-70.645098, 8.772942], [-70.64362099999988, 8.770819], [-70.643133, 8.769241], [-70.64303799999988, 8.768354], [-70.642895, 8.767121000000145], [-70.642851, 8.765938000000176], [-70.642755, 8.765149], [-70.642314, 8.764113000000123], [-70.641293, 8.763106000000107], [-70.640601, 8.761840000000177], [-70.639006, 8.761054000000172], [-70.637898, 8.759441], [-70.637459, 8.759394000000157], [-70.636557, 8.759162000000117], [-70.63457, 8.757754000000148], [-70.633347, 8.756003], [-70.63217, 8.754482000000166], [-70.630945, 8.753812000000153], [-70.630113, 8.753488000000118], [-70.6289589999999, 8.752013000000147], [-70.627322, 8.748767000000157], [-70.625892, 8.746510000000114], [-70.623514, 8.74356], [-70.621203, 8.742082], [-70.62058199999984, 8.740310000000136], [-70.620307, 8.738769000000161], [-70.618412, 8.737522000000183], [-70.615823, 8.736802000000125], [-70.614854, 8.735282], [-70.612867, 8.733851], [-70.610001, 8.733015000000137], [-70.60572, 8.733853000000181], [-70.60275899999988, 8.734028], [-70.599128, 8.733282], [-70.595613, 8.732559], [-70.593163, 8.731425], [-70.589251, 8.732954], [-70.586358, 8.734072], [-70.582791, 8.736521000000153], [-70.580592, 8.73764100000011], [-70.57927399999988, 8.737338], [-70.575921, 8.735948000000178], [-70.574166, 8.734748], [-70.572823, 8.736058], [-70.571996, 8.736369], [-70.571131, 8.736484], [-70.570579, 8.736757000000125], [-70.570259, 8.737929000000122], [-70.569741, 8.739296], [-70.569344, 8.74023300000016], [-70.56898399999989, 8.741366], [-70.568391, 8.742068], [-70.567799, 8.742536], [-70.56697, 8.743199], [-70.566496, 8.743823], [-70.565385, 8.745043], [-70.56434999999982, 8.746389], [-70.563644, 8.747409], [-70.563078, 8.748616], [-70.562886, 8.749638000000118], [-70.562412, 8.750850000000185], [-70.561548, 8.75077000000016], [-70.560249, 8.751040000000103], [-70.559461, 8.751429000000144], [-70.558556, 8.751584], [-70.55765199999985, 8.751542], [-70.55682699999988, 8.751266000000157], [-70.55557, 8.751146000000176], [-70.55486099999985, 8.75145700000013], [-70.55403399999989, 8.75176800000014], [-70.55277699999988, 8.75155], [-70.551678, 8.751], [-70.550228, 8.750175000000127], [-70.549483, 8.749782], [-70.548342, 8.749896000000149], [-70.54794799999985, 8.750169000000142], [-70.54723899999988, 8.750441], [-70.546571, 8.750205000000108], [-70.54590799999988, 8.749187], [-70.545598, 8.748326], [-70.54516699999988, 8.747973000000172], [-70.544381, 8.747971000000177], [-70.54382599999985, 8.748869], [-70.54295799999989, 8.749414], [-70.542287, 8.749920000000145], [-70.541221, 8.750817], [-70.540275, 8.751323], [-70.539646, 8.751478], [-70.539052, 8.752336], [-70.538577, 8.752882000000113], [-70.537831, 8.752802], [-70.537279, 8.753074], [-70.537234, 8.754169], [-70.536602, 8.754715], [-70.53561699999983, 8.75526], [-70.53471, 8.755766000000165], [-70.533687, 8.755841000000146], [-70.53302, 8.755722], [-70.532154, 8.755916000000127], [-70.53120599999988, 8.756676000000141], [-70.53057499999983, 8.757143], [-70.53033499999987, 8.758003000000144], [-70.52962699999989, 8.75800100000015], [-70.528922, 8.757608000000175], [-70.528374, 8.756981000000167], [-70.527198, 8.756274], [-70.52562399999988, 8.756505], [-70.524841, 8.755877000000112], [-70.523188, 8.756342], [-70.522073, 8.756705], [-70.520248, 8.755435000000148], [-70.519396, 8.753892000000178], [-70.51708599999989, 8.751815], [-70.515743, 8.75243200000017], [-70.51322099999987, 8.752768], [-70.511625, 8.752717000000132], [-70.5102169999999, 8.751196], [-70.509363, 8.750158000000113], [-70.506957, 8.750541], [-70.504412, 8.750625], [-70.503119, 8.749518000000137], [-70.50321799999989, 8.74841], [-70.50342499999988, 8.74685200000016], [-70.502316, 8.745515000000182], [-70.50159999999988, 8.745469000000128], [-70.5005139999999, 8.745220000000131], [-70.499289, 8.74511], [-70.498507, 8.745803], [-70.498396, 8.747091], [-70.49704, 8.748775], [-70.496207, 8.74841], [-70.495532, 8.747078], [-70.495296, 8.74579100000011], [-70.494692, 8.744942], [-70.493214, 8.745063], [-70.492197, 8.744859], [-70.492454, 8.745433000000162], [-70.49181199999987, 8.746655], [-70.491444, 8.74730000000011], [-70.491773, 8.748541000000102], [-70.49235299999987, 8.749344000000121], [-70.493256, 8.749915000000101], [-70.49360699999988, 8.751064000000156], [-70.49393299999986, 8.751707], [-70.494512, 8.75207300000011], [-70.495621, 8.752345], [-70.497451, 8.753718000000163], [-70.49766, 8.753947], [-70.495975, 8.754298], [-70.494428, 8.754488], [-70.492907, 8.755183], [-70.49334899999985, 8.756148000000167], [-70.492616, 8.757599000000141], [-70.491508, 8.757948], [-70.491792, 8.759672], [-70.491794, 8.760178000000167], [-70.490735, 8.761079000000109], [-70.491386, 8.762181000000169], [-70.492361, 8.763534], [-70.491163, 8.764389], [-70.48993799999988, 8.764095], [-70.489619, 8.7653150000001], [-70.490408, 8.766140000000178], [-70.490898, 8.767564], [-70.4909009999999, 8.768162000000132], [-70.490627, 8.769106], [-70.49076799999989, 8.76974900000016], [-70.492201, 8.769997000000103], [-70.494462, 8.76923], [-70.497233, 8.769151], [-70.497742, 8.769264], [-70.49802099999988, 8.769654000000116], [-70.498372, 8.770918000000108], [-70.498928, 8.771261], [-70.50029599999982, 8.772337], [-70.500738, 8.773232], [-70.50076599999989, 8.77452], [-70.50098, 8.77606], [-70.501078, 8.777624000000174], [-70.500805, 8.778660000000116], [-70.500372, 8.780157000000145], [-70.49993599999988, 8.780918], [-70.500082, 8.782780000000116], [-70.500204, 8.784573000000137], [-70.500466, 8.786412], [-70.500702, 8.787860000000137], [-70.50084599999985, 8.78924000000012], [-70.500344, 8.790829000000144], [-70.499654, 8.791613000000154], [-70.498944, 8.793157], [-70.499944, 8.794924], [-70.50071, 8.795979000000102], [-70.5007609999999, 8.797221], [-70.50067299999984, 8.798371000000145], [-70.50072399999988, 8.799521], [-70.500775, 8.800671], [-70.5004699999999, 8.804582000000153], [-70.501711, 8.807648000000142], [-70.501585, 8.809917], [-70.50214099999988, 8.812982], [-70.500531, 8.815184], [-70.49914199999989, 8.814476], [-70.49826099999984, 8.813835], [-70.497084, 8.814092], [-70.49563199999983, 8.814856], [-70.49401099999989, 8.814172], [-70.492269, 8.811741], [-70.491945, 8.811558], [-70.489865, 8.8112670000001], [-70.48838499999982, 8.811134], [-70.487202, 8.80985], [-70.486413, 8.808887], [-70.485834, 8.808406000000161], [-70.48387, 8.808229], [-70.483084, 8.808301], [-70.482225, 8.807062000000144], [-70.48183, 8.80648900000017], [-70.480607, 8.80693], [-70.47973, 8.807002000000182], [-70.478657, 8.804269], [-70.47768399999984, 8.803560000000118], [-70.47698999999989, 8.80337800000018], [-70.475741, 8.802946000000134], [-70.4725729999999, 8.802198], [-70.471323, 8.801812], [-70.46968, 8.800943000000132], [-70.46993799999984, 8.802185], [-70.470472, 8.802804], [-70.47114899999985, 8.804687000000115], [-70.47125, 8.806941000000108], [-70.470882, 8.807402], [-70.470496, 8.809197], [-70.470825, 8.810645000000136], [-70.470967, 8.811265000000105], [-70.47021, 8.812993], [-70.469614, 8.814191000000108], [-70.468926, 8.815551], [-70.468559, 8.816196], [-70.467964, 8.817694000000188], [-70.467764, 8.818337], [-70.466335, 8.820598000000132], [-70.466131, 8.821587], [-70.465136, 8.821223000000145], [-70.464188, 8.82118000000014], [-70.463407, 8.822172], [-70.462763, 8.82291], [-70.46269999999987, 8.824750000000108], [-70.46298399999989, 8.826497], [-70.463476, 8.828312000000153], [-70.463503, 8.82937], [-70.46332499999988, 8.831188], [-70.463261, 8.832499], [-70.463957, 8.83325600000012], [-70.463961, 8.83429], [-70.46304, 8.835122000000126], [-70.46294799999987, 8.835214000000121], [-70.462729, 8.83733500000011], [-70.462909, 8.838775], [-70.462664, 8.840893000000165], [-70.4629149999999, 8.843054000000109], [-70.462594, 8.845058000000165], [-70.462885, 8.846953], [-70.46248899999989, 8.848806000000138], [-70.46281899999985, 8.850701], [-70.46219, 8.852817000000186], [-70.46229, 8.854863], [-70.461967, 8.856814], [-70.462821, 8.856811], [-70.46402499999988, 8.857381000000146], [-70.465759, 8.857306000000165], [-70.467145, 8.85730100000012], [-70.467933, 8.85796500000015], [-70.468559, 8.858538000000124], [-70.468769, 8.858928], [-70.46881599999989, 8.859181], [-70.469187, 8.859525], [-70.469973, 8.859729], [-70.470388, 8.859451], [-70.471243, 8.8594480000001], [-70.472331, 8.859973], [-70.4739, 8.859416000000124], [-70.475492, 8.858950000000107], [-70.476671, 8.859038000000112], [-70.478081, 8.859355], [-70.47979, 8.858958], [-70.481568, 8.858744000000115], [-70.4828629999999, 8.858993000000112], [-70.48385999999988, 8.859932000000185], [-70.484833, 8.860549], [-70.486912, 8.860611], [-70.48823099999987, 8.861043000000109], [-70.489116, 8.862512000000152], [-70.490019, 8.863152000000127], [-70.49171, 8.864204000000143], [-70.49213, 8.865329000000145], [-70.493498, 8.866451], [-70.49426299999988, 8.867231000000118], [-70.494614, 8.868264000000181], [-70.497323, 8.869727], [-70.49813199999983, 8.869793], [-70.500354, 8.870797000000152], [-70.50112, 8.871622], [-70.50213699999989, 8.87173300000012], [-70.502405, 8.872427000000187], [-70.503678, 8.872592000000168], [-70.504789, 8.872365], [-70.505528, 8.872919], [-70.505689, 8.873633000000154], [-70.50596399999984, 8.874852], [-70.506818, 8.876004], [-70.508529, 8.87686], [-70.509569, 8.877231000000108], [-70.511235, 8.877742000000126], [-70.51213699999988, 8.87841200000014], [-70.513269, 8.879151], [-70.515954, 8.879022], [-70.51630099999988, 8.878655], [-70.519056, 8.878089], [-70.520885, 8.877818], [-70.5227589999999, 8.877985], [-70.523915, 8.878563], [-70.524655, 8.878979000000129], [-70.525278, 8.87951], [-70.525671, 8.880109], [-70.526086, 8.880616], [-70.5263819999999, 8.882916000000137], [-70.526358, 8.883744], [-70.526448, 8.88503100000014], [-70.5267, 8.885998], [-70.526976, 8.887056], [-70.527158, 8.888620000000117], [-70.5268329999999, 8.889401], [-70.526808, 8.890343], [-70.52687499999985, 8.891585], [-70.526572, 8.892619], [-70.526476, 8.894596], [-70.527307, 8.89561], [-70.528811, 8.895614], [-70.52962, 8.896261], [-70.53012699999988, 8.8971820000001], [-70.53084299999989, 8.897943], [-70.532486, 8.898407], [-70.533759, 8.898296], [-70.534568, 8.89892], [-70.535932, 8.899498], [-70.537299, 8.898905], [-70.538385, 8.899598]]]}}, {"type": "Feature", "properties": {"Pais": "Venezuela", "Estado": "Barinas", "Municipio": "Bol\u00edvar", "Parroquia": "Calderas"}, "geometry": {"type": "Polygon", "coordinates": [[[-70.41588654999993, 9.02282487499997], [-70.415873, 9.023136], [-70.41612, 9.024718], [-70.417298, 9.024776], [-70.418776, 9.024940000000129], [-70.41971748899994, 9.02505833300006], [-70.420232, 9.025123000000121], [-70.42030259599994, 9.02514810000008], [-70.42289956299993, 9.02491453700003], [-70.42578967599997, 9.024544520000063], [-70.42934582199996, 9.023641476000137], [-70.43214094099994, 9.023088452000025], [-70.43533106599995, 9.022601422000037], [-70.43769216899989, 9.022695408], [-70.44131730399988, 9.021744365000131], [-70.44383841599995, 9.021584355000186], [-70.44572748699994, 9.020626320000076], [-70.44708054099988, 9.019329281000125], [-70.44957262899993, 9.018549249000046], [-70.45157971999993, 9.017866222000123], [-70.45411580899997, 9.016810188000136], [-70.45533485999994, 9.01601916500016], [-70.45772194199992, 9.013863097000126], [-70.46002403999995, 9.01260305400001], [-70.46343716699994, 9.011356014000057], [-70.46654130099989, 9.011557996000079], [-70.47146449899992, 9.010893956000189], [-70.4747996449999, 9.011139939000032], [-70.47744475199994, 9.011804943000186], [-70.47863280399991, 9.01257495100009], [-70.4812659129999, 9.012022933000083], [-70.48246396299999, 9.011460907000128], [-70.48467204699983, 9.010017868000034], [-70.48889221399997, 9.008464809000031], [-70.48994524399995, 9.00726177000007], [-70.49157730899998, 9.006053739000038], [-70.49334937799995, 9.005004709000104], [-70.49504844599994, 9.003680660000043], [-70.4980405579999, 9.001955608000117], [-70.49993661999991, 8.999321542000132], [-70.50482080899991, 8.997180467000021], [-70.50482080899991, 8.997203467000134], [-70.50890594899988, 8.990611293000029], [-70.51191203999991, 8.984610140000086], [-70.51751223399992, 8.979270987000177], [-70.52123136899996, 8.973798846000136], [-70.52387345299991, 8.971114767000188], [-70.52692057699988, 8.96911370099997], [-70.53119272999987, 8.965552604000152], [-70.53370582499997, 8.963468540000179], [-70.53979805199998, 8.959920429000135], [-70.54455261999993, 8.956952451000063], [-70.54496355899994, 8.956695928000045], [-70.54667188199994, 8.95562952900002], [-70.55233053799998, 8.95209718600006], [-70.55263574199995, 8.950869798000099], [-70.55284353999997, 8.95003413500018], [-70.55319854999988, 8.94722606900018], [-70.55335953399998, 8.943684990000179], [-70.55219046399986, 8.941147932000035], [-70.55017237399994, 8.939216899000087], [-70.54909221199995, 8.938433448000183], [-70.54895631799997, 8.938334883000095], [-70.54783126999996, 8.937358866000068], [-70.54704222799995, 8.935460832000047], [-70.54949932099993, 8.933961788000033], [-70.55241242499994, 8.931951724000157], [-70.55460550999993, 8.929720662000136], [-70.5554265369999, 8.928769634000105], [-70.55726760899995, 8.927943605000053], [-70.55829269399999, 8.927478471000143], [-70.55834678299993, 8.9263822260001], [-70.55836635099996, 8.925923635000117], [-70.55843, 8.924432], [-70.5571149999999, 8.922545], [-70.55599299999989, 8.920284], [-70.55419999999987, 8.91891], [-70.55241299999989, 8.916879], [-70.55223446299993, 8.916454258000044], [-70.551107, 8.913772000000165], [-70.549795, 8.911604], [-70.54976639599994, 8.911592009], [-70.54728799999987, 8.910553000000107], [-70.544885, 8.908376], [-70.543666, 8.906349], [-70.542103, 8.903632000000187], [-70.54198799999983, 8.903172], [-70.541481, 8.9020900000001], [-70.54027899999983, 8.901305], [-70.539424, 8.900705], [-70.538385, 8.899598], [-70.537299, 8.898905], [-70.535932, 8.899498], [-70.534568, 8.89892], [-70.533759, 8.898296], [-70.532486, 8.898407], [-70.53084299999989, 8.897943], [-70.53012699999988, 8.8971820000001], [-70.52962, 8.896261], [-70.528811, 8.895614], [-70.527307, 8.89561], [-70.526476, 8.894596], [-70.526572, 8.892619], [-70.52687499999985, 8.891585], [-70.526808, 8.890343], [-70.5268329999999, 8.889401], [-70.527158, 8.888620000000117], [-70.526976, 8.887056], [-70.5267, 8.885998], [-70.526448, 8.88503100000014], [-70.526358, 8.883744], [-70.5263819999999, 8.882916000000137], [-70.526086, 8.880616], [-70.525671, 8.880109], [-70.525278, 8.87951], [-70.524655, 8.878979000000129], [-70.523915, 8.878563], [-70.5227589999999, 8.877985], [-70.520885, 8.877818], [-70.519056, 8.878089], [-70.51630099999988, 8.878655], [-70.515954, 8.879022], [-70.513269, 8.879151], [-70.51213699999988, 8.87841200000014], [-70.511235, 8.877742000000126], [-70.509569, 8.877231000000108], [-70.508529, 8.87686], [-70.506818, 8.876004], [-70.50596399999984, 8.874852], [-70.505689, 8.873633000000154], [-70.505528, 8.872919], [-70.504789, 8.872365], [-70.503678, 8.872592000000168], [-70.502405, 8.872427000000187], [-70.50213699999989, 8.87173300000012], [-70.50112, 8.871622], [-70.500354, 8.870797000000152], [-70.49813199999983, 8.869793], [-70.497323, 8.869727], [-70.494614, 8.868264000000181], [-70.49426299999988, 8.867231000000118], [-70.493498, 8.866451], [-70.49213, 8.865329000000145], [-70.49171, 8.864204000000143], [-70.490019, 8.863152000000127], [-70.489116, 8.862512000000152], [-70.48823099999987, 8.861043000000109], [-70.486912, 8.860611], [-70.484833, 8.860549], [-70.48385999999988, 8.859932000000185], [-70.4828629999999, 8.858993000000112], [-70.481568, 8.858744000000115], [-70.47979, 8.858958], [-70.478081, 8.859355], [-70.476671, 8.859038000000112], [-70.475492, 8.858950000000107], [-70.4739, 8.859416000000124], [-70.472331, 8.859973], [-70.471243, 8.8594480000001], [-70.470388, 8.859451], [-70.469973, 8.859729], [-70.469187, 8.859525], [-70.46881599999989, 8.859181], [-70.468769, 8.858928], [-70.468559, 8.858538000000124], [-70.467933, 8.85796500000015], [-70.467145, 8.85730100000012], [-70.465759, 8.857306000000165], [-70.46402499999988, 8.857381000000146], [-70.462821, 8.856811], [-70.461967, 8.856814], [-70.460764, 8.85638100000017], [-70.46046, 8.855646], [-70.459163, 8.854616], [-70.458605, 8.853813000000173], [-70.45821, 8.853216000000145], [-70.456754, 8.853037], [-70.4556209999999, 8.852857], [-70.454766, 8.852722000000142], [-70.453887, 8.852611], [-70.45287499999989, 8.85381], [-70.452504, 8.853558], [-70.452017, 8.853054], [-70.4514109999999, 8.851538], [-70.45053099999984, 8.851035], [-70.4497879999999, 8.84993400000019], [-70.449552, 8.848601], [-70.448947, 8.847614], [-70.448411, 8.846259], [-70.447711, 8.844422000000122], [-70.446275, 8.843622], [-70.44578799999988, 8.843186000000173], [-70.445343, 8.841578], [-70.44427899999982, 8.841053000000102], [-70.443303, 8.839584], [-70.442649, 8.837954], [-70.442042, 8.836277000000166], [-70.439798, 8.835503], [-70.43737, 8.835097], [-70.436073, 8.834182000000169], [-70.43553699999984, 8.832758000000126], [-70.43592299999989, 8.831100000000106], [-70.43654199999986, 8.829856000000177], [-70.436027, 8.827903], [-70.436066, 8.826063], [-70.436219, 8.823602000000164], [-70.436211, 8.821440000000166], [-70.43592399999989, 8.818911000000185], [-70.435062, 8.816775000000177], [-70.43457399999983, 8.816017], [-70.433902, 8.815445000000125], [-70.432395, 8.814254000000119], [-70.430751, 8.813156], [-70.429571, 8.812562000000128], [-70.42803999999984, 8.811003], [-70.427617, 8.808958000000189], [-70.427263, 8.80704900000012], [-70.426474, 8.806063000000108], [-70.425111, 8.80609], [-70.4234, 8.80556700000011], [-70.42226099999988, 8.803846], [-70.42219, 8.803617], [-70.421864, 8.802928], [-70.42059099999989, 8.802242000000149], [-70.418973, 8.801811], [-70.418023, 8.801101], [-70.417531, 8.79937800000016], [-70.41754999999989, 8.798205], [-70.417547, 8.797262], [-70.41712399999983, 8.795400000000143], [-70.415987, 8.793932], [-70.413421, 8.793458], [-70.41171, 8.793119], [-70.410043, 8.791928], [-70.408119, 8.790348000000108], [-70.405575, 8.789321], [-70.40449, 8.789601000000118], [-70.40306, 8.790319], [-70.401557, 8.789841], [-70.400192, 8.789501], [-70.398945, 8.789804], [-70.3982309999999, 8.790266], [-70.397074, 8.789925], [-70.396123, 8.788755000000151], [-70.394967, 8.788598], [-70.393651, 8.78867200000019], [-70.392841, 8.788306], [-70.392539, 8.787686000000122], [-70.39177399999988, 8.787022], [-70.391423, 8.785942], [-70.391074, 8.785046], [-70.39056399999987, 8.784611], [-70.389246, 8.784155], [-70.388622, 8.784157], [-70.387328, 8.783978000000104], [-70.384553, 8.783251000000178], [-70.38184799999988, 8.782570000000135], [-70.380462, 8.782828000000166], [-70.378593, 8.783294000000183], [-70.37665, 8.78284], [-70.3744099999999, 8.783193], [-70.371755, 8.78345400000012], [-70.370253, 8.783482000000106], [-70.368731, 8.783561], [-70.372125, 8.783938], [-70.37294099999986, 8.783862000000113], [-70.374929, 8.785458000000176], [-70.37632599999989, 8.786826], [-70.377373, 8.788512], [-70.378498, 8.789258000000189], [-70.379121, 8.789401000000112], [-70.380035, 8.790398], [-70.378877, 8.790639], [-70.37756099999984, 8.790557], [-70.377245, 8.792115000000138], [-70.377878, 8.793522], [-70.37839899999989, 8.794606], [-70.378732, 8.795941000000141], [-70.37816, 8.797727000000123], [-70.37740699999989, 8.799052000000188], [-70.376435, 8.799134], [-70.374932, 8.799097000000131], [-70.374288, 8.798861000000159], [-70.373437, 8.79837], [-70.37222899999983, 8.798979], [-70.371624, 8.799455000000137], [-70.36948599999988, 8.800605], [-70.368413, 8.80153600000017], [-70.367638, 8.802837000000181], [-70.366757, 8.803104], [-70.365463, 8.80302300000011], [-70.364623, 8.803864], [-70.363891, 8.805418], [-70.362812, 8.806992], [-70.361499, 8.808839], [-70.36068, 8.809887000000117], [-70.36018, 8.811352], [-70.359411, 8.812848], [-70.361092, 8.814897], [-70.361901, 8.817223000000126], [-70.363279, 8.820405000000164], [-70.365879, 8.826239], [-70.36752799999988, 8.82777], [-70.368471, 8.830604], [-70.368353, 8.833151000000157], [-70.367928, 8.83645300000012], [-70.367486, 8.838974000000178], [-70.366793, 8.842663], [-70.367208, 8.850705], [-70.36831199999983, 8.853632000000118], [-70.370252, 8.856199], [-70.372372, 8.859204], [-70.374178, 8.863561], [-70.376904, 8.866136000000154], [-70.377493, 8.867289000000142], [-70.37752699999987, 8.868552], [-70.377971, 8.870439], [-70.378376, 8.871591000000137], [-70.378505, 8.872534000000144], [-70.377867, 8.873905], [-70.376072, 8.875472], [-70.37418899999989, 8.876487], [-70.371885, 8.878003], [-70.36853699999989, 8.879991], [-70.365459, 8.882648000000131], [-70.36372, 8.885387], [-70.362719, 8.888362], [-70.361158, 8.89082], [-70.359144, 8.892659000000151], [-70.356767, 8.893739000000153], [-70.355832, 8.895842], [-70.354673, 8.898258000000112], [-70.35127, 8.901264], [-70.3480459999999, 8.904927], [-70.34570099999985, 8.910927000000129], [-70.345275, 8.915148000000158], [-70.343631, 8.917657], [-70.342526, 8.919615], [-70.34238, 8.922582], [-70.342522, 8.924582], [-70.343247, 8.926081], [-70.344638, 8.927977000000112], [-70.345312, 8.929958], [-70.345222, 8.932093000000123], [-70.345184, 8.933585000000107], [-70.345578, 8.93577], [-70.345845, 8.936828], [-70.346483, 8.937753], [-70.349794, 8.939645], [-70.353254, 8.940459], [-70.360097, 8.940663], [-70.365936, 8.941752000000122], [-70.369141, 8.942725000000166], [-70.372911, 8.942554], [-70.375591, 8.942787000000123], [-70.377376, 8.94234500000016], [-70.379248, 8.94238600000017], [-70.380875, 8.941552000000115], [-70.38164399999988, 8.940962000000127], [-70.38357, 8.940384000000108], [-70.384247, 8.941997000000129], [-70.384112, 8.94404], [-70.383767, 8.946171], [-70.38414499999988, 8.947667000000138], [-70.384549, 8.948911], [-70.385041, 8.950592], [-70.385524, 8.953214000000116], [-70.385936, 8.956019], [-70.386157, 8.957077], [-70.386649, 8.95875800000016], [-70.386958, 8.960253], [-70.387348, 8.962897000000112], [-70.388386, 8.965525000000127], [-70.389944, 8.96700900000019], [-70.390494, 8.967473], [-70.393336, 8.970026], [-70.394113, 8.971021000000121], [-70.394902, 8.973095000000171], [-70.395022, 8.975001000000134], [-70.39530999999988, 8.976244000000122], [-70.396456, 8.977357], [-70.39767499999988, 8.978034], [-70.397821, 8.979643000000124], [-70.397527, 8.981294000000162], [-70.397071, 8.982989], [-70.39713399999988, 8.985008000000164], [-70.39643199999989, 8.987037000000157], [-70.3956409999999, 8.988714000000186], [-70.3937269999999, 8.99222], [-70.391049, 8.993028], [-70.390188, 8.993868000000134], [-70.389129, 8.995216], [-70.388298, 8.997642], [-70.388299, 8.997665], [-70.38772099999983, 9.002721], [-70.387659, 9.005958], [-70.388707, 9.009117], [-70.39059699999984, 9.010731], [-70.392219, 9.010992000000158], [-70.39400599999982, 9.011528], [-70.395975, 9.011625], [-70.397574, 9.011749], [-70.399289, 9.011987], [-70.40062, 9.013284], [-70.40196799999984, 9.013892000000112], [-70.403032, 9.013836], [-70.40471899999989, 9.013477], [-70.406618, 9.013599], [-70.408355, 9.01379], [-70.409911, 9.01435000000015], [-70.41304999999988, 9.015861000000143], [-70.4133561779999, 9.016058230999988], [-70.414843, 9.017016000000126], [-70.41654299999988, 9.018057000000113], [-70.4166709999999, 9.019388000000106], [-70.415949, 9.021391000000108], [-70.41588654999993, 9.02282487499997]]]}}]}