{"type": "FeatureCollection", "features": [{"type": "Feature", "properties": {"Pais": "Venezuela", "Estado": "Falc\u00f3n", "Municipio": "Cacique Manaure"}, "geometry": {"type": "Polygon", "coordinates": [[[-68.6200209999999, 10.912463000000173], [-68.619138, 10.912742], [-68.61860599999989, 10.913158000000124], [-68.61822399999983, 10.91536], [-68.61776899999984, 10.917013], [-68.617429, 10.918276000000105], [-68.616879, 10.919677], [-68.615781, 10.918926], [-68.615102, 10.918402], [-68.614168, 10.91797200000019], [-68.613331, 10.918136], [-68.613387, 10.919534000000112], [-68.613455, 10.92232300000012], [-68.612942, 10.922815000000128], [-68.6117799999999, 10.923027000000104], [-68.611004, 10.921816], [-68.610254, 10.920972], [-68.609205, 10.92070200000012], [-68.608233, 10.921487], [-68.607632, 10.922132000000147], [-68.606584, 10.922022], [-68.60569599999985, 10.921431], [-68.604251, 10.921163], [-68.602923, 10.920849], [-68.60114, 10.922258], [-68.600442, 10.922330000000159], [-68.598924, 10.92149000000012], [-68.597477, 10.920741000000135], [-68.596357, 10.92031], [-68.595471, 10.920085], [-68.594474, 10.920573000000104], [-68.593007, 10.920397], [-68.592884, 10.919457000000136], [-68.59273899999988, 10.918586000000175], [-68.59178899999989, 10.919164], [-68.590627, 10.919561], [-68.589275, 10.919315], [-68.58855, 10.918609000000117], [-68.5878689999999, 10.91774], [-68.587423, 10.917100000000175], [-68.587208, 10.916184], [-68.586625, 10.916073], [-68.585721, 10.916536], [-68.58557899999988, 10.916147], [-68.585806, 10.915275000000122], [-68.58519799999988, 10.914842], [-68.583178, 10.915517], [-68.581013, 10.915437], [-68.57991599999986, 10.914846000000182], [-68.579302, 10.913428], [-68.578902, 10.91276500000015], [-68.57782899999984, 10.912358], [-68.577556, 10.913414], [-68.577357, 10.915042], [-68.577342, 10.916327000000138], [-68.576466, 10.917570000000126], [-68.575399, 10.918263], [-68.574667, 10.916478], [-68.574663, 10.915836], [-68.573383, 10.915774], [-68.572569, 10.915985], [-68.57229399999989, 10.916582000000119], [-68.573043, 10.917358], [-68.573907, 10.917766], [-68.574495, 10.918749000000162], [-68.572942, 10.919719000000157], [-68.571404, 10.91936], [-68.570172, 10.919573000000128], [-68.56907799999982, 10.919555], [-68.56750699999986, 10.917867], [-68.566691, 10.91752700000012], [-68.565697, 10.91867800000017], [-68.565076, 10.919805000000167], [-68.566681, 10.919682], [-68.567707, 10.919952], [-68.56813099999988, 10.92070600000011], [-68.56699, 10.920804], [-68.565478, 10.920903], [-68.56546, 10.921659], [-68.5670889999999, 10.921697], [-68.568324, 10.921737000000121], [-68.568613, 10.92334], [-68.567242, 10.923691000000133], [-68.5654239999999, 10.92331], [-68.56428, 10.92272], [-68.563325, 10.922587000000135], [-68.562324, 10.922546000000125], [-68.56141, 10.9215650000001], [-68.56054099999983, 10.920332], [-68.560075, 10.920151], [-68.559827, 10.92139], [-68.560115, 10.922809], [-68.55998, 10.923521000000108], [-68.552647, 10.926858], [-68.551977, 10.927687], [-68.551049, 10.92815000000013], [-68.550068, 10.927513], [-68.548695, 10.92752], [-68.547459, 10.927113000000134], [-68.547988, 10.926125000000127], [-68.549337, 10.926027], [-68.55003, 10.92526700000019], [-68.549067, 10.923827], [-68.547063, 10.923333], [-68.54465, 10.924422], [-68.544123, 10.925754000000154], [-68.543695, 10.928049000000158], [-68.543629, 10.928760000000182], [-68.542862, 10.92903900000016], [-68.542229, 10.928377000000125], [-68.54226799999986, 10.927139000000182], [-68.542213, 10.925787], [-68.541139, 10.925104], [-68.540916, 10.92666400000013], [-68.54113299999983, 10.927901000000134], [-68.54167599999988, 10.929136], [-68.541775, 10.930098], [-68.541125, 10.930468], [-68.54030499999988, 10.929533], [-68.539736, 10.927793000000122], [-68.539358, 10.926901], [-68.53847799999988, 10.927547000000175], [-68.53822999999988, 10.928878000000168], [-68.537629, 10.92947700000019], [-68.536884, 10.929527], [-68.536878, 10.92847200000017], [-68.537129, 10.92776], [-68.5370999999999, 10.92679800000019], [-68.536237, 10.926504], [-68.535803, 10.927813000000128], [-68.535648, 10.929120000000125], [-68.535375, 10.930038], [-68.534371, 10.929608], [-68.5334759999999, 10.927893], [-68.532633, 10.926980000000128], [-68.531931, 10.926319], [-68.530744, 10.926348], [-68.529878, 10.925572], [-68.530359, 10.924263], [-68.53093699999988, 10.923710000000142], [-68.532055, 10.923842], [-68.534084, 10.924451000000147], [-68.534454, 10.924175], [-68.53351699999985, 10.923102], [-68.531674, 10.922446], [-68.531087, 10.921532], [-68.530312, 10.920436000000109], [-68.52877199999989, 10.91968700000018], [-68.527708, 10.92079200000012], [-68.526827, 10.921370000000138], [-68.526914, 10.920246], [-68.527835, 10.918705000000102], [-68.527803, 10.917307], [-68.526658, 10.916488000000129], [-68.525755, 10.917249], [-68.52464599999985, 10.918538000000126], [-68.523972, 10.918679], [-68.523413, 10.918681], [-68.522574, 10.91831900000011], [-68.522823, 10.917286000000104], [-68.52269699999988, 10.915682], [-68.521944, 10.914333], [-68.521295, 10.914955000000134], [-68.52097799999984, 10.916401], [-68.520891, 10.91741], [-68.52013, 10.918514], [-68.51873299999988, 10.918291000000124], [-68.518633, 10.917146], [-68.518043, 10.915842000000168], [-68.517928, 10.916049], [-68.517264, 10.917817000000127], [-68.51624, 10.917776000000117], [-68.515423, 10.917414], [-68.514253, 10.916342000000157], [-68.51436399999989, 10.915470000000141], [-68.515125, 10.91441200000014], [-68.515608, 10.913401], [-68.51610899999986, 10.911679000000163], [-68.51622, 10.910739], [-68.515337, 10.910927000000129], [-68.514437, 10.912192000000118], [-68.51348799999988, 10.913090000000182], [-68.512118, 10.913556], [-68.511346, 10.912895], [-68.510947, 10.912300000000187], [-68.510546, 10.911454], [-68.509778, 10.911298], [-68.509923, 10.912168000000122], [-68.50993, 10.913337], [-68.509681, 10.91459900000018], [-68.508517, 10.91451300000017], [-68.507953, 10.913507], [-68.50736599999988, 10.912753], [-68.50657399999989, 10.91257400000012], [-68.50595099999987, 10.913356], [-68.505725, 10.914526], [-68.5052419999999, 10.915514], [-68.50398599999988, 10.915635], [-68.502913, 10.915067], [-68.50207399999988, 10.914979000000187], [-68.502271, 10.916658], [-68.501378, 10.917476], [-68.500647, 10.918222], [-68.499378, 10.918863], [-68.498526, 10.919359], [-68.49765499999984, 10.920107], [-68.49570599999987, 10.921814], [-68.494813, 10.922631], [-68.49557599999986, 10.923764000000176], [-68.498235, 10.925552000000152], [-68.497389, 10.926392], [-68.49613, 10.926299000000142], [-68.4951, 10.925858], [-68.494298, 10.92520700000017], [-68.49360899999982, 10.924325], [-68.492971, 10.925138000000175], [-68.493049, 10.926971], [-68.493501, 10.92898], [-68.493553, 10.930721], [-68.49296, 10.93139600000012], [-68.492338, 10.931750000000136], [-68.491027, 10.932621], [-68.490571, 10.93315600000011], [-68.49044, 10.933663000000138], [-68.49094, 10.934365000000128], [-68.49158299999988, 10.935294], [-68.49099199999989, 10.936061000000109], [-68.489016, 10.936095], [-68.487696, 10.93648400000012], [-68.486691, 10.937556], [-68.4854969999999, 10.938470000000109], [-68.483403, 10.939812000000131], [-68.481351, 10.940879000000166], [-68.481148, 10.942602], [-68.481193, 10.943292000000156], [-68.481273, 10.944525], [-68.481283, 10.945143], [-68.480608, 10.946484000000112], [-68.479353, 10.946552], [-68.477925, 10.945980000000134], [-68.477032, 10.94540000000012], [-68.475898, 10.945740000000171], [-68.474349, 10.946317000000136], [-68.4733399999999, 10.947182000000112], [-68.473195, 10.948216], [-68.473427, 10.949587000000179], [-68.4740829999999, 10.951272000000131], [-68.474414, 10.953008], [-68.47134099999988, 10.954184], [-68.470475, 10.95527600000014], [-68.469933, 10.956225000000131], [-68.468367, 10.957238000000132], [-68.4664, 10.957798], [-68.464743, 10.958835], [-68.462076, 10.959316000000115], [-68.460199, 10.959738000000186], [-68.45900399999988, 10.960584], [-68.458421, 10.9619], [-68.45825799999989, 10.963278000000173], [-68.457667, 10.964067000000114], [-68.456151, 10.963841], [-68.456179, 10.96274], [-68.456135, 10.961481000000163], [-68.455519, 10.960781000000168], [-68.45433999999989, 10.961213], [-68.453862, 10.963261], [-68.45384499999989, 10.965005], [-68.45331, 10.966435000000104], [-68.452572, 10.966768000000116], [-68.45168499999988, 10.966577], [-68.450583, 10.966069000000175], [-68.537657, 11.068546], [-68.576157, 11.051767], [-68.579819, 11.051772], [-68.620132, 11.028311], [-68.62002399999989, 10.915143], [-68.6200209999999, 10.912463000000173]]]}}]}