{
  "type": "FeatureCollection",
  "features": [
    {
      "type": "Feature",
      "properties": {
        "Pais": "Venezuela",
        "Estado": "Sucre",
        "Municipio": "Cajigal",
        "Parroquia": "Yaguaraparo"
      },
      "geometry": {
        "type": "Polygon",
        "coordinates": [
          [
            [
              -62.75532343699996,
              10.565914470000052
            ],
            [
              -62.75555797299995,
              10.566481223000153
            ],
            [
              -62.75698674999995,
              10.56993384000009
            ],
            [
              -62.779455,
              10.624228000000187
            ],
            [
              -62.810522,
              10.652286000000174
            ],
            [
              -62.810506,
              10.652435
            ],
            [
              -62.84161399999988,
              10.643259
            ],
            [
              -62.840719,
              10.606176000000119
            ],
            [
              -62.871813,
              10.579962
            ],
            [
              -62.875488,
              10.532933000000185
            ],
            [
              -62.867362,
              10.529735
            ],
            [
              -62.86547499999989,
              10.52972
            ],
            [
              -62.86269579299989,
              10.52996662300012
            ],
            [
              -62.85910799999988,
              10.530285000000106
            ],
            [
              -62.85899062099992,
              10.530320897000138
            ],
            [
              -62.85659873399999,
              10.531052381000109
            ],
            [
              -62.855866829999854,
              10.531276211000147
            ],
            [
              -62.85527038299995,
              10.531518563000134
            ],
            [
              -62.8547500549999,
              10.53561656700009
            ],
            [
              -62.851631925999925,
              10.539213688000075
            ],
            [
              -62.84355056099997,
              10.539447743000153
            ],
            [
              -62.837517282999954,
              10.539070759000083
            ],
            [
              -62.83398012099991,
              10.539343789999975
            ],
            [
              -62.83011493999987,
              10.539177806000112
            ],
            [
              -62.82844785699996,
              10.539272820000178
            ],
            [
              -62.82621275899993,
              10.539534834000165
            ],
            [
              -62.821582552999985,
              10.540300880000132
            ],
            [
              -62.817844380999986,
              10.540736913000046
            ],
            [
              -62.815490272999966,
              10.541320943000073
            ],
            [
              -62.81269515799988,
              10.542674002000012
            ],
            [
              -62.8090489949999,
              10.544277065000074
            ],
            [
              -62.80738691799996,
              10.544855085000108
            ],
            [
              -62.804797816999894,
              10.54648815500002
            ],
            [
              -62.80313673399996,
              10.547187184000052
            ],
            [
              -62.80111065499989,
              10.548010215000033
            ],
            [
              -62.800298619999865,
              10.548219221000124
            ],
            [
              -62.79560641199993,
              10.551118335000183
            ],
            [
              -62.7940313499999,
              10.552420385000062
            ],
            [
              -62.79229227899998,
              10.553482417
            ],
            [
              -62.789745160999985,
              10.555316481999967
            ],
            [
              -62.786910039999896,
              10.55662953600006
            ],
            [
              -62.78414791299997,
              10.55705656400005
            ],
            [
              -62.78143279699998,
              10.558207610000068
            ],
            [
              -62.77927769799999,
              10.558307629000126
            ],
            [
              -62.777121604999934,
              10.558366637
            ],
            [
              -62.7748885069999,
              10.55878866
            ],
            [
              -62.773912461999885,
              10.55883766900007
            ],
            [
              -62.7711453309999,
              10.558821684000122
            ],
            [
              -62.76915423999992,
              10.559040700000082
            ],
            [
              -62.76802218499995,
              10.559815727
            ],
            [
              -62.765786092999974,
              10.559915746
            ],
            [
              -62.763625988999934,
              10.559531741000114
            ],
            [
              -62.762118915999906,
              10.559263751000174
            ],
            [
              -62.76097986699983,
              10.559273750000045
            ],
            [
              -62.758983771999965,
              10.558968749000087
            ],
            [
              -62.75727568999986,
              10.559063763000154
            ],
            [
              -62.75601363099997,
              10.558914770000172
            ],
            [
              -62.755281594999985,
              10.558960775000173
            ],
            [
              -62.75496058099998,
              10.559446786000137
            ],
            [
              -62.7552495999999,
              10.55996779800006
            ],
            [
              -62.75558361799983,
              10.560849825000105
            ],
            [
              -62.75656867999999,
              10.561887849000016
            ],
            [
              -62.75653467299992,
              10.562572867000029
            ],
            [
              -62.7555042539999,
              10.562563992000094
            ],
            [
              -62.75421556499998,
              10.562552883000023
            ],
            [
              -62.75355552799988,
              10.561511854000116
            ],
            [
              -62.75326551599994,
              10.561173852000024
            ],
            [
              -62.75327104899998,
              10.561228808000124
            ],
            [
              -62.753489999999886,
              10.56148400000012
            ],
            [
              -62.753689559999884,
              10.561966234000067
            ],
            [
              -62.75532343699996,
              10.565914470000052
            ]
          ]
        ]
      }
    },
    {
      "type": "Feature",
      "properties": {
        "Pais": "Venezuela",
        "Estado": "Sucre",
        "Municipio": "Cajigal",
        "Parroquia": "El Paujil"
      },
      "geometry": {
        "type": "Polygon",
        "coordinates": [
          [
            [
              -62.721607,
              10.672111
            ],
            [
              -62.730725,
              10.67619800000017
            ],
            [
              -62.745135,
              10.671469
            ],
            [
              -62.754183,
              10.668602000000135
            ],
            [
              -62.764472,
              10.673783000000185
            ],
            [
              -62.777264999999886,
              10.662656
            ],
            [
              -62.781043,
              10.660420000000101
            ],
            [
              -62.790226,
              10.653794
            ],
            [
              -62.809332,
              10.65237400000018
            ],
            [
              -62.810522,
              10.652286000000174
            ],
            [
              -62.779455,
              10.624228000000187
            ],
            [
              -62.75698674999995,
              10.56993384000009
            ],
            [
              -62.75555797299995,
              10.566481223000153
            ],
            [
              -62.75532343699996,
              10.565914470000052
            ],
            [
              -62.753689559999884,
              10.561966234000067
            ],
            [
              -62.753489999999886,
              10.56148400000012
            ],
            [
              -62.75327104899998,
              10.561228808000124
            ],
            [
              -62.75343153199992,
              10.562822895000124
            ],
            [
              -62.75315395099989,
              10.56224400900004
            ],
            [
              -62.75236997399992,
              10.564017050000075
            ],
            [
              -62.751322031999905,
              10.566387076000069
            ],
            [
              -62.750214,
              10.568893000000116
            ],
            [
              -62.74745159499997,
              10.571110255000178
            ],
            [
              -62.74727499999989,
              10.571252
            ],
            [
              -62.744593,
              10.572435
            ],
            [
              -62.741932,
              10.574791000000175
            ],
            [
              -62.732277,
              10.577393000000143
            ],
            [
              -62.73023,
              10.579234
            ],
            [
              -62.7275489999999,
              10.58049
            ],
            [
              -62.72354499999989,
              10.585418000000118
            ],
            [
              -62.722174,
              10.586230000000171
            ],
            [
              -62.716712,
              10.586910000000103
            ],
            [
              -62.713983,
              10.585307
            ],
            [
              -62.711624,
              10.585096000000135
            ],
            [
              -62.710321,
              10.589940000000183
            ],
            [
              -62.709786,
              10.591042
            ],
            [
              -62.707447,
              10.592004
            ],
            [
              -62.70283499999988,
              10.5897480000001
            ],
            [
              -62.699872,
              10.59071200000011
            ],
            [
              -62.698435,
              10.595778
            ],
            [
              -62.698914,
              10.599516
            ],
            [
              -62.698124,
              10.601939000000186
            ],
            [
              -62.69653,
              10.622256
            ],
            [
              -62.695338999999876,
              10.628679
            ],
            [
              -62.699882999999886,
              10.657626
            ],
            [
              -62.706538,
              10.656797
            ],
            [
              -62.70888799999989,
              10.659959000000185
            ],
            [
              -62.70630299999988,
              10.662372000000175
            ],
            [
              -62.706373,
              10.662947000000145
            ],
            [
              -62.71262799999988,
              10.66715900000014
            ],
            [
              -62.721607,
              10.672111
            ]
          ]
        ]
      }
    },
    {
      "type": "Feature",
      "properties": {
        "Pais": "Venezuela",
        "Estado": "Sucre",
        "Municipio": "Cajigal",
        "Parroquia": "Libertad"
      },
      "geometry": {
        "type": "Polygon",
        "coordinates": [
          [
            [
              -62.875488,
              10.532933000000185
            ],
            [
              -62.871813,
              10.579962
            ],
            [
              -62.840719,
              10.606176000000119
            ],
            [
              -62.84161399999988,
              10.643259
            ],
            [
              -62.810506,
              10.652435
            ],
            [
              -62.80921399999988,
              10.664195000000177
            ],
            [
              -62.81000299999988,
              10.664957000000186
            ],
            [
              -62.810932,
              10.668845
            ],
            [
              -62.813179,
              10.673216
            ],
            [
              -62.81693,
              10.677399
            ],
            [
              -62.820093,
              10.680777000000148
            ],
            [
              -62.824566,
              10.684386000000131
            ],
            [
              -62.82583199999988,
              10.687278000000163
            ],
            [
              -62.82781,
              10.690604000000178
            ],
            [
              -62.83107999999987,
              10.690449000000172
            ],
            [
              -62.840558,
              10.685983000000135
            ],
            [
              -62.844869,
              10.685724000000164
            ],
            [
              -62.848792,
              10.684997
            ],
            [
              -62.853788,
              10.685059
            ],
            [
              -62.858663,
              10.685652
            ],
            [
              -62.86174,
              10.684013
            ],
            [
              -62.864666,
              10.682082
            ],
            [
              -62.868118,
              10.681187000000136
            ],
            [
              -62.872388999999885,
              10.681089
            ],
            [
              -62.8772689999999,
              10.681178000000102
            ],
            [
              -62.8814349999999,
              10.682046000000128
            ],
            [
              -62.885694,
              10.68229300000013
            ],
            [
              -62.891659,
              10.682184
            ],
            [
              -62.895286,
              10.681604000000164
            ],
            [
              -62.898522,
              10.680532
            ],
            [
              -62.9017199999999,
              10.679714000000104
            ],
            [
              -62.902862,
              10.677652
            ],
            [
              -62.908298999999886,
              10.656823
            ],
            [
              -62.92665199999982,
              10.617062
            ],
            [
              -62.927282999999875,
              10.615938
            ],
            [
              -62.927284,
              10.615937
            ],
            [
              -62.935044,
              10.602124
            ],
            [
              -62.936141,
              10.601865
            ],
            [
              -62.935797,
              10.600783
            ],
            [
              -62.936353,
              10.598873
            ],
            [
              -62.94128399999988,
              10.58993100000015
            ],
            [
              -62.934893,
              10.556466
            ],
            [
              -62.875488,
              10.532933000000185
            ]
          ]
        ]
      }
    }
  ]
}