{
  "type": "FeatureCollection",
  "features": [
    {
      "type": "Feature",
      "properties": {
        "Pais": "Venezuela",
        "Estado": "Trujillo",
        "Municipio": "Carache"
      },
      "geometry": {
        "type": "Polygon",
        "coordinates": [
          [
            [
              -70.20793227399997,
              9.836915756000053
            ],
            [
              -70.20831529599997,
              9.837996786000133
            ],
            [
              -70.20910834099993,
              9.838505789000067
            ],
            [
              -70.21028039899983,
              9.840027826000153
            ],
            [
              -70.21075241899996,
              9.841035847000171
            ],
            [
              -70.21251949499998,
              9.84151684200009
            ],
            [
              -70.21313352599998,
              9.842150851000042
            ],
            [
              -70.21484759799995,
              9.842519848999984
            ],
            [
              -70.21573863799989,
              9.842637848000095
            ],
            [
              -70.21615765699994,
              9.84246484199997
            ],
            [
              -70.2165289489999,
              9.842311540000082
            ],
            [
              -70.21657667399995,
              9.84229183500014
            ],
            [
              -70.21681067399993,
              9.841889833000096
            ],
            [
              -70.21798872499988,
              9.840910799000085
            ],
            [
              -70.2176817049999,
              9.839940772000034
            ],
            [
              -70.21763369999991,
              9.839047751000123
            ],
            [
              -70.2171116639999,
              9.837102707000156
            ],
            [
              -70.21646362999991,
              9.835828689999971
            ],
            [
              -70.21523357799992,
              9.835846695000157
            ],
            [
              -70.21587059599989,
              9.834299648000126
            ],
            [
              -70.21691263299994,
              9.833809638000105
            ],
            [
              -70.2182776819999,
              9.833302608000054
            ],
            [
              -70.21841468699995,
              9.832377586000064
            ],
            [
              -70.21739564099994,
              9.831122563000065
            ],
            [
              -70.21643259199993,
              9.830484559000013
            ],
            [
              -70.21538754099998,
              9.829162533000044
            ],
            [
              -70.21625957099991,
              9.828108505000102
            ],
            [
              -70.21792563799994,
              9.827585475000149
            ],
            [
              -70.21925769099983,
              9.826437444000078
            ],
            [
              -70.21970770399992,
              9.825313413000117
            ],
            [
              -70.2208527329999,
              9.82371636500011
            ],
            [
              -70.22278781799997,
              9.82299633600013
            ],
            [
              -70.22352584399994,
              9.822476326000071
            ],
            [
              -70.22478789799999,
              9.822639319000189
            ],
            [
              -70.22521692399994,
              9.824154348000036
            ],
            [
              -70.22716400599995,
              9.824534354000036
            ],
            [
              -70.22909508699985,
              9.824617345000036
            ],
            [
              -70.23046013399988,
              9.823674305
            ],
            [
              -70.23178119499994,
              9.823628297000084
            ],
            [
              -70.2326542159999,
              9.82216026500015
            ],
            [
              -70.23221919599996,
              9.820967238000094
            ],
            [
              -70.23230519199996,
              9.819104188000153
            ],
            [
              -70.23186116199992,
              9.818187175000048
            ],
            [
              -70.2323041709999,
              9.816489132000129
            ],
            [
              -70.23223617199994,
              9.816080119000162
            ],
            [
              -70.23178415299992,
              9.815874114000053
            ],
            [
              -70.23056509599996,
              9.815639117000046
            ],
            [
              -70.23105011399997,
              9.8147420950001
            ],
            [
              -70.23032807899989,
              9.813817078000056
            ],
            [
              -70.22943802599997,
              9.812808055000119
            ],
            [
              -70.22838898099997,
              9.811853040000074
            ],
            [
              -70.22651389899988,
              9.810643016000142
            ],
            [
              -70.22511384199993,
              9.810510026000145
            ],
            [
              -70.22452180599998,
              9.809852011000146
            ],
            [
              -70.2239047779999,
              9.808300987000052
            ],
            [
              -70.22476579399995,
              9.80660494000017
            ],
            [
              -70.22483279199997,
              9.805683915000088
            ],
            [
              -70.22442676099996,
              9.803295860000105
            ],
            [
              -70.22525244899998,
              9.802003262000085
            ],
            [
              -70.22541179199999,
              9.801753813000118
            ],
            [
              -70.22671684899996,
              9.800974791000158
            ],
            [
              -70.22733886499992,
              9.800023763000183
            ],
            [
              -70.22742486599992,
              9.799033737000116
            ],
            [
              -70.22794287699998,
              9.798294713000075
            ],
            [
              -70.22855289999984,
              9.797116686000038
            ],
            [
              -70.22891389999995,
              9.795629654000152
            ],
            [
              -70.22952792099994,
              9.79451861800004
            ],
            [
              -70.22976591999992,
              9.792464564000056
            ],
            [
              -70.22960490899993,
              9.791188534000185
            ],
            [
              -70.23001091299994,
              9.78921749300008
            ],
            [
              -70.23077493699992,
              9.787456443000053
            ],
            [
              -70.23131495499985,
              9.786694418000138
            ],
            [
              -70.23144195499998,
              9.785609400000055
            ],
            [
              -70.23252899599993,
              9.78465836900017
            ],
            [
              -70.23312201699997,
              9.78403135300016
            ],
            [
              -70.23322346599991,
              9.783177419000026
            ],
            [
              -70.23331400599994,
              9.782415309000044
            ],
            [
              -70.23396302899994,
              9.781096277000131
            ],
            [
              -70.23494406499998,
              9.779921239999965
            ],
            [
              -70.23555207799996,
              9.778696208000042
            ],
            [
              -70.23616510199997,
              9.777150166000013
            ],
            [
              -70.23621108799995,
              9.774533100000042
            ],
            [
              -70.23603206099995,
              9.772477050000077
            ],
            [
              -70.2361870609999,
              9.771047018000104
            ],
            [
              -70.23651906399994,
              9.769446984000012
            ],
            [
              -70.23707908599982,
              9.767765933000135
            ],
            [
              -70.2373860809999,
              9.766556902
            ],
            [
              -70.23714906599992,
              9.76516986900009
            ],
            [
              -70.23801509899988,
              9.764000839000175
            ],
            [
              -70.23988917499997,
              9.763030812000125
            ],
            [
              -70.24151223099989,
              9.762120776000131
            ],
            [
              -70.24202324699996,
              9.76039573600002
            ],
            [
              -70.25172717199996,
              9.77501095100007
            ],
            [
              -70.25283393799998,
              9.776677874000029
            ],
            [
              -70.25289780099985,
              9.776774059000104
            ],
            [
              -70.2805742239999,
              9.823101997000094
            ],
            [
              -70.31099532899992,
              9.822555737000187
            ],
            [
              -70.31181419799992,
              9.822541030000139
            ],
            [
              -70.31188253199997,
              9.822539803000097
            ],
            [
              -70.32074991699994,
              9.822380512000166
            ],
            [
              -70.32413404099992,
              9.822319721000042
            ],
            [
              -70.32602007899999,
              9.82250782900013
            ],
            [
              -70.32842522099997,
              9.822747711999966
            ],
            [
              -70.32827123999994,
              9.823463170000025
            ],
            [
              -70.33202596399991,
              9.822437326000056
            ],
            [
              -70.333235,
              9.822107
            ],
            [
              -70.33652388399992,
              9.821277360000181
            ],
            [
              -70.33844140799994,
              9.820793653000067
            ],
            [
              -70.35284368499993,
              9.817160595000189
            ],
            [
              -70.404274,
              9.804187000000127
            ],
            [
              -70.39100999999982,
              9.784747000000152
            ],
            [
              -70.390796,
              9.783359
            ],
            [
              -70.390882,
              9.782804000000112
            ],
            [
              -70.39134599999988,
              9.781931
            ],
            [
              -70.391408,
              9.780941000000155
            ],
            [
              -70.391192,
              9.779507
            ],
            [
              -70.391211,
              9.777717
            ],
            [
              -70.39212,
              9.776063000000136
            ],
            [
              -70.393204,
              9.775502
            ],
            [
              -70.394505,
              9.774240000000134
            ],
            [
              -70.395421,
              9.773160000000132
            ],
            [
              -70.396419,
              9.771869
            ],
            [
              -70.39721799999984,
              9.77162
            ],
            [
              -70.397125,
              9.770753
            ],
            [
              -70.39756099999988,
              9.769377
            ],
            [
              -70.398813,
              9.768921
            ],
            [
              -70.39922599999989,
              9.768418000000167
            ],
            [
              -70.400781,
              9.76712
            ],
            [
              -70.403163,
              9.765686
            ],
            [
              -70.403902,
              9.766037000000154
            ],
            [
              -70.405492,
              9.766688
            ],
            [
              -70.40693,
              9.76668100000012
            ],
            [
              -70.408436,
              9.766211000000169
            ],
            [
              -70.408757,
              9.76484100000016
            ],
            [
              -70.409289,
              9.763528
            ],
            [
              -70.409531,
              9.762415000000146
            ],
            [
              -70.409622,
              9.761515
            ],
            [
              -70.409712,
              9.760180000000105
            ],
            [
              -70.41048,
              9.75892400000015
            ],
            [
              -70.412158,
              9.757780000000139
            ],
            [
              -70.41320999999988,
              9.756624
            ],
            [
              -70.41433399999983,
              9.755096
            ],
            [
              -70.414621,
              9.753544000000147
            ],
            [
              -70.415398,
              9.752448
            ],
            [
              -70.41647299999988,
              9.750877000000116
            ],
            [
              -70.417279,
              9.749046000000135
            ],
            [
              -70.417232,
              9.74774
            ],
            [
              -70.416702,
              9.746094000000141
            ],
            [
              -70.41713399999986,
              9.744649
            ],
            [
              -70.41704799999985,
              9.742612000000122
            ],
            [
              -70.418435,
              9.742516
            ],
            [
              -70.419238,
              9.742336
            ],
            [
              -70.420267,
              9.742052000000172
            ],
            [
              -70.420966,
              9.74167100000011
            ],
            [
              -70.421258,
              9.741059
            ],
            [
              -70.42189,
              9.74031500000018
            ],
            [
              -70.423228,
              9.73974
            ],
            [
              -70.423859,
              9.738101
            ],
            [
              -70.423636,
              9.737402
            ],
            [
              -70.422846,
              9.735677000000123
            ],
            [
              -70.42279699999989,
              9.73561100000012
            ],
            [
              -70.422644,
              9.733646
            ],
            [
              -70.422948,
              9.732827
            ],
            [
              -70.42367599999989,
              9.731710000000135
            ],
            [
              -70.424471,
              9.730957
            ],
            [
              -70.426116,
              9.730481
            ],
            [
              -70.426606,
              9.728802
            ],
            [
              -70.42721299999988,
              9.728449000000126
            ],
            [
              -70.428303,
              9.727589
            ],
            [
              -70.430008,
              9.726925000000165
            ],
            [
              -70.431863,
              9.726484
            ],
            [
              -70.434194,
              9.726246000000117
            ],
            [
              -70.4353339999999,
              9.724580000000117
            ],
            [
              -70.4356269999999,
              9.72270600000013
            ],
            [
              -70.434948,
              9.721297000000106
            ],
            [
              -70.434331,
              9.71977
            ],
            [
              -70.43479599999989,
              9.718484
            ],
            [
              -70.435073,
              9.717597
            ],
            [
              -70.435819,
              9.715952000000186
            ],
            [
              -70.43674,
              9.714963
            ],
            [
              -70.437653,
              9.715534
            ],
            [
              -70.437934,
              9.714304
            ],
            [
              -70.43828699999989,
              9.712679
            ],
            [
              -70.438606,
              9.710850000000107
            ],
            [
              -70.4395009999999,
              9.708945
            ],
            [
              -70.4400849999999,
              9.711162000000115
            ],
            [
              -70.44107999999989,
              9.711546000000112
            ],
            [
              -70.442063,
              9.7117
            ],
            [
              -70.443101,
              9.71116400000011
            ],
            [
              -70.44403099999988,
              9.7103350000001
            ],
            [
              -70.445425,
              9.709527
            ],
            [
              -70.446713,
              9.709735
            ],
            [
              -70.44824199999988,
              9.707956
            ],
            [
              -70.448769,
              9.706988
            ],
            [
              -70.449638,
              9.705887000000132
            ],
            [
              -70.4515449999999,
              9.705534
            ],
            [
              -70.451883,
              9.70492
            ],
            [
              -70.452557,
              9.703668
            ],
            [
              -70.45336,
              9.702204
            ],
            [
              -70.454872,
              9.701413000000173
            ],
            [
              -70.45559,
              9.700962000000118
            ],
            [
              -70.457138,
              9.699986
            ],
            [
              -70.459004,
              9.69975
            ],
            [
              -70.461677,
              9.698553000000118
            ],
            [
              -70.461078,
              9.697759000000133
            ],
            [
              -70.461178,
              9.697043
            ],
            [
              -70.461923,
              9.696659
            ],
            [
              -70.463246,
              9.697094
            ],
            [
              -70.46285,
              9.695785
            ],
            [
              -70.463668,
              9.695465
            ],
            [
              -70.4644469999999,
              9.694850000000145
            ],
            [
              -70.465862,
              9.6948450000001
            ],
            [
              -70.46764699999989,
              9.69397
            ],
            [
              -70.468463,
              9.693606000000102
            ],
            [
              -70.468451,
              9.69252900000015
            ],
            [
              -70.468782,
              9.691364
            ],
            [
              -70.468852,
              9.690076
            ],
            [
              -70.46931299999989,
              9.689593
            ],
            [
              -70.469829,
              9.688418000000183
            ],
            [
              -70.469822,
              9.687432000000115
            ],
            [
              -70.468953,
              9.685941
            ],
            [
              -70.470134,
              9.68590200000017
            ],
            [
              -70.471683,
              9.685797
            ],
            [
              -70.473126,
              9.685469
            ],
            [
              -70.474228,
              9.68525
            ],
            [
              -70.474832,
              9.684828000000152
            ],
            [
              -70.47491,
              9.684136
            ],
            [
              -70.474795,
              9.683293000000162
            ],
            [
              -70.47527799999989,
              9.683222000000114
            ],
            [
              -70.476194,
              9.683838
            ],
            [
              -70.4775,
              9.683953
            ],
            [
              -70.479094,
              9.684259000000111
            ],
            [
              -70.480038,
              9.684553000000108
            ],
            [
              -70.48121,
              9.684353000000101
            ],
            [
              -70.481972,
              9.683854
            ],
            [
              -70.48322299999984,
              9.683811
            ],
            [
              -70.483324,
              9.684402
            ],
            [
              -70.483292,
              9.685528000000147
            ],
            [
              -70.484223,
              9.685571000000152
            ],
            [
              -70.485865,
              9.685048
            ],
            [
              -70.486664,
              9.685235
            ],
            [
              -70.48710299999988,
              9.686061
            ],
            [
              -70.487377,
              9.687262
            ],
            [
              -70.48793399999988,
              9.688127
            ],
            [
              -70.488309,
              9.687763000000132
            ],
            [
              -70.48851599999989,
              9.687316000000123
            ],
            [
              -70.488484,
              9.686286000000166
            ],
            [
              -70.488529,
              9.685412000000156
            ],
            [
              -70.488837,
              9.684661000000176
            ],
            [
              -70.488887,
              9.683879000000104
            ],
            [
              -70.48885499999989,
              9.683284000000128
            ],
            [
              -70.488326,
              9.682509
            ],
            [
              -70.488251,
              9.681137
            ],
            [
              -70.489344,
              9.681171
            ],
            [
              -70.490166,
              9.680944000000125
            ],
            [
              -70.491722,
              9.68010500000014
            ],
            [
              -70.49274,
              9.679638
            ],
            [
              -70.49347499999988,
              9.678635
            ],
            [
              -70.494317,
              9.677054000000112
            ],
            [
              -70.495107,
              9.676645
            ],
            [
              -70.495483,
              9.676304
            ],
            [
              -70.495236,
              9.67601900000011
            ],
            [
              -70.494414,
              9.67542
            ],
            [
              -70.495551,
              9.674993000000143
            ],
            [
              -70.49689199999989,
              9.674899
            ],
            [
              -70.49725599999982,
              9.674352
            ],
            [
              -70.497055,
              9.673629
            ],
            [
              -70.497129,
              9.672432000000128
            ],
            [
              -70.49797499999988,
              9.672640000000115
            ],
            [
              -70.49796,
              9.671929
            ],
            [
              -70.497243,
              9.671967
            ],
            [
              -70.496429,
              9.6710700000001
            ],
            [
              -70.49610499999989,
              9.670238000000154
            ],
            [
              -70.4936479999999,
              9.669405000000154
            ],
            [
              -70.49251599999985,
              9.668226000000118
            ],
            [
              -70.490775,
              9.6686160000001
            ],
            [
              -70.48922699999986,
              9.668744000000174
            ],
            [
              -70.487519,
              9.668054
            ],
            [
              -70.486973,
              9.667808
            ],
            [
              -70.48568299999988,
              9.667555
            ],
            [
              -70.484295,
              9.668064
            ],
            [
              -70.48359,
              9.669179
            ],
            [
              -70.481276,
              9.669279
            ],
            [
              -70.478511,
              9.670067
            ],
            [
              -70.47719599999988,
              9.668072
            ],
            [
              -70.476661,
              9.66677
            ],
            [
              -70.47564899999986,
              9.665218
            ],
            [
              -70.47460099999984,
              9.6647
            ],
            [
              -70.473781,
              9.665844
            ],
            [
              -70.473284,
              9.666948000000104
            ],
            [
              -70.47244299999988,
              9.668117000000166
            ],
            [
              -70.47181199999989,
              9.668471000000181
            ],
            [
              -70.468873,
              9.669039
            ],
            [
              -70.468077,
              9.668462000000147
            ],
            [
              -70.467582,
              9.669176
            ],
            [
              -70.46644299999986,
              9.669145000000128
            ],
            [
              -70.465967,
              9.668069000000116
            ],
            [
              -70.4649849999999,
              9.66835
            ],
            [
              -70.4644469999999,
              9.669548
            ],
            [
              -70.463769,
              9.669882
            ],
            [
              -70.462014,
              9.670044
            ],
            [
              -70.461155,
              9.670456
            ],
            [
              -70.459542,
              9.669807
            ],
            [
              -70.45807899999988,
              9.66977
            ],
            [
              -70.45732299999986,
              9.668663
            ],
            [
              -70.456632,
              9.668332
            ],
            [
              -70.455342,
              9.668928000000108
            ],
            [
              -70.454759,
              9.669303
            ],
            [
              -70.453903,
              9.669348
            ],
            [
              -70.453732,
              9.66876
            ],
            [
              -70.453633,
              9.668215
            ],
            [
              -70.453128,
              9.667462000000171
            ],
            [
              -70.452441,
              9.667636000000186
            ],
            [
              -70.45226,
              9.668586
            ],
            [
              -70.451051,
              9.669384
            ],
            [
              -70.448792,
              9.669663000000185
            ],
            [
              -70.446946,
              9.669417
            ],
            [
              -70.44535,
              9.669065000000103
            ],
            [
              -70.443759,
              9.668828
            ],
            [
              -70.441387,
              9.668723
            ],
            [
              -70.440667,
              9.669128000000171
            ],
            [
              -70.438848,
              9.669385
            ],
            [
              -70.437257,
              9.66956
            ],
            [
              -70.436251,
              9.669843000000185
            ],
            [
              -70.43383399999988,
              9.669764
            ],
            [
              -70.432308,
              9.669431
            ],
            [
              -70.430859,
              9.668797000000154
            ],
            [
              -70.429972,
              9.668223
            ],
            [
              -70.430132,
              9.667995
            ],
            [
              -70.430864,
              9.665386000000183
            ],
            [
              -70.429992,
              9.664197
            ],
            [
              -70.427397,
              9.654384
            ],
            [
              -70.425665,
              9.654774
            ],
            [
              -70.42462499999988,
              9.655742000000146
            ],
            [
              -70.424368,
              9.65707
            ],
            [
              -70.42366899999985,
              9.658458000000167
            ],
            [
              -70.421331,
              9.659332000000177
            ],
            [
              -70.419413,
              9.660076000000117
            ],
            [
              -70.415924,
              9.6604
            ],
            [
              -70.41288,
              9.66052500000012
            ],
            [
              -70.410378,
              9.660225
            ],
            [
              -70.408899,
              9.659806000000174
            ],
            [
              -70.406564,
              9.660542000000135
            ],
            [
              -70.40406399999989,
              9.6613210000001
            ],
            [
              -70.401484,
              9.66145500000016
            ],
            [
              -70.399274,
              9.661642
            ],
            [
              -70.396914,
              9.662447
            ],
            [
              -70.396061,
              9.66335
            ],
            [
              -70.39472499999988,
              9.66517
            ],
            [
              -70.394332,
              9.666040000000123
            ],
            [
              -70.392865,
              9.666805000000181
            ],
            [
              -70.390342,
              9.667351
            ],
            [
              -70.389626,
              9.666975
            ],
            [
              -70.388124,
              9.66707700000012
            ],
            [
              -70.386657,
              9.667407
            ],
            [
              -70.386216,
              9.667407
            ],
            [
              -70.38535599999989,
              9.667819
            ],
            [
              -70.384539,
              9.668573
            ],
            [
              -70.38369099999989,
              9.668778000000145
            ],
            [
              -70.3824039999999,
              9.6685710000001
            ],
            [
              -70.37934799999982,
              9.668273000000113
            ],
            [
              -70.37756799999988,
              9.66882500000014
            ],
            [
              -70.375297,
              9.669724
            ],
            [
              -70.37352,
              9.670345000000111
            ],
            [
              -70.372044,
              9.670927000000177
            ],
            [
              -70.369985,
              9.671471
            ],
            [
              -70.36914699999988,
              9.670552
            ],
            [
              -70.368306,
              9.669151000000113
            ],
            [
              -70.36740199999986,
              9.66873900000013
            ],
            [
              -70.365489,
              9.668106
            ],
            [
              -70.36413,
              9.66742
            ],
            [
              -70.36297899999983,
              9.666311000000121
            ],
            [
              -70.361671,
              9.66571400000015
            ],
            [
              -70.359904,
              9.666059
            ],
            [
              -70.357177,
              9.665422000000149
            ],
            [
              -70.355918,
              9.664869
            ],
            [
              -70.355601,
              9.663905
            ],
            [
              -70.354875,
              9.661613000000102
            ],
            [
              -70.352653,
              9.658767000000182
            ],
            [
              -70.349948,
              9.658163000000116
            ],
            [
              -70.34836699999988,
              9.65824700000013
            ],
            [
              -70.34683199999989,
              9.657161000000144
            ],
            [
              -70.346266,
              9.656391
            ],
            [
              -70.34483199999988,
              9.656088000000182
            ],
            [
              -70.342887,
              9.655774000000122
            ],
            [
              -70.340981,
              9.655898
            ],
            [
              -70.340237,
              9.657147
            ],
            [
              -70.339703,
              9.658401
            ],
            [
              -70.338992,
              9.659168000000136
            ],
            [
              -70.336451,
              9.659693
            ],
            [
              -70.334594,
              9.658393000000103
            ],
            [
              -70.333734,
              9.65715900000015
            ],
            [
              -70.333571,
              9.655984000000103
            ],
            [
              -70.33144,
              9.655713
            ],
            [
              -70.329811,
              9.655888000000175
            ],
            [
              -70.32841699999989,
              9.653449000000137
            ],
            [
              -70.327997,
              9.65233700000016
            ],
            [
              -70.327466,
              9.65092600000014
            ],
            [
              -70.325325,
              9.651206
            ],
            [
              -70.323246,
              9.651831
            ],
            [
              -70.321152,
              9.652066000000104
            ],
            [
              -70.319812,
              9.651719000000185
            ],
            [
              -70.316856,
              9.653292000000135
            ],
            [
              -70.315482,
              9.653495
            ],
            [
              -70.315312,
              9.655123000000117
            ],
            [
              -70.313273,
              9.656141000000105
            ],
            [
              -70.311648,
              9.657350000000179
            ],
            [
              -70.310086,
              9.657641
            ],
            [
              -70.30817399999984,
              9.65925900000019
            ],
            [
              -70.306779,
              9.659347
            ],
            [
              -70.304576,
              9.659189
            ],
            [
              -70.303774,
              9.658645
            ],
            [
              -70.302364,
              9.657054000000187
            ],
            [
              -70.300339,
              9.656072000000108
            ],
            [
              -70.299233,
              9.65439600000019
            ],
            [
              -70.298106,
              9.652628
            ],
            [
              -70.29701099999988,
              9.649534
            ],
            [
              -70.29603,
              9.648222
            ],
            [
              -70.294862,
              9.646131
            ],
            [
              -70.294451,
              9.644538
            ],
            [
              -70.294523,
              9.643161000000134
            ],
            [
              -70.292964,
              9.642096000000151
            ],
            [
              -70.29180899999989,
              9.640580000000114
            ],
            [
              -70.293312,
              9.639691
            ],
            [
              -70.292065,
              9.63684000000012
            ],
            [
              -70.29176,
              9.634559
            ],
            [
              -70.292003,
              9.632795000000101
            ],
            [
              -70.291996,
              9.630681000000152
            ],
            [
              -70.29184799999985,
              9.628725000000145
            ],
            [
              -70.292073,
              9.626639000000182
            ],
            [
              -70.292072,
              9.624226
            ],
            [
              -70.292989,
              9.622383000000127
            ],
            [
              -70.293573,
              9.621016000000168
            ],
            [
              -70.29451499999988,
              9.620299
            ],
            [
              -70.294285,
              9.61648
            ],
            [
              -70.294992,
              9.614748
            ],
            [
              -70.295242,
              9.612546000000123
            ],
            [
              -70.294167,
              9.610503
            ],
            [
              -70.295234,
              9.609283000000175
            ],
            [
              -70.296328,
              9.607949
            ],
            [
              -70.296568,
              9.60754
            ],
            [
              -70.295373,
              9.605633000000125
            ],
            [
              -70.293873,
              9.602639
            ],
            [
              -70.293799,
              9.600455000000181
            ],
            [
              -70.29327399999988,
              9.597527000000184
            ],
            [
              -70.293121,
              9.59456
            ],
            [
              -70.293617,
              9.592869
            ],
            [
              -70.29464599999989,
              9.591281000000151
            ],
            [
              -70.296371,
              9.589729000000148
            ],
            [
              -70.297629,
              9.588261
            ],
            [
              -70.29885399999989,
              9.586125
            ],
            [
              -70.300165,
              9.584312000000125
            ],
            [
              -70.301501,
              9.582431
            ],
            [
              -70.30268499999988,
              9.581214000000102
            ],
            [
              -70.303369,
              9.578148000000112
            ],
            [
              -70.303389,
              9.574633
            ],
            [
              -70.302655,
              9.571747000000187
            ],
            [
              -70.30250699999988,
              9.569744
            ],
            [
              -70.301129,
              9.567718
            ],
            [
              -70.3010599999999,
              9.565235
            ],
            [
              -70.298798,
              9.558367000000146
            ],
            [
              -70.300854,
              9.55153700000011
            ],
            [
              -70.300216,
              9.548492
            ],
            [
              -70.298062,
              9.544544
            ],
            [
              -70.29751599999986,
              9.542828
            ],
            [
              -70.29718199999985,
              9.541976
            ],
            [
              -70.297254,
              9.53942700000016
            ],
            [
              -70.296782,
              9.537396000000172
            ],
            [
              -70.2952719999999,
              9.533782
            ],
            [
              -70.29476099999988,
              9.531313
            ],
            [
              -70.294445,
              9.529630000000111
            ],
            [
              -70.294708,
              9.528004
            ],
            [
              -70.296387,
              9.52514
            ],
            [
              -70.29651199999984,
              9.522225
            ],
            [
              -70.296842,
              9.519543
            ],
            [
              -70.29718199999985,
              9.517482
            ],
            [
              -70.296878,
              9.515155
            ],
            [
              -70.296484,
              9.511494
            ],
            [
              -70.296825,
              9.509433
            ],
            [
              -70.296569,
              9.50821
            ],
            [
              -70.295509,
              9.506581
            ],
            [
              -70.294283,
              9.502697
            ],
            [
              -70.29229,
              9.501302000000123
            ],
            [
              -70.29051,
              9.49851
            ],
            [
              -70.290131,
              9.495217
            ],
            [
              -70.290783,
              9.492679
            ],
            [
              -70.289837,
              9.489927
            ],
            [
              -70.289489,
              9.487484000000109
            ],
            [
              -70.288656,
              9.484917000000166
            ],
            [
              -70.288299,
              9.481740000000173
            ],
            [
              -70.287636,
              9.478716
            ],
            [
              -70.286535,
              9.476764
            ],
            [
              -70.28543299999984,
              9.474904000000151
            ],
            [
              -70.284456,
              9.47261
            ],
            [
              -70.28161099999988,
              9.47207200000014
            ],
            [
              -70.279814,
              9.471416
            ],
            [
              -70.278123,
              9.471245000000124
            ],
            [
              -70.277051,
              9.471477000000107
            ],
            [
              -70.275872,
              9.47246500000017
            ],
            [
              -70.27416,
              9.474568
            ],
            [
              -70.273475,
              9.476438
            ],
            [
              -70.273186,
              9.478180000000123
            ],
            [
              -70.271896,
              9.479649
            ],
            [
              -70.270717,
              9.479878000000156
            ],
            [
              -70.26920399999989,
              9.480123000000162
            ],
            [
              -70.267046,
              9.47886300000016
            ],
            [
              -70.266063,
              9.47808600000019
            ],
            [
              -70.265019,
              9.476870000000133
            ],
            [
              -70.26402799999988,
              9.476460000000145
            ],
            [
              -70.261805,
              9.476186
            ],
            [
              -70.259085,
              9.47640900000016
            ],
            [
              -70.25757599999986,
              9.476402000000121
            ],
            [
              -70.255426,
              9.475992000000133
            ],
            [
              -70.25319,
              9.475189000000114
            ],
            [
              -70.251024,
              9.473148
            ],
            [
              -70.250635,
              9.47045100000014
            ],
            [
              -70.249534,
              9.468545000000177
            ],
            [
              -70.249224,
              9.465322000000128
            ],
            [
              -70.24835999999982,
              9.461973000000171
            ],
            [
              -70.247067,
              9.459213
            ],
            [
              -70.244512,
              9.454452000000117
            ],
            [
              -70.244101,
              9.451687000000106
            ],
            [
              -70.243693,
              9.4499560000001
            ],
            [
              -70.242879,
              9.447596
            ],
            [
              -70.242801,
              9.446790000000135
            ],
            [
              -70.240988,
              9.443308000000172
            ],
            [
              -70.239626,
              9.442913
            ],
            [
              -70.237485,
              9.442043000000126
            ],
            [
              -70.234734,
              9.441483000000176
            ],
            [
              -70.233098,
              9.442094
            ],
            [
              -70.23191499999984,
              9.443243000000109
            ],
            [
              -70.22945,
              9.442321
            ],
            [
              -70.2270549999999,
              9.44135400000016
            ],
            [
              -70.225117,
              9.440741
            ],
            [
              -70.223599,
              9.438827000000117
            ],
            [
              -70.222647,
              9.436419
            ],
            [
              -70.221813,
              9.43394300000017
            ],
            [
              -70.22055499999988,
              9.431759000000113
            ],
            [
              -70.219277,
              9.43060700000018
            ],
            [
              -70.218207,
              9.428357000000176
            ],
            [
              -70.21704299999988,
              9.426105000000177
            ],
            [
              -70.21525499999984,
              9.424967000000152
            ],
            [
              -70.214117,
              9.423818000000153
            ],
            [
              -70.212034,
              9.422329
            ],
            [
              -70.21084599999989,
              9.420123000000103
            ],
            [
              -70.208947,
              9.420086
            ],
            [
              -70.208666,
              9.42008
            ],
            [
              -70.20694,
              9.420505000000105
            ],
            [
              -70.203769,
              9.421292
            ],
            [
              -70.20192,
              9.423323
            ],
            [
              -70.20098399999989,
              9.426154000000167
            ],
            [
              -70.201342,
              9.429217000000108
            ],
            [
              -70.201409,
              9.431769
            ],
            [
              -70.20063999999985,
              9.435522
            ],
            [
              -70.200162,
              9.43868300000014
            ],
            [
              -70.197409,
              9.439432
            ],
            [
              -70.195783,
              9.440664
            ],
            [
              -70.194033,
              9.442352
            ],
            [
              -70.192579,
              9.444345000000169
            ],
            [
              -70.191341,
              9.445952
            ],
            [
              -70.19068,
              9.447754000000145
            ],
            [
              -70.19023199999987,
              9.450526
            ],
            [
              -70.189701,
              9.452790000000107
            ],
            [
              -70.18943299999984,
              9.454623
            ],
            [
              -70.18905,
              9.456453000000124
            ],
            [
              -70.187286,
              9.458832000000143
            ],
            [
              -70.18521,
              9.459411000000102
            ],
            [
              -70.18310999999989,
              9.458749
            ],
            [
              -70.18065499999989,
              9.458516
            ],
            [
              -70.178955,
              9.458781
            ],
            [
              -70.175807,
              9.458373000000165
            ],
            [
              -70.173587,
              9.459156000000121
            ],
            [
              -70.172891,
              9.462727
            ],
            [
              -70.172344,
              9.465841
            ],
            [
              -70.17135799999988,
              9.46759
            ],
            [
              -70.16894599999989,
              9.468691
            ],
            [
              -70.16790999999989,
              9.471795000000157
            ],
            [
              -70.16723499999989,
              9.47431
            ],
            [
              -70.16544799999986,
              9.475515
            ],
            [
              -70.16202899999985,
              9.47707800000012
            ],
            [
              -70.15964999999983,
              9.478845
            ],
            [
              -70.157662,
              9.480828
            ],
            [
              -70.155244,
              9.482227
            ],
            [
              -70.15378599999985,
              9.483209
            ],
            [
              -70.15224899999987,
              9.484672000000103
            ],
            [
              -70.15066799999988,
              9.487213
            ],
            [
              -70.148564,
              9.487998000000175
            ],
            [
              -70.14544699999982,
              9.489544
            ],
            [
              -70.1437,
              9.491073
            ],
            [
              -70.142194,
              9.492123
            ],
            [
              -70.140474,
              9.49215700000019
            ],
            [
              -70.139618,
              9.494415000000174
            ],
            [
              -70.138673,
              9.496487000000172
            ],
            [
              -70.137508,
              9.49786500000016
            ],
            [
              -70.13579,
              9.500266
            ],
            [
              -70.134284,
              9.502511
            ],
            [
              -70.132553,
              9.505624000000182
            ],
            [
              -70.131658,
              9.50746800000013
            ],
            [
              -70.130641,
              9.50963000000013
            ],
            [
              -70.129067,
              9.511782
            ],
            [
              -70.126148,
              9.512665
            ],
            [
              -70.125183,
              9.51453
            ],
            [
              -70.125104,
              9.517401
            ],
            [
              -70.125361,
              9.520921
            ],
            [
              -70.12495599999983,
              9.523832
            ],
            [
              -70.121584,
              9.524545
            ],
            [
              -70.12158376799994,
              9.524544749000086
            ],
            [
              -70.119198,
              9.525049000000138
            ],
            [
              -70.11890391499992,
              9.525157247000152
            ],
            [
              -70.116416,
              9.52607300000011
            ],
            [
              -70.114151,
              9.52674
            ],
            [
              -70.11382,
              9.527078000000131
            ],
            [
              -70.113796,
              9.527078000000131
            ],
            [
              -70.11357391299998,
              9.52771658000006
            ],
            [
              -70.11345446999997,
              9.528060020000055
            ],
            [
              -70.11350850999997,
              9.528117964000046
            ],
            [
              -70.11349750399995,
              9.528136079000035
            ],
            [
              -70.11339042099996,
              9.528312325000059
            ],
            [
              -70.11258947599998,
              9.529636997000068
            ],
            [
              -70.11240847999994,
              9.530534029000023
            ],
            [
              -70.11188645899989,
              9.531081034000067
            ],
            [
              -70.11149544499995,
              9.53244507100004
            ],
            [
              -70.11152445899995,
              9.533547104000036
            ],
            [
              -70.11176047699996,
              9.534419123000134
            ],
            [
              -70.11176847999997,
              9.535889159000078
            ],
            [
              -70.11175448899996,
              9.537589198000148
            ],
            [
              -70.11183350499994,
              9.53944924300015
            ],
            [
              -70.11186951699989,
              9.541929301000152
            ],
            [
              -70.11199653499995,
              9.543996348000064
            ],
            [
              -70.11269756799993,
              9.545025368000097
            ],
            [
              -70.11319159699997,
              9.546308397000132
            ],
            [
              -70.11333961499997,
              9.547984429000053
            ],
            [
              -70.11428167299994,
              9.550597492000179
            ],
            [
              -70.11578175399995,
              9.553436545000125
            ],
            [
              -70.11630278599989,
              9.555500597000048
            ],
            [
              -70.11753884099994,
              9.556686607000131
            ],
            [
              -70.11883989499995,
              9.556885607000083
            ],
            [
              -70.12058297699991,
              9.557494610999981
            ],
            [
              -70.12265206499995,
              9.55819361600004
            ],
            [
              -70.12335709899997,
              9.559865659000081
            ],
            [
              -70.12299309499997,
              9.561269689000085
            ],
            [
              -70.1228948879999,
              9.561975132999976
            ],
            [
              -70.12276909399998,
              9.562878733000161
            ],
            [
              -70.12236209599996,
              9.564948775
            ],
            [
              -70.12151307099998,
              9.56676883300014
            ],
            [
              -70.12038703499996,
              9.568820881000136
            ],
            [
              -70.11922300199996,
              9.572456973000044
            ],
            [
              -70.11827599899993,
              9.577701102000105
            ],
            [
              -70.11794199199988,
              9.580390173000069
            ],
            [
              -70.11787999999984,
              9.58193020400006
            ],
            [
              -70.11819103199991,
              9.583604249000075
            ],
            [
              -70.11840504299994,
              9.584568268
            ],
            [
              -70.11910507099986,
              9.585459287000106
            ],
            [
              -70.1195771049999,
              9.58681131700007
            ],
            [
              -70.12066716599998,
              9.588920770000072
            ],
            [
              -70.12084316899995,
              9.589261366000187
            ],
            [
              -70.12241725899992,
              9.59297243900005
            ],
            [
              -70.12342330999991,
              9.594436474000076
            ],
            [
              -70.12491537799991,
              9.595920503000059
            ],
            [
              -70.12606544499994,
              9.598255553000172
            ],
            [
              -70.12653546799993,
              9.599470574000065
            ],
            [
              -70.12647347499995,
              9.600825610000072
            ],
            [
              -70.12627748099999,
              9.603169667000145
            ],
            [
              -70.12617248299995,
              9.605398722000132
            ],
            [
              -70.12590548799994,
              9.607582769999965
            ],
            [
              -70.12628251499996,
              9.608613791000096
            ],
            [
              -70.12654553399989,
              9.610036821000108
            ],
            [
              -70.12694655599995,
              9.611320855000088
            ],
            [
              -70.12663055299998,
              9.613044900000034
            ],
            [
              -70.12575351999993,
              9.613923926000098
            ],
            [
              -70.12462348399993,
              9.615285957000083
            ],
            [
              -70.12263840799983,
              9.617297024000152
            ],
            [
              -70.12111234599996,
              9.618364052000118
            ],
            [
              -70.11972629899992,
              9.619682094000098
            ],
            [
              -70.11901628199996,
              9.621340133000103
            ],
            [
              -70.11784424699988,
              9.623645195
            ],
            [
              -70.1166452089999,
              9.62521524500005
            ],
            [
              -70.11465613199982,
              9.626468287000023
            ],
            [
              -70.11356508799997,
              9.626452294000046
            ],
            [
              -70.11231502999993,
              9.627057306000154
            ],
            [
              -70.11175035899998,
              9.627707743000087
            ],
            [
              -70.11033018599983,
              9.629343623000068
            ],
            [
              -70.10924692499998,
              9.630591417000119
            ],
            [
              -70.10717386199997,
              9.633521498000164
            ],
            [
              -70.10535780399988,
              9.636886582000045
            ],
            [
              -70.10340273799994,
              9.640275673000076
            ],
            [
              -70.10223470399995,
              9.643292759000133
            ],
            [
              -70.10042466099992,
              9.647852872000044
            ],
            [
              -70.09904546899998,
              9.651593011000159
            ],
            [
              -70.09884561499996,
              9.65213498200012
            ],
            [
              -70.09881563399995,
              9.655443070000103
            ],
            [
              -70.0978566149999,
              9.658412145
            ],
            [
              -70.09706961299997,
              9.663901281000165
            ],
            [
              -70.09707061799998,
              9.663924281000106
            ],
            [
              -70.09586957099998,
              9.665612324000051
            ],
            [
              -70.09377049699987,
              9.667510377000156
            ],
            [
              -70.09178943099988,
              9.669496445
            ],
            [
              -70.09049809599998,
              9.671072953000078
            ],
            [
              -70.08928533999995,
              9.672553532999984
            ],
            [
              -70.08735326699986,
              9.674607584000057
            ],
            [
              -70.08567221299995,
              9.676538639000057
            ],
            [
              -70.08325411199996,
              9.676627662000044
            ],
            [
              -70.08325911399993,
              9.676639665000039
            ],
            [
              -70.08319980699991,
              9.676645246000078
            ],
            [
              -70.08166504899992,
              9.676789678000091
            ],
            [
              -70.08161446799994,
              9.676793038000028
            ],
            [
              -70.0813392419999,
              9.676811318000148
            ],
            [
              -70.07058258699993,
              9.677525760000094
            ],
            [
              -70.06823148599989,
              9.677178760000174
            ],
            [
              -70.06517835199998,
              9.676621760000046
            ],
            [
              -70.06245822799997,
              9.674790737000023
            ],
            [
              -70.06113415999994,
              9.672369683000056
            ],
            [
              -70.06094413799991,
              9.670652640000185
            ],
            [
              -70.05930905799994,
              9.667895584000178
            ],
            [
              -70.0576729899999,
              9.668239603000131
            ],
            [
              -70.05566891799998,
              9.66944565200015
            ],
            [
              -70.05399285499988,
              9.67153770900012
            ],
            [
              -70.0524938019999,
              9.672567735000086
            ],
            [
              -70.05118074699982,
              9.672834758000079
            ],
            [
              -70.04834562999997,
              9.672592770000108
            ],
            [
              -70.04555351399989,
              9.673038788000099
            ],
            [
              -70.04301141199994,
              9.673293815000136
            ],
            [
              -70.04048328799996,
              9.67166479000008
            ],
            [
              -70.03861921299989,
              9.672130812000091
            ],
            [
              -70.03678313799998,
              9.671975817000146
            ],
            [
              -70.03572608499996,
              9.670718795000084
            ],
            [
              -70.03381699399995,
              9.66966978500011
            ],
            [
              -70.02956681599989,
              9.667812755000114
            ],
            [
              -70.02641068199989,
              9.669257810999966
            ],
            [
              -70.02400359499995,
              9.670151852000117
            ],
            [
              -70.02253253299989,
              9.671364887000038
            ],
            [
              -70.02073447299989,
              9.672472926000182
            ],
            [
              -70.01835737699997,
              9.673618964000127
            ],
            [
              -70.01552226399997,
              9.674180988999979
            ],
            [
              -70.01377918399999,
              9.674000995000029
            ],
            [
              -70.01198910999983,
              9.673844001000191
            ],
            [
              -70.01096107599994,
              9.674355025000182
            ],
            [
              -70.00819396399999,
              9.675628068000094
            ],
            [
              -70.00605887399996,
              9.67630809300016
            ],
            [
              -70.00334476799992,
              9.676269109000089
            ],
            [
              -70.00202370599987,
              9.676260118000187
            ],
            [
              -70.00074165699994,
              9.67645513600013
            ],
            [
              -69.99944359799991,
              9.676896156000055
            ],
            [
              -69.99823955399995,
              9.677658172
            ],
            [
              -69.99617246399998,
              9.67683716700003
            ],
            [
              -69.99628347099991,
              9.677022173000069
            ],
            [
              -69.99592244899998,
              9.67678916900013
            ],
            [
              -69.99605646899988,
              9.67906022700015
            ],
            [
              -69.9964014919999,
              9.679469226000151
            ],
            [
              -69.99736853699989,
              9.679945235000162
            ],
            [
              -69.99874759399995,
              9.680420237000021
            ],
            [
              -69.99985064099991,
              9.680485234000173
            ],
            [
              -70.00095669799998,
              9.681576252000013
            ],
            [
              -70.00123370099988,
              9.681985264000105
            ],
            [
              -70.00144272299985,
              9.682942283000159
            ],
            [
              -70.00227975999991,
              9.683826301000124
            ],
            [
              -70.00233076399996,
              9.683916303000103
            ],
            [
              -70.00262777799992,
              9.684703321000029
            ],
            [
              -70.00334281899995,
              9.686823366000056
            ],
            [
              -70.00448487799991,
              9.688668400000097
            ],
            [
              -70.00523592899998,
              9.691039460000184
            ],
            [
              -70.00505692599995,
              9.692929497000137
            ],
            [
              -70.00495593399984,
              9.694517539000117
            ],
            [
              -70.00709903299997,
              9.696449577000067
            ],
            [
              -70.00998016799997,
              9.697402584000145
            ],
            [
              -70.0116732439999,
              9.698691601000121
            ],
            [
              -70.01267529499995,
              9.699649621000162
            ],
            [
              -70.01454137399998,
              9.700287620000097
            ],
            [
              -70.01692648099998,
              9.70195465200004
            ],
            [
              -70.01832054699992,
              9.702868668000178
            ],
            [
              -70.02027263999997,
              9.704672698000024
            ],
            [
              -70.02128106499993,
              9.705635090999976
            ],
            [
              -70.0219827229999,
              9.706304720000048
            ],
            [
              -70.02399381799995,
              9.708793766000099
            ],
            [
              -70.02446884499989,
              9.710306808000098
            ],
            [
              -70.0245228629999,
              9.712207853000052
            ],
            [
              -70.02512890099996,
              9.714906912
            ],
            [
              -70.02580493999994,
              9.716707945999985
            ],
            [
              -70.02666598599995,
              9.718085977000044
            ],
            [
              -70.02858507299993,
              9.719707
            ],
            [
              -70.03072617299989,
              9.721570038000152
            ],
            [
              -70.03127819599985,
              9.721037022000075
            ],
            [
              -70.03415731299992,
              9.720635998000091
            ],
            [
              -70.03561736899997,
              9.720170972000176
            ],
            [
              -70.03700242999997,
              9.720029959000158
            ],
            [
              -70.03995455199998,
              9.718799923000176
            ],
            [
              -70.0414006069999,
              9.718495898000128
            ],
            [
              -70.04319568599993,
              9.719091906000074
            ],
            [
              -70.04508175399985,
              9.718328880000172
            ],
            [
              -70.04761086699995,
              9.719207886000106
            ],
            [
              -70.05006096999989,
              9.719471871000167
            ],
            [
              -70.05225606499988,
              9.719289856000103
            ],
            [
              -70.05491316799998,
              9.718624822000152
            ],
            [
              -70.05655224299989,
              9.718906821000132
            ],
            [
              -70.05830332499994,
              9.720422848000055
            ],
            [
              -70.0598553929999,
              9.721695867000165
            ],
            [
              -70.06095045499984,
              9.723084894000067
            ],
            [
              -70.06171192099987,
              9.724400224000021
            ],
            [
              -70.06227851899996,
              9.725378945000045
            ],
            [
              -70.06282254599984,
              9.726452973000107
            ],
            [
              -70.06343258699997,
              9.72832500700008
            ],
            [
              -70.06437262599991,
              9.729424032000168
            ],
            [
              -70.06681774299989,
              9.730467043000033
            ],
            [
              -70.06885783299987,
              9.730867034000028
            ],
            [
              -70.07017489099997,
              9.731625050000048
            ],
            [
              -70.07148595299998,
              9.734470112000054
            ],
            [
              -70.07226599099994,
              9.73518712200007
            ],
            [
              -70.07257101699997,
              9.737007162
            ],
            [
              -70.07271003699992,
              9.737460382000052
            ],
            [
              -70.07313205299994,
              9.738836199000104
            ],
            [
              -70.07408209299984,
              9.739246212000182
            ],
            [
              -70.07521014499991,
              9.740380227000117
            ],
            [
              -70.07568718299996,
              9.741939258000059
            ],
            [
              -70.07580844199987,
              9.744219366000095
            ],
            [
              -70.07581019399998,
              9.744252319000054
            ],
            [
              -70.07581219299982,
              9.744295315000045
            ],
            [
              -70.07593120799999,
              9.74488733600009
            ],
            [
              -70.07609522099995,
              9.745703351000031
            ],
            [
              -70.07640388099992,
              9.746154472000171
            ],
            [
              -70.07720227499982,
              9.747321386000067
            ],
            [
              -70.07839232999987,
              9.74875040600017
            ],
            [
              -70.07893436299997,
              9.750672450000025
            ],
            [
              -70.07945639499997,
              9.751746478000086
            ],
            [
              -70.07927539299993,
              9.753591520000157
            ],
            [
              -70.0781943639999,
              9.7555285790001
            ],
            [
              -70.07748734699993,
              9.758386648000055
            ],
            [
              -70.07806804099994,
              9.759589656000117
            ],
            [
              -70.07810038799994,
              9.759656669000094
            ],
            [
              -70.07824339599989,
              9.759953684000038
            ],
            [
              -70.08051048699997,
              9.760249669000132
            ],
            [
              -70.08351261299987,
              9.759979645000158
            ],
            [
              -70.08562470899983,
              9.760421650000069
            ],
            [
              -70.08858883599993,
              9.76159866300003
            ],
            [
              -70.09016091299998,
              9.762801675000048
            ],
            [
              -70.0904949419999,
              9.763337021000154
            ],
            [
              -70.09089594599988,
              9.7639797060001
            ],
            [
              -70.09215201399996,
              9.765772731000027
            ],
            [
              -70.09546716099999,
              9.767459755000175
            ],
            [
              -70.09717524499985,
              9.7690237810001
            ],
            [
              -70.09910032599998,
              9.770322801000134
            ],
            [
              -70.10101340799997,
              9.770499802000074
            ],
            [
              -70.10309449999994,
              9.771240810000108
            ],
            [
              -70.10435554799994,
              9.771381796000071
            ],
            [
              -70.10586960899997,
              9.770614775000126
            ],
            [
              -70.10759668399987,
              9.769906749000143
            ],
            [
              -70.10935174699995,
              9.768874711000024
            ],
            [
              -70.11010461399997,
              9.768547179000109
            ],
            [
              -70.11019077599991,
              9.768509695000034
            ],
            [
              -70.11194785499998,
              9.76837368200006
            ],
            [
              -70.11302590099996,
              9.768133670000054
            ],
            [
              -70.11393392699995,
              9.76687064100014
            ],
            [
              -70.11500696799999,
              9.766104616000064
            ],
            [
              -70.11741806599997,
              9.765612587000135
            ],
            [
              -70.11869412199997,
              9.766050589000145
            ],
            [
              -70.11955814999988,
              9.76570757900015
            ],
            [
              -70.11999617599997,
              9.765226560000087
            ],
            [
              -70.12042418099992,
              9.764102528000137
            ],
            [
              -70.12273763699994,
              9.763337021000154
            ],
            [
              -70.12288728599998,
              9.763287503000129
            ],
            [
              -70.12372838799996,
              9.763337021000154
            ],
            [
              -70.12495937399984,
              9.763409492000164
            ],
            [
              -70.12513484499988,
              9.763337021000154
            ],
            [
              -70.12591340499989,
              9.763015468000106
            ],
            [
              -70.12729145699996,
              9.761430423000093
            ],
            [
              -70.12878351399996,
              9.761123418000011
            ],
            [
              -70.13089159999987,
              9.761495405000176
            ],
            [
              -70.1330466899999,
              9.761429396000096
            ],
            [
              -70.13535679099994,
              9.761654382000074
            ],
            [
              -70.13806391499992,
              9.762821403000089
            ],
            [
              -70.13937596399995,
              9.762615387000096
            ],
            [
              -70.14109003199991,
              9.762114364000126
            ],
            [
              -70.14304512099994,
              9.76265537100005
            ],
            [
              -70.14330678399995,
              9.763337021000154
            ],
            [
              -70.14393417599996,
              9.764971419000176
            ],
            [
              -70.14379217299995,
              9.766653459999986
            ],
            [
              -70.1447782279999,
              9.768185491
            ],
            [
              -70.1456112709999,
              9.769450508000148
            ],
            [
              -70.14616930599988,
              9.771646567000062
            ],
            [
              -70.1470443469999,
              9.77194556400002
            ],
            [
              -70.14842940099993,
              9.77267657200008
            ],
            [
              -70.14986147299993,
              9.773427587000128
            ],
            [
              -70.15209057599998,
              9.774757600000157
            ],
            [
              -70.15338106099983,
              9.775121155000136
            ],
            [
              -70.15456467499996,
              9.775454603000185
            ],
            [
              -70.15571073499996,
              9.776060607000034
            ],
            [
              -70.15715578999993,
              9.776604621000104
            ],
            [
              -70.15868086099994,
              9.77778763700013
            ],
            [
              -70.15962714599988,
              9.778818664000084
            ],
            [
              -70.15998692499988,
              9.779210661000093
            ],
            [
              -70.16098697999996,
              9.780558689999964
            ],
            [
              -70.16162500699988,
              9.781649711000114
            ],
            [
              -70.16247106499992,
              9.784014763000016
            ],
            [
              -70.16270107599996,
              9.78485178000011
            ],
            [
              -70.1632361049999,
              9.786176812000122
            ],
            [
              -70.16372912799983,
              9.787160826
            ],
            [
              -70.1642131669999,
              9.788833865000129
            ],
            [
              -70.16526927799998,
              9.789571360000139
            ],
            [
              -70.16546621399993,
              9.789708882000184
            ],
            [
              -70.16637225299996,
              9.78971937700004
            ],
            [
              -70.16727829399986,
              9.789729873000056
            ],
            [
              -70.16977740199997,
              9.790035861000149
            ],
            [
              -70.1717014809999,
              9.789981855000121
            ],
            [
              -70.17268452899998,
              9.791008864000048
            ],
            [
              -70.17411359999988,
              9.792126889000144
            ],
            [
              -70.17479449099994,
              9.792416513000092
            ],
            [
              -70.17598967299995,
              9.792924896000159
            ],
            [
              -70.1775077509999,
              9.79353390099999
            ],
            [
              -70.17922681699991,
              9.794430910000074
            ],
            [
              -70.18069188599992,
              9.795799938000187
            ],
            [
              -70.18316200499993,
              9.79727696100008
            ],
            [
              -70.18498908499993,
              9.798030966000056
            ],
            [
              -70.18607813499989,
              9.798868982000101
            ],
            [
              -70.1869381759999,
              9.800201001000062
            ],
            [
              -70.1882165589999,
              9.802003262000085
            ],
            [
              -70.18831925199999,
              9.802148038000155
            ],
            [
              -70.18858427099997,
              9.80364807400008
            ],
            [
              -70.18806725799988,
              9.80525812600007
            ],
            [
              -70.18781626299989,
              9.807519181000032
            ],
            [
              -70.18686523699989,
              9.810138239000025
            ],
            [
              -70.1874952799999,
              9.812812300000019
            ],
            [
              -70.18816732399989,
              9.81495735500016
            ],
            [
              -70.18916737499995,
              9.817612409999981
            ],
            [
              -70.18962640099994,
              9.818827431999978
            ],
            [
              -70.19054445499995,
              9.82167049800006
            ],
            [
              -70.19149450899994,
              9.822515515000077
            ],
            [
              -70.19204453399982,
              9.824115544
            ],
            [
              -70.19320458499988,
              9.82497256300013
            ],
            [
              -70.19337260199984,
              9.825078564000137
            ],
            [
              -70.19452165699994,
              9.82616558500007
            ],
            [
              -70.19584170899992,
              9.827404607000119
            ],
            [
              -70.19699477099994,
              9.828147619000106
            ],
            [
              -70.19831582799992,
              9.829409641000098
            ],
            [
              -70.20030592699999,
              9.831026666000014
            ],
            [
              -70.20163597499999,
              9.830727644000149
            ],
            [
              -70.20326004099991,
              9.830712640000172
            ],
            [
              -70.20395507799998,
              9.831547655000065
            ],
            [
              -70.20459310599989,
              9.832638675999988
            ],
            [
              -70.20593716799982,
              9.832591674000014
            ],
            [
              -70.20738024199994,
              9.833961696000074
            ],
            [
              -70.20771625799995,
              9.83504571800006
            ],
            [
              -70.20793227399997,
              9.836915756000053
            ]
          ]
        ]
      }
    }
  ]
}