{"type": "FeatureCollection", "features": [{"type": "Feature", "properties": {"Pais": "Venezuela", "Estado": "M\u00e9rida", "Municipio": "Caracciolo Parra Olmedo"}, "geometry": {"type": "Polygon", "coordinates": [[[-71.221053, 8.925965], [-71.221944, 8.9266310000001], [-71.222602, 8.927165], [-71.223733, 8.928238], [-71.225243, 8.929714000000104], [-71.227093, 8.93005600000015], [-71.227396, 8.930209], [-71.228197, 8.93092300000012], [-71.230232, 8.931284000000176], [-71.230811, 8.931453], [-71.231014, 8.932205000000124], [-71.231018, 8.932366000000172], [-71.231364, 8.933275], [-71.23176, 8.934412000000123], [-71.23184, 8.935787], [-71.232266, 8.937153], [-71.23266599999988, 8.937510000000145], [-71.233063, 8.93772900000016], [-71.232737, 8.939436000000171], [-71.232744, 8.939734000000158], [-71.23320574299993, 8.940777432000118], [-71.233256, 8.940891000000136], [-71.233147, 8.942982], [-71.232941, 8.94397400000014], [-71.232259, 8.945254000000148], [-71.23224630799996, 8.945668159000036], [-71.232221, 8.946494], [-71.23256, 8.947174], [-71.233353, 8.948508000000118], [-71.23440899999986, 8.949353], [-71.235463, 8.95006], [-71.23588081199995, 8.950568750000059], [-71.23589926699998, 8.950556137000035], [-71.2497256239999, 8.941107125000144], [-71.2505716259999, 8.940528963000077], [-71.25059628299982, 8.940512112000022], [-71.26899260899995, 8.928366032000099], [-71.27056514699996, 8.92732777100008], [-71.30846444399987, 8.902304952000122], [-71.30872945299996, 8.90225695099997], [-71.30841144599992, 8.903058966000174], [-71.30826445399993, 8.904965011000058], [-71.30894949199995, 8.906969046000029], [-71.31067557699993, 8.90931909600016], [-71.31248666199997, 8.911254125000141], [-71.31494377299992, 8.913245155000027], [-71.31601081199994, 8.91365916400008], [-71.31791590299991, 8.91453817300004], [-71.31973297899998, 8.915647182999976], [-71.32211208599995, 8.91720420300004], [-71.32466819599995, 8.918413216000147], [-71.32708730799999, 8.919648234000022], [-71.32982441699988, 8.920694234000052], [-71.3321475219999, 8.920578227000135], [-71.33341556999994, 8.920713218], [-71.33399459399988, 8.92088522500012], [-71.33502863799998, 8.920795217000148], [-71.33723272999993, 8.92049819000016], [-71.33943381699999, 8.920018166999967], [-71.34079186799988, 8.92003616900007], [-71.34218891699993, 8.919641150000132], [-71.34244292299991, 8.918536125000116], [-71.34245191799994, 8.917825107000056], [-71.34294193799997, 8.917035082000154], [-71.34428999399995, 8.916504061000182], [-71.34540603299985, 8.915908050000155], [-71.34578604099994, 8.915327037000168], [-71.34712408999997, 8.914337007000142], [-71.34825414599993, 8.91445200100003], [-71.34920018599996, 8.914547], [-71.35029323099991, 8.91512100400007], [-71.3509502579999, 8.915727010000126], [-71.35095053899994, 8.915727628000184], [-71.35163208199992, 8.914875224000127], [-71.35202212699988, 8.914407128000164], [-71.352768, 8.913512], [-71.35269399999987, 8.913308000000143], [-71.352089, 8.913048000000117], [-71.35288514099994, 8.911626811000076], [-71.353015, 8.911395000000141], [-71.35394263299997, 8.91021884800017], [-71.354844, 8.909076000000141], [-71.3559479999999, 8.907211000000189], [-71.3566029999999, 8.90487700000017], [-71.356865, 8.902483000000132], [-71.357586, 8.900904], [-71.357963, 8.89938], [-71.35836299999988, 8.897006], [-71.359428, 8.894478], [-71.359056, 8.893409], [-71.357567, 8.891910000000166], [-71.35644799999989, 8.890423], [-71.355475, 8.888314], [-71.354835, 8.887574], [-71.354421, 8.885772], [-71.354496, 8.883246], [-71.35468999999989, 8.880877000000169], [-71.354949, 8.879287], [-71.355195, 8.878087], [-71.355881, 8.876968], [-71.356706, 8.874973000000182], [-71.357293, 8.873604], [-71.357405, 8.872569], [-71.357267, 8.870737000000133], [-71.356969, 8.868955000000142], [-71.356587, 8.866578000000118], [-71.35641, 8.864999], [-71.35635899999988, 8.862958000000106], [-71.356265, 8.861974], [-71.355916, 8.860905], [-71.355853, 8.859323], [-71.355404, 8.857935000000168], [-71.355499, 8.856188], [-71.35533, 8.854059], [-71.355413, 8.852749], [-71.354767, 8.850838], [-71.354079, 8.849112], [-71.353529, 8.848277], [-71.353125, 8.846865], [-71.353077, 8.845856], [-71.353044, 8.844549000000143], [-71.351846, 8.844488], [-71.349892, 8.844585000000109], [-71.349008, 8.845112], [-71.347854, 8.845899], [-71.34648599999986, 8.84644], [-71.345118, 8.84601600000019], [-71.344043, 8.845355], [-71.343349, 8.844295000000102], [-71.342517, 8.843238], [-71.341582, 8.842665], [-71.339648, 8.84269200000017], [-71.338224, 8.842798], [-71.337522, 8.842311], [-71.336222, 8.840968000000146], [-71.33506299999982, 8.839713], [-71.334226, 8.838425], [-71.333748, 8.836808], [-71.332646, 8.835093], [-71.331933, 8.83417], [-71.333004, 8.83281200000016], [-71.333141, 8.831867000000102], [-71.333198, 8.830443], [-71.333745, 8.829305], [-71.334474, 8.828093000000138], [-71.33537399999989, 8.826348], [-71.335598, 8.824255], [-71.335627, 8.823565000000144], [-71.336185, 8.821945], [-71.337414, 8.820467000000122], [-71.338292, 8.81877], [-71.33832499999988, 8.816428], [-71.337675, 8.815275], [-71.336543, 8.814179], [-71.33532199999985, 8.813178000000107], [-71.334594, 8.810742000000175], [-71.33372, 8.809846000000107], [-71.333796, 8.808284000000185], [-71.331787, 8.807097], [-71.331516, 8.805451], [-71.330292, 8.803418], [-71.329537, 8.801739000000111], [-71.328856, 8.799347], [-71.328673, 8.79662100000013], [-71.326525, 8.796332000000177], [-71.325486, 8.793422], [-71.32416599999988, 8.792148], [-71.322359, 8.791689], [-71.320569, 8.790955], [-71.318882, 8.789759], [-71.31725399999988, 8.788148], [-71.315077, 8.785726000000125], [-71.31308499999989, 8.784285000000125], [-71.312268, 8.782907000000137], [-71.311236, 8.782084], [-71.310151, 8.781056], [-71.308316, 8.78034600000018], [-71.30571199999986, 8.780184], [-71.30431, 8.779348], [-71.302906, 8.778397], [-71.300937, 8.776956000000155], [-71.298854, 8.774646000000189], [-71.296867, 8.773412], [-71.295398, 8.771705], [-71.29405899999989, 8.77057], [-71.29293399999989, 8.76974900000016], [-71.29187699999983, 8.76796400000012], [-71.290893, 8.767047], [-71.289923, 8.766135000000133], [-71.288814, 8.764426000000128], [-71.287955, 8.762572], [-71.28750799999989, 8.75983600000012], [-71.285004, 8.758464000000117], [-71.2814, 8.75803900000011], [-71.278516, 8.754663], [-71.27563699999985, 8.753049], [-71.271963, 8.751], [-71.268126, 8.749711000000104], [-71.265713, 8.748267000000169], [-71.262796, 8.747731], [-71.260254, 8.74581], [-71.25843599999985, 8.744235000000174], [-71.25343899999984, 8.74105500000013], [-71.2489839999999, 8.739074000000187], [-71.2463699999999, 8.73786500000017], [-71.243479, 8.734213000000125], [-71.239881, 8.731566000000157], [-71.23752999999988, 8.729891000000123], [-71.23421, 8.728954], [-71.230522, 8.72805], [-71.227637, 8.726985000000184], [-71.224186, 8.723074], [-71.222459, 8.719846000000132], [-71.220262, 8.718717], [-71.217047, 8.715784000000156], [-71.21337699999987, 8.709039000000189], [-71.212118, 8.710105000000112], [-71.209389, 8.711304], [-71.206804, 8.712727000000143], [-71.20195, 8.713665000000162], [-71.197619, 8.716032], [-71.190071, 8.719404000000168], [-71.185692, 8.720099000000118], [-71.181314, 8.721596], [-71.178686, 8.723135000000127], [-71.177164, 8.724643], [-71.175132, 8.727661000000182], [-71.174957, 8.72802600000017], [-71.173691, 8.72886300000016], [-71.170748, 8.729793], [-71.16473799999989, 8.735458000000108], [-71.1609059999999, 8.736756], [-71.156624, 8.73685200000017], [-71.15219999999988, 8.735121000000106], [-71.14793999999983, 8.733499], [-71.144219, 8.733831000000123], [-71.141313, 8.73531000000014], [-71.13945399999989, 8.737125], [-71.13670599999989, 8.739286000000106], [-71.135716, 8.742566], [-71.132775, 8.746062000000165], [-71.12936399999984, 8.746775000000184], [-71.12644399999982, 8.747773000000166], [-71.12432599999988, 8.749389000000122], [-71.118359, 8.75255600000014], [-71.11470499999984, 8.75607], [-71.112161, 8.75976], [-71.109979, 8.762409], [-71.10883499999989, 8.765922], [-71.106305, 8.768512000000158], [-71.102747, 8.77138200000013], [-71.0999, 8.774118], [-71.095477, 8.773256], [-71.092246, 8.77385], [-71.0895579999999, 8.775711000000172], [-71.085573, 8.781389000000104], [-71.08346499999988, 8.7833940000001], [-71.081518, 8.78704400000015], [-71.080858, 8.789765], [-71.079152, 8.791370000000143], [-71.077414, 8.792633], [-71.07504, 8.79744], [-71.07296899999983, 8.798345], [-71.07001, 8.797144], [-71.06756799999988, 8.796295000000157], [-71.064033, 8.797539], [-71.058967, 8.801664], [-71.057196, 8.805837], [-71.055917, 8.807842], [-71.053993, 8.808216], [-71.052094, 8.809528000000114], [-71.050554, 8.811266], [-71.048173, 8.81179], [-71.044434, 8.811527000000126], [-71.042161, 8.810971000000109], [-71.039637, 8.811293], [-71.0367839999999, 8.813044], [-71.033238, 8.815571], [-71.0321249999999, 8.81693], [-71.031402, 8.81908], [-71.0307, 8.822765], [-71.03012299999989, 8.828461], [-71.028201, 8.836279000000161], [-71.02729099999988, 8.8473], [-71.026525, 8.852841], [-71.027146, 8.856076], [-71.026695, 8.860511000000145], [-71.025341, 8.864763], [-71.025363, 8.867190000000107], [-71.02758399999988, 8.869145], [-71.03099999999989, 8.871020000000101], [-71.032015, 8.873512], [-71.030904, 8.874986], [-71.02891499999987, 8.876323000000127], [-71.027569, 8.878445], [-71.02803999999986, 8.880425], [-71.027806, 8.88274500000017], [-71.027683, 8.884924000000183], [-71.029866, 8.888002000000142], [-71.035382, 8.893255], [-71.03739, 8.89336], [-71.04194699999988, 8.893188], [-71.04486, 8.89352], [-71.04887, 8.893569000000127], [-71.053865, 8.893408000000136], [-71.057842, 8.89311400000014], [-71.060247, 8.893437], [-71.061341, 8.895445000000109], [-71.06152, 8.897708], [-71.062094, 8.899250000000166], [-71.064334, 8.901066000000128], [-71.067703, 8.901224], [-71.070974, 8.901202000000183], [-71.073614, 8.900052], [-71.076087, 8.899548], [-71.07739299999986, 8.900886000000128], [-71.078094, 8.902081], [-71.07935099999986, 8.903329000000156], [-71.080838, 8.904593], [-71.084364, 8.903006], [-71.085702, 8.900609000000145], [-71.087702, 8.89885900000013], [-71.090239, 8.8973], [-71.093714, 8.894729], [-71.09666, 8.892998000000148], [-71.099353, 8.890472], [-71.102447, 8.887477], [-71.104046, 8.885348], [-71.105449, 8.88366], [-71.10758699999985, 8.88188200000019], [-71.110148, 8.881193], [-71.111842, 8.881649], [-71.115513, 8.879486], [-71.117886, 8.879465], [-71.121745, 8.880709000000138], [-71.125125, 8.882081000000142], [-71.127215, 8.883488], [-71.130549, 8.885686], [-71.134493, 8.887454], [-71.13698999999986, 8.888598], [-71.140411, 8.888960000000168], [-71.143182, 8.888379], [-71.14575, 8.886337], [-71.14773899999989, 8.886602], [-71.147375, 8.888376000000164], [-71.14695199999989, 8.89132], [-71.148222, 8.894651000000124], [-71.15036199999986, 8.896996000000172], [-71.150616, 8.902670000000171], [-71.150717, 8.90539200000012], [-71.153159, 8.907821000000183], [-71.154393, 8.908267000000137], [-71.156537, 8.909948000000156], [-71.157538, 8.911912], [-71.157582, 8.915874], [-71.15794199999988, 8.917994], [-71.15915499999988, 8.920113], [-71.16415399999988, 8.920874], [-71.16579, 8.920970000000125], [-71.16677199999987, 8.921565000000157], [-71.16905699999984, 8.922723], [-71.1708569999999, 8.92387100000019], [-71.17384799999985, 8.923772000000156], [-71.175912, 8.923444000000188], [-71.178045, 8.924055000000124], [-71.179283, 8.924804000000108], [-71.184381, 8.92609700000014], [-71.186784, 8.926426], [-71.189825, 8.926532], [-71.193453, 8.927083], [-71.196264, 8.92809], [-71.198601, 8.927663], [-71.201154, 8.92567], [-71.203636, 8.925515000000132], [-71.20442899999989, 8.925908000000163], [-71.206233, 8.926252], [-71.207736, 8.926535000000172], [-71.210035, 8.927302], [-71.211569, 8.926942], [-71.21287599999988, 8.926748], [-71.215367, 8.92693700000018], [-71.215758, 8.926927], [-71.217166, 8.927074000000175], [-71.218, 8.927283], [-71.21883999999989, 8.926802], [-71.21924499999989, 8.926425000000108], [-71.220106, 8.925852000000134], [-71.221053, 8.925965]]]}}]}