{"type": "FeatureCollection", "features": [{"type": "Feature", "properties": {"Pais": "Venezuela", "Estado": "M\u00e9rida", "Municipio": "Cardenal Quintero", "Parroquia": "Cardenal Quintero"}, "geometry": {"type": "Polygon", "coordinates": [[[-70.70172, 8.913828], [-70.703829, 8.913941000000136], [-70.706283, 8.915635000000123], [-70.708686, 8.915262], [-70.712055, 8.914441000000124], [-70.716984, 8.912659], [-70.720026, 8.91328900000019], [-70.72277, 8.912498], [-70.72591799999987, 8.910738000000151], [-70.728766, 8.910796000000119], [-70.73021199999988, 8.911491], [-70.731736, 8.91122], [-70.733636, 8.91135800000012], [-70.7353829999999, 8.910441000000105], [-70.73691099999985, 8.908837], [-70.74129099999988, 8.905867000000171], [-70.739611, 8.90329], [-70.739835, 8.901082], [-70.74123, 8.898215000000107], [-70.74391899999989, 8.896828000000141], [-70.745216, 8.895204], [-70.747096, 8.892286000000183], [-70.74998999999985, 8.890620000000183], [-70.752212, 8.890524], [-70.756409, 8.89222], [-70.757052, 8.892219000000182], [-70.763038, 8.890992], [-70.76425, 8.890803], [-70.765001, 8.889962], [-70.766604, 8.887629000000175], [-70.767289, 8.886322], [-70.767383, 8.883434], [-70.767045, 8.881479], [-70.766843, 8.880268], [-70.767729, 8.87775100000016], [-70.767873, 8.875794], [-70.768363, 8.873091], [-70.769546, 8.871318], [-70.771285, 8.869730000000118], [-70.773216, 8.86721000000017], [-70.775045, 8.865342000000169], [-70.777974, 8.864217000000167], [-70.7810199999999, 8.864488], [-70.782587, 8.863273], [-70.78519099999988, 8.859820000000127], [-70.78726399999988, 8.857858], [-70.79060099999987, 8.856545], [-70.794292, 8.856722000000161], [-70.79542599999985, 8.856439], [-70.799181, 8.85466], [-70.800244, 8.854098000000135], [-70.802265, 8.853720000000123], [-70.804451, 8.853248000000121], [-70.807193, 8.852962000000105], [-70.809146, 8.852212], [-70.812144, 8.851457], [-70.809572, 8.849345000000142], [-70.809315, 8.847601], [-70.809331, 8.845464], [-70.809577, 8.843232], [-70.810123, 8.840882000000136], [-70.81200599999988, 8.838193], [-70.812425, 8.836741000000188], [-70.812804, 8.834140000000104], [-70.812513, 8.831547000000114], [-70.810761, 8.828764], [-70.808492, 8.827091], [-70.805306, 8.824487], [-70.80268299999989, 8.82229000000018], [-70.79987, 8.819819000000166], [-70.797498, 8.819020000000137], [-70.79642199999984, 8.818183000000147], [-70.795611, 8.816492], [-70.794419, 8.815633], [-70.793372, 8.813624], [-70.794201, 8.813361000000157], [-70.79536, 8.813508], [-70.797031, 8.813832], [-70.7988079999999, 8.813443000000177], [-70.80109, 8.812773000000163], [-70.802488, 8.811814], [-70.803576, 8.810215], [-70.804776, 8.806662], [-70.805656, 8.805088], [-70.80738999999988, 8.803320000000156], [-70.80754699999989, 8.801342], [-70.8071369999999, 8.798544], [-70.807733, 8.79486], [-70.808782, 8.792136], [-70.808572, 8.790346000000113], [-70.80776, 8.78861], [-70.80712299999982, 8.787721], [-70.806494, 8.785775000000115], [-70.805537, 8.781995000000165], [-70.80462299999982, 8.779548], [-70.803061, 8.778693], [-70.802372, 8.776558], [-70.801364, 8.774136], [-70.800897, 8.772576000000129], [-70.800952, 8.770832], [-70.8013509999999, 8.76882], [-70.80254599999984, 8.767229], [-70.80279, 8.766266], [-70.802415, 8.764965000000132], [-70.801696, 8.76393300000018], [-70.801041, 8.761679000000186], [-70.8012609999999, 8.759409000000119], [-70.80185099999989, 8.758264], [-70.792681, 8.758957], [-70.786774, 8.76436600000011], [-70.784999, 8.766478], [-70.78376999999989, 8.767987], [-70.782653, 8.770826000000113], [-70.780566, 8.772161], [-70.777375, 8.773992], [-70.775725, 8.775114], [-70.773633, 8.777782000000116], [-70.770099, 8.77993800000013], [-70.76856, 8.780761], [-70.766176, 8.78072], [-70.763135, 8.780113], [-70.760497, 8.780145], [-70.757296, 8.781286000000136], [-70.75331299999982, 8.782781], [-70.749434, 8.783424], [-70.749171, 8.782807], [-70.749751, 8.78126], [-70.749445, 8.779242000000124], [-70.74732299999988, 8.774740000000122], [-70.74557599999986, 8.772302], [-70.745442, 8.771017], [-70.746439, 8.769465000000139], [-70.746747, 8.768359], [-70.74753, 8.766396], [-70.749142, 8.762516000000176], [-70.749844, 8.75975000000011], [-70.74944899999986, 8.757986000000187], [-70.748435, 8.758319], [-70.747426, 8.757320000000107], [-70.746268, 8.755634], [-70.74523, 8.754198], [-70.74287688699991, 8.75306641300017], [-70.742666, 8.752965], [-70.7405399999999, 8.753151000000173], [-70.738578, 8.753496], [-70.73721258299992, 8.753301050000118], [-70.736792, 8.753241000000116], [-70.734219, 8.751272], [-70.733369, 8.750041], [-70.734133, 8.748681000000147], [-70.73413285599992, 8.748680911000065], [-70.73413956999997, 8.748668955000142], [-70.73384594299989, 8.748487632000149], [-70.73363593599993, 8.748769630000027], [-70.7296477889999, 8.751039712000079], [-70.72740470099995, 8.752477748000047], [-70.7253756149999, 8.75292276700003], [-70.72351253999994, 8.752170761000116], [-70.72093844299997, 8.753199798000082], [-70.71821834199989, 8.755173863000095], [-70.71568924899998, 8.757558927000105], [-70.71402519299994, 8.760505], [-70.71131909799993, 8.763375078000024], [-70.70587188699983, 8.765712158000099], [-70.70498046199998, 8.768104540000024], [-70.7037688239999, 8.771356299000047], [-70.70402783899993, 8.77154029900015], [-70.70362582499996, 8.772522330000129], [-70.70318981299994, 8.773587352000163], [-70.70054671599985, 8.774905398000158], [-70.69818061899991, 8.77612743400016], [-70.69506250799992, 8.778278502000148], [-70.69267485799992, 8.781580896000037], [-70.69263242299996, 8.781639588000075], [-70.69074935799995, 8.784349654000152], [-70.68913829999997, 8.786689717000058], [-70.6881102779999, 8.789367779000088], [-70.68685724099987, 8.792461856000045], [-70.68603921599993, 8.795251926000162], [-70.68497318899995, 8.798505004000049], [-70.68267811399994, 8.801542088000133], [-70.67990101199985, 8.80322914300018], [-70.6784889629999, 8.804946179000126], [-70.67586885499998, 8.806264226000053], [-70.67139668499988, 8.80762628400015], [-70.66599846999998, 8.810585374000027], [-70.66436541799999, 8.812994438000032], [-70.66265835999997, 8.815105494000079], [-70.6625203669999, 8.816876542000045], [-70.6639384319999, 8.818997574000036], [-70.66392044499992, 8.82101962400003], [-70.6631334199999, 8.822706667999967], [-70.66146335999991, 8.824081708000051], [-70.66144557299998, 8.82423586700014], [-70.66258920799999, 8.826525644000128], [-70.66492707099991, 8.831366541000023], [-70.665431, 8.83241], [-70.66578999199999, 8.834340585000064], [-70.666503, 8.838175000000149], [-70.663236, 8.849540000000104], [-70.661925, 8.854387], [-70.6598719999999, 8.861523], [-70.657857, 8.865919000000133], [-70.65611599999988, 8.869698], [-70.656966, 8.872452000000123], [-70.658881, 8.875133], [-70.659757, 8.875942], [-70.661531, 8.876056], [-70.662592, 8.876336000000151], [-70.664265, 8.877333], [-70.66601999999983, 8.878773], [-70.666618, 8.880374000000131], [-70.66722, 8.881798000000174], [-70.66792, 8.882515000000183], [-70.6679089999999, 8.883311000000106], [-70.66797999999989, 8.884551], [-70.668659, 8.886772000000121], [-70.669875, 8.888647], [-70.670745, 8.88989800000013], [-70.670895, 8.891846], [-70.671507, 8.892562000000112], [-70.672567, 8.892931], [-70.673179, 8.893559], [-70.673952, 8.895428], [-70.67429, 8.896671], [-70.674811, 8.897475], [-70.674973, 8.898538], [-70.676336, 8.898504], [-70.678221, 8.897115], [-70.680442, 8.896970000000124], [-70.6826549999999, 8.897443], [-70.68423499999989, 8.898704], [-70.6863939999999, 8.900565], [-70.688135, 8.90259], [-70.691777, 8.90477600000014], [-70.695593, 8.906156000000124], [-70.698732, 8.90713], [-70.700269, 8.909341], [-70.700864, 8.91216], [-70.70172, 8.913828]]]}}, {"type": "Feature", "properties": {"Pais": "Venezuela", "Estado": "M\u00e9rida", "Municipio": "Cardenal Quintero", "Parroquia": "Las Piedras"}, "geometry": {"type": "Polygon", "coordinates": [[[-70.56397233899992, 9.010865450000153], [-70.56531340099997, 9.011583462000033], [-70.56710647899996, 9.011943460000168], [-70.56887754499996, 9.011547446000066], [-70.57098763599993, 9.0108884120001], [-70.57385275099995, 9.010712389], [-70.57468878999993, 9.010779386000138], [-70.57684815199997, 9.011017010999979], [-70.57739438999988, 9.010953617999974], [-70.57905355899993, 9.010766127000181], [-70.58255899999989, 9.01037], [-70.58485857799991, 9.008860036000158], [-70.587041, 9.007427], [-70.58749944799996, 9.007001478000177], [-70.595771, 8.999324000000172], [-70.59865, 8.996712], [-70.599664, 8.99407200000013], [-70.602372, 8.991015000000118], [-70.60506, 8.989284000000112], [-70.60597399999989, 8.987439], [-70.606973, 8.985861], [-70.60842, 8.984023], [-70.608892, 8.982083], [-70.6093489999999, 8.981117], [-70.610892, 8.978750000000161], [-70.61137, 8.976369000000147], [-70.613366, 8.973389000000168], [-70.613664, 8.97118200000017], [-70.613694, 8.969059000000186], [-70.61365, 8.965874], [-70.613575, 8.964900000000114], [-70.61271099999988, 8.963207], [-70.612828, 8.961262], [-70.61346299999985, 8.960298], [-70.61471799999987, 8.959431], [-70.616231, 8.959187], [-70.61820299999982, 8.957889], [-70.619633, 8.957201000000111], [-70.62079099999988, 8.956952000000115], [-70.621151, 8.956604], [-70.62436999999983, 8.955057000000181], [-70.625636, 8.953483000000176], [-70.626277, 8.952077], [-70.62718, 8.951028], [-70.628709, 8.949634000000174], [-70.630852, 8.94878], [-70.63264, 8.947921], [-70.63319699999983, 8.946160000000134], [-70.633238, 8.943240000000117], [-70.634256, 8.940335000000118], [-70.63597, 8.938413], [-70.63883199999987, 8.93695], [-70.640007, 8.935463], [-70.640468, 8.934231], [-70.64049299999988, 8.9324620000001], [-70.640342, 8.930602], [-70.640005, 8.929359], [-70.638252, 8.927742], [-70.638279, 8.925796000000105], [-70.638227, 8.92323], [-70.637951, 8.917653000000143], [-70.638516, 8.915361000000189], [-70.639691, 8.913874], [-70.641765, 8.911603000000127], [-70.6448299999999, 8.908285], [-70.64573999999988, 8.906706000000156], [-70.646303, 8.904591], [-70.646594, 8.902824000000123], [-70.648299, 8.901522], [-70.650456, 8.89960600000012], [-70.651628, 8.898384], [-70.65377499999988, 8.897265], [-70.657509, 8.89687600000019], [-70.661435, 8.895427], [-70.663759, 8.894310000000132], [-70.664469, 8.894320000000107], [-70.666849, 8.895504000000187], [-70.671326, 8.899106000000131], [-70.67212, 8.89947100000012], [-70.674073, 8.89941], [-70.674973, 8.898538], [-70.674811, 8.897475], [-70.67429, 8.896671], [-70.673952, 8.895428], [-70.673179, 8.893559], [-70.672567, 8.892931], [-70.671507, 8.892562000000112], [-70.670895, 8.891846], [-70.670745, 8.88989800000013], [-70.669875, 8.888647], [-70.668659, 8.886772000000121], [-70.66797999999989, 8.884551], [-70.6679089999999, 8.883311000000106], [-70.66792, 8.882515000000183], [-70.66722, 8.881798000000174], [-70.666618, 8.880374000000131], [-70.66601999999983, 8.878773], [-70.664265, 8.877333], [-70.662592, 8.876336000000151], [-70.661531, 8.876056], [-70.659757, 8.875942], [-70.658881, 8.875133], [-70.656966, 8.872452000000123], [-70.65611599999988, 8.869698], [-70.657857, 8.865919000000133], [-70.6598719999999, 8.861523], [-70.661925, 8.854387], [-70.663236, 8.849540000000104], [-70.666503, 8.838175000000149], [-70.66578999199999, 8.834340585000064], [-70.665431, 8.83241], [-70.66492707099991, 8.831366541000023], [-70.66258920799999, 8.826525644000128], [-70.66144557299998, 8.82423586700014], [-70.6610703579999, 8.827487789999964], [-70.65940131399992, 8.830678859000159], [-70.65707421499997, 8.831463892000158], [-70.65551616499982, 8.83263092499999], [-70.65429312399988, 8.834575975000178], [-70.6508809899999, 8.835627023000086], [-70.64948092699996, 8.836447042000032], [-70.6480158729999, 8.837659081000027], [-70.64570879099995, 8.839915142000052], [-70.64447975199988, 8.841469190000055], [-70.64185565399993, 8.844189264000022], [-70.63978457799988, 8.845086293000122], [-70.63758548499993, 8.845088303000068], [-70.63582240899996, 8.844810312999982], [-70.63357531599996, 8.844721316], [-70.63121122199993, 8.844519329000093], [-70.62978315699996, 8.843340310000144], [-70.62811707799989, 8.841682274000107], [-70.62642599899993, 8.83993225000006], [-70.62531293799987, 8.838084215000038], [-70.62434889499986, 8.83703819200008], [-70.62212579599992, 8.836949207000089], [-70.62008971899996, 8.837041218000138], [-70.61583453199995, 8.835619205000171], [-70.61367744199993, 8.835300218000157], [-70.61214838099988, 8.83520221900011], [-70.61201938099987, 8.835939241000176], [-70.61201038799999, 8.836996255000088], [-70.61170637399988, 8.838448293000113], [-70.61098035299995, 8.839513328000066], [-70.60970230899989, 8.84088435700005], [-70.60852726799993, 8.84301241500009], [-70.60720822699994, 8.844728458000077], [-70.60661020099997, 8.845010470000148], [-70.60520214099989, 8.84525647900017], [-70.60302106599988, 8.846614527999975], [-70.60053096399992, 8.84733256000004], [-70.59761284499996, 8.847251572000118], [-70.59453070699993, 8.847034583000038], [-70.59150457999993, 8.84580457100003], [-70.58780141799997, 8.844146546000047], [-70.58528130199983, 8.842659531000038], [-70.58375424099995, 8.842722545000129], [-70.58334622999996, 8.843370560000153], [-70.58313322399988, 8.84472858700019], [-70.5821101969999, 8.846142623000105], [-70.58047612999997, 8.846850646000178], [-70.57801203299994, 8.847775691000038], [-70.57644497799993, 8.850022749000175], [-70.57617600399988, 8.85025947000014], [-70.57475191899994, 8.851512788999969], [-70.57369687499994, 8.85221380900009], [-70.57062876499992, 8.854708886000026], [-70.56898469899994, 8.85642793400018], [-70.5680246629999, 8.857334950000052], [-70.56760065499992, 8.858488980000175], [-70.56783466999991, 8.858692987999973], [-70.56892871999986, 8.859094994000031], [-70.56977075799989, 8.859704996000062], [-70.57127082899984, 8.861090022999974], [-70.57217086399999, 8.862574054000106], [-70.57234687999988, 8.863629069000126], [-70.57260990299989, 8.865924127000085], [-70.57342694999988, 8.868144164], [-70.57559104399996, 8.868992178000042], [-70.57627908099988, 8.870156195000163], [-70.57753313799998, 8.87216423700005], [-70.57796017099997, 8.87466428600004], [-70.57741416499994, 8.87701534200005], [-70.57685114799989, 8.87823937900015], [-70.5763031429999, 8.880475434000175], [-70.57676716099996, 8.882239466000101], [-70.57770322199997, 8.88471051700003], [-70.57738222599994, 8.88827660600009], [-70.57705722299988, 8.889934641000082], [-70.57724424199989, 8.891771684000105], [-70.57788328299995, 8.89449874200011], [-70.57857931799998, 8.896329775000027], [-70.57826631299992, 8.897114797000143], [-70.57782630499992, 8.900520880000158], [-70.57780830899992, 8.900911882000173], [-70.5769942849999, 8.902345925000077], [-70.57631426599994, 8.903433949000032], [-70.57562224799989, 8.905325996000158], [-70.57521523999998, 8.907744053000158], [-70.57450620999992, 8.908350066000082], [-70.57345417199991, 8.90935010000004], [-70.57252114699997, 8.910532135000096], [-70.57104608499998, 8.910986151000145], [-70.56996704799997, 8.911688176000041], [-70.56863999699993, 8.912875204000045], [-70.56773696399995, 8.914540242000157], [-70.56621792199991, 8.916925313000036], [-70.56485187399994, 8.918664357000068], [-70.56347182799988, 8.921047416000135], [-70.56331358099993, 8.921306036000033], [-70.56267880599984, 8.922343447000173], [-70.56127275499995, 8.924519505000092], [-70.56043872299995, 8.92618355000019], [-70.55887867399991, 8.927212582000095], [-70.55829269399999, 8.927478471000143], [-70.55726760899995, 8.927943605000053], [-70.5554265369999, 8.928769634000105], [-70.55460550999993, 8.929720662000136], [-70.55241242499994, 8.931951724000157], [-70.54949932099993, 8.933961788000033], [-70.54704222799995, 8.935460832000047], [-70.54783126999996, 8.937358866000068], [-70.54895631799997, 8.938334883000095], [-70.54909221199995, 8.938433448000183], [-70.55017237399994, 8.939216899000087], [-70.55219046399986, 8.941147932000035], [-70.55335953399998, 8.943684990000179], [-70.55319854999988, 8.94722606900018], [-70.55284353999997, 8.95003413500018], [-70.55263574199995, 8.950869798000099], [-70.55233053799998, 8.95209718600006], [-70.55266455899994, 8.953943216000027], [-70.55321859199995, 8.955499253000085], [-70.55336959599998, 8.95623827300011], [-70.55368757199994, 8.957796712], [-70.55371462599993, 8.957929308000132], [-70.55409863999989, 8.958936323000103], [-70.55413365799996, 8.961487389000126], [-70.55439440999999, 8.962600686000144], [-70.55460069299988, 8.963481421999973], [-70.55537073399984, 8.965655471000048], [-70.55511373899998, 8.96719850500017], [-70.55416870399995, 8.969208558000105], [-70.55401970199995, 8.969211562000169], [-70.55373269699993, 8.971295614000155], [-70.54842650699999, 8.976232753000147], [-70.54732947699983, 8.980043843000033], [-70.54734250499985, 8.983699922000085], [-70.54685750599992, 8.988098027000092], [-70.54675251599997, 8.991641104000053], [-70.5436464369999, 8.999116301000129], [-70.54383244699994, 9.000292323999986], [-70.54497050799995, 9.002382362999981], [-70.54620256499993, 9.003355376000115], [-70.54775963299988, 9.004342387000179], [-70.5498379849999, 9.005528457000082], [-70.54990272699985, 9.005565404000038], [-70.55333888299992, 9.007460433000062], [-70.55503094999995, 9.008328446], [-70.55679902899988, 9.008621443000038], [-70.5586361089999, 9.008911436000119], [-70.56063219399994, 9.009082430000035], [-70.56225226699996, 9.009837441000116], [-70.56397233899992, 9.010865450000153]]]}}]}