{"type": "FeatureCollection", "features": [{"type": "Feature", "properties": {"Pais": "Venezuela", "Estado": "Falc\u00f3n", "Municipio": "Carirubana", "Parroquia": "Carirubana"}, "geometry": {"type": "Polygon", "coordinates": [[[-70.18042, 11.699447000000134], [-70.180368, 11.699493], [-70.180329, 11.69953], [-70.18027699999988, 11.699612000000116], [-70.18023199999988, 11.699688], [-70.18018, 11.699741000000131], [-70.18011399999989, 11.699791], [-70.17997699999984, 11.699915000000146], [-70.179847, 11.700047], [-70.179784, 11.700097], [-70.179739, 11.700137], [-70.179693, 11.700164000000143], [-70.179591, 11.700228], [-70.179434, 11.700325000000134], [-70.179299, 11.700429], [-70.179162, 11.700539000000106], [-70.177241, 11.701769], [-70.13937499999986, 11.71922400000011], [-70.120796, 11.746605000000102], [-70.181789, 11.71634], [-70.18825, 11.708221], [-70.199303, 11.69942], [-70.19930928999997, 11.700487435000184], [-70.19934499999988, 11.706547000000171], [-70.20525037599992, 11.706599640000093], [-70.20923651399994, 11.706635172000176], [-70.20945098799996, 11.70663708300009], [-70.209666, 11.706639000000166], [-70.20976261499999, 11.706639441999982], [-70.20976270599988, 11.70663772000006], [-70.20979619899998, 11.705891227000166], [-70.20980470299997, 11.705701699000144], [-70.20982370599995, 11.705593697999973], [-70.20986970499996, 11.705387689000077], [-70.20991970199998, 11.705196686000022], [-70.2099487079999, 11.70491867300018], [-70.20999170399983, 11.704662666000047], [-70.21000270099995, 11.704561666000018], [-70.21003370599993, 11.704413660000057], [-70.21012370699998, 11.704019652000113], [-70.21017370399994, 11.703816646], [-70.21021370799997, 11.703586643999984], [-70.21026470999993, 11.703445638000062], [-70.2103147069999, 11.703245625000136], [-70.21035070299996, 11.703048626000054], [-70.21037870499998, 11.702927618], [-70.21038770299998, 11.702838620000136], [-70.21042270599997, 11.702727616000175], [-70.21048270699987, 11.702588609000145], [-70.21052071299988, 11.702428600000133], [-70.21064671099992, 11.701981591000163], [-70.21080171599988, 11.701544585000079], [-70.21090372099997, 11.701258577000033], [-70.21097671899997, 11.701080570000158], [-70.21100972299996, 11.701027569000075], [-70.21111572599995, 11.700826562000088], [-70.21116072099994, 11.700770557000169], [-70.21121672699985, 11.70074656300011], [-70.21128873199996, 11.700696553000057], [-70.21135873899988, 11.700688559000127], [-70.21152773699998, 11.700741558000175], [-70.21168074799994, 11.700798555000176], [-70.21182375399997, 11.70083555600013], [-70.21191075399997, 11.70085655700018], [-70.21193375499985, 11.70085956000014], [-70.2119827599999, 11.700849556000037], [-70.21199976499997, 11.700829559000056], [-70.21204475999997, 11.700782553000067], [-70.21204376699995, 11.700736553000183], [-70.21203075799997, 11.700691546000087], [-70.21199976299988, 11.700646550000101], [-70.2119667579999, 11.700620546999971], [-70.21191975199991, 11.700604548000172], [-70.21183975199995, 11.700583546000018], [-70.21176374899989, 11.700571544000127], [-70.21168374999996, 11.70055255300008], [-70.21157774599988, 11.700522553000042], [-70.21150473499995, 11.700490543000058], [-70.21146773299984, 11.700458544000185], [-70.21145073899993, 11.700432552000166], [-70.21144373799996, 11.70040654800016], [-70.21144573599997, 11.70034753900012], [-70.21146972899999, 11.700196542000185], [-70.2115007349999, 11.700036533000173], [-70.21156073599997, 11.699871534000124], [-70.21165673399992, 11.699638528000037], [-70.21175873899995, 11.699391520000177], [-70.21186174899992, 11.699200517000122], [-70.21195874099993, 11.699035505000097], [-70.21199474899998, 11.698959504000129], [-70.2120237449999, 11.698916507000035], [-70.21204575199994, 11.698880499000097], [-70.21208174799983, 11.698846501000105], [-70.21215375299994, 11.698773502000051], [-70.21220574999995, 11.698714494000114], [-70.21225475399996, 11.698638492000043], [-70.21232875699991, 11.698545497000055], [-70.21241676199992, 11.698449487000119], [-70.21250476699993, 11.698359484000036], [-70.2125937649999, 11.69830548900012], [-70.21266276699993, 11.698288484000045], [-70.21275877799997, 11.69827048500008], [-70.2128307829999, 11.698233483000024], [-70.2128897799999, 11.69820348200011], [-70.21296878599986, 11.698143479], [-70.21301078999994, 11.698086469000089], [-70.21306678299999, 11.698056468], [-70.21312779099998, 11.69803846900004], [-70.2132567949999, 11.697962466999968], [-70.21333580099986, 11.697955466], [-70.21344880499998, 11.697938472000033], [-70.21353880899994, 11.69793546800014], [-70.21363180499992, 11.697908470000016], [-70.21370080599996, 11.697891465000168], [-70.21379080999992, 11.697829464000051], [-70.21394282499989, 11.69766146100011], [-70.21402282399993, 11.697601459000111], [-70.2141148259999, 11.697542450000128], [-70.21421183099994, 11.697512448000111], [-70.21432783899996, 11.697485450000045], [-70.21442684099998, 11.69744645000003], [-70.21460283999988, 11.697363447000157], [-70.21471585599988, 11.697327438000116], [-70.21480485399996, 11.697267435000015], [-70.21490426099996, 11.697216880000042], [-70.21492086199999, 11.697208438000018], [-70.21497085999994, 11.697201437000047], [-70.21505386299998, 11.697145432000127], [-70.21506386699991, 11.697151439000038], [-70.2150838639999, 11.697181440000122], [-70.21509386899999, 11.697184431999972], [-70.21510986899989, 11.697167438000179], [-70.21511986099995, 11.697138430999985], [-70.21512986499988, 11.69709243], [-70.21514586499995, 11.697082438000109], [-70.21519886599998, 11.697059437000064], [-70.21534187199984, 11.696996431000173], [-70.21548788099994, 11.696920429000102], [-70.21554388599992, 11.696903423000094], [-70.21560687999983, 11.696890427000085], [-70.2156368819999, 11.696893430000102], [-70.21564089099996, 11.696910423000134], [-70.21564089099996, 11.696923431000187], [-70.21566988699988, 11.696909430000176], [-70.21601190299992, 11.696738422000067], [-70.21610090099995, 11.696691415000146], [-70.21611090499994, 11.696668415000033], [-70.21611790599991, 11.696639419000121], [-70.21612390099995, 11.696623420000094], [-70.21613390599998, 11.696603411000126], [-70.2161509099999, 11.696583414000031], [-70.21616690999997, 11.696566409000127], [-70.21619390799998, 11.696547406000036], [-70.21623391299994, 11.696527409000055], [-70.21626290899991, 11.69650741200013], [-70.21627991399998, 11.696504408000067], [-70.21631591099998, 11.696464403], [-70.2163359079999, 11.69644840300009], [-70.21635291299998, 11.696438410999974], [-70.21636590899993, 11.696428407000042], [-70.2163829139999, 11.696418402], [-70.2163959099999, 11.696402403000036], [-70.21640591399995, 11.69638840100015], [-70.21642191399985, 11.696382406000055], [-70.21644191099989, 11.69637240100002], [-70.21645191499994, 11.696355408000159], [-70.21645491899983, 11.696323409000058], [-70.21646191899998, 11.696300409000116], [-70.21647191199997, 11.69629040400008], [-70.21648491999991, 11.696283404000042], [-70.21650491599996, 11.696270408000032], [-70.21652192099987, 11.696260403], [-70.2165279169999, 11.696234399000161], [-70.2165279159999, 11.696201395000116], [-70.2165279159999, 11.696171394000032], [-70.21653392399998, 11.696162395000101], [-70.21656092099988, 11.69614239800012], [-70.21657791399997, 11.696139394000056], [-70.21657692099996, 11.696113402000037], [-70.21658392099994, 11.696050397000022], [-70.21667592199998, 11.69592238700011], [-70.2167319269999, 11.695807386000126], [-70.21678192499996, 11.695771389000072], [-70.2168939359999, 11.695701383000142], [-70.2169539379999, 11.695672386000126], [-70.21708393499989, 11.695615376000035], [-70.2172589409999, 11.695542377000095], [-70.21738495299996, 11.695499379000125], [-70.21756095099994, 11.695443373000103], [-70.21763095799997, 11.695446376000064], [-70.21768095699991, 11.695475371999976], [-70.21774396299998, 11.695482372000015], [-70.21780396499997, 11.695458378000183], [-70.21787696399997, 11.695396365000136], [-70.21798597099996, 11.695376368000154], [-70.21818798599998, 11.695319369000117], [-70.21831499199988, 11.695305366000127], [-70.21843399099998, 11.695288361000053], [-70.21852699899995, 11.695281360000081], [-70.21872000299999, 11.695261362000053], [-70.21878600099996, 11.695264365000014], [-70.21882900999998, 11.695283356000061], [-70.2189720159999, 11.695312361999981], [-70.21908502099984, 11.695315353000183], [-70.21914502399983, 11.695328361000179], [-70.21921102199997, 11.695354364000082], [-70.21928802999992, 11.6953803560001], [-70.21940803599983, 11.69547536000016], [-70.21946404199991, 11.695536366000056], [-70.21947503999996, 11.695576359000086], [-70.21950504099993, 11.69559536200012], [-70.21956804699994, 11.69559536200012], [-70.21964104699993, 11.695644365000021], [-70.21975705499995, 11.695712360000073], [-70.2198340509999, 11.695758360000127], [-70.21988105799988, 11.695807364000075], [-70.21987405799985, 11.695882372000085], [-70.21989805199996, 11.69589236400003], [-70.21991105999996, 11.695840368000177], [-70.21995005999992, 11.695839363000175], [-70.22005006799992, 11.695855361999975], [-70.2200840669999, 11.695891369000037], [-70.22017707499987, 11.695920364000017], [-70.22028007499995, 11.69597636800006], [-70.22041608099994, 11.696051364000027], [-70.22070309899993, 11.696246373000122], [-70.22086309899998, 11.69637037200016], [-70.22112611199998, 11.69660537500016], [-70.22119912299996, 11.696680382000011], [-70.22136612399993, 11.696948389999989], [-70.22146012599995, 11.69709839300009], [-70.22146313099995, 11.697184387000107], [-70.22146712799992, 11.69727239100007], [-70.22146712899985, 11.697315399000104], [-70.22149113499995, 11.697367395000128], [-70.22151713999989, 11.697423400000048], [-70.22151413599994, 11.697482396000112], [-70.22152813799994, 11.697524400000077], [-70.2215451429999, 11.697560396000029], [-70.22157113599991, 11.697599407000155], [-70.22157514499997, 11.697652408000181], [-70.22158214699994, 11.69777040100007], [-70.22159913999991, 11.697819405000018], [-70.22161914999998, 11.697862414000156], [-70.22164314399993, 11.697970414], [-70.2216631419999, 11.698094414000138], [-70.22167014299993, 11.698130411000022], [-70.2216901519999, 11.69818941900013], [-70.2217041539999, 11.698287415000038], [-70.22173415599991, 11.698307423000074], [-70.22176415699982, 11.698333415000093], [-70.22179714999999, 11.698343419000082], [-70.22183715599982, 11.698346422000043], [-70.22187016099997, 11.69834941400012], [-70.22192316299999, 11.698355420999974], [-70.22213916799996, 11.698371419000068], [-70.22222217099988, 11.698364418000097], [-70.22232518299995, 11.698373416000152], [-70.22240118499997, 11.69837941100019], [-70.22246118799995, 11.69838241399998], [-70.22255819299988, 11.698389414000019], [-70.22262419099991, 11.698385417000168], [-70.22267719299998, 11.698368412000093], [-70.22271719799988, 11.698355415000151], [-70.22275319499994, 11.698335418], [-70.2228052029999, 11.698306411000033], [-70.22278919099989, 11.698211406000041], [-70.22279619099993, 11.6981884060001], [-70.22279619099993, 11.698161409000079], [-70.22278619799994, 11.698142405000112], [-70.22276919299992, 11.698125413000128], [-70.22272918699991, 11.69809041000019], [-70.22269918599983, 11.698070402000099], [-70.22268919299995, 11.698050405000174], [-70.22268219199992, 11.698027405], [-70.22267918799986, 11.698005410000064], [-70.22271818799999, 11.697909400000128], [-70.22280118999998, 11.69774240200013], [-70.22283019799994, 11.697676393000108], [-70.22284018899995, 11.697535388000063], [-70.2228431929999, 11.69750639199998], [-70.22285019299989, 11.697492390999969], [-70.22289319099997, 11.697492390999969], [-70.22299919499994, 11.697511393000127], [-70.22316220899995, 11.697491384000159], [-70.22320120899997, 11.697452384000144], [-70.22324420599989, 11.697389390000069], [-70.22331021599985, 11.697307381000144], [-70.2233702179999, 11.697231379000073], [-70.22340621399997, 11.69715638300005], [-70.2234162179999, 11.697113373999969], [-70.2234292139999, 11.697090374000027], [-70.22344220999992, 11.697070377000045], [-70.22346921999986, 11.69704437300004], [-70.22374221899997, 11.69641435400007], [-70.22374221799998, 11.696378357000185], [-70.22372922199997, 11.696361353000043], [-70.22373121899994, 11.696187355000177], [-70.22371521899987, 11.696128347000126], [-70.22369821299998, 11.696076351000045], [-70.22368121999989, 11.696050347000039], [-70.22364421799995, 11.696037352000133], [-70.22360820899996, 11.696034348000069], [-70.22357120699996, 11.696028340999987], [-70.22355120999998, 11.696011348000127], [-70.22349520399996, 11.695969345000094], [-70.22341820799988, 11.695930346000125], [-70.22333520499996, 11.695910350000077], [-70.22320219099998, 11.695878340000093], [-70.22316919799988, 11.69586234000002], [-70.22315219299992, 11.69584934400001], [-70.22313518799984, 11.695826344000068], [-70.22313219599994, 11.69580634800019], [-70.22314218799988, 11.695774348000043], [-70.22314819499985, 11.695741344000169], [-70.22313818999999, 11.695679344000155], [-70.22311819299995, 11.695656344000042], [-70.22309819599997, 11.695652335000148], [-70.22307818699994, 11.695636335000074], [-70.22308819199986, 11.695623339000065], [-70.22309418599991, 11.695515339], [-70.22310818699998, 11.695472330000086], [-70.22312418699988, 11.695449330000145], [-70.22312719099989, 11.695430338000165], [-70.22311018499988, 11.695394330000056], [-70.22309418499998, 11.695367333000036], [-70.22309418499998, 11.695321333000095], [-70.22312319199989, 11.695203328000048], [-70.22315618499988, 11.695131323000055], [-70.22317518699987, 11.695003326000176], [-70.22321519199988, 11.694898317000138], [-70.22326419699993, 11.694816319999973], [-70.22327119599998, 11.694704310000134], [-70.22330319499997, 11.69458331300018], [-70.22330019099991, 11.694491312000082], [-70.22327618499997, 11.694383300000027], [-70.22323518399992, 11.694197300000098], [-70.22321518699988, 11.694144299000072], [-70.22318918299993, 11.694135300000141], [-70.22316517699994, 11.694131303000063], [-70.22313218399995, 11.694154304000108], [-70.22310218199993, 11.694158301000186], [-70.22307918199994, 11.694155298], [-70.22295917599985, 11.69406630100002], [-70.22287916399995, 11.693972302000134], [-70.22286616799994, 11.693942302000153], [-70.22285616299985, 11.693906293999987], [-70.22286216999998, 11.693844293000097], [-70.22286216999998, 11.693798293000043], [-70.22284216099985, 11.69376929700013], [-70.22280916699987, 11.693769298000063], [-70.22279216199996, 11.69377229000014], [-70.22278516199992, 11.69375629000001], [-70.22279216199996, 11.693680289000042], [-70.22275215599996, 11.693618289000085], [-70.22275515899992, 11.693599285000118], [-70.22279516399993, 11.693556288000025], [-70.22282116899999, 11.693533288000083], [-70.22283816199996, 11.693523284000094], [-70.22284116499992, 11.693510288000084], [-70.2228141679999, 11.69350328700017], [-70.22279415899993, 11.69349428800001], [-70.22276116599988, 11.69347728400004], [-70.22273816499995, 11.693490280000049], [-70.22271815699997, 11.69353328900013], [-70.22265215899995, 11.693589294000049], [-70.22260914999993, 11.693655291000141], [-70.22254914799993, 11.693698288], [-70.22248014699989, 11.693800294000141], [-70.22245014599991, 11.693872299000134], [-70.2224241539999, 11.693908295000085], [-70.22239415299998, 11.693954296000072], [-70.22236814899998, 11.694056301000103], [-70.22232214899998, 11.694151306000037], [-70.22227614799982, 11.69425030800005], [-70.22224614699991, 11.69429231200013], [-70.22218314199995, 11.694381309000164], [-70.22215013699997, 11.694450310000093], [-70.22212713699992, 11.694542323000121], [-70.2221011449999, 11.694614316000127], [-70.22208113699992, 11.694641325000191], [-70.22203813899995, 11.694677322000018], [-70.22195913399997, 11.69470332600008], [-70.22183912899999, 11.694727320000084], [-70.22160012299992, 11.694725324000103], [-70.22132111199994, 11.69469633], [-70.22114810499994, 11.694651324], [-70.22104210099985, 11.694602332000045], [-70.22093208799998, 11.69455032500008], [-70.22086508399997, 11.694528331000072], [-70.22073308799997, 11.69447932800017], [-70.22057607999994, 11.694391325000083], [-70.22042306899988, 11.694290326000157], [-70.22022005999997, 11.694147324000085], [-70.22006004799994, 11.694013320000181], [-70.21997304699994, 11.6939513210001], [-70.2199500459999, 11.693932318], [-70.21993304099993, 11.693909318000067], [-70.21991003999989, 11.69387631300009], [-70.21988604599994, 11.69385631700004], [-70.21987004599987, 11.693843309000044], [-70.21983704099989, 11.693820309000102], [-70.21983003999992, 11.693804310000075], [-70.21980603399999, 11.693745313000079], [-70.21974303899992, 11.693686317000186], [-70.21964603399988, 11.693605313999967], [-70.21961002499995, 11.693576307000171], [-70.21956002599995, 11.693478311000035], [-70.21952302399984, 11.693432311000151], [-70.2194360229999, 11.693344308000064], [-70.21935301899998, 11.693246300000112], [-70.21926301499991, 11.693148303999976], [-70.21918600599992, 11.693086305000122], [-70.219146, 11.693017304000023], [-70.21909900499992, 11.692942297000116], [-70.21903900199993, 11.692844289000163], [-70.21893199199997, 11.692671285000074], [-70.21890899099992, 11.692612289000124], [-70.21889498899992, 11.692576293], [-70.2188389829999, 11.692520288000082], [-70.21880199299994, 11.69248128900017], [-70.21877798699984, 11.692442289000098], [-70.21875798899987, 11.692399281000121], [-70.21873498799994, 11.692308285000024], [-70.21870097699997, 11.692173276000176], [-70.21867397899985, 11.692068279000068], [-70.2186339719999, 11.691990279000038], [-70.21860997799996, 11.691885271000046], [-70.21857997599989, 11.69183927000006], [-70.21856696799995, 11.691777270000046], [-70.21856296999988, 11.691725263000137], [-70.21854297299984, 11.69165626199998], [-70.21854596399999, 11.691554269], [-70.21854596299983, 11.691463261000138], [-70.21852896999991, 11.69142726500013], [-70.21851496799991, 11.691348260000098], [-70.21851496699992, 11.691302260000043], [-70.21849496999994, 11.691236250999964], [-70.2184709629999, 11.691056246000073], [-70.21846696499995, 11.690916246000086], [-70.21846295499995, 11.690788249000036], [-70.21844896399995, 11.690607238999974], [-70.21846496199987, 11.690371229000164], [-70.21845395199995, 11.690234233000012], [-70.21847095599992, 11.690165232000084], [-70.21847395999998, 11.690142232000142], [-70.21847095599992, 11.690109228000097], [-70.21845995799998, 11.69006322700011], [-70.21845995799998, 11.690037223000047], [-70.21846395499995, 11.690001227000096], [-70.21847694999997, 11.689945222000176], [-70.2184719579999, 11.689716213000167], [-70.2184849539999, 11.689653220000025], [-70.2185049499999, 11.689562212000112], [-70.21852395299993, 11.689404202], [-70.21852695599995, 11.689332210000089], [-70.21852695499996, 11.689244206000069], [-70.21853294999988, 11.689158200000065], [-70.2185329489999, 11.689034200000151], [-70.21854894799998, 11.68878719200012], [-70.21857495099982, 11.688670193000121], [-70.2185779539999, 11.688529188000075], [-70.21858094499999, 11.688470179000092], [-70.21859694499994, 11.688427182000169], [-70.21860995199995, 11.688381182000114], [-70.21860995199995, 11.688348177000137], [-70.21859994699992, 11.688312181000185], [-70.21859994699992, 11.688289181000016], [-70.21859994699992, 11.688256176000039], [-70.21860295099992, 11.688230172000033], [-70.21862294699997, 11.688210176000155], [-70.21862895399994, 11.688164175000168], [-70.21864594699991, 11.68811517100005], [-70.21865595099996, 11.688086175000137], [-70.21865595099996, 11.688066167000045], [-70.21867195099992, 11.687981166000043], [-70.21871795099992, 11.687928165000187], [-70.21885395699991, 11.687977168000089], [-70.21912196799997, 11.687700158000041], [-70.21919196199997, 11.68760216100003], [-70.21919196099998, 11.687438219000171], [-70.21919195699996, 11.686785139000108], [-70.21905195299996, 11.686583128], [-70.21897094699989, 11.68642612400015], [-70.21896495099992, 11.686396123000065], [-70.21896394599986, 11.686373123000124], [-70.21900395099988, 11.68626512200018], [-70.21901395499998, 11.686190125999985], [-70.21898994899988, 11.686154118000047], [-70.21900294499989, 11.686085117000118], [-70.21899995199982, 11.686029111999972], [-70.21897594599994, 11.685986115000105], [-70.21896294999993, 11.6859371110001], [-70.21896594099991, 11.685904107000056], [-70.21895195099995, 11.685754115000066], [-70.21896494599991, 11.685600102000024], [-70.21895094299992, 11.685459096999978], [-70.21893393699986, 11.685354100000097], [-70.21890994299991, 11.685302092000086], [-70.21886394099994, 11.685240093000175], [-70.21879693799997, 11.685184100000072], [-70.21869692899998, 11.685109093000165], [-70.21864392699985, 11.685037089000048], [-70.21860092899993, 11.684978093000154], [-70.2185899189999, 11.68494609400011], [-70.21858291699994, 11.684824092000099], [-70.2185629199999, 11.684739080000043], [-70.21854591399989, 11.684661080000126], [-70.21854891699996, 11.684605087000023], [-70.21855591799994, 11.684562079000045], [-70.2185619249999, 11.684529074000068], [-70.21855191999998, 11.684490074], [-70.21852191899995, 11.684457082000108], [-70.21843891499992, 11.684346078000033], [-70.21832191199985, 11.684219075000044], [-70.21825890599996, 11.684154072000126], [-70.21824790799985, 11.684128068000064], [-70.21824189999995, 11.68410807100014], [-70.21824189999995, 11.68406907200017], [-70.21823790299999, 11.684046071000125], [-70.21822490599999, 11.684019074000105], [-70.21821090499998, 11.683990067000138], [-70.21821090499998, 11.683967067000026], [-70.21821090399999, 11.683941063000134], [-70.21821090399999, 11.683915071000115], [-70.21822789699996, 11.683892070000127], [-70.21822690399989, 11.683862070000089], [-70.21821090399999, 11.68384206100012], [-70.21818790299994, 11.683823058000087], [-70.21816789399998, 11.683823058000087], [-70.21814789699994, 11.683823058000087], [-70.21806089699999, 11.683788068000013], [-70.21801088699993, 11.683768060000148], [-70.21791488699984, 11.683696068000074], [-70.21787088399992, 11.68364706400007], [-70.21781788099997, 11.683579057000031], [-70.21776088099995, 11.683467060000112], [-70.21769087299992, 11.68328405200009], [-70.21761686799994, 11.68309404300004], [-70.21755986799997, 11.682950047000077], [-70.2174918579999, 11.682715043000144], [-70.21745886299993, 11.682508029000076], [-70.2174348559999, 11.682364033000056], [-70.2174208539999, 11.682187031000183], [-70.21741685499984, 11.681971018000127], [-70.21742284999988, 11.681856017000143], [-70.21739585099988, 11.681761013000084], [-70.21739084899997, 11.681692012000156], [-70.21738384799994, 11.681620008000039], [-70.21734284799993, 11.681519008000066], [-70.21729284799994, 11.681368011000075], [-70.21728284399995, 11.681309002999967], [-70.2171688329999, 11.681188007000117], [-70.21713283599996, 11.681185003000053], [-70.2171098359999, 11.681176005000168], [-70.21701282999999, 11.681061997000143], [-70.21694282199996, 11.68095], [-70.21690882299998, 11.680838996000091], [-70.21688582199994, 11.68071499600012], [-70.21688182399998, 11.680563986999971], [-70.21688081699989, 11.680386985999974], [-70.21688981499994, 11.68019697699998], [-70.21690881799998, 11.680061979000186], [-70.21690181699995, 11.680022967000184], [-70.21686881099998, 11.679976967000073], [-70.21686881099998, 11.679963971000063], [-70.21687181499993, 11.679946965999989], [-70.21688481099994, 11.679943974000082], [-70.21690181599996, 11.679943974000082], [-70.21690481999991, 11.67992097399997], [-70.21688781399996, 11.679887969], [-70.21679181399998, 11.679790967000145], [-70.21675180899996, 11.679787964000184], [-70.21670881099988, 11.679787964000184], [-70.2165987969999, 11.679637961000083], [-70.21656879599993, 11.679578964000086], [-70.21653179299994, 11.6795229600001], [-70.2165117959999, 11.679467960000181], [-70.2164977939999, 11.67942196000007], [-70.21649079299993, 11.679368959000044], [-70.21647779699992, 11.67930996300015], [-70.21641678799995, 11.679188955000086], [-70.21639079499994, 11.679179956000155], [-70.21638079099989, 11.679182959000116], [-70.21634078499989, 11.679202956000097], [-70.2162947839999, 11.679124957000113], [-70.21625477799995, 11.67910195700017], [-70.21620177599993, 11.679085957999973], [-70.21598476399998, 11.67886094700009], [-70.21583876599993, 11.678710944000045], [-70.21579875999998, 11.678697948000035], [-70.21575875399998, 11.678684941000142], [-70.21566275399994, 11.67861694600009], [-70.21552975199984, 11.678538947000106], [-70.21548974699988, 11.678521942000032], [-70.21545374999994, 11.678522948000136], [-70.21540674299996, 11.678522948000136], [-70.2153837429999, 11.67850994000014], [-70.21536374599998, 11.678493941000113], [-70.21533673599993, 11.678434945000049], [-70.2153297349999, 11.67837894000013], [-70.21531974199996, 11.678306936000183], [-70.2153257359999, 11.678136935000055], [-70.21531814699989, 11.67796796400006], [-70.21531774099998, 11.677958929000113], [-70.21529773099991, 11.677788928000155], [-70.21531273599999, 11.677637919000176], [-70.21531003999996, 11.677605546000052], [-70.215246, 11.677612], [-70.21510094199988, 11.677594138000188], [-70.214442, 11.677513], [-70.214458, 11.67724], [-70.214334, 11.676993], [-70.214168, 11.677058], [-70.21396799999985, 11.67702300000019], [-70.213938, 11.676852], [-70.213917, 11.676721], [-70.21388699999989, 11.67667200000011], [-70.21375399999988, 11.676561000000163], [-70.213661, 11.676473000000158], [-70.213611, 11.676382000000103], [-70.21357, 11.676264000000117], [-70.213537, 11.676172000000122], [-70.21350599999988, 11.675956], [-70.213466, 11.675874], [-70.21343499999989, 11.675756000000149], [-70.213424, 11.675752], [-70.213405, 11.675763], [-70.212987, 11.675276], [-70.21230199999985, 11.675484], [-70.211517, 11.676177000000166], [-70.211156, 11.676666000000125], [-70.21096099999983, 11.677115000000185], [-70.210462, 11.677408], [-70.20949820299995, 11.677524106000078], [-70.207125, 11.677810000000136], [-70.20615440999995, 11.677856501000122], [-70.205163, 11.677904], [-70.205025, 11.677921], [-70.204852, 11.677938], [-70.204746, 11.67796], [-70.20464, 11.677996], [-70.204551, 11.678041], [-70.204493, 11.678079], [-70.204447, 11.6781170000001], [-70.204402, 11.678163], [-70.204365, 11.678187], [-70.204291, 11.678215], [-70.204166, 11.678268000000173], [-70.204081, 11.678321], [-70.203995, 11.678373], [-70.203908, 11.678442000000189], [-70.20380899999986, 11.678519000000165], [-70.20375899999988, 11.678548], [-70.20367, 11.678574], [-70.203571, 11.678622000000132], [-70.20347, 11.67867], [-70.20342199999982, 11.678698], [-70.2033469999999, 11.678748], [-70.203241, 11.678825], [-70.20313, 11.678885], [-70.20301199999989, 11.678947], [-70.202849, 11.679052], [-70.202704, 11.679152000000101], [-70.202584, 11.679234000000179], [-70.202541, 11.679274], [-70.20246799999984, 11.679312], [-70.202372, 11.679363], [-70.202235, 11.67943], [-70.202153, 11.67947700000019], [-70.202088, 11.679523], [-70.2020179999999, 11.67957], [-70.201956, 11.679618000000119], [-70.201903, 11.679656], [-70.201703, 11.67979], [-70.20146, 11.679915], [-70.20134899999988, 11.679977000000179], [-70.201159, 11.680075000000102], [-70.20001, 11.680670000000134], [-70.199527, 11.681072], [-70.198774, 11.681455], [-70.19785699999989, 11.682071], [-70.197464, 11.682770000000176], [-70.197375, 11.682824], [-70.197214, 11.682876], [-70.197, 11.682951], [-70.19672999999989, 11.683037], [-70.196565, 11.68308500000012], [-70.196423, 11.68313000000012], [-70.196176, 11.683203000000105], [-70.19594199999989, 11.683285000000126], [-70.195791, 11.683330000000126], [-70.195669, 11.683364], [-70.1954879999999, 11.683436], [-70.195419, 11.683456], [-70.195369, 11.683483], [-70.19532, 11.683523], [-70.195255, 11.683567], [-70.195189, 11.683620000000133], [-70.195137, 11.683657], [-70.195048, 11.683708000000138], [-70.194966, 11.683745], [-70.19488, 11.683779000000186], [-70.194788, 11.683813000000157], [-70.194667, 11.683887], [-70.194624, 11.68391400000013], [-70.19455899999986, 11.683964], [-70.1945, 11.684037], [-70.194452, 11.684109], [-70.19442, 11.68416900000011], [-70.194368, 11.68427700000018], [-70.19430099999983, 11.684429000000137], [-70.194247, 11.684564], [-70.194193, 11.684718], [-70.19412, 11.684905], [-70.194035, 11.685041000000126], [-70.19388999999984, 11.685249000000113], [-70.193754, 11.685444], [-70.1936429999999, 11.685596], [-70.193569, 11.685689], [-70.19349, 11.685759], [-70.193405, 11.685812000000169], [-70.193346, 11.68584900000019], [-70.19326, 11.685877], [-70.193125, 11.685915000000136], [-70.192993, 11.685953], [-70.19292699999983, 11.68597700000015], [-70.192821, 11.685998], [-70.192672, 11.68601400000017], [-70.192593, 11.686012000000176], [-70.1922249999999, 11.685994000000107], [-70.192012, 11.68593900000019], [-70.19193199999984, 11.685908], [-70.191816, 11.685864], [-70.191676, 11.6858], [-70.191569, 11.68575600000014], [-70.191539, 11.68575], [-70.19145, 11.685735], [-70.19139999999987, 11.685723], [-70.19136, 11.685717000000125], [-70.19119099999989, 11.685694000000183], [-70.191078, 11.685679000000164], [-70.19102199999986, 11.685664], [-70.1909849999999, 11.685651000000178], [-70.190839, 11.685598], [-70.19068599999986, 11.685541000000114], [-70.190512, 11.685489], [-70.19046, 11.68548], [-70.189789, 11.685549], [-70.18907, 11.685747000000106], [-70.18815399999988, 11.686157], [-70.186991, 11.687277], [-70.186903, 11.687382], [-70.186841, 11.687452000000121], [-70.18671, 11.687555000000145], [-70.186619, 11.687613000000113], [-70.18652, 11.68767], [-70.18640199999987, 11.687750000000108], [-70.186278, 11.687863], [-70.186027, 11.688106], [-70.185783, 11.688374], [-70.1856, 11.688573000000133], [-70.1853559999999, 11.688819], [-70.185173, 11.688995], [-70.18506799999989, 11.689052000000174], [-70.184966, 11.689123], [-70.184851, 11.689203], [-70.184662, 11.689337000000137], [-70.184629, 11.689357], [-70.184491, 11.68945], [-70.18436, 11.689534], [-70.184052, 11.689752], [-70.183967, 11.689844000000164], [-70.183928, 11.68988400000012], [-70.183889, 11.68994], [-70.18385099999983, 11.69001], [-70.18380899999988, 11.690079], [-70.18376, 11.690126], [-70.183655, 11.690209000000152], [-70.183522, 11.690378000000123], [-70.183464, 11.690483], [-70.183416, 11.690625000000125], [-70.183386, 11.690779], [-70.183387, 11.690867], [-70.18340499999988, 11.690952], [-70.18335, 11.691273], [-70.18337, 11.691289], [-70.183387, 11.691308000000163], [-70.18341, 11.691341], [-70.183434, 11.691363], [-70.183458, 11.69142200000016], [-70.183499, 11.691490000000101], [-70.1835329999999, 11.691532], [-70.183583, 11.69158300000015], [-70.18360699999988, 11.691619000000117], [-70.183634, 11.691654], [-70.183657, 11.691690000000108], [-70.183698, 11.691761000000156], [-70.183746, 11.691858], [-70.183837, 11.691962000000103], [-70.183925, 11.692091000000119], [-70.183976, 11.692175000000134], [-70.1840299999999, 11.692256], [-70.184044, 11.692302000000154], [-70.1840739999999, 11.692347000000154], [-70.184136, 11.692467000000136], [-70.184203, 11.692557], [-70.18423, 11.692596000000151], [-70.184244, 11.692622000000142], [-70.18427099999985, 11.692657], [-70.184301, 11.692696], [-70.184325, 11.692735], [-70.184403, 11.692848], [-70.18443699999989, 11.692887], [-70.184457, 11.692929000000163], [-70.184468, 11.692981], [-70.18447799999984, 11.693024], [-70.184489, 11.693063], [-70.184496, 11.693118], [-70.184498, 11.69319], [-70.184509, 11.693311000000165], [-70.18451999999985, 11.693383], [-70.18452099999985, 11.693435], [-70.1845249999999, 11.693497], [-70.184559, 11.693729], [-70.1845689999999, 11.693764000000158], [-70.18457299999989, 11.69382000000013], [-70.184558, 11.693899000000101], [-70.184545, 11.693944000000101], [-70.184517, 11.69402], [-70.184491, 11.69408600000014], [-70.1844789999999, 11.694148], [-70.184446, 11.694178000000136], [-70.184398, 11.694284], [-70.18434, 11.694379], [-70.184255, 11.694462000000158], [-70.184204, 11.694564], [-70.18419099999988, 11.694604], [-70.184162, 11.694663000000105], [-70.18416, 11.694705], [-70.184177, 11.694777000000101], [-70.18419099999988, 11.694839000000115], [-70.18418499999984, 11.694875], [-70.184176, 11.694911], [-70.18414, 11.694961], [-70.184091, 11.694994000000122], [-70.18405799999988, 11.695037000000127], [-70.184055, 11.695050000000151], [-70.184036, 11.695083], [-70.1840299999999, 11.695116], [-70.184027, 11.695146], [-70.184017, 11.695172000000127], [-70.183995, 11.695208], [-70.183959, 11.695248], [-70.18393599999985, 11.695291], [-70.18392, 11.695327000000134], [-70.183914, 11.695367], [-70.183918, 11.695424000000173], [-70.183924, 11.69546000000014], [-70.183933, 11.695504], [-70.18394099999989, 11.695536], [-70.183954, 11.695565000000101], [-70.183998, 11.695614], [-70.183906, 11.695896000000175], [-70.183873, 11.695926000000156], [-70.183837, 11.695943000000113], [-70.18381699999986, 11.695943000000113], [-70.183791, 11.695944], [-70.183751, 11.69593500000019], [-70.18368699999985, 11.695897], [-70.183657, 11.69588], [-70.183614, 11.695871], [-70.18351799999988, 11.695873], [-70.183468, 11.695874000000117], [-70.183412, 11.69589400000018], [-70.183363, 11.695931], [-70.18331099999989, 11.695974], [-70.183256, 11.696037000000103], [-70.1832399999999, 11.696083000000158], [-70.183214, 11.696133], [-70.183172, 11.696189], [-70.183133, 11.696216000000163], [-70.18306699999988, 11.69623], [-70.18302099999988, 11.696250000000134], [-70.183008, 11.696273], [-70.183025, 11.696299000000124], [-70.183045, 11.6963310000001], [-70.183045, 11.69636400000013], [-70.18303, 11.696433000000184], [-70.18302099999988, 11.696522], [-70.182996, 11.696617000000117], [-70.182964, 11.696683], [-70.182919, 11.696752000000117], [-70.182831, 11.696848], [-70.18277599999988, 11.696941], [-70.182708, 11.69702], [-70.182603, 11.69711], [-70.18252199999989, 11.697193], [-70.182489, 11.697239], [-70.182404, 11.697326], [-70.182281, 11.697471], [-70.182203, 11.697574], [-70.18218399999984, 11.69764600000019], [-70.182182, 11.697751000000153], [-70.18217, 11.697826000000134], [-70.18214499999988, 11.697882000000163], [-70.181958, 11.698026], [-70.18188, 11.698099000000184], [-70.181794, 11.698153], [-70.181746, 11.698205], [-70.18168699999984, 11.698252], [-70.181631, 11.698273], [-70.181578, 11.698306], [-70.181565, 11.698329], [-70.18104, 11.698832], [-70.181004, 11.69888200000014], [-70.180936, 11.698951000000136], [-70.18081899999987, 11.69909100000018], [-70.180728, 11.699200000000133], [-70.180675, 11.699256000000162], [-70.180636, 11.699293], [-70.180623, 11.6993], [-70.180574, 11.699320000000114], [-70.180531, 11.699340000000177], [-70.18047899999988, 11.699397], [-70.18042, 11.699447000000134]]]}}, {"type": "Feature", "properties": {"Pais": "Venezuela", "Estado": "Falc\u00f3n", "Municipio": "Carirubana", "Parroquia": "Norte"}, "geometry": {"type": "Polygon", "coordinates": [[[-70.20976261499999, 11.706639441999982], [-70.209666, 11.706639000000166], [-70.20945098799996, 11.70663708300009], [-70.20923651399994, 11.706635172000176], [-70.20525037599992, 11.706599640000093], [-70.19934499999988, 11.706547000000171], [-70.19930928999997, 11.700487435000184], [-70.199303, 11.69942], [-70.18825, 11.708221], [-70.181789, 11.71634], [-70.120796, 11.746605000000102], [-70.171548, 11.73335], [-70.173269, 11.732761], [-70.17318, 11.732245000000148], [-70.176429, 11.7318], [-70.177993, 11.732955], [-70.178999, 11.732891000000109], [-70.179161, 11.732886], [-70.18047, 11.732924], [-70.180535, 11.732816000000128], [-70.1822, 11.73279], [-70.182198, 11.732181], [-70.18223399999988, 11.732055], [-70.18573626699992, 11.731875811000066], [-70.188078, 11.731756000000189], [-70.18790399999989, 11.73119], [-70.18923399999989, 11.730948000000126], [-70.189248, 11.73074000000014], [-70.19014499999986, 11.730355], [-70.19039, 11.730706000000168], [-70.19497499999989, 11.729625], [-70.19572275999997, 11.729448858000069], [-70.19856318399997, 11.728779769000027], [-70.19864245299993, 11.728761095999971], [-70.19932172199992, 11.72844205000007], [-70.19938412599993, 11.72841273900002], [-70.19941318999986, 11.72839908800006], [-70.20621349799995, 11.725205050000113], [-70.21198131199998, 11.723891588000129], [-70.21460823699988, 11.72372026700009], [-70.21692799999988, 11.724486000000127], [-70.217523, 11.724673000000166], [-70.217993, 11.724845000000187], [-70.21858799999984, 11.725062], [-70.2191, 11.72525300000018], [-70.21983199999983, 11.725466], [-70.220128, 11.725523000000123], [-70.220334, 11.725552], [-70.220457, 11.725561], [-70.22063, 11.725564000000134], [-70.220869, 11.725540000000137], [-70.221168, 11.725505], [-70.221493, 11.725455000000181], [-70.221712, 11.725405000000137], [-70.221988, 11.725341000000185], [-70.222077, 11.725308], [-70.22217699999987, 11.725271], [-70.222339, 11.725179], [-70.222415, 11.72511], [-70.222807, 11.725147000000106], [-70.222871, 11.725176], [-70.222947, 11.725179], [-70.223199, 11.725132], [-70.2233849999999, 11.725105], [-70.223478, 11.725082], [-70.22350099999989, 11.725072000000125], [-70.223528, 11.725052], [-70.223541, 11.724977], [-70.223556, 11.724547], [-70.22356106299998, 11.724281296000072], [-70.22356599799997, 11.724022331000015], [-70.223577, 11.72344500000014], [-70.22388599999988, 11.722624], [-70.22393837899995, 11.722640775000116], [-70.22384941599995, 11.722582048000163], [-70.22361840399992, 11.722357037000108], [-70.22354540399994, 11.722278033000123], [-70.22344839899989, 11.722148038000114], [-70.22340139199991, 11.72205303300018], [-70.22336838599995, 11.721945033000111], [-70.22335738799984, 11.721850029000052], [-70.22335038699998, 11.721807020000142], [-70.22333738999998, 11.721732024000175], [-70.22328638599998, 11.721640023000077], [-70.22321038299992, 11.721565016], [-70.22305737199997, 11.721540018000098], [-70.2228813729999, 11.721508020000101], [-70.22270735999996, 11.721436017000087], [-70.22263436099996, 11.721365017999972], [-70.22258735399998, 11.721312018000049], [-70.22254435599996, 11.72122701800015], [-70.2224663419999, 11.720978012000103], [-70.22243334799992, 11.7208830080001], [-70.2223493379999, 11.720625004000055], [-70.22231133999998, 11.720372995000048], [-70.22229332799998, 11.720073992000096], [-70.22225632499993, 11.71991698800008], [-70.22221432999993, 11.71959297400008], [-70.22213832299997, 11.718927955000083], [-70.22211131199992, 11.718710948000137], [-70.22210031299994, 11.718514944000106], [-70.22171926499993, 11.714359838000178], [-70.22163026299995, 11.713886826000135], [-70.22141224799992, 11.713930830000038], [-70.22117324599998, 11.714340839000101], [-70.22069421899994, 11.714429851000034], [-70.22014819899988, 11.714259855000023], [-70.21964418199991, 11.713874838000038], [-70.21920515599999, 11.713294833000077], [-70.21892414899992, 11.71370484199997], [-70.21890515099994, 11.714458860000036], [-70.21849714799987, 11.716139914000053], [-70.21856415399998, 11.716483924000102], [-70.21830514499999, 11.717109934000177], [-70.21819813899998, 11.717562951000104], [-70.21769711799993, 11.71784496400005], [-70.2174361189999, 11.718017970000176], [-70.21719409699995, 11.71787496900015], [-70.21714809599996, 11.717930962000082], [-70.2170880939999, 11.717989971000065], [-70.21703210099997, 11.718061975000182], [-70.21697909899996, 11.718101969000088], [-70.21694309099996, 11.718134974000066], [-70.21686609499983, 11.718170970000017], [-70.21678408599996, 11.718210975999966], [-70.2167210799999, 11.718250980999983], [-70.21666807799994, 11.718312982000043], [-70.2165750829999, 11.718414988000177], [-70.21644607899998, 11.718484983000167], [-70.21635307199995, 11.718507984000041], [-70.21631707499995, 11.718491984000138], [-70.2162530629999, 11.718478989000062], [-70.21619006899994, 11.718459986000141], [-70.21618706499987, 11.718491985000071], [-70.21619006899994, 11.718524990000049], [-70.21618406199997, 11.71856098600017], [-70.21616406599992, 11.718593990000045], [-70.21613806099998, 11.71861699100009], [-70.21607805899998, 11.718632991000163], [-70.21606506299997, 11.718633996000165], [-70.21603106399994, 11.718616992000022], [-70.21599505599988, 11.718617996999967], [-70.21592506099995, 11.718627990000186], [-70.21585204999997, 11.718637995000051], [-70.21577604799995, 11.71862899600012], [-70.21567204199988, 11.718602993000161], [-70.21552903599996, 11.718573998000181], [-70.21538703499994, 11.71852499500011], [-70.21529002999989, 11.718459991999964], [-70.21519702199993, 11.71839799300011], [-70.21511002099993, 11.71835299800017], [-70.2150400139999, 11.718300991000035], [-70.21501001199982, 11.718241994000039], [-70.21497000599999, 11.718159986000046], [-70.21493300399993, 11.718140983000126], [-70.21491300699995, 11.71813099100001], [-70.21490001099994, 11.71813099100001], [-70.21488300599998, 11.71813099100001], [-70.21486300899983, 11.71813099100001], [-70.21484299999986, 11.718120987000077], [-70.21481299799996, 11.71807198300013], [-70.21480000199995, 11.71805898700012], [-70.21477000099986, 11.718049988000132], [-70.21473299899998, 11.718039985000132], [-70.21469599599993, 11.717987989000108], [-70.21463998999985, 11.717944981000073], [-70.21459999599989, 11.717905981000058], [-70.21459299499998, 11.717863989000136], [-70.21455899599988, 11.717774980000115], [-70.21449899299989, 11.717735981000033], [-70.21444898299995, 11.717709977000027], [-70.21435298299997, 11.717660974000125], [-70.21428997699991, 11.717628975000025], [-70.21417997499998, 11.717514980000146], [-70.21407296599983, 11.717465977000074], [-70.21401596699991, 11.71740397700006], [-70.21392995899998, 11.717348978000075], [-70.21369995199996, 11.717181971], [-70.21340294099997, 11.716894960000161], [-70.21322293199995, 11.716731961999983], [-70.21314192699998, 11.716659958000093], [-70.21292891199994, 11.716452957000115], [-70.21284891199997, 11.716341954000029], [-70.21278790299982, 11.716223949000153], [-70.21270489999995, 11.716122950000056], [-70.21260189899988, 11.716020945000025], [-70.2124648869999, 11.715850945], [-70.21225187299996, 11.715595946000121], [-70.21215887599982, 11.715474938000057], [-70.21211886999998, 11.71541893400007], [-70.21208886799997, 11.715379934000055], [-70.21208487099989, 11.715326933000028], [-70.21203086299988, 11.71521293700016], [-70.21198186999999, 11.715193934000126], [-70.21195485999988, 11.715156933000173], [-70.21183186199994, 11.71494092100005], [-70.21175785599996, 11.714767917000131], [-70.21168084799996, 11.714629916000149], [-70.2116308489999, 11.714560916000153], [-70.21158783899989, 11.714498916000139], [-70.21155783699999, 11.714446920000114], [-70.21153384299998, 11.714361908000171], [-70.21151383299991, 11.714184907], [-70.21149683899995, 11.714046906000078], [-70.21143582899992, 11.71383690099998], [-70.21137582599994, 11.713731892000112], [-70.2112528159999, 11.713535888000024], [-70.21116981199998, 11.713394896000125], [-70.21111281199995, 11.71326089200005], [-70.21097880299999, 11.712997886000096], [-70.21089280699994, 11.712824882], [-70.21076878999997, 11.712470869000128], [-70.21048676999993, 11.711687846000075], [-70.21028276399994, 11.71105483800011], [-70.21021475299989, 11.710795828000187], [-70.21007074999989, 11.710212818000059], [-70.21002974899994, 11.709982804000049], [-70.20998974199995, 11.709749798000132], [-70.2099357329999, 11.709490801000129], [-70.20985173199995, 11.70880978100007], [-70.20983872199997, 11.708607769000082], [-70.20980972499996, 11.708431774000132], [-70.20979572099998, 11.708153760000073], [-70.20979271599998, 11.707934756000043], [-70.20975171399994, 11.707454743000028], [-70.20974571699998, 11.707229743000084], [-70.20974870699996, 11.70699072900004], [-70.20975201699997, 11.70683960200006], [-70.20976261499999, 11.706639441999982]]]}}, {"type": "Feature", "properties": {"Pais": "Venezuela", "Estado": "Falc\u00f3n", "Municipio": "Carirubana", "Parroquia": "Punta Card\u00f3n"}, "geometry": {"type": "Polygon", "coordinates": [[[-70.029011, 11.792704000000128], [-70.120796, 11.746605000000102], [-70.13937499999986, 11.71922400000011], [-70.177241, 11.701769], [-70.179162, 11.700539000000106], [-70.179299, 11.700429], [-70.179434, 11.700325000000134], [-70.179591, 11.700228], [-70.179693, 11.700164000000143], [-70.179739, 11.700137], [-70.179784, 11.700097], [-70.179847, 11.700047], [-70.17997699999984, 11.699915000000146], [-70.18011399999989, 11.699791], [-70.18018, 11.699741000000131], [-70.18023199999988, 11.699688], [-70.18027699999988, 11.699612000000116], [-70.180329, 11.69953], [-70.180368, 11.699493], [-70.18042, 11.699447000000134], [-70.18047899999988, 11.699397], [-70.180531, 11.699340000000177], [-70.180574, 11.699320000000114], [-70.180623, 11.6993], [-70.180636, 11.699293], [-70.180675, 11.699256000000162], [-70.180728, 11.699200000000133], [-70.18081899999987, 11.69909100000018], [-70.180936, 11.698951000000136], [-70.181004, 11.69888200000014], [-70.18104, 11.698832], [-70.181565, 11.698329], [-70.181578, 11.698306], [-70.181631, 11.698273], [-70.18168699999984, 11.698252], [-70.181746, 11.698205], [-70.181794, 11.698153], [-70.18188, 11.698099000000184], [-70.181958, 11.698026], [-70.18214499999988, 11.697882000000163], [-70.18217, 11.697826000000134], [-70.182182, 11.697751000000153], [-70.18218399999984, 11.69764600000019], [-70.182203, 11.697574], [-70.182281, 11.697471], [-70.182404, 11.697326], [-70.182489, 11.697239], [-70.18252199999989, 11.697193], [-70.182603, 11.69711], [-70.182708, 11.69702], [-70.18277599999988, 11.696941], [-70.182831, 11.696848], [-70.182919, 11.696752000000117], [-70.182964, 11.696683], [-70.182996, 11.696617000000117], [-70.18302099999988, 11.696522], [-70.18303, 11.696433000000184], [-70.183045, 11.69636400000013], [-70.183045, 11.6963310000001], [-70.183025, 11.696299000000124], [-70.183008, 11.696273], [-70.18302099999988, 11.696250000000134], [-70.18306699999988, 11.69623], [-70.183133, 11.696216000000163], [-70.183172, 11.696189], [-70.183214, 11.696133], [-70.1832399999999, 11.696083000000158], [-70.183256, 11.696037000000103], [-70.18331099999989, 11.695974], [-70.183363, 11.695931], [-70.183412, 11.69589400000018], [-70.183468, 11.695874000000117], [-70.18351799999988, 11.695873], [-70.183614, 11.695871], [-70.183657, 11.69588], [-70.18368699999985, 11.695897], [-70.183751, 11.69593500000019], [-70.183791, 11.695944], [-70.18381699999986, 11.695943000000113], [-70.183837, 11.695943000000113], [-70.183873, 11.695926000000156], [-70.183906, 11.695896000000175], [-70.183998, 11.695614], [-70.183954, 11.695565000000101], [-70.18394099999989, 11.695536], [-70.183933, 11.695504], [-70.183924, 11.69546000000014], [-70.183918, 11.695424000000173], [-70.183914, 11.695367], [-70.18392, 11.695327000000134], [-70.18393599999985, 11.695291], [-70.183959, 11.695248], [-70.183995, 11.695208], [-70.184017, 11.695172000000127], [-70.184027, 11.695146], [-70.1840299999999, 11.695116], [-70.184036, 11.695083], [-70.184055, 11.695050000000151], [-70.18405799999988, 11.695037000000127], [-70.184091, 11.694994000000122], [-70.18414, 11.694961], [-70.184176, 11.694911], [-70.18418499999984, 11.694875], [-70.18419099999988, 11.694839000000115], [-70.184177, 11.694777000000101], [-70.18416, 11.694705], [-70.184162, 11.694663000000105], [-70.18419099999988, 11.694604], [-70.184204, 11.694564], [-70.184255, 11.694462000000158], [-70.18434, 11.694379], [-70.184398, 11.694284], [-70.184446, 11.694178000000136], [-70.1844789999999, 11.694148], [-70.184491, 11.69408600000014], [-70.184517, 11.69402], [-70.184545, 11.693944000000101], [-70.184558, 11.693899000000101], [-70.18457299999989, 11.69382000000013], [-70.1845689999999, 11.693764000000158], [-70.184559, 11.693729], [-70.1845249999999, 11.693497], [-70.18452099999985, 11.693435], [-70.18451999999985, 11.693383], [-70.184509, 11.693311000000165], [-70.184498, 11.69319], [-70.184496, 11.693118], [-70.184489, 11.693063], [-70.18447799999984, 11.693024], [-70.184468, 11.692981], [-70.184457, 11.692929000000163], [-70.18443699999989, 11.692887], [-70.184403, 11.692848], [-70.184325, 11.692735], [-70.184301, 11.692696], [-70.18427099999985, 11.692657], [-70.184244, 11.692622000000142], [-70.18423, 11.692596000000151], [-70.184203, 11.692557], [-70.184136, 11.692467000000136], [-70.1840739999999, 11.692347000000154], [-70.184044, 11.692302000000154], [-70.1840299999999, 11.692256], [-70.183976, 11.692175000000134], [-70.183925, 11.692091000000119], [-70.183837, 11.691962000000103], [-70.183746, 11.691858], [-70.183698, 11.691761000000156], [-70.183657, 11.691690000000108], [-70.183634, 11.691654], [-70.18360699999988, 11.691619000000117], [-70.183583, 11.69158300000015], [-70.1835329999999, 11.691532], [-70.183499, 11.691490000000101], [-70.183458, 11.69142200000016], [-70.183434, 11.691363], [-70.18341, 11.691341], [-70.183387, 11.691308000000163], [-70.18337, 11.691289], [-70.18335, 11.691273], [-70.18340499999988, 11.690952], [-70.183387, 11.690867], [-70.183386, 11.690779], [-70.183416, 11.690625000000125], [-70.183464, 11.690483], [-70.183522, 11.690378000000123], [-70.183655, 11.690209000000152], [-70.18376, 11.690126], [-70.18380899999988, 11.690079], [-70.18385099999983, 11.69001], [-70.183889, 11.68994], [-70.183928, 11.68988400000012], [-70.183967, 11.689844000000164], [-70.184052, 11.689752], [-70.18436, 11.689534], [-70.184491, 11.68945], [-70.184629, 11.689357], [-70.184662, 11.689337000000137], [-70.184851, 11.689203], [-70.184966, 11.689123], [-70.18506799999989, 11.689052000000174], [-70.185173, 11.688995], [-70.1853559999999, 11.688819], [-70.1856, 11.688573000000133], [-70.185783, 11.688374], [-70.186027, 11.688106], [-70.186278, 11.687863], [-70.18640199999987, 11.687750000000108], [-70.18652, 11.68767], [-70.186619, 11.687613000000113], [-70.18671, 11.687555000000145], [-70.186841, 11.687452000000121], [-70.186903, 11.687382], [-70.186991, 11.687277], [-70.18815399999988, 11.686157], [-70.18907, 11.685747000000106], [-70.189789, 11.685549], [-70.19046, 11.68548], [-70.190512, 11.685489], [-70.19068599999986, 11.685541000000114], [-70.190839, 11.685598], [-70.1909849999999, 11.685651000000178], [-70.19102199999986, 11.685664], [-70.191078, 11.685679000000164], [-70.19119099999989, 11.685694000000183], [-70.19136, 11.685717000000125], [-70.19139999999987, 11.685723], [-70.19145, 11.685735], [-70.191539, 11.68575], [-70.191569, 11.68575600000014], [-70.191676, 11.6858], [-70.191816, 11.685864], [-70.19193199999984, 11.685908], [-70.192012, 11.68593900000019], [-70.1922249999999, 11.685994000000107], [-70.192593, 11.686012000000176], [-70.192672, 11.68601400000017], [-70.192821, 11.685998], [-70.19292699999983, 11.68597700000015], [-70.192993, 11.685953], [-70.193125, 11.685915000000136], [-70.19326, 11.685877], [-70.193346, 11.68584900000019], [-70.193405, 11.685812000000169], [-70.19349, 11.685759], [-70.193569, 11.685689], [-70.1936429999999, 11.685596], [-70.193754, 11.685444], [-70.19388999999984, 11.685249000000113], [-70.194035, 11.685041000000126], [-70.19412, 11.684905], [-70.194193, 11.684718], [-70.194247, 11.684564], [-70.19430099999983, 11.684429000000137], [-70.194368, 11.68427700000018], [-70.19442, 11.68416900000011], [-70.194452, 11.684109], [-70.1945, 11.684037], [-70.19455899999986, 11.683964], [-70.194624, 11.68391400000013], [-70.194667, 11.683887], [-70.194788, 11.683813000000157], [-70.19488, 11.683779000000186], [-70.194966, 11.683745], [-70.195048, 11.683708000000138], [-70.195137, 11.683657], [-70.195189, 11.683620000000133], [-70.195255, 11.683567], [-70.19532, 11.683523], [-70.195369, 11.683483], [-70.195419, 11.683456], [-70.1954879999999, 11.683436], [-70.195669, 11.683364], [-70.195791, 11.683330000000126], [-70.19594199999989, 11.683285000000126], [-70.196176, 11.683203000000105], [-70.196423, 11.68313000000012], [-70.196565, 11.68308500000012], [-70.19672999999989, 11.683037], [-70.197, 11.682951], [-70.197214, 11.682876], [-70.197375, 11.682824], [-70.197464, 11.682770000000176], [-70.19785699999989, 11.682071], [-70.198774, 11.681455], [-70.199527, 11.681072], [-70.20001, 11.680670000000134], [-70.201159, 11.680075000000102], [-70.20134899999988, 11.679977000000179], [-70.20146, 11.679915], [-70.201703, 11.67979], [-70.201903, 11.679656], [-70.201956, 11.679618000000119], [-70.2020179999999, 11.67957], [-70.202088, 11.679523], [-70.202153, 11.67947700000019], [-70.202235, 11.67943], [-70.202372, 11.679363], [-70.20246799999984, 11.679312], [-70.202541, 11.679274], [-70.202584, 11.679234000000179], [-70.202704, 11.679152000000101], [-70.202849, 11.679052], [-70.20301199999989, 11.678947], [-70.20313, 11.678885], [-70.203241, 11.678825], [-70.2033469999999, 11.678748], [-70.20342199999982, 11.678698], [-70.20347, 11.67867], [-70.203571, 11.678622000000132], [-70.20367, 11.678574], [-70.20375899999988, 11.678548], [-70.20380899999986, 11.678519000000165], [-70.203908, 11.678442000000189], [-70.203995, 11.678373], [-70.204081, 11.678321], [-70.204166, 11.678268000000173], [-70.204291, 11.678215], [-70.204365, 11.678187], [-70.204402, 11.678163], [-70.204447, 11.6781170000001], [-70.204493, 11.678079], [-70.204551, 11.678041], [-70.20464, 11.677996], [-70.204746, 11.67796], [-70.204852, 11.677938], [-70.205025, 11.677921], [-70.205163, 11.677904], [-70.20615440999995, 11.677856501000122], [-70.207125, 11.677810000000136], [-70.20949820299995, 11.677524106000078], [-70.210462, 11.677408], [-70.21096099999983, 11.677115000000185], [-70.211156, 11.676666000000125], [-70.211517, 11.676177000000166], [-70.21230199999985, 11.675484], [-70.212987, 11.675276], [-70.213405, 11.675763], [-70.213424, 11.675752], [-70.21343499999989, 11.675756000000149], [-70.213466, 11.675874], [-70.21350599999988, 11.675956], [-70.213537, 11.676172000000122], [-70.21357, 11.676264000000117], [-70.213611, 11.676382000000103], [-70.213661, 11.676473000000158], [-70.21375399999988, 11.676561000000163], [-70.21388699999989, 11.67667200000011], [-70.213917, 11.676721], [-70.213938, 11.676852], [-70.21396799999985, 11.67702300000019], [-70.214168, 11.677058], [-70.214334, 11.676993], [-70.214458, 11.67724], [-70.214442, 11.677513], [-70.21510094199988, 11.677594138000188], [-70.215246, 11.677612], [-70.21531003999996, 11.677605546000052], [-70.21522871999997, 11.676628901000186], [-70.21524871699995, 11.67663189200016], [-70.21527172999998, 11.676614899000072], [-70.21529472999993, 11.67659189900013], [-70.21532372599995, 11.676522886000043], [-70.21532372499985, 11.676427893000039], [-70.21530272199988, 11.676293888999965], [-70.21525272199983, 11.676096880000102], [-70.21518771599995, 11.675867871000094], [-70.21512071199999, 11.675714876000143], [-70.21495369799987, 11.675390863000075], [-70.21482969399989, 11.675151863000167], [-70.2147566939999, 11.674981851000155], [-70.21466568299991, 11.674742849999973], [-70.21463267699994, 11.674651842000117], [-70.21462167899995, 11.674562845000139], [-70.21460767699995, 11.67446184500011], [-70.21457367699998, 11.674254843000028], [-70.21454268099995, 11.67405882700018], [-70.21448867199996, 11.673770822000051], [-70.21444767199984, 11.673603825000157], [-70.2143936629999, 11.673426812000173], [-70.21430965299987, 11.673164811000106], [-70.21424964899995, 11.672971811000082], [-70.21420164799997, 11.672735802000034], [-70.21420164699998, 11.672634802], [-70.2141706509999, 11.672450788000049], [-70.21413663999994, 11.672276791000172], [-70.21412864399997, 11.672113778999972], [-70.21415366099995, 11.671619562000046], [-70.21415481099996, 11.671596835], [-70.21418063399994, 11.671086762000186], [-70.21419663299991, 11.67100174899997], [-70.21421563599989, 11.670958752000047], [-70.21426863799996, 11.670889751000118], [-70.21439064099991, 11.670806749], [-70.21447965099998, 11.670747752000011], [-70.21454265699998, 11.67069774200013], [-70.21456864899989, 11.670648738000182], [-70.21461165799997, 11.670602737000024], [-70.21463165499995, 11.670585744000107], [-70.21466465999993, 11.670575739000071], [-70.21474066199994, 11.670568738000156], [-70.21476765999995, 11.67057174200005], [-70.2148166639999, 11.670519733000049], [-70.21476965799991, 11.67050974100016], [-70.21475365799995, 11.670499737], [-70.21475365799995, 11.670463741000049], [-70.21475965299999, 11.670437737000043], [-70.21477966099997, 11.67040773600013], [-70.21480966299993, 11.670384736000187], [-70.21488465999994, 11.670344730000068], [-70.21496467099996, 11.670292734000043], [-70.21502366799996, 11.670236729000123], [-70.21515867899996, 11.670163730000183], [-70.21528768299999, 11.67010372700014], [-70.21531768399996, 11.67010372700014], [-70.21533467699993, 11.670106718999989], [-70.21533467699993, 11.670116723000149], [-70.21532067599986, 11.670129719000158], [-70.21529167999995, 11.670152719999976], [-70.21509967099996, 11.670294731000126], [-70.21489866199994, 11.670446735000098], [-70.21489866199994, 11.670459731000108], [-70.21490566299997, 11.670459731000108], [-70.21492565899996, 11.670459731000108], [-70.21517567299992, 11.670274734000145], [-70.21544368499991, 11.670079721000093], [-70.21550568499998, 11.670039715000144], [-70.21557868399998, 11.670013723000125], [-70.21570469599999, 11.669969720000154], [-70.21576070199995, 11.669953720000024], [-70.21582970299994, 11.669913714000131], [-70.21598170699991, 11.66967970200011], [-70.21597770899996, 11.66965070700013], [-70.21595069999995, 11.669624703000068], [-70.21590770199992, 11.66961870800003], [-70.21582469899988, 11.66960571200002], [-70.21581169099989, 11.66960571200002], [-70.2157916939999, 11.669605713000124], [-70.21575868899993, 11.669605713000124], [-70.21573869199989, 11.669609710000032], [-70.21572269199999, 11.669615706000172], [-70.21569969199993, 11.669625710000105], [-70.21568669499993, 11.66963271100002], [-70.21566668699995, 11.66963271100002], [-70.21564368599985, 11.669629707000126], [-70.21561368499994, 11.669629707000126], [-70.21559669199996, 11.669629708000059], [-70.21558368399997, 11.669642704000069], [-70.21556768399995, 11.669655712000065], [-70.21554068599994, 11.66965670500008], [-70.21554068599994, 11.669633705000138], [-70.21554068599994, 11.669613708000156], [-70.21554068599994, 11.669597709000186], [-70.21552368099998, 11.669584713000177], [-70.2155036829999, 11.669561713], [-70.21549367899996, 11.669508711999981], [-70.21548368599991, 11.669476701000121], [-70.21545667599992, 11.669450709000103], [-70.21543367599998, 11.66942470500004], [-70.21539967699982, 11.669388709000089], [-70.21538967199996, 11.669355705000044], [-70.21537967999996, 11.669316705000028], [-70.21537267899998, 11.66928370000005], [-70.21536967399999, 11.669227696], [-70.21535266899991, 11.66916569600005], [-70.21530167599997, 11.668995695000092], [-70.21519066799993, 11.668658687000118], [-70.21508665999994, 11.668291677000127], [-70.21504265599992, 11.668144677000043], [-70.21501265399996, 11.668085669000106], [-70.21501564599993, 11.668052676000116], [-70.21501864999993, 11.668029676], [-70.21501864899983, 11.668009667000035], [-70.21501564599993, 11.667990676000159], [-70.21499865199996, 11.667977668000162], [-70.21499865199996, 11.66795466800005], [-70.21501164799997, 11.667934671000069], [-70.21501164799997, 11.667921663000072], [-70.21499865199996, 11.667901666999967], [-70.21499165099988, 11.667888671000185], [-70.21498164599996, 11.667869668000094], [-70.21496864999995, 11.667846667000049], [-70.21496164899997, 11.667790663000062], [-70.21495464799995, 11.667764659], [-70.21491164999992, 11.667715667000039], [-70.21490164599999, 11.667699666999965], [-70.21489764899985, 11.667682663000164], [-70.21489764799992, 11.667640659000085], [-70.21489764799992, 11.667607667000027], [-70.21487963599998, 11.667413661000126], [-70.21488364499993, 11.66737466100011], [-70.21490963699995, 11.667289648000065], [-70.21496864499994, 11.667174647000081], [-70.21511964399991, 11.667002646000128], [-70.21527165999998, 11.666874635999989], [-70.21548865599988, 11.666695635000053], [-70.21571966599998, 11.666517627000076], [-70.21611968499997, 11.666229619000035], [-70.21631369399995, 11.666107616000147], [-70.21646569799992, 11.665992613000128], [-70.21661770199995, 11.665902610000046], [-70.21672971299989, 11.665826596000159], [-70.21690471699992, 11.665658592000113], [-70.21708972599993, 11.665496584000039], [-70.21723372399998, 11.665332590000162], [-70.21741473499992, 11.66513757700011], [-70.21761973999992, 11.66489357200004], [-70.21783374499995, 11.664653564000105], [-70.2180307559999, 11.664429556000016], [-70.21820275699991, 11.664270552], [-70.21840376599994, 11.664135541000121], [-70.2185027679999, 11.664079547000142], [-70.21865777699992, 11.664006537000091], [-70.21883978299996, 11.66395954100011], [-70.21889978499996, 11.663939533000075], [-70.2189357819999, 11.66391653200003], [-70.21897578699986, 11.66390253100002], [-70.21904178499989, 11.663889534000134], [-70.21912079099997, 11.66385953300005], [-70.21918680099998, 11.663845531000106], [-70.21925979999997, 11.663858527000116], [-70.21928679799993, 11.663881527000058], [-70.21929980599992, 11.66390753100012], [-70.21932379999998, 11.663940535000165], [-70.21935280799988, 11.663956533999965], [-70.21937980599989, 11.663969529999974], [-70.21943880299989, 11.663952537000114], [-70.21948580899993, 11.663935532000039], [-70.21950880999998, 11.663935531000106], [-70.21953881199988, 11.66396553200019], [-70.21957480899994, 11.663997531000064], [-70.21960480999996, 11.664010539000117], [-70.21965181599984, 11.663987538000072], [-70.21971782599996, 11.6639805370001], [-70.21977082799998, 11.663976528000035], [-70.21981682899997, 11.663966534999986], [-70.21989582299994, 11.66393353], [-70.21996582999998, 11.663906532999988], [-70.22000882699996, 11.663903529000095], [-70.22004883299991, 11.663900525000031], [-70.22010483899993, 11.663929532000054], [-70.22012483599997, 11.66396853200007], [-70.22011884099993, 11.663991532000011], [-70.22011483199998, 11.664007531000038], [-70.22013883799997, 11.66401453200018], [-70.22016484199992, 11.66400452800002], [-70.22018183499989, 11.664000530000067], [-70.22020783999994, 11.664000530000067], [-70.22022783599988, 11.664000530000067], [-70.22028083799984, 11.663974526000061], [-70.22033684399992, 11.663960524000117], [-70.22037285199997, 11.663960524000117], [-70.22041284599999, 11.663976523000144], [-70.22042585399993, 11.663960524000117], [-70.22046584799995, 11.663920530000041], [-70.22050185599983, 11.663897530000042], [-70.22051184799994, 11.663861522000104], [-70.2205178559999, 11.663835518000099], [-70.22056085299982, 11.66378251600014], [-70.22062385899989, 11.663729515000114], [-70.22074586199994, 11.663679517000048], [-70.22079186299993, 11.663623512000129], [-70.22080886799989, 11.663597519], [-70.22086486099994, 11.663600511000084], [-70.22088486999996, 11.663590518000092], [-70.22092086699996, 11.663560517000178], [-70.22103687399994, 11.663478508000026], [-70.22108287499992, 11.663402506000125], [-70.22115087099996, 11.66326750800016], [-70.22120987899996, 11.663152495000134], [-70.22122687199993, 11.663106493999976], [-70.22119686999997, 11.663024497000038], [-70.22117587899999, 11.66297549300009], [-70.22116587499988, 11.662919489000046], [-70.22117887099989, 11.662864489000128], [-70.22120487399991, 11.662798492000093], [-70.22123187199992, 11.66278848800016], [-70.22123787899989, 11.662752491000106], [-70.22123087799991, 11.662703487000101], [-70.22124086999997, 11.6626084830001], [-70.22128287299995, 11.662532481000028], [-70.22132887399994, 11.662456479000127], [-70.22132887399994, 11.662430475000122], [-70.22131888099995, 11.662368475000108], [-70.22133187699995, 11.662305482000136], [-70.22136488099983, 11.66222347300004], [-70.22146687499992, 11.662072475000116], [-70.22156488299993, 11.661888461], [-70.2216308809999, 11.661789458999976], [-70.22176488499997, 11.661536455000032], [-70.22178489399994, 11.661487451000028], [-70.22180489099998, 11.66145444600005], [-70.22181088599996, 11.661411449000184], [-70.22180388499999, 11.66133645300016], [-70.22180688799989, 11.66128644400004], [-70.22182288699997, 11.661217443000112], [-70.22190189199995, 11.661043445000075], [-70.22195689199998, 11.660899435999966], [-70.22197688799992, 11.660843431000046], [-70.22195989399995, 11.66071842600013], [-70.22193988499998, 11.660656426000116], [-70.22195188699999, 11.66058143000015], [-70.22196189099992, 11.660531420000098], [-70.22196489399983, 11.660486424999988], [-70.22195089199988, 11.660384420000184], [-70.22195789199986, 11.660312415000021], [-70.22196988299999, 11.660243415000139], [-70.22198688799995, 11.660164421], [-70.22201289099996, 11.660085416000129], [-70.22202889099998, 11.660056409000106], [-70.22206589299992, 11.660046416000114], [-70.22209189699993, 11.660045411000112], [-70.2221088899999, 11.660032415000103], [-70.2221088899999, 11.660023416000172], [-70.22209789199997, 11.659967411000025], [-70.22206789099988, 11.65992841100001], [-70.22205788599996, 11.659885403000033], [-70.22205788499997, 11.6598294100001], [-70.22213588499994, 11.659616400000061], [-70.22228089999993, 11.659412389000124], [-70.22243189799991, 11.659175385000083], [-70.22251390699995, 11.659053382000025], [-70.22267490899986, 11.65884238200016], [-70.22285291699995, 11.658638371000052], [-70.2230009239999, 11.658418360000042], [-70.22316192599999, 11.658223358999976], [-70.22332692599997, 11.658045351000169], [-70.22364694599997, 11.657719337], [-70.22373594399988, 11.657646339000053], [-70.22382094499983, 11.657597334000172], [-70.2239369529999, 11.657553331000145], [-70.22403595599985, 11.657481326000152], [-70.22409196099994, 11.657405325000184], [-70.22409395799986, 11.657257330999983], [-70.22410695399986, 11.657205323000142], [-70.22411695799997, 11.65716932700019], [-70.22417996399997, 11.657119317000138], [-70.22422596499996, 11.657083320000083], [-70.22429196199988, 11.656987322000134], [-70.22432795899994, 11.656931317000044], [-70.22435996899992, 11.656816316000175], [-70.22442596599996, 11.65663330700005], [-70.22450696899983, 11.656393299000115], [-70.22453297299995, 11.65631729800009], [-70.22457897399994, 11.656238293000058], [-70.22468497699998, 11.65612928600018], [-70.22477397499989, 11.656031289000168], [-70.22491197699986, 11.655863286], [-70.22493497699998, 11.655826285000046], [-70.22494798499997, 11.655797277000147], [-70.22493798099998, 11.655764283999986], [-70.2249179829999, 11.655738281000083], [-70.22491397399995, 11.655715280000038], [-70.2249179829999, 11.655699281000068], [-70.22496098099998, 11.655702284000029], [-70.22497698099988, 11.655698275000134], [-70.22497998399996, 11.6556792720001], [-70.2249769799999, 11.655623279000167], [-70.22496997899987, 11.655587271], [-70.2249769799999, 11.65555127500005], [-70.22499598299999, 11.655518270000073], [-70.22500298299991, 11.655478277000043], [-70.22500598699997, 11.655436273000134], [-70.22499497699988, 11.655377265000027], [-70.22499198399998, 11.655324264], [-70.22497197499996, 11.655266261000122], [-70.22494497699984, 11.65518726800002], [-70.22494497699984, 11.655138264000072], [-70.22494797999991, 11.655108263000159], [-70.22496697199995, 11.655069263000144], [-70.22500697699991, 11.654993262000175], [-70.22510498499992, 11.654816260000075], [-70.22513097699994, 11.654714254000169], [-70.22516698399988, 11.6545072400001], [-70.22588200699994, 11.653708222000034], [-70.22588299499989, 11.652926203000106], [-70.22639801199989, 11.65198316600015], [-70.22691403399995, 11.650857132000056], [-70.22703202399993, 11.650189119000117], [-70.22698702199995, 11.649430100000131], [-70.22745503399995, 11.648533076000149], [-70.22759065399998, 11.648319880000088], [-70.22967710299997, 11.645039969000038], [-70.22986016199991, 11.644856765000156], [-70.2309391469999, 11.643776922000086], [-70.23191918099991, 11.643179902000043], [-70.2324792099999, 11.642789888000152], [-70.23315723099995, 11.64198585600002], [-70.23327622399995, 11.64095083300009], [-70.2333242179999, 11.640190808], [-70.23376922999995, 11.639409790000059], [-70.23400424199997, 11.638259753], [-70.23451924699992, 11.637339729000132], [-70.23554628799991, 11.636720702000162], [-70.23645731699997, 11.635755679000113], [-70.2370673339999, 11.633869620000155], [-70.23667729599998, 11.630991554000047], [-70.23633026899995, 11.629863516000114], [-70.23595825799998, 11.629240514000116], [-70.23553923099996, 11.628940509000074], [-70.23563423199982, 11.628250488999981], [-70.23540222399998, 11.627697468000179], [-70.2346561899999, 11.627902477000134], [-70.23351713499989, 11.626358454000012], [-70.23305210299998, 11.62557442700006], [-70.23277409199994, 11.62479141600005], [-70.2323560669999, 11.624076401000139], [-70.2317280339999, 11.623430389000134], [-70.23098300099991, 11.623014380000086], [-70.23105399699995, 11.622531362000075], [-70.23056497399995, 11.622093356000107], [-70.23017095299997, 11.62101033800019], [-70.23019594599998, 11.6202513180001], [-70.23021994899995, 11.619836296000017], [-70.23066495999996, 11.618894276999981], [-70.23001292399994, 11.618685269000082], [-70.22956990499995, 11.618638278000049], [-70.22910388499997, 11.618637277000062], [-70.22805484399993, 11.618542279000167], [-70.22751881799996, 11.61854129], [-70.22688979599997, 11.618586289000064], [-70.22651678399995, 11.618516298000088], [-70.22623777199993, 11.618354293000095], [-70.22609775599983, 11.618078279000144], [-70.22577473399991, 11.616926260000128], [-70.22489068699997, 11.615681226000163], [-70.22468367199997, 11.61443819800013], [-70.22546266999996, 11.610112079000032], [-70.2252776659999, 11.609260055000107], [-70.22523166199994, 11.608892051], [-70.22544366499989, 11.608271032000061], [-70.22479063799994, 11.60833904400016], [-70.2239046009999, 11.60847505300012], [-70.22250654199996, 11.608264051000106], [-70.2212714829999, 11.607824052000183], [-70.22071444799991, 11.606902024000135], [-70.22041243299998, 11.60641801600002], [-70.21983140599997, 11.6056570020001], [-70.21908536899997, 11.60556300800016], [-70.21854835299985, 11.605999023000095], [-70.21568123799995, 11.606246050000038], [-70.21500420599995, 11.606428058000176], [-70.21435317299984, 11.605921052000099], [-70.21104502799994, 11.604716041000188], [-70.20950795899995, 11.604344039000125], [-70.20736486499999, 11.603556038000022], [-70.20612981999994, 11.60339204200011], [-70.20454475499997, 11.603550051000127], [-70.20284168399985, 11.603891081000143], [-70.20111660399994, 11.603956085000164], [-70.19918352199994, 11.603537092000067], [-70.19750544699991, 11.60334909300002], [-70.19533735899995, 11.603274112000122], [-70.19321427399996, 11.604121150000083], [-70.19246724899989, 11.604649167000161], [-70.19162721499993, 11.60503817900019], [-70.18941113499989, 11.606045226000106], [-70.18903810999996, 11.60574522000013], [-70.18836308499993, 11.605605225000033], [-70.18768705499997, 11.605351222000024], [-70.18675600499995, 11.604635206000125], [-70.18517293199994, 11.604009197000096], [-70.18456592099983, 11.604491213000017], [-70.18379588199997, 11.604789228000072], [-70.18316685799988, 11.604511231000117], [-70.18270083899995, 11.604648230000123], [-70.18223282499997, 11.605084245000057], [-70.18176580499994, 11.605681272000027], [-70.1812047819999, 11.60614028800012], [-70.18076176499994, 11.606323287000123], [-70.18003874499988, 11.606690303000107], [-70.17943172099984, 11.607126318000041], [-70.17894070499989, 11.607470332000048], [-70.17859168699988, 11.607377340000028], [-70.17805466799996, 11.60756034000002], [-70.17749463999996, 11.608042356000112], [-70.17693462199998, 11.608386370000176], [-70.17625760099992, 11.608499377000044], [-70.17551156599995, 11.608497384000145], [-70.17448651899986, 11.608449392000068], [-70.17334447099995, 11.60844639700008], [-70.17238842799998, 11.608651406999968], [-70.17147739599994, 11.609224432000076], [-70.17021834799993, 11.609428451000156], [-70.16874929099998, 11.609608467000157], [-70.16765224199997, 11.61002048], [-70.16676620599992, 11.61024849000006], [-70.16611317899998, 11.610384497000041], [-70.16555215799985, 11.610935514000062], [-70.16531815799993, 11.611326530999975], [-70.16459512599988, 11.611715542000127], [-70.16361608099999, 11.61178255100009], [-70.16291605899988, 11.611826558000075], [-70.16179701199991, 11.611870567000096], [-70.16121498199982, 11.611546569999973], [-70.16018794099995, 11.6120275830001], [-70.15904589499985, 11.612300602000062], [-70.15836887499995, 11.612528611000187], [-70.15806485699994, 11.613057630000128], [-70.15673579999992, 11.61296263500003], [-70.15519773999995, 11.61295864800013], [-70.15477872499991, 11.612680638000029], [-70.15384767599988, 11.61221863000003], [-70.15335766499993, 11.612470642000062], [-70.15314665399995, 11.61292965500013], [-70.15254063199984, 11.612951666000072], [-70.15179359299992, 11.613133675000142], [-70.15125657699991, 11.61368469100006], [-70.15092856499996, 11.614098697000031], [-70.15018254199992, 11.614234717000102], [-70.1496935209999, 11.614072714000088], [-70.14871347299999, 11.614391732000058], [-70.14817546499995, 11.615034749000017], [-70.14759243499998, 11.615493765], [-70.14654239099985, 11.615629775000059], [-70.14561035299994, 11.615718779000133], [-70.1448633249999, 11.61580878600006], [-70.1436972869999, 11.616312813000093], [-70.14292625499996, 11.616747824000129], [-70.14208622099994, 11.617090847000156], [-70.14082716299993, 11.617501868000147], [-70.14024414099998, 11.617293865000079], [-70.13989512099988, 11.617039860000148], [-70.13940710299994, 11.616623849000064], [-70.13919709399988, 11.616530844000124], [-70.13838106499998, 11.616758865000065], [-70.13765803099989, 11.61689586700004], [-70.13644597599989, 11.616938884000092], [-70.13544293699994, 11.616935887000125], [-70.1345108989999, 11.616979896000146], [-70.13406787999986, 11.616977900000165], [-70.13322884799999, 11.616883895000115], [-70.13252981699998, 11.616559898000048], [-70.13227380699993, 11.61660489500008], [-70.13176078199984, 11.616718906000017], [-70.13108374899997, 11.616808913000114], [-70.1303617179999, 11.616622918000076], [-70.12975669999992, 11.616322914000136], [-70.12861465099996, 11.616180912000118], [-70.12719258799996, 11.616292931000032], [-70.12614254399995, 11.616496937000079], [-70.12453347499996, 11.616952956000034], [-70.12390245699999, 11.617342971000085], [-70.12250339699995, 11.617822994000107], [-70.1216173599999, 11.617843008000136], [-70.12096433199997, 11.617773007000096], [-70.12017130299989, 11.617885022000053], [-70.11937727299983, 11.61866604200003], [-70.11839723499992, 11.618778046000045], [-70.11739518899998, 11.618684054000084], [-70.11646314999996, 11.618681069000104], [-70.11487608899989, 11.619206088000112], [-70.11296500499998, 11.61917809900001], [-70.11086491799995, 11.61974812900013], [-70.10755079699999, 11.621327198000131], [-70.10477468499988, 11.62233324400006], [-70.1032806319999, 11.622973264000052], [-70.10241759699989, 11.62320127400011], [-70.1013915449999, 11.623198290000062], [-70.09973548199991, 11.62367730900013], [-70.09777639999993, 11.623902335000139], [-70.09383424599997, 11.624835379000046], [-70.09152415099999, 11.62551941900017], [-70.09038110099982, 11.625930439000058], [-70.08960908099988, 11.627102475000015], [-70.08886105099998, 11.627583487000038], [-70.08806902499992, 11.627535493000153], [-70.08711197899987, 11.62799350600011], [-70.08589993399994, 11.627759515000037], [-70.08508489499991, 11.627412507000088], [-70.08403585399998, 11.627363510000066], [-70.0827057969999, 11.628003541000169], [-70.08160675499983, 11.629082573000119], [-70.08088373399994, 11.629472589000045], [-70.07959967699992, 11.629813616000092], [-70.07873664099992, 11.63004162600015], [-70.07759459499994, 11.630199632000085], [-70.07654455099993, 11.630403650000062], [-70.07563452199997, 11.630815662000032], [-70.07488649299995, 11.631434687000024], [-70.07392845499999, 11.632214715000089], [-70.07332142999996, 11.632489729000099], [-70.07171237099988, 11.632622739000112], [-70.07033731299998, 11.632618752000042], [-70.06889124599996, 11.632891761000167], [-70.0681432269999, 11.633395785000118], [-70.06692917899989, 11.634128809000174], [-70.06578612699991, 11.634286827000096], [-70.06408406099996, 11.634603840000125], [-70.06235798799986, 11.63469086200007], [-70.06102893199994, 11.634779869000056], [-70.05993288599984, 11.634845885000175], [-70.05953587199986, 11.635304900000051], [-70.0580658099999, 11.635576916], [-70.05641074999994, 11.635801928000149], [-70.05554671099992, 11.636190951000117], [-70.05528969599999, 11.63637394900013], [-70.0541456549999, 11.636992977000034], [-70.0537946419999, 11.637566992000188], [-70.05332662699993, 11.63788800499998], [-70.05265059999994, 11.638093014000162], [-70.05178756399994, 11.63825202300012], [-70.0514845589999, 11.63822803100004], [-70.05185857399994, 11.637953019000065], [-70.05234858499989, 11.637678006000101], [-70.05262959099997, 11.637125987], [-70.0516275569999, 11.637100995000083], [-70.05071652299995, 11.637581015000023], [-70.05031950799997, 11.637833027000056], [-70.04919945799992, 11.638290047000055], [-70.04814941599983, 11.638702061], [-70.04719238099995, 11.63909007899997], [-70.0461883399999, 11.63950210400003], [-70.04506830099996, 11.639844112000105], [-70.04397225599996, 11.640094130000023], [-70.04252519799996, 11.640688149000027], [-70.04184617199991, 11.641630182000085], [-70.04126214999991, 11.64220320600009], [-70.0412631509999, 11.641582187000097], [-70.04164015099991, 11.640363149000166], [-70.04005508299997, 11.640105155000128], [-70.0367179569999, 11.641154202000166], [-70.03429086199998, 11.641976244000148], [-70.03335681699997, 11.642618270000128], [-70.03186276499997, 11.643419304000133], [-70.0303677089999, 11.644289338000021], [-70.02882764099996, 11.644722356000159], [-70.02672855799989, 11.645084378999968], [-70.02577252399993, 11.644966381000188], [-70.02470147499997, 11.644687382000086], [-70.02337241899994, 11.644821396000168], [-70.02253138099991, 11.645210407000093], [-70.02206336699999, 11.645761434000121], [-70.02106033099994, 11.646195454000178], [-70.02010329399991, 11.64642246000011], [-70.01886624399998, 11.646902481000154], [-70.01807120899991, 11.647590507000075], [-70.01730018999996, 11.64820953200001], [-70.01594612599996, 11.648689555000033], [-70.01499009599996, 11.648962561000076], [-70.01429006199987, 11.649075569], [-70.01326402299998, 11.649141585000109], [-70.01235398199998, 11.649437590000048], [-70.00963698699996, 11.65075914700003], [-70.00915486299988, 11.650993658000175], [-70.00925054599998, 11.652116338000155], [-70.01211030699989, 11.672462383000038], [-70.01447226199991, 11.68926674200003], [-70.029011, 11.792704000000128]]]}}, {"type": "Feature", "properties": {"Pais": "Venezuela", "Estado": "Falc\u00f3n", "Municipio": "Carirubana", "Parroquia": "Santa Ana"}, "geometry": {"type": "Polygon", "coordinates": [[[-69.80720797099985, 11.693299982000099], [-69.80723497699995, 11.693348485000115], [-69.81273305999986, 11.703223131000016], [-69.82055995099995, 11.717280355000184], [-69.846275, 11.76346500000011], [-69.851932, 11.787802], [-69.859298, 11.819492], [-69.89335799999986, 11.849227], [-69.917359, 11.836426000000131], [-69.95292099999989, 11.818288], [-70.029011, 11.792704000000128], [-70.01447226199991, 11.68926674200003], [-70.01211030699989, 11.672462383000038], [-70.00925054599998, 11.652116338000155], [-70.00915486299988, 11.650993658000175], [-70.00731078899997, 11.651816690000032], [-70.00600274099992, 11.652710728000102], [-70.00492770099999, 11.653374751000115], [-70.00399366799996, 11.653947776000166], [-70.00347864799988, 11.654567793000012], [-70.00172758099995, 11.655413824000163], [-70.00172758099995, 11.655459824000047], [-69.99987551399994, 11.656496870000069], [-69.99853345499992, 11.657274902000097], [-69.99673938599989, 11.657554915000105], [-69.99522332299995, 11.657715927000083], [-69.99399227899988, 11.658148955000058], [-69.9928622189999, 11.6576609440001], [-69.99166516799988, 11.657334952000099], [-69.99058812399994, 11.65721395100013], [-69.98963407999997, 11.657457961000091], [-69.9892910719999, 11.657876981000129], [-69.98820003099996, 11.658306993000167], [-69.98742599099995, 11.65813499900014], [-69.98683697299998, 11.657845993000024], [-69.98659595399994, 11.6574129870001], [-69.9863089459999, 11.657004980000181], [-69.98553791099988, 11.656970976000025], [-69.98533290699999, 11.657317991000014], [-69.98415485599986, 11.65814002400009], [-69.98318980999994, 11.657719014000065], [-69.98218176699993, 11.657505018000165], [-69.98107972299988, 11.657246016000045], [-69.9797756669999, 11.657519036000053], [-69.97943465899993, 11.658098053000117], [-69.97890464399995, 11.658542062000151], [-69.97818160899988, 11.65859907700019], [-69.97757058399998, 11.65837907100007], [-69.97713856799993, 11.65914309600015], [-69.97686956599995, 11.659767108000096], [-69.97645754599989, 11.660325136000097], [-69.97420246299998, 11.661002162000159], [-69.97299240899997, 11.661274177000166], [-69.97189636299998, 11.661382185000036], [-69.97110432699998, 11.661578207000105], [-69.97052530599996, 11.661885208], [-69.96969127899996, 11.662266225], [-69.96913025399988, 11.662274235000154], [-69.96853822999992, 11.661778226000024], [-69.96765618199998, 11.660759210000094], [-69.96671814699988, 11.660567208000032], [-69.96548509199994, 11.660861218000036], [-69.96432804199992, 11.661522249000086], [-69.96369202699998, 11.6626332780001], [-69.96318101999998, 11.663746315000083], [-69.96272600499998, 11.66473834400017], [-69.96238399199984, 11.665361363000102], [-69.96180896999994, 11.666033388000017], [-69.9612309549999, 11.666498399000034], [-69.96034191199988, 11.666325401000108], [-69.9595948839999, 11.666379412000083], [-69.95880284799983, 11.666480418000106], [-69.95800180799989, 11.665869409000038], [-69.9573857769999, 11.665164388000107], [-69.95666773399984, 11.663772365000113], [-69.95633972699994, 11.663288345000012], [-69.95588470299998, 11.663037344000145], [-69.95545968299996, 11.663039345000016], [-69.95503466299988, 11.663180353000143], [-69.9547226599999, 11.663349363000123], [-69.9546666569999, 11.66362937499997], [-69.95442564199993, 11.663683371000047], [-69.95356361099994, 11.663807377000182], [-69.95274657499994, 11.663816394000094], [-69.95249155899995, 11.66395639500007], [-69.95247456999988, 11.664507408000077], [-69.95248357399993, 11.665173422000123], [-69.95253457999996, 11.66558543900004], [-69.95175055499993, 11.666374465000104], [-69.95068651299994, 11.667143496000051], [-69.9491264479999, 11.667482515000131], [-69.94817040399994, 11.66753851500016], [-69.94736937599998, 11.66699751200008], [-69.94670334599994, 11.667876540000123], [-69.94593931599996, 11.668366551000076], [-69.94429125999994, 11.66914258700018], [-69.94320020799984, 11.66965960900012], [-69.94164715899996, 11.670571647000088], [-69.94030009599993, 11.671114663000083], [-69.93848801899992, 11.669941652000091], [-69.9388290259999, 11.669225626000014], [-69.93975205899989, 11.66829759300009], [-69.93439879999988, 11.663904513000034], [-69.93278672899993, 11.663083505000145], [-69.93281872199998, 11.662141488000088], [-69.93450579799998, 11.662437476000036], [-69.93675188799989, 11.662632472000041], [-69.94170308499997, 11.661065394000047], [-69.94457220999993, 11.66081436900015], [-69.94627427699999, 11.660604352000064], [-69.9476473339999, 11.660262331000126], [-69.9465502839999, 11.658924304000152], [-69.9448551989999, 11.658146292000083], [-69.94406815699995, 11.657148277000033], [-69.94341213699994, 11.657066273000169], [-69.94234808499994, 11.656279258000154], [-69.94198505999992, 11.655573242000173], [-69.94040898799989, 11.654908244000069], [-69.93935894299989, 11.654970252000055], [-69.93855291199998, 11.654271239000025], [-69.9373818549999, 11.65410524400005], [-69.93640482199999, 11.654395255000168], [-69.93577578799989, 11.654474264000044], [-69.93427372199994, 11.65410625900006], [-69.93319367299995, 11.65377825600018], [-69.93136959999998, 11.653669274000038], [-69.92986452899999, 11.653095260000157], [-69.9289134789999, 11.652053244000058], [-69.9276264159999, 11.650511208000012], [-69.92709739599991, 11.649624195000115], [-69.92711438599991, 11.649233179000078], [-69.92665336199997, 11.648230158000104], [-69.92540330599991, 11.647492149000072], [-69.92213817899994, 11.649263213999973], [-69.92039712499997, 11.651356283000041], [-69.91795403699996, 11.654814389000023], [-69.91593997099994, 11.657370469000114], [-69.91459092999997, 11.659181525000065], [-69.91306887799988, 11.660376579000172], [-69.91249885999997, 11.661257604000127], [-69.91129580899997, 11.661987625000052], [-69.91064178799996, 11.661974633000057], [-69.90968674999988, 11.662172643000076], [-69.90816568199989, 11.66201165200016], [-69.90636459799998, 11.661878665000074], [-69.90511856799992, 11.663515711000173], [-69.90489355699998, 11.664251732000082], [-69.90402152999985, 11.665454775000057], [-69.90328550499999, 11.66635779700016], [-69.9014494349999, 11.667066832000103], [-69.90001137599995, 11.667770862000111], [-69.89908934899995, 11.668790896000132], [-69.8990543519999, 11.669731920000174], [-69.89825633099997, 11.671277967000094], [-69.8982633359999, 11.671897980000153], [-69.89540022099999, 11.672595020000074], [-69.89309612099993, 11.673148047000097], [-69.89258510699995, 11.673406055000157], [-69.89214208899989, 11.673456067000188], [-69.89180706699995, 11.672749046000035], [-69.89247808999988, 11.672236024000085], [-69.89407315199998, 11.670956986000078], [-69.89567221299995, 11.669975947000012], [-69.89634022999996, 11.669210927000165], [-69.89698825299985, 11.66879091100003], [-69.89779828399998, 11.668184882000048], [-69.89773427399984, 11.666785853000022], [-69.89730925099985, 11.666354835000107], [-69.89623820499997, 11.666618853999978], [-69.89446814199988, 11.666935879], [-69.89199502799988, 11.667100894999976], [-69.88842688599988, 11.667368929000133], [-69.88426270699995, 11.666679944000066], [-69.88204060999993, 11.666313942000158], [-69.88033153799995, 11.665896946000146], [-69.87812943599988, 11.665300941999988], [-69.87685138599994, 11.66581996400015], [-69.87641236699994, 11.666168979000133], [-69.87593035199995, 11.666816998000058], [-69.8750303199999, 11.667698026000096], [-69.87385826799982, 11.667367032000072], [-69.87345267899991, 11.666902102000165], [-69.8726282049999, 11.665957001000038], [-69.87200817399997, 11.664930982000158], [-69.87187516299997, 11.663532947000022], [-69.87187415699998, 11.663509946000147], [-69.87087210199991, 11.66220691000018], [-69.8696320649999, 11.663418954000065], [-69.86901003699995, 11.66411497300004], [-69.86915804899996, 11.664778999000077], [-69.8693540619999, 11.665488008000011], [-69.86878004599993, 11.666320041000063], [-69.86806201699994, 11.666787052000075], [-69.86664297399994, 11.66916612600005], [-69.86608995799992, 11.669723150000152], [-69.86446089199995, 11.670177170000045], [-69.86315683699996, 11.670489190000126], [-69.86215379799995, 11.670569195999974], [-69.86134176699989, 11.670990217999986], [-69.8614407739999, 11.671448224000073], [-69.86223280899998, 11.671279211000012], [-69.86304883899993, 11.67115621000005], [-69.86363385899995, 11.671264206000103], [-69.86410588899997, 11.671695212000088], [-69.86456690299997, 11.67120819500019], [-69.86512292399993, 11.670881186000031], [-69.86598896599992, 11.67103217700003], [-69.86633099199997, 11.672359212000117], [-69.86547796799994, 11.67514629100009], [-69.86488795599996, 11.676552337000032], [-69.86450294799988, 11.677520361000063], [-69.86406893499998, 11.678351388000124], [-69.86307789399996, 11.679371423000077], [-69.86236587499991, 11.680343457000049], [-69.8616758519999, 11.681222485000092], [-69.86063781599984, 11.682266514000048], [-69.85989979199996, 11.683031546000109], [-69.85857073699998, 11.683206558000052], [-69.85637763899996, 11.68334557999998], [-69.85416155299998, 11.683483597000134], [-69.85337151699991, 11.683813611000119], [-69.85257648799995, 11.683707615], [-69.85175345299996, 11.683211607000032], [-69.85087541399997, 11.683978627000045], [-69.84992738099999, 11.684722659000158], [-69.84927935899998, 11.685234676000164], [-69.84842433299997, 11.685909694999964], [-69.84796231299998, 11.68637371200009], [-69.84726328499988, 11.686449718000176], [-69.84625024999991, 11.687676755000155], [-69.8458432359999, 11.68873679100011], [-69.84567023699998, 11.689932829000156], [-69.84423118499984, 11.690659847000063], [-69.84112406999998, 11.692390918000058], [-69.84084405399989, 11.692393923], [-69.84009702499998, 11.692470922999973], [-69.83866195799999, 11.691521916000056], [-69.83741589999994, 11.690800900000113], [-69.83647284599988, 11.690053889000012], [-69.83529879399998, 11.689469880000104], [-69.83438475199995, 11.689181881000025], [-69.8333527129999, 11.688801882000064], [-69.83310569399998, 11.687656850000053], [-69.83303767299998, 11.685913799000161], [-69.83335668499996, 11.685267779000128], [-69.83427872599998, 11.686175804000072], [-69.83492376899994, 11.687408825000034], [-69.83563180199991, 11.688043839000159], [-69.83670884699995, 11.688284844000123], [-69.83679284999988, 11.687502823000159], [-69.83599280299995, 11.687006816000064], [-69.83567778899999, 11.686023791000025], [-69.83505875199995, 11.685042767000027], [-69.83455872799988, 11.684222744000124], [-69.83298465299993, 11.683412733000125], [-69.8318146009999, 11.683149734000153], [-69.8308085569999, 11.683045749000144], [-69.82973351199996, 11.682919746000096], [-69.82920648799995, 11.681823720000011], [-69.82902846999997, 11.680609687000015], [-69.82836643799993, 11.679836671000032], [-69.8273303879999, 11.679112661000147], [-69.82640734099982, 11.678066647000094], [-69.82480826599993, 11.677097633000074], [-69.82158612399996, 11.677131653], [-69.81804998699994, 11.678201703000127], [-69.81592690999997, 11.680266773000085], [-69.81470586499984, 11.681633823000027], [-69.81430186799997, 11.68301586299998], [-69.81354783699993, 11.684400896000113], [-69.81231280899988, 11.686593969000114], [-69.81158578899988, 11.688254012000073], [-69.81043475099995, 11.689597057000071], [-69.80908669499996, 11.690116079], [-69.80795565199998, 11.691207115000054], [-69.80700862499998, 11.692112148000092], [-69.80713263399991, 11.69307116900012], [-69.8070442799999, 11.693016944000135], [-69.807066, 11.693045000000154], [-69.80720797099985, 11.693299982000099]]]}}]}