{"type": "FeatureCollection", "features": [{"type": "Feature", "properties": {"Pais": "Venezuela", "Estado": "Gu\u00e1rico", "Municipio": "Chaguaramas", "Parroquia": "Chaguaramas"}, "geometry": {"type": "Polygon", "coordinates": [[[-66.075296, 9.652786], [-66.080905, 9.65241900000018], [-66.08418999999986, 9.652540000000101], [-66.090756, 9.650333000000103], [-66.095489, 9.64974500000011], [-66.103558, 9.647608], [-66.108186, 9.646399], [-66.109109, 9.646024], [-66.11480599999987, 9.643711000000167], [-66.120781, 9.642204], [-66.12774, 9.640002], [-66.134445, 9.637842], [-66.138224, 9.636117000000127], [-66.144445, 9.632346], [-66.149471, 9.629426], [-66.155697, 9.625312000000179], [-66.15835, 9.623156000000108], [-66.159239, 9.623972000000151], [-66.161505, 9.622794], [-66.162797, 9.621647000000166], [-66.162726, 9.620364], [-66.16198, 9.619253000000128], [-66.16115899999988, 9.61853], [-66.161179, 9.617340000000127], [-66.162925, 9.612536], [-66.176258, 9.573502], [-66.3476179999999, 9.558475], [-66.34736699999985, 9.558162], [-66.346972, 9.557153], [-66.347179, 9.555617], [-66.347433, 9.554494000000147], [-66.347687, 9.55408100000011], [-66.347454, 9.552912], [-66.348056, 9.55243], [-66.348101, 9.551077], [-66.34786799999989, 9.549885000000188], [-66.347265, 9.548969], [-66.348236, 9.548074], [-66.349115, 9.546858], [-66.350017, 9.545207], [-66.35103399999986, 9.54328], [-66.351125, 9.542019], [-66.351147, 9.540414000000112], [-66.3511, 9.539497], [-66.351122, 9.538443], [-66.351561, 9.537548000000129], [-66.353227, 9.537294], [-66.354314, 9.5358710000001], [-66.35429, 9.535275000000183], [-66.350817, 9.535233], [-66.351117, 9.53388], [-66.352596, 9.53154], [-66.354216, 9.530896], [-66.355397, 9.53101], [-66.35648599999985, 9.531146000000149], [-66.357088, 9.531719000000123], [-66.357898, 9.531443], [-66.358819, 9.53091000000012], [-66.359564, 9.530478], [-66.359564, 9.530043], [-66.35981799999985, 9.529447], [-66.361206, 9.528826], [-66.36173799999989, 9.527817], [-66.361968, 9.526716], [-66.361712, 9.525708000000122], [-66.361804, 9.524607000000174], [-66.362405, 9.524148], [-66.363586, 9.524147000000141], [-66.364606, 9.525269], [-66.36456, 9.525636], [-66.364815, 9.52598], [-66.365418, 9.526369000000102], [-66.36601999999988, 9.52705600000013], [-66.366762, 9.52744500000017], [-66.367178, 9.526665], [-66.36685199999982, 9.525657], [-66.366829, 9.524992], [-66.36594799999989, 9.524466], [-66.36668899999984, 9.524052], [-66.368054, 9.523936], [-66.368542, 9.524967000000117], [-66.369561, 9.525035], [-66.36986, 9.523636000000124], [-66.370324, 9.523980000000165], [-66.371134, 9.523635], [-66.371712, 9.522947000000102], [-66.37176, 9.524299], [-66.372802, 9.524413], [-66.374632, 9.525121], [-66.375351, 9.525831], [-66.376276, 9.525120000000129], [-66.37706299999985, 9.524637000000155], [-66.377735, 9.525302000000124], [-66.37806099999989, 9.52692900000011], [-66.379265, 9.526744], [-66.380028, 9.525551000000121], [-66.38060599999989, 9.524771], [-66.381786, 9.524495000000115], [-66.38285099999985, 9.52415000000019], [-66.3837769999999, 9.523736], [-66.383752, 9.52259], [-66.38314999999989, 9.52227], [-66.383705, 9.521581], [-66.38507, 9.52064], [-66.386227, 9.520593], [-66.3871079999999, 9.521257000000105], [-66.388428, 9.521439], [-66.38884399999984, 9.520613], [-66.389213, 9.51942], [-66.390579, 9.519694], [-66.391576, 9.521000000000129], [-66.39183, 9.5204260000001], [-66.39264099999986, 9.520425], [-66.392825, 9.519485], [-66.391782, 9.5185], [-66.392036, 9.517721000000108], [-66.39242999999988, 9.518041], [-66.39347, 9.517008], [-66.39414099999988, 9.516228000000183], [-66.394649, 9.5157], [-66.39495, 9.51572300000015], [-66.395737, 9.51508], [-66.396454, 9.514552], [-66.396962, 9.513474], [-66.397239, 9.512534], [-66.397955, 9.511226], [-66.398533, 9.510194], [-66.398856, 9.509781], [-66.398114, 9.508956000000182], [-66.398067, 9.507925000000114], [-66.3991079999999, 9.507534], [-66.39996699999989, 9.508289], [-66.400407, 9.50897700000013], [-66.40084599999989, 9.508105000000114], [-66.400938, 9.5071650000001], [-66.401169, 9.506981000000167], [-66.40133, 9.506041], [-66.40100399999983, 9.504550000000108], [-66.400493, 9.503588], [-66.40035299999988, 9.502258], [-66.401045, 9.500653], [-66.401834, 9.501844], [-66.402782, 9.50085700000011], [-66.403499, 9.499825000000158], [-66.404285, 9.499067000000139], [-66.403704, 9.49773800000014], [-66.404189, 9.496866], [-66.403957, 9.496225], [-66.403239, 9.495882], [-66.40252, 9.495126], [-66.40163899999988, 9.494027], [-66.402518, 9.493544], [-66.402772, 9.492902], [-66.402817, 9.49187], [-66.402862, 9.490816000000109], [-66.403371, 9.490402000000131], [-66.403949, 9.489599000000112], [-66.404064, 9.48898], [-66.404525, 9.487994000000185], [-66.404779, 9.487099], [-66.404407, 9.486229], [-66.404614, 9.484646000000112], [-66.404613, 9.484119], [-66.404566, 9.483523000000105], [-66.404704, 9.482858000000135], [-66.404657, 9.48207900000017], [-66.404077, 9.481323000000145], [-66.40358999999984, 9.48054400000018], [-66.403173, 9.48004], [-66.402291, 9.479078000000186], [-66.402777, 9.479192], [-66.403286, 9.478412000000162], [-66.40326299999987, 9.478091], [-66.403262, 9.477289000000155], [-66.402912, 9.47651000000019], [-66.403723, 9.475592], [-66.404254, 9.474903], [-66.403605, 9.474125000000186], [-66.402793, 9.473552], [-66.401843, 9.472843000000182], [-66.400869, 9.471468], [-66.40084499999989, 9.470712], [-66.40163199999984, 9.471238], [-66.402373, 9.471192], [-66.40292799999986, 9.470503000000178], [-66.402973, 9.469815], [-66.40302, 9.469747000000154], [-66.403897, 9.46782], [-66.403941, 9.466397], [-66.40301499999987, 9.465963], [-66.402481, 9.464932], [-66.403082, 9.463899], [-66.403474, 9.463097], [-66.402639, 9.46192800000017], [-66.403147, 9.460896], [-66.404327, 9.460069], [-66.40479, 9.459977], [-66.405066, 9.459128000000135], [-66.405808, 9.45899], [-66.405898, 9.457362], [-66.404947, 9.45669800000013], [-66.405225, 9.456285], [-66.405781, 9.456239], [-66.404691, 9.455552000000182], [-66.404575, 9.45495700000015], [-66.405153, 9.454429000000175], [-66.406172, 9.454381000000126], [-66.407144, 9.453899], [-66.408069, 9.453072000000134], [-66.408647, 9.452705000000151], [-66.409062, 9.451443], [-66.408806, 9.45032], [-66.40929199999982, 9.45025100000015], [-66.410402, 9.449264], [-66.411119, 9.448759000000166], [-66.410585, 9.447819], [-66.40912799999984, 9.448303], [-66.40863999999988, 9.447386], [-66.40930999999989, 9.446331], [-66.40947199999988, 9.44578], [-66.410235, 9.445596000000137], [-66.410651, 9.444587000000126], [-66.41134499999987, 9.444792], [-66.41171399999985, 9.44321], [-66.412988, 9.444057000000157], [-66.41396, 9.444262], [-66.414723, 9.443183000000147], [-66.415833, 9.442196], [-66.415368, 9.440959000000134], [-66.41538999999989, 9.439789000000133], [-66.414208, 9.438874000000112], [-66.415063, 9.437681000000168], [-66.41642799999988, 9.437174000000141], [-66.41703, 9.437334], [-66.4178859999999, 9.436829], [-66.41846399999986, 9.436805000000163], [-66.419088, 9.435658000000103], [-66.419225, 9.434672], [-66.420083, 9.435359], [-66.42070699999988, 9.43471600000015], [-66.420103, 9.433204000000103], [-66.420657, 9.43208], [-66.421306, 9.432514], [-66.422138, 9.431505], [-66.422113, 9.430220000000133], [-66.423501, 9.42992], [-66.423365, 9.431457], [-66.423737, 9.432924], [-66.425147, 9.431226], [-66.426141, 9.43026], [-66.42642099999989, 9.431728], [-66.42683599999987, 9.43060300000019], [-66.427391, 9.430351000000144], [-66.42829399999988, 9.430877000000123], [-66.42903399999983, 9.429982000000166], [-66.428593, 9.429317], [-66.429773, 9.428559000000178], [-66.428707, 9.428079], [-66.42754899999989, 9.427576], [-66.427896, 9.42698], [-66.42854299999988, 9.426543], [-66.428056, 9.425833], [-66.42796199999987, 9.424481], [-66.42863099999988, 9.423333000000127], [-66.429092, 9.421728], [-66.42941499999989, 9.42065], [-66.429692, 9.420099000000107], [-66.430618, 9.420534], [-66.431197, 9.420762], [-66.43191499999989, 9.420922000000132], [-66.43274799999989, 9.419866000000184], [-66.433349, 9.41915500000016], [-66.433997, 9.419383], [-66.433443, 9.420714], [-66.434392, 9.420667], [-66.4359189999999, 9.41981600000014], [-66.437308, 9.419814000000144], [-66.438952, 9.420362000000182], [-66.439737, 9.418825], [-66.4409639999999, 9.419351000000177], [-66.442676, 9.41818000000012], [-66.442211, 9.416988], [-66.441677, 9.415751], [-66.441791, 9.414512], [-66.44287899999989, 9.414603000000113], [-66.44470599999988, 9.413614000000166], [-66.445329, 9.41235300000011], [-66.444565, 9.41178], [-66.445211, 9.41081700000018], [-66.446113, 9.410403], [-66.446112, 9.409165], [-66.4455779999999, 9.408409], [-66.44472, 9.407493000000159], [-66.444603, 9.406507], [-66.445644, 9.405658000000187], [-66.44670799999989, 9.405243000000155], [-66.44703, 9.403684000000112], [-66.447515, 9.40333900000013], [-66.448811, 9.403108], [-66.449873, 9.401479000000108], [-66.451146, 9.401225], [-66.45315699999986, 9.399090000000115], [-66.454244, 9.39863], [-66.455587, 9.39913300000012], [-66.457138, 9.399108], [-66.45861799999989, 9.397591], [-66.45873299999988, 9.396858], [-66.45986499999987, 9.395779000000118], [-66.460791, 9.395617000000186], [-66.461602, 9.396212], [-66.46278399999989, 9.397081000000185], [-66.463548, 9.397126000000185], [-66.465122, 9.397261000000128], [-66.466372, 9.397489000000178], [-66.467435, 9.396570000000168], [-66.467504, 9.395768], [-66.467272, 9.395653000000152], [-66.468266, 9.394941], [-66.469215, 9.394917], [-66.470118, 9.394686], [-66.471505, 9.39402], [-66.472592, 9.393353000000104], [-66.474325, 9.391516], [-66.4763119999999, 9.389198], [-66.477377, 9.389082], [-66.478555, 9.387842], [-66.478879, 9.387589000000105], [-66.479666, 9.387428000000114], [-66.480081, 9.386464000000103], [-66.480659, 9.386188], [-66.480866, 9.385202000000163], [-66.480193, 9.384309], [-66.480701, 9.383322], [-66.481672, 9.382472], [-66.48192499999982, 9.381715], [-66.4807679999999, 9.381923], [-66.480558, 9.380731], [-66.48132, 9.379813000000127], [-66.481804, 9.378345], [-66.481802, 9.37713], [-66.483215, 9.37777], [-66.484583, 9.378823000000125], [-66.486205, 9.3795310000001], [-66.48689799999988, 9.378773], [-66.487455, 9.379575000000159], [-66.487984, 9.377832000000183], [-66.488909, 9.377532], [-66.490043, 9.377393], [-66.49076, 9.37697900000012], [-66.49189599999988, 9.377917000000139], [-66.492845, 9.377985], [-66.493564, 9.378672], [-66.494488, 9.377936], [-66.495274, 9.377064], [-66.497536, 9.376438000000121], [-66.499356, 9.376865000000123], [-66.50164099999989, 9.377732], [-66.5024, 9.377152], [-66.503243, 9.375771], [-66.503859, 9.37491800000015], [-66.50509199999988, 9.373189], [-66.505036, 9.372182], [-66.50358, 9.372402000000136], [-66.503777, 9.371187000000134], [-66.505042, 9.370419], [-66.505147, 9.36929600000019], [-66.505867, 9.369519], [-66.506732, 9.370426], [-66.507567, 9.370602], [-66.507511, 9.369549000000177], [-66.507082, 9.36838500000016], [-66.507238, 9.367742], [-66.508323, 9.367388], [-66.509069, 9.367954000000168], [-66.509814, 9.36836], [-66.510667, 9.368054], [-66.511608, 9.367266], [-66.512368, 9.36687], [-66.51268, 9.365631000000178], [-66.513223, 9.364321000000132], [-66.514419, 9.363554], [-66.515154, 9.362998000000118], [-66.516237, 9.362553], [-66.516443, 9.362276], [-66.516967, 9.361424], [-66.518189, 9.36100000000016], [-66.519532, 9.36101100000019], [-66.520895, 9.360792000000174], [-66.52249499999988, 9.361098], [-66.523489, 9.361042000000111], [-66.524555, 9.361147], [-66.525274, 9.361346], [-66.525428, 9.360452000000123], [-66.525978, 9.359920000000159], [-66.526757, 9.35918], [-66.527589, 9.35903500000012], [-66.527766, 9.360545000000172], [-66.528418, 9.36097400000017], [-66.528713, 9.360398], [-66.529431, 9.360392000000104], [-66.52982, 9.35999900000013], [-66.52974099999983, 9.359038], [-66.52987599999989, 9.358556], [-66.530565, 9.358023], [-66.531346, 9.3574890000001], [-66.532202, 9.357321], [-66.532616, 9.357042], [-66.5331609999999, 9.35600600000015], [-66.53349999999989, 9.355202], [-66.53390999999988, 9.354465000000175], [-66.53382999999985, 9.353436000000102], [-66.53366199999988, 9.352796000000126], [-66.53374399999984, 9.351719000000173], [-66.533874, 9.350779], [-66.53308, 9.350054], [-66.534368, 9.349309], [-66.53407899999985, 9.348167000000103], [-66.534416, 9.347065], [-66.5350069999999, 9.345961000000159], [-66.535834, 9.345403], [-66.536383, 9.344757], [-66.536717, 9.343357], [-66.536474, 9.342238000000123], [-66.536512, 9.341344], [-66.53699099999989, 9.340630000000147], [-66.537495, 9.340145000000177], [-66.538437, 9.339403], [-66.539221, 9.339167], [-66.53919599999983, 9.338938000000155], [-66.538428, 9.338556000000153], [-66.538438, 9.337205], [-66.539381, 9.336624], [-66.540559, 9.336338000000126], [-66.540805, 9.335534], [-66.540516, 9.334345], [-66.540694, 9.333611], [-66.541995, 9.334171], [-66.54315599999984, 9.334526], [-66.543173, 9.333885], [-66.543024, 9.332833], [-66.543298, 9.332510000000127], [-66.544138, 9.333212000000117], [-66.544847, 9.334671], [-66.5454989999999, 9.335100000000182], [-66.546462, 9.334221000000127], [-66.546792, 9.334836], [-66.547098, 9.335359], [-66.547675, 9.335148], [-66.547806, 9.334414], [-66.54773, 9.33375100000012], [-66.548309, 9.333791], [-66.549141, 9.3336690000001], [-66.549606, 9.333916000000102], [-66.550255, 9.333956], [-66.551267, 9.333351], [-66.551325, 9.332160000000101], [-66.551405, 9.330946], [-66.552477, 9.331714000000147], [-66.551932, 9.330414], [-66.552212, 9.329354000000137], [-66.55156199999982, 9.328547000000128], [-66.551731, 9.327234], [-66.552248, 9.325933], [-66.552583, 9.3247530000001], [-66.552728, 9.323440000000176], [-66.554259, 9.32348700000017], [-66.554159, 9.3217], [-66.555383, 9.320792], [-66.55394799999988, 9.319319], [-66.555386, 9.318611000000146], [-66.554016, 9.317733000000146], [-66.55481699999984, 9.316631], [-66.55315399999989, 9.315302], [-66.55436, 9.314555], [-66.55328999999989, 9.312888], [-66.55173499999984, 9.312038], [-66.553424, 9.310428], [-66.555227, 9.309526000000176], [-66.555352, 9.307526], [-66.55622, 9.307868000000155], [-66.556845, 9.306312000000162], [-66.557671, 9.30527700000016], [-66.55739, 9.30365600000016], [-66.559131, 9.303743], [-66.560164, 9.301119], [-66.561999, 9.30049200000019], [-66.563033, 9.29867], [-66.564427, 9.29879], [-66.56493499999988, 9.297191000000112], [-66.566122, 9.297363000000132], [-66.566976, 9.295709], [-66.56863, 9.296762000000115], [-66.569847, 9.294890000000123], [-66.57073899999989, 9.296769], [-66.57173499999988, 9.296763], [-66.572733, 9.297583], [-66.573244, 9.298395], [-66.573552, 9.299373000000173], [-66.575571, 9.299475], [-66.575319, 9.301089], [-66.5767699999999, 9.301574000000187], [-66.578763, 9.301562000000104], [-66.579581, 9.30105600000013], [-66.581093, 9.299703], [-66.5801029999999, 9.299159], [-66.58026499999988, 9.297616], [-66.5811839999999, 9.295822000000157], [-66.582279, 9.296019000000115], [-66.58456399999989, 9.297215000000108], [-66.585858, 9.296328], [-66.586196, 9.295262], [-66.586215, 9.293586], [-66.58617999999984, 9.291681], [-66.58679, 9.291159000000164], [-66.587773, 9.290717], [-66.587408, 9.289373000000182], [-66.588359, 9.288657000000114], [-66.58938299999983, 9.288030000000106], [-66.588654, 9.286926], [-66.58809699999989, 9.286116000000163], [-66.588834, 9.284442], [-66.588905, 9.282971], [-66.587635, 9.28312300000016], [-66.58727099999987, 9.281802], [-66.586536, 9.280515], [-66.588113, 9.279781], [-66.5889739999999, 9.280673], [-66.5909759999999, 9.280982000000108], [-66.59079999999983, 9.279748000000154], [-66.590833, 9.278553], [-66.59143499999988, 9.277755], [-66.59246, 9.277174000000173], [-66.59344, 9.27664], [-66.593964, 9.275592000000188], [-66.595452, 9.274998], [-66.596483, 9.273843], [-66.597158, 9.274695], [-66.598264, 9.276040000000137], [-66.59921999999989, 9.274704], [-66.600401, 9.27469200000013], [-66.601113, 9.273707000000172], [-66.601502, 9.273535000000152], [-66.602653, 9.27329500000019], [-66.603701, 9.271933000000104], [-66.605349, 9.271287000000143], [-66.607046, 9.271444], [-66.60844, 9.271564000000126], [-66.610945, 9.273166000000174], [-66.61246199999988, 9.27427], [-66.613733, 9.273406000000136], [-66.614706, 9.274158], [-66.615745, 9.27555], [-66.616572, 9.276835000000176], [-66.618024, 9.27582800000016], [-66.619326, 9.273678], [-66.61975799999988, 9.271117000000118], [-66.61996299999987, 9.268723], [-66.620902, 9.268351], [-66.62202, 9.267033], [-66.621677, 9.265665], [-66.620181, 9.266765], [-66.619157, 9.266612], [-66.617651, 9.265095], [-66.618639, 9.264056], [-66.61942199999987, 9.263138], [-66.619598, 9.262054], [-66.62092599999988, 9.261556], [-66.622071, 9.261109], [-66.6231719999999, 9.260732], [-66.6242519999999, 9.258910000000128], [-66.623571, 9.25863100000015], [-66.6234199999999, 9.257465000000138], [-66.624239, 9.255444], [-66.625359, 9.254172000000153], [-66.626388, 9.253751000000136], [-66.627622, 9.253164], [-66.627966, 9.252304000000152], [-66.6278789999999, 9.250976], [-66.629272, 9.250292000000115], [-66.63032799999985, 9.250720000000172], [-66.630489, 9.252207000000112], [-66.631897, 9.252809000000184], [-66.632964, 9.251308000000165], [-66.633797, 9.249769000000185], [-66.634594, 9.249309000000153], [-66.635502, 9.249397000000101], [-66.63625, 9.24887], [-66.637429, 9.24954700000012], [-66.638734, 9.248246000000108], [-66.6392469999999, 9.24761100000012], [-66.640436, 9.248609000000101], [-66.6406209999999, 9.250096], [-66.640178, 9.251532], [-66.640862, 9.253440000000182], [-66.64195699999988, 9.25366], [-66.643807, 9.255029], [-66.645005, 9.25481], [-66.64481, 9.25376000000017], [-66.644937, 9.252586], [-66.646352, 9.251121000000126], [-66.64740999999987, 9.25012500000014], [-66.650074, 9.25085], [-66.651032, 9.251121000000126], [-66.65212, 9.251823000000115], [-66.65311199999985, 9.250922000000173], [-66.654262, 9.250658], [-66.655772, 9.251532], [-66.65742, 9.251621000000114], [-66.65860799999984, 9.252573], [-66.65989599999983, 9.25301700000017], [-66.659851, 9.253799000000186], [-66.660546, 9.255316000000107], [-66.662228, 9.254991], [-66.66376899999983, 9.25389], [-66.665387, 9.252993000000117], [-66.667824, 9.253128000000117], [-66.66973799999988, 9.252819000000102], [-66.670325, 9.253077000000133], [-66.670051, 9.254715000000147], [-66.670471, 9.255552000000137], [-66.67164799999989, 9.25694], [-66.672793, 9.257985000000133], [-66.674413, 9.25943000000018], [-66.67464199999989, 9.258596], [-66.675571, 9.259418], [-66.676782, 9.260393], [-66.67864999999989, 9.260842000000139], [-66.679565, 9.259691], [-66.678865, 9.258036000000118], [-66.677458, 9.2574800000001], [-66.677287, 9.255695], [-66.678826, 9.255236], [-66.67996, 9.25596000000013], [-66.68064299999986, 9.256284000000107], [-66.681942, 9.255580000000123], [-66.682946, 9.255068], [-66.683261, 9.255518000000166], [-66.68331931599988, 9.256492355000034], [-66.68335278699988, 9.257051611000122], [-66.68335699999989, 9.257122000000152], [-66.68418, 9.256754000000115], [-66.685008, 9.257326], [-66.68592499999983, 9.258493000000101], [-66.68683132199993, 9.259028976000025], [-66.687293, 9.259302], [-66.68783610099996, 9.258613320999984], [-66.6884259769999, 9.257865328000037], [-66.688498, 9.257774], [-66.68997399999989, 9.256812], [-66.690623, 9.255278], [-66.69001999999989, 9.254515], [-66.690502, 9.252871000000141], [-66.69172, 9.253294000000153], [-66.692871, 9.253053000000136], [-66.69400599999983, 9.252262], [-66.694893, 9.251708], [-66.696249, 9.251346], [-66.697241, 9.251202], [-66.69863399999986, 9.251322], [-66.6996759999999, 9.251268], [-66.700956, 9.251460000000122], [-66.702201, 9.250504], [-66.702847, 9.249659000000122], [-66.7035049999999, 9.248446000000115], [-66.70352714099988, 9.248401937000153], [-66.704313, 9.246838000000139], [-66.70413799999989, 9.245671], [-66.70501499999989, 9.245507000000146], [-66.706618, 9.246424000000161], [-66.707281, 9.245371], [-66.706374, 9.242988], [-66.70542399999988, 9.242258000000106], [-66.704127, 9.241539000000103], [-66.70429499999989, 9.240960000000143], [-66.706239, 9.240122], [-66.707748, 9.239458], [-66.710478, 9.238573], [-66.7108215479999, 9.238201539000102], [-66.712115, 9.236803000000123], [-66.712899, 9.23515], [-66.713879, 9.23388100000011], [-66.714325, 9.231802], [-66.714593, 9.22998], [-66.71554399999985, 9.229241], [-66.71649699999983, 9.229327], [-66.716284, 9.227681000000132], [-66.716015, 9.225714], [-66.715923, 9.224248000000102], [-66.716511, 9.222279], [-66.716758, 9.221996000000104], [-66.715997, 9.219103], [-66.409169, 9.170574], [-66.25259, 9.012243], [-66.251696, 9.01302800000019], [-66.25144299999982, 9.014147], [-66.250352, 9.015456], [-66.25002699999987, 9.017834000000107], [-66.251433, 9.018022], [-66.251264, 9.019486], [-66.252756, 9.01995], [-66.253053, 9.021285], [-66.2528319999999, 9.023024], [-66.25177899999989, 9.023715], [-66.251293, 9.026021000000185], [-66.251062, 9.02714], [-66.25115099999982, 9.028426], [-66.249762, 9.028606], [-66.24856, 9.027459], [-66.247199, 9.029588000000103], [-66.247265, 9.032043], [-66.244506, 9.033664], [-66.244311, 9.034165], [-66.243021, 9.035126], [-66.242808, 9.035374000000104], [-66.242395, 9.036353000000133], [-66.24283899999989, 9.037256], [-66.243067, 9.038498000000118], [-66.243169, 9.039188], [-66.242736, 9.040005000000122], [-66.2417109999999, 9.040444], [-66.240844, 9.041024], [-66.2399999999999, 9.04275], [-66.240057, 9.044517], [-66.23978099999982, 9.045543], [-66.24019, 9.047042], [-66.24000399999989, 9.049354], [-66.239864, 9.050544000000116], [-66.240114, 9.051878000000158], [-66.238273, 9.051545000000147], [-66.238487, 9.052374], [-66.239139, 9.053212], [-66.23903, 9.054036], [-66.238059, 9.055186000000162], [-66.237889, 9.056742], [-66.238356, 9.057645], [-66.238775, 9.058594], [-66.238266, 9.059753000000171], [-66.237481, 9.059738], [-66.2363309999999, 9.06061], [-66.236164, 9.060882000000163], [-66.235432, 9.060524], [-66.234132, 9.05972000000014], [-66.233653, 9.060513000000185], [-66.233473, 9.061404], [-66.23446299999989, 9.062730000000101], [-66.234484, 9.063922000000161], [-66.234637, 9.065507], [-66.233938, 9.066893000000107], [-66.23305, 9.067426000000182], [-66.23196599999989, 9.067336000000182], [-66.23152, 9.06764900000013], [-66.231315, 9.068631], [-66.231142, 9.069178], [-66.23045899999988, 9.069829], [-66.229947, 9.07112700000016], [-66.229811, 9.072156], [-66.228649, 9.072477000000106], [-66.228071, 9.072489], [-66.228224, 9.07402900000011], [-66.22794, 9.074368000000106], [-66.227148, 9.074719000000186], [-66.225518, 9.075330000000122], [-66.22646099999986, 9.076632000000188], [-66.226112, 9.077909000000147], [-66.224849, 9.078665000000171], [-66.22570499999983, 9.079736000000139], [-66.22669, 9.081268], [-66.2273459999999, 9.080799000000184], [-66.228304, 9.081414], [-66.228735, 9.082935], [-66.228554, 9.083872], [-66.227848, 9.08560100000011], [-66.22757, 9.086788000000126], [-66.227489, 9.087337], [-66.227768, 9.088374], [-66.226827, 9.089204000000166], [-66.228024, 9.089410000000157], [-66.2291699999999, 9.089891], [-66.228555, 9.09059], [-66.229429, 9.091868000000147], [-66.229718, 9.092447000000107], [-66.229775, 9.093021000000135], [-66.23061699999982, 9.093679], [-66.230645, 9.094551], [-66.230465, 9.095442000000105], [-66.22942199999989, 9.096752], [-66.22928699999983, 9.097666], [-66.228375, 9.098222], [-66.2281, 9.099202000000162], [-66.2278859999999, 9.099496000000158], [-66.225763, 9.099410000000148], [-66.224502, 9.098927000000117], [-66.22280399999988, 9.098344], [-66.22300599999988, 9.099769], [-66.223202, 9.10147], [-66.222635, 9.103178000000128], [-66.223142, 9.104403], [-66.224197, 9.105868000000157], [-66.224236, 9.108506], [-66.225188, 9.109372000000178], [-66.225646, 9.111835], [-66.2252519999999, 9.114121000000182], [-66.225805, 9.11759400000011], [-66.225733, 9.118853000000172], [-66.226473, 9.119922], [-66.226658, 9.121026], [-66.225553, 9.121968], [-66.224905, 9.122047000000123], [-66.224277, 9.122242], [-66.223223, 9.122909], [-66.223084, 9.122929000000113], [-66.22262199999983, 9.122921000000133], [-66.222087, 9.123094], [-66.221533, 9.123060000000123], [-66.221099, 9.122822000000156], [-66.22075999999987, 9.123595000000137], [-66.22065, 9.124442], [-66.220615, 9.125037], [-66.22042499999986, 9.125286], [-66.219999, 9.125782], [-66.219455, 9.126390000000129], [-66.218822, 9.126814], [-66.2174629999999, 9.127751000000103], [-66.216619, 9.128308000000175], [-66.216077, 9.128824], [-66.215363, 9.12982], [-66.214781, 9.130015], [-66.21446399999985, 9.130811000000165], [-66.214729, 9.131412000000125], [-66.215671, 9.131729], [-66.216012, 9.131964], [-66.21625299999988, 9.132634], [-66.216483, 9.133785], [-66.216704, 9.134293000000127], [-66.217229, 9.134579], [-66.21791599999983, 9.134890000000155], [-66.218126, 9.135949], [-66.218361, 9.13687], [-66.218569, 9.137952], [-66.218756, 9.138988], [-66.218104, 9.139227000000176], [-66.217746, 9.139793000000111], [-66.217967, 9.14138000000014], [-66.2180919999999, 9.142047000000105], [-66.217312, 9.142903], [-66.21697199999988, 9.143722000000139], [-66.216889, 9.144363], [-66.21667099999985, 9.144863], [-66.216468, 9.145753000000127], [-66.21654, 9.146717000000137], [-66.216535, 9.146970000000124], [-66.21623, 9.147216], [-66.215815, 9.147162], [-66.21512799999988, 9.146874000000139], [-66.214128, 9.147175000000175], [-66.21370799999983, 9.147374000000127], [-66.21288499999986, 9.148045], [-66.212747, 9.149098000000151], [-66.211893, 9.150183], [-66.21129699999989, 9.149918000000127], [-66.21005899999989, 9.150560000000155], [-66.209373, 9.151326], [-66.208898, 9.151982], [-66.207916, 9.152513], [-66.20711, 9.153529000000105], [-66.206863, 9.154258], [-66.206828, 9.15485400000017], [-66.20614299999988, 9.155574], [-66.205377, 9.155766], [-66.205329, 9.156957], [-66.2045169999999, 9.15710200000018], [-66.203024, 9.157784000000106], [-66.20276699999988, 9.159040000000118], [-66.200486, 9.160944], [-66.199672, 9.162304000000177], [-66.198798, 9.163250000000119], [-66.1976499999999, 9.164008000000138], [-66.196855, 9.164474], [-66.196071, 9.165513], [-66.194957, 9.165721], [-66.194204, 9.166394], [-66.193584, 9.167322], [-66.192631, 9.16757900000016], [-66.19243399999988, 9.168171000000143], [-66.192399, 9.168721000000176], [-66.192248, 9.169314], [-66.1920669999999, 9.170273000000122], [-66.191957, 9.17112], [-66.191919, 9.17183000000017], [-66.190304, 9.172830000000147], [-66.18972899999989, 9.173782], [-66.188662, 9.174013000000173], [-66.187535, 9.173762000000181], [-66.186055, 9.173757], [-66.184425, 9.174321], [-66.18335099999985, 9.174850000000106], [-66.182846, 9.175826], [-66.181916, 9.176106000000118], [-66.181433, 9.175982], [-66.180437, 9.176078000000132], [-66.180121, 9.176851000000113], [-66.180081, 9.17767600000019], [-66.1801569999999, 9.178434], [-66.179843, 9.179093], [-66.17917, 9.179240000000107], [-66.178219, 9.179428], [-66.178159, 9.179410000000132], [-66.176364, 9.177512], [-66.175382, 9.176942], [-66.174785, 9.17677], [-66.174461, 9.17678700000016], [-66.1739879999999, 9.177282000000105], [-66.173247, 9.17846], [-66.173032, 9.1788], [-66.17297699999983, 9.179234000000122], [-66.17272799999984, 9.180101], [-66.172534, 9.180555], [-66.17180999999982, 9.180931], [-66.171303, 9.180830000000185], [-66.1710379999999, 9.180274], [-66.170631, 9.179808], [-66.170313, 9.179549], [-66.16985299999988, 9.179472], [-66.16971, 9.179675], [-66.169565, 9.17997], [-66.169082, 9.179846000000111], [-66.168632, 9.179287], [-66.168147, 9.179278], [-66.168093, 9.17964400000011], [-66.168384, 9.18008500000019], [-66.168328, 9.180565000000115], [-66.167651, 9.180896000000132], [-66.167289, 9.18052200000011], [-66.166613, 9.179661000000124], [-66.166432, 9.179474], [-66.16615499999989, 9.179468], [-66.166078, 9.179834], [-66.165724, 9.180217], [-66.16485, 9.179993], [-66.1639899999999, 9.180229], [-66.163123, 9.180786000000126], [-66.16252699999984, 9.181646], [-66.16236399999985, 9.182812], [-66.161888, 9.18349], [-66.161756, 9.184290000000146], [-66.161189, 9.184898], [-66.16032299999989, 9.185386], [-66.159753, 9.186154000000158], [-66.159569, 9.187205], [-66.1589939999999, 9.188180000000102], [-66.158599, 9.189410000000123], [-66.15870499999988, 9.190994], [-66.158596, 9.191772000000128], [-66.158123, 9.192267], [-66.1572819999999, 9.192732000000149], [-66.156537, 9.192992000000174], [-66.155861, 9.193277000000137], [-66.15419599999984, 9.194414], [-66.153305, 9.195062], [-66.152801, 9.195946000000163], [-66.152597, 9.196859], [-66.152121, 9.197538], [-66.15122, 9.197497], [-66.150722, 9.197029], [-66.150268, 9.196607000000142], [-66.14961099999982, 9.197099], [-66.14949999999988, 9.197968000000117], [-66.148939, 9.198301000000129], [-66.148144, 9.198721], [-66.147417, 9.199234000000104], [-66.146676, 9.199334], [-66.146341, 9.199855000000127], [-66.146132, 9.20102], [-66.146079, 9.20134], [-66.145443, 9.200823000000128], [-66.144974, 9.201135], [-66.14519799999988, 9.202584000000172], [-66.145234, 9.203066], [-66.14433799999989, 9.20392], [-66.14336, 9.204313], [-66.143044, 9.206141000000116], [-66.143097, 9.20694500000019], [-66.142893, 9.207835000000102], [-66.14287599999989, 9.208637], [-66.142857, 9.209577], [-66.142529, 9.209776000000147], [-66.141426, 9.209480000000156], [-66.140588, 9.209784], [-66.13942, 9.210358000000156], [-66.138889, 9.211471], [-66.138831, 9.212020000000166], [-66.13758499999989, 9.211927000000117], [-66.136578, 9.212503], [-66.135931, 9.213614], [-66.135602, 9.214983000000188], [-66.134768, 9.215081000000112], [-66.133456, 9.215928], [-66.13265, 9.216898000000185], [-66.13191499999988, 9.217777], [-66.130165, 9.217491], [-66.12838299999987, 9.217594], [-66.127528, 9.2176], [-66.1257169999999, 9.217977000000133], [-66.124286, 9.217926], [-66.123735, 9.217732000000126], [-66.122307, 9.21752000000015], [-66.121094, 9.218024000000128], [-66.119558, 9.218544000000122], [-66.11867199999989, 9.218916], [-66.117689, 9.219516000000112], [-66.116696, 9.219496], [-66.11558699999983, 9.219475000000102], [-66.114986, 9.219463000000133], [-66.11396599999989, 9.219626000000119], [-66.113188, 9.220299], [-66.112972, 9.22068400000012], [-66.112966, 9.222060000000113], [-66.113399, 9.222435], [-66.11351699999989, 9.223423], [-66.1132659999999, 9.224335], [-66.113243, 9.225435000000118], [-66.11288, 9.226185000000157], [-66.112068, 9.226306], [-66.110869, 9.227314000000149], [-66.110738, 9.228023000000178], [-66.11088499999988, 9.228759000000139], [-66.11084599999987, 9.229515000000163], [-66.11058, 9.230060000000151], [-66.110535, 9.231091], [-66.110236, 9.232117000000187], [-66.109954, 9.233441], [-66.109609, 9.234466], [-66.10921699999989, 9.235512], [-66.108847, 9.236651000000165], [-66.108552, 9.237471000000141], [-66.108122, 9.23815000000019], [-66.108123, 9.239228], [-66.108153, 9.239985000000104], [-66.107852, 9.241125000000125], [-66.10723, 9.242122], [-66.106913, 9.242895], [-66.106365, 9.243664], [-66.10588399999989, 9.244571000000121], [-66.105609, 9.245575], [-66.105112, 9.246115], [-66.104249, 9.246511], [-66.103939, 9.246963000000164], [-66.10413099999982, 9.24770100000012], [-66.104358, 9.249012], [-66.10413299999988, 9.249788000000137], [-66.103716, 9.250972], [-66.104066, 9.251896000000102], [-66.104682, 9.252298000000167], [-66.1053859999999, 9.252862000000107], [-66.105296, 9.25384600000018], [-66.10451399999988, 9.254771000000176], [-66.103986, 9.255677000000162], [-66.103366, 9.256628000000148], [-66.10230599999988, 9.2575700000001], [-66.101614, 9.258565], [-66.101008, 9.259952], [-66.100502, 9.260904], [-66.101148, 9.263141], [-66.101284, 9.264382], [-66.101285, 9.265436], [-66.1013109999999, 9.2664], [-66.101421, 9.267755000000136], [-66.101451, 9.268535000000156], [-66.101463, 9.270163], [-66.101264, 9.270846], [-66.100542, 9.271107], [-66.100182, 9.27171900000019], [-66.100317, 9.272983000000124], [-66.1002759999999, 9.27495400000015], [-66.100296, 9.276192], [-66.100361, 9.277477], [-66.100442, 9.278052000000173], [-66.100577, 9.279293000000166], [-66.10101999999989, 9.280195], [-66.101045, 9.281228], [-66.10084299999988, 9.282049], [-66.100488, 9.282432], [-66.099976, 9.28368300000011], [-66.099287, 9.284563000000105], [-66.0989019999999, 9.285312], [-66.099388, 9.286376000000189], [-66.099539, 9.287984], [-66.10051499999986, 9.289907000000142], [-66.10116, 9.291112000000169], [-66.10146899999984, 9.291806], [-66.10217, 9.292576000000167], [-66.10268899999988, 9.293137], [-66.103822, 9.294237000000123], [-66.104322, 9.294659], [-66.106262, 9.294766], [-66.106728, 9.29567], [-66.106855, 9.29624500000017], [-66.107612, 9.297613000000183], [-66.10776399999986, 9.298074000000156], [-66.108097, 9.298746000000165], [-66.108824, 9.299333], [-66.109239, 9.300511], [-66.109777, 9.301301], [-66.109605, 9.302879000000189], [-66.10986, 9.303939000000128], [-66.111148, 9.304239], [-66.111709, 9.305030000000158], [-66.11313299999989, 9.306571000000133], [-66.114088, 9.307347], [-66.11559199999988, 9.308339], [-66.116742, 9.308637], [-66.117583, 9.30931800000019], [-66.118361, 9.310778], [-66.119132, 9.311481000000128], [-66.120482, 9.31215], [-66.121493, 9.312467], [-66.122489, 9.31345000000016], [-66.122992, 9.314836], [-66.123775, 9.316043], [-66.12467199999986, 9.3173910000001], [-66.12507, 9.3182240000001], [-66.12533699999989, 9.318779000000177], [-65.99905, 9.60987], [-66.001616, 9.611725], [-66.00255699999985, 9.61358], [-66.003754, 9.614423], [-66.004866, 9.616193], [-66.005892, 9.616699], [-66.007261, 9.618048000000101], [-66.008372, 9.618807000000174], [-66.00897099999986, 9.619566], [-66.010038, 9.62011600000011], [-66.010842, 9.62047200000012], [-66.0113439999999, 9.620892], [-66.011989, 9.621086000000105], [-66.01256199999989, 9.621393000000126], [-66.01355299999989, 9.621638000000132], [-66.014216, 9.622129], [-66.01487999999983, 9.622552], [-66.015606, 9.623411], [-66.015771, 9.624581], [-66.01582, 9.625772], [-66.015827, 9.626735000000167], [-66.015873, 9.628109000000165], [-66.01646099999988, 9.628943], [-66.017362, 9.629003], [-66.018103, 9.629038], [-66.01884299999989, 9.629027], [-66.019823, 9.629959], [-66.02125699999988, 9.630097000000148], [-66.022692, 9.630074], [-66.023735, 9.629999], [-66.024596, 9.629716], [-66.025389, 9.629385], [-66.0261349999999, 9.629054000000167], [-66.027203, 9.628911], [-66.028513, 9.629436000000169], [-66.029159, 9.629561], [-66.029898, 9.629664], [-66.03070799999989, 9.629677], [-66.031054, 9.629775000000166], [-66.031906, 9.628643], [-66.032989, 9.627607000000182], [-66.0342619999999, 9.627582], [-66.03535, 9.627600000000143], [-66.037617, 9.627705000000105], [-66.03890799999982, 9.628001], [-66.040319, 9.628023000000155], [-66.041571, 9.627906], [-66.042515, 9.628219000000172], [-66.043519, 9.627732], [-66.04415499999982, 9.627124], [-66.044793, 9.626356], [-66.045155, 9.625469], [-66.04541799999987, 9.62499200000019], [-66.046424, 9.624390000000119], [-66.047439, 9.624567000000184], [-66.04838099999989, 9.625017000000128], [-66.048963, 9.626148], [-66.049615, 9.627281], [-66.050385, 9.628277], [-66.051052, 9.6285400000001], [-66.05187599999988, 9.629126], [-66.053048, 9.62958], [-66.053531, 9.629816000000176], [-66.05406, 9.629709], [-66.0542549999999, 9.629669], [-66.05457599999988, 9.629604], [-66.056002, 9.630154], [-66.056392, 9.632157], [-66.05653899999987, 9.633963000000108], [-66.05761499999988, 9.634691], [-66.058477, 9.635735000000182], [-66.06107999999989, 9.637837000000161], [-66.062715, 9.64109100000013], [-66.064057, 9.642464], [-66.065599, 9.64443400000016], [-66.066087, 9.645656], [-66.0681, 9.648481000000118], [-66.070723, 9.650767], [-66.07244, 9.651939], [-66.075296, 9.652786]]]}}]}