{"type": "FeatureCollection", "features": [{"type": "Feature", "properties": {"Pais": "Venezuela", "Estado": "T\u00e1chira", "Municipio": "C\u00e1rdenas", "Parroquia": "C\u00e1rdenas"}, "geometry": {"type": "Polygon", "coordinates": [[[-72.245783, 7.774024], [-72.245485, 7.775222], [-72.244967, 7.775681000000191], [-72.244895, 7.775926], [-72.245115, 7.77689], [-72.245043, 7.777114], [-72.244701, 7.777521], [-72.24401099999983, 7.778435000000172], [-72.24335999999988, 7.779169000000138], [-72.244337, 7.77964], [-72.244465, 7.779799], [-72.244464, 7.779947], [-72.244161, 7.780092000000138], [-72.2434439999999, 7.780246], [-72.240954, 7.780744], [-72.240831, 7.780716], [-72.24042999999983, 7.780248], [-72.240209, 7.780642000000171], [-72.240034, 7.781225], [-72.239829, 7.781477000000166], [-72.239656, 7.781776], [-72.239544, 7.782281], [-72.239432, 7.782613], [-72.239225, 7.783275], [-72.23909899999984, 7.783559], [-72.238675, 7.784094000000152], [-72.238062, 7.784880000000157], [-72.23781, 7.785369000000117], [-72.237556, 7.78604700000011], [-72.23739499999988, 7.78674100000012], [-72.237157, 7.787420000000168], [-72.237011, 7.788241], [-72.236882, 7.788951], [-72.236684, 7.790468000000146], [-72.23660999999987, 7.792111], [-72.23655799999983, 7.792981], [-72.236492, 7.793518], [-72.236454, 7.79446600000017], [-72.236434, 7.795067000000131], [-72.23639899999989, 7.795588000000123], [-72.236254, 7.796378000000118], [-72.23605999999984, 7.797325000000114], [-72.235884, 7.798019000000181], [-72.23563, 7.798729], [-72.235453, 7.799598], [-72.235354, 7.800403], [-72.235209, 7.800971000000175], [-72.234721, 7.80179], [-72.234577, 7.802327000000105], [-72.234482, 7.802516], [-72.234464, 7.802943], [-72.23413, 7.803763], [-72.23397199999982, 7.80412500000017], [-72.233923, 7.804473], [-72.23318, 7.806065000000103], [-72.232845, 7.807217], [-72.23272899999989, 7.808244000000116], [-72.232585, 7.808781000000124], [-72.232301, 7.809269], [-72.232002, 7.809741000000145], [-72.231671, 7.810340000000167], [-72.231011, 7.811158000000148], [-72.23037, 7.811565], [-72.228513, 7.812248000000125], [-72.227717, 7.812575000000152], [-72.227468, 7.812557], [-72.226816, 7.812316], [-72.226474, 7.812187], [-72.2262439999999, 7.811871000000167], [-72.226104, 7.811679], [-72.225808, 7.812296000000174], [-72.224503, 7.813213000000189], [-72.22327799999988, 7.814131], [-72.221501, 7.814956000000166], [-72.21919899999989, 7.817051000000106], [-72.2176199999999, 7.818901], [-72.215952, 7.818960000000175], [-72.214819, 7.819539000000134], [-72.213171, 7.821133], [-72.212061, 7.82316], [-72.209194, 7.823457], [-72.20577999999983, 7.821446000000151], [-72.203463, 7.819792], [-72.20006, 7.817525000000103], [-72.198021, 7.816898], [-72.195765, 7.815756], [-72.19299, 7.815714000000185], [-72.192009, 7.816466], [-72.190172, 7.816778000000113], [-72.1886229999999, 7.817862000000105], [-72.18736699999982, 7.817502000000161], [-72.184143, 7.816772000000128], [-72.181096, 7.815532], [-72.179688, 7.815], [-72.17851499999989, 7.814556], [-72.177831, 7.813779000000125], [-72.17725999999988, 7.814196000000152], [-72.17592499999989, 7.813835000000154], [-72.174415, 7.813897000000111], [-72.172268, 7.81403500000016], [-72.171231, 7.814189000000113], [-72.169982, 7.813659000000143], [-72.16863399999988, 7.813639], [-72.16800599999988, 7.813459000000137], [-72.166734, 7.813525], [-72.165571, 7.812825], [-72.164197, 7.813486], [-72.163893, 7.81314], [-72.158259, 7.811095], [-72.15071, 7.809362], [-72.14630199999982, 7.808442000000127], [-72.143927, 7.808321], [-72.13842, 7.806831], [-72.136513, 7.809279000000117], [-72.1355, 7.811747], [-72.134516, 7.817318], [-72.129004, 7.823451000000148], [-72.125834, 7.827499], [-72.132034, 7.829691], [-72.140227, 7.833639], [-72.1451009999999, 7.838250000000187], [-72.149529, 7.839345], [-72.151745, 7.841979000000151], [-72.154406, 7.846372], [-72.158838, 7.85054300000013], [-72.16371, 7.853175000000135], [-72.16658799999988, 7.85405100000014], [-72.170126, 7.851411], [-72.175435, 7.848989000000188], [-72.180526, 7.848106000000143], [-72.184288, 7.848322], [-72.19137399999988, 7.850952], [-72.190934, 7.85271], [-72.190688, 7.853749], [-72.191351, 7.854742000000101], [-72.192568, 7.856838], [-72.19400599999989, 7.858824], [-72.195444, 7.861031], [-72.195554, 7.863236], [-72.196881, 7.864120000000128], [-72.198098, 7.867318], [-72.20031, 7.870629000000122], [-72.20363, 7.873169000000132], [-72.204602, 7.871234], [-72.20553099999984, 7.868739], [-72.205652, 7.867717], [-72.205775, 7.866354], [-72.206012, 7.864991], [-72.206362, 7.863743], [-72.206599, 7.862381000000141], [-72.206723, 7.861017000000118], [-72.206848, 7.859313000000157], [-72.205458, 7.857279], [-72.204177, 7.855735], [-72.20162299999987, 7.854426000000103], [-72.19940899999989, 7.852529000000175], [-72.199685, 7.851517000000115], [-72.200068, 7.847711000000118], [-72.20062599999989, 7.845518], [-72.201923, 7.844606000000113], [-72.20332599999989, 7.845051000000126], [-72.20512, 7.845586], [-72.207252, 7.845534000000157], [-72.209571, 7.844099], [-72.21015999999986, 7.841261], [-72.210511, 7.840013], [-72.210975, 7.838765000000137], [-72.211668, 7.837406000000158], [-72.212474, 7.836161000000175], [-72.21414, 7.834934], [-72.219304, 7.834968], [-72.22345299999989, 7.830885], [-72.22362, 7.826233000000116], [-72.226377, 7.825549], [-72.2289009999999, 7.825326000000189], [-72.231305, 7.825102000000129], [-72.233589, 7.824878], [-72.237549, 7.825502], [-72.240549, 7.825882], [-72.24331199999989, 7.825900000000104], [-72.246196, 7.825799], [-72.24847799999986, 7.825694000000112], [-72.25076199999984, 7.825469000000112], [-72.254125, 7.82549100000017], [-72.256527, 7.825746000000152], [-72.259166, 7.826362000000131], [-72.2627619999999, 7.827464], [-72.265037, 7.828557], [-72.267811, 7.829955], [-72.268267, 7.829506], [-72.276684, 7.828646000000106], [-72.276684, 7.825890000000129], [-72.2771269999999, 7.822143], [-72.27712799999989, 7.818947000000151], [-72.275689, 7.817181], [-72.274915, 7.815966], [-72.27325499999989, 7.816295], [-72.272037, 7.817506], [-72.27082, 7.817945], [-72.26971399999985, 7.817172], [-72.268386, 7.815737000000126], [-72.267058, 7.814633], [-72.266173, 7.81397], [-72.26650499999988, 7.812426], [-72.266243, 7.811773], [-72.264913, 7.81067], [-72.264247, 7.809346000000176], [-72.263581, 7.807250000000124], [-72.262803, 7.805263], [-72.261804, 7.803277], [-72.26058499999982, 7.801733000000127], [-72.2594749999999, 7.799968000000149], [-72.258589, 7.799417000000176], [-72.258366, 7.798203000000115], [-72.257479, 7.797432], [-72.257367, 7.796548000000143], [-72.25626099999988, 7.796550000000138], [-72.2552639999999, 7.795778], [-72.253824, 7.794897000000105], [-72.25227299999989, 7.793795], [-72.25204999999983, 7.79247], [-72.2522699999999, 7.791697], [-72.253155, 7.791475000000162], [-72.25259899999986, 7.78937800000017], [-72.250822, 7.784965000000113], [-72.248714, 7.780993], [-72.247163, 7.77978], [-72.246715, 7.776138000000174], [-72.246623, 7.774866], [-72.246479, 7.774642], [-72.246426, 7.774663], [-72.24643399999985, 7.774284], [-72.245783, 7.774024]]]}}, {"type": "Feature", "properties": {"Pais": "Venezuela", "Estado": "T\u00e1chira", "Municipio": "C\u00e1rdenas", "Parroquia": "Amenodoro Rangel Lam\u00fas"}, "geometry": {"type": "Polygon", "coordinates": [[[-72.225808, 7.812296000000174], [-72.226104, 7.811679], [-72.225904, 7.81140900000014], [-72.225424, 7.810947000000112], [-72.22521, 7.810408000000109], [-72.224964, 7.809995], [-72.224421, 7.809707000000174], [-72.224188, 7.809674], [-72.223042, 7.80886], [-72.222129, 7.808143], [-72.221571, 7.807728], [-72.221291, 7.807695000000137], [-72.219922, 7.807638], [-72.2195339999999, 7.807398], [-72.219037, 7.807284], [-72.218398, 7.80737500000015], [-72.217901, 7.807261], [-72.217652, 7.807244000000139], [-72.217262, 7.807383], [-72.216997, 7.807318], [-72.21635899999984, 7.807393], [-72.21575, 7.80761], [-72.215, 7.808001], [-72.214374, 7.808502000000146], [-72.21358, 7.808560000000114], [-72.21271, 7.808270000000107], [-72.212119, 7.80815600000011], [-72.21145, 7.808198], [-72.210857, 7.808289000000116], [-72.210061, 7.808584000000167], [-72.209595, 7.808439], [-72.20913, 7.808278], [-72.20861699999989, 7.807911000000104], [-72.208307, 7.807846], [-72.20785699999982, 7.807558], [-72.207486, 7.807208000000173], [-72.206834, 7.806998], [-72.2064, 7.806774000000132], [-72.205808, 7.806849000000113], [-72.205123, 7.806844], [-72.204669, 7.807142], [-72.204076, 7.807343000000174], [-72.203454, 7.80726], [-72.20298799999983, 7.807083000000148], [-72.20224, 7.807189], [-72.201678, 7.807438], [-72.200698, 7.807384000000184], [-72.200169, 7.807396], [-72.199517, 7.807139000000177], [-72.19913, 7.806789000000151], [-72.19868, 7.806564], [-72.198135, 7.806608], [-72.197402, 7.806809], [-72.196527, 7.807277], [-72.196043, 7.807479], [-72.195265, 7.807458], [-72.19445699999989, 7.80718400000012], [-72.193897, 7.807212000000163], [-72.19328399999984, 7.807221], [-72.192399, 7.807298000000173], [-72.19141899999988, 7.807293000000129], [-72.190662, 7.807208000000173], [-72.190678, 7.807572000000107], [-72.18691499999989, 7.807438], [-72.184153, 7.80653500000011], [-72.181825, 7.807185], [-72.179165, 7.807832000000133], [-72.176063, 7.808366], [-72.17286, 7.807129], [-72.17176199999989, 7.805684], [-72.169122, 7.802901000000134], [-72.16658699999988, 7.801226], [-72.165163, 7.798783000000128], [-72.161964, 7.796992000000103], [-72.158644, 7.796750000000145], [-72.157, 7.794085000000109], [-72.155358, 7.791087000000175], [-72.153037, 7.790519], [-72.149827, 7.790610000000129], [-72.149167, 7.78994200000011], [-72.14684299999982, 7.789927000000148], [-72.14452399999988, 7.789138], [-72.142093, 7.788459000000159], [-72.141221, 7.786241000000132], [-72.14047999999985, 7.790615], [-72.139717, 7.79253100000011], [-72.139342, 7.793472000000179], [-72.138208, 7.796846], [-72.137893, 7.802266], [-72.13842, 7.806831], [-72.143927, 7.808321], [-72.14630199999982, 7.808442000000127], [-72.15071, 7.809362], [-72.158259, 7.811095], [-72.163893, 7.81314], [-72.164197, 7.813486], [-72.165571, 7.812825], [-72.166734, 7.813525], [-72.16800599999988, 7.813459000000137], [-72.16863399999988, 7.813639], [-72.169982, 7.813659000000143], [-72.171231, 7.814189000000113], [-72.172268, 7.81403500000016], [-72.174415, 7.813897000000111], [-72.17592499999989, 7.813835000000154], [-72.17725999999988, 7.814196000000152], [-72.177831, 7.813779000000125], [-72.17851499999989, 7.814556], [-72.179688, 7.815], [-72.181096, 7.815532], [-72.184143, 7.816772000000128], [-72.18736699999982, 7.817502000000161], [-72.1886229999999, 7.817862000000105], [-72.190172, 7.816778000000113], [-72.192009, 7.816466], [-72.19299, 7.815714000000185], [-72.195765, 7.815756], [-72.198021, 7.816898], [-72.20006, 7.817525000000103], [-72.203463, 7.819792], [-72.20577999999983, 7.821446000000151], [-72.209194, 7.823457], [-72.212061, 7.82316], [-72.213171, 7.821133], [-72.214819, 7.819539000000134], [-72.215952, 7.818960000000175], [-72.2176199999999, 7.818901], [-72.21919899999989, 7.817051000000106], [-72.221501, 7.814956000000166], [-72.22327799999988, 7.814131], [-72.224503, 7.813213000000189], [-72.225808, 7.812296000000174]]]}}, {"type": "Feature", "properties": {"Pais": "Venezuela", "Estado": "T\u00e1chira", "Municipio": "C\u00e1rdenas", "Parroquia": "La Florida"}, "geometry": {"type": "Polygon", "coordinates": [[[-72.002727, 7.725358], [-72.0019109999999, 7.725774], [-72.001404, 7.726393], [-71.999569, 7.727432], [-71.998654, 7.728157000000181], [-71.998258, 7.729593], [-71.997549, 7.730521], [-71.995918, 7.731456000000151], [-71.994904, 7.732590000000187], [-71.994817, 7.734229], [-71.994116, 7.735976], [-71.99299799999989, 7.737009], [-71.99187999999987, 7.738042], [-71.991279, 7.73948], [-71.990167, 7.741128000000117], [-71.988031, 7.742784], [-71.986607, 7.743922], [-71.98539, 7.745263000000136], [-71.984178, 7.747219], [-71.983478, 7.748966000000109], [-71.983605, 7.751627], [-71.983732, 7.75418500000012], [-71.98200399999985, 7.755633], [-71.979666, 7.757701], [-71.978148, 7.75976100000014], [-71.978264, 7.761193000000162], [-71.977979, 7.763550000000123], [-71.97697199999988, 7.765402], [-71.976783, 7.767144000000144], [-71.976285, 7.768684000000178], [-71.975367, 7.769101], [-71.974454, 7.770132000000103], [-71.973234, 7.771167000000105], [-71.971906, 7.77169], [-71.97109099999989, 7.772208], [-71.969865, 7.772628], [-71.96925899999985, 7.773555000000158], [-71.969773, 7.774529], [-71.971395, 7.776053], [-71.972608, 7.776912], [-71.973024, 7.778447], [-71.97371599999985, 7.780781000000104], [-71.974938, 7.782643000000178], [-71.976898, 7.784566], [-71.977445, 7.785765], [-71.978121, 7.786495], [-71.979394, 7.786618], [-71.98092799999989, 7.786004000000105], [-71.981998, 7.785861000000125], [-71.98233899999985, 7.786527], [-71.98221599999988, 7.787598000000173], [-71.982426, 7.788599], [-71.98412, 7.790791], [-71.98600599999986, 7.791912], [-71.986816, 7.792641000000174], [-71.988358, 7.792829], [-71.989895, 7.792548000000124], [-71.991902, 7.792397], [-71.99471299999988, 7.792307], [-71.996062, 7.793365], [-71.997282, 7.794893000000172], [-71.999293, 7.795210000000111], [-72.0006259999999, 7.794531], [-72.001761, 7.79425300000014], [-72.002707, 7.795182], [-72.005703, 7.796096], [-72.007799, 7.797105], [-72.010992, 7.799671], [-72.0137529999999, 7.800685000000101], [-72.013524, 7.801900000000103], [-72.013389, 7.805883000000165], [-72.013705, 7.808429000000103], [-72.013249, 7.810528], [-72.013899, 7.812634], [-72.01599299999987, 7.813976], [-72.018984, 7.813553], [-72.021752, 7.813350000000128], [-72.023628, 7.814137], [-72.0256179999999, 7.814482], [-72.027123, 7.815486000000135], [-72.02756899999986, 7.819221], [-72.03067, 7.822954], [-72.03443999999985, 7.830422000000112], [-72.037543, 7.836352000000147], [-72.03997899999985, 7.838548000000117], [-72.0450699999999, 7.839643000000137], [-72.04589599999986, 7.83954000000017], [-72.05038, 7.838981000000103], [-72.056798, 7.837658], [-72.059452, 7.836338], [-72.064319, 7.834577], [-72.071176, 7.831716], [-72.074495, 7.831055000000106], [-72.078921, 7.831711], [-72.082243, 7.833027], [-72.084237, 7.834783000000186], [-72.08800099999985, 7.836758], [-72.088669, 7.840932], [-72.089777, 7.842908], [-72.091549, 7.844445], [-72.093101, 7.847520000000145], [-72.0982, 7.850879], [-72.099236, 7.850934000000166], [-72.099883, 7.850863000000174], [-72.101769, 7.851685000000145], [-72.101969, 7.85233], [-72.102948, 7.853096], [-72.104116, 7.853343], [-72.105612, 7.85318100000012], [-72.10658099999989, 7.853772000000163], [-72.107554, 7.853956], [-72.107811, 7.853695000000187], [-72.108325, 7.853302], [-72.10969199999982, 7.854065], [-72.112089, 7.85417], [-72.114217, 7.853115000000173], [-72.117173, 7.850758], [-72.118704, 7.848221], [-72.119275, 7.846987], [-72.12022899999982, 7.845166], [-72.12053999999989, 7.842885], [-72.119428, 7.838271000000134], [-72.120171, 7.836462], [-72.1214149999999, 7.83343600000012], [-72.1249509999999, 7.828818000000126], [-72.125834, 7.827499], [-72.129004, 7.823451000000148], [-72.134516, 7.817318], [-72.1355, 7.811747], [-72.136513, 7.809279000000117], [-72.13842, 7.806831], [-72.137893, 7.802266], [-72.138208, 7.796846], [-72.139342, 7.793472000000179], [-72.139717, 7.79253100000011], [-72.14047999999985, 7.790615], [-72.141221, 7.786241000000132], [-72.140803, 7.785331], [-72.140048, 7.783687], [-72.140048, 7.783686000000159], [-72.138162, 7.779582], [-72.135207, 7.773921], [-72.131471, 7.769582], [-72.128504, 7.766134], [-72.12619199999989, 7.764128], [-72.125321, 7.761688], [-72.123453, 7.759464], [-72.122802, 7.757358], [-72.12215, 7.755362000000162], [-72.11994599999986, 7.75391], [-72.116625, 7.754110000000139], [-72.114085, 7.753098], [-72.11211, 7.750209], [-72.110361, 7.746768000000145], [-72.107269, 7.745753], [-72.105053, 7.746182000000147], [-72.103173, 7.745948000000169], [-72.101521, 7.744610000000137], [-72.09919899999983, 7.744374000000107], [-72.09554899999989, 7.74413], [-72.09467299999989, 7.742686000000106], [-72.093242, 7.74146], [-72.09158999999988, 7.740011], [-72.089051, 7.738999], [-72.084955, 7.739305000000115], [-72.08296699999988, 7.73873900000018], [-72.080541, 7.737396000000103], [-72.07911, 7.73617], [-72.078454, 7.734838], [-72.078573, 7.733511], [-72.08069, 7.73098], [-72.083031, 7.728119], [-72.082492, 7.725792], [-72.082403, 7.722251], [-72.080544, 7.718587], [-72.080115, 7.716372000000149], [-72.078686, 7.714814], [-72.07792699999987, 7.712375000000179], [-72.07616899999988, 7.710372000000177], [-72.074961, 7.708816], [-72.07442, 7.706821], [-72.074663, 7.703282000000115], [-72.075006, 7.701404], [-72.07413, 7.69996], [-72.073923, 7.697635], [-72.073603, 7.695531], [-72.073723, 7.694094000000177], [-72.071725, 7.694966], [-72.067962, 7.69516300000015], [-72.06431, 7.695361], [-72.059881, 7.695886000000144], [-72.05755099999988, 7.696977000000174], [-72.055776, 7.69774], [-72.053231, 7.697945000000118], [-72.051119, 7.699481], [-72.047783, 7.702004], [-72.046213, 7.705534000000114], [-72.045314, 7.70774], [-72.04497, 7.709729], [-72.044853, 7.710835000000145], [-72.04439999999988, 7.712492000000111], [-72.043176, 7.713591], [-72.041948, 7.715353], [-72.041056, 7.716564], [-72.038266, 7.720418], [-72.03626, 7.722728], [-72.032815, 7.725140000000124], [-72.03015099999988, 7.726561000000117], [-72.027843, 7.72716000000014], [-72.023502, 7.728287000000137], [-72.020277, 7.730811], [-72.0164979999999, 7.733441], [-72.014941, 7.734758000000113], [-72.012848, 7.733306], [-72.008108, 7.730399], [-72.002727, 7.725358]]]}}]}