{
  "type": "FeatureCollection",
  "features": [
    {
      "type": "Feature",
      "properties": {
        "Pais": "Venezuela",
        "Estado": "Falcón",
        "Municipio": "Dabajuro"
      },
      "geometry": {
        "type": "Polygon",
        "coordinates": [
          [
            [
              -70.663501,
              11.103697
            ],
            [
              -70.664704,
              11.104611
            ],
            [
              -70.666551,
              11.104811
            ],
            [
              -70.667854,
              11.10423
            ],
            [
              -70.723013,
              11.102511000000163
            ],
            [
              -70.724298,
              11.101895000000184
            ],
            [
              -70.725025,
              11.101848000000189
            ],
            [
              -70.726111,
              11.101025000000107
            ],
            [
              -70.75969399999985,
              11.084914
            ],
            [
              -70.74094699999984,
              11.009989
            ],
            [
              -70.73799999999989,
              10.975654
            ],
            [
              -70.732322,
              10.943141
            ],
            [
              -70.693975,
              10.794639
            ],
            [
              -70.68464299999988,
              10.760789
            ],
            [
              -70.68454352599991,
              10.75933940100009
            ],
            [
              -70.679652,
              10.688057000000128
            ],
            [
              -70.67971851999994,
              10.688085448000152
            ],
            [
              -70.67971832199999,
              10.688082567000038
            ],
            [
              -70.67933505199983,
              10.68180901300019
            ],
            [
              -70.67694131299999,
              10.529440677000139
            ],
            [
              -70.67629965999993,
              10.488597636
            ],
            [
              -70.6762089319999,
              10.486389665000047
            ],
            [
              -70.67110212899996,
              10.332863543000144
            ],
            [
              -70.67090668699996,
              10.326987972999973
            ],
            [
              -70.67080697099993,
              10.323990195000135
            ],
            [
              -70.67073065099993,
              10.321695802000079
            ],
            [
              -70.67045777899995,
              10.313492421000149
            ],
            [
              -70.67036521599982,
              10.310709700000018
            ],
            [
              -70.66433414799997,
              10.315316721000102
            ],
            [
              -70.66236230399988,
              10.31682297600014
            ],
            [
              -70.65404560499991,
              10.31592511000008
            ],
            [
              -70.6464155029999,
              10.322085318000177
            ],
            [
              -70.62353561999998,
              10.329975614000034
            ],
            [
              -70.60410365399997,
              10.329279640000152
            ],
            [
              -70.58142181499994,
              10.322779561000118
            ],
            [
              -70.57841621899996,
              10.323178981000126
            ],
            [
              -70.57470871099997,
              10.323671679000029
            ],
            [
              -70.56909937999995,
              10.327089720000174
            ],
            [
              -70.56008992599993,
              10.340306184000156
            ],
            [
              -70.55412375499986,
              10.346546522000097
            ],
            [
              -70.55364273699996,
              10.355191641000147
            ],
            [
              -70.54415134899995,
              10.365082967000035
            ],
            [
              -70.53566025199996,
              10.398287756000173
            ],
            [
              -70.53559962599996,
              10.402418816000022
            ],
            [
              -70.53786477699998,
              10.40808607300005
            ],
            [
              -70.53723947899994,
              10.411679074000062
            ],
            [
              -70.52700929199995,
              10.423101461000044
            ],
            [
              -70.52382730199992,
              10.436342724000099
            ],
            [
              -70.52068417499999,
              10.443021918000113
            ],
            [
              -70.51425204799989,
              10.446178023000186
            ],
            [
              -70.51424440099998,
              10.446182059000023
            ],
            [
              -70.51377585199992,
              10.449209006000046
            ],
            [
              -70.51358100199997,
              10.450449228000025
            ],
            [
              -70.51927202199994,
              10.450485200000173
            ],
            [
              -70.52096831199998,
              10.451125291000096
            ],
            [
              -70.52514713199997,
              10.45270215800008
            ],
            [
              -70.52701687899986,
              10.458301882000114
            ],
            [
              -70.52723742399996,
              10.45896239600006
            ],
            [
              -70.52849649699988,
              10.459996924000052
            ],
            [
              -70.52909020099997,
              10.460484746000077
            ],
            [
              -70.5317663319999,
              10.462683610000113
            ],
            [
              -70.53145179199998,
              10.463021235999975
            ],
            [
              -70.53357904999996,
              10.463606816000151
            ],
            [
              -70.533552,
              10.463706000000172
            ],
            [
              -70.533045,
              10.465049
            ],
            [
              -70.533268,
              10.466976
            ],
            [
              -70.53433799999988,
              10.469417
            ],
            [
              -70.53516773999996,
              10.471750403000044
            ],
            [
              -70.53541899999988,
              10.47245700000019
            ],
            [
              -70.537134,
              10.473507
            ],
            [
              -70.539308,
              10.475422
            ],
            [
              -70.540851,
              10.474819
            ],
            [
              -70.542862,
              10.475564
            ],
            [
              -70.545267,
              10.476325000000145
            ],
            [
              -70.54518,
              10.477799
            ],
            [
              -70.545006,
              10.478377
            ],
            [
              -70.54535,
              10.480509
            ],
            [
              -70.545874,
              10.482362000000137
            ],
            [
              -70.546252,
              10.483873
            ],
            [
              -70.547771,
              10.485547
            ],
            [
              -70.5498649999999,
              10.485785
            ],
            [
              -70.551399,
              10.485872
            ],
            [
              -70.552814,
              10.485823000000153
            ],
            [
              -70.5542099999999,
              10.487154000000146
            ],
            [
              -70.55511399999989,
              10.488242
            ],
            [
              -70.55527299999983,
              10.48922800000014
            ],
            [
              -70.5552909999999,
              10.490124
            ],
            [
              -70.555863,
              10.490895
            ],
            [
              -70.5565,
              10.491436
            ],
            [
              -70.55715,
              10.491401000000167
            ],
            [
              -70.55785,
              10.491618000000187
            ],
            [
              -70.558714,
              10.491855
            ],
            [
              -70.559314,
              10.491706
            ],
            [
              -70.5590289999999,
              10.492516
            ],
            [
              -70.55927999999989,
              10.493478
            ],
            [
              -70.560167,
              10.49488700000012
            ],
            [
              -70.561668,
              10.495687
            ],
            [
              -70.562467,
              10.496156
            ],
            [
              -70.562647,
              10.497072
            ],
            [
              -70.563748,
              10.49755800000014
            ],
            [
              -70.564355,
              10.498881
            ],
            [
              -70.564932,
              10.499882
            ],
            [
              -70.56630899999982,
              10.500271
            ],
            [
              -70.567427,
              10.501653
            ],
            [
              -70.56758,
              10.503490000000113
            ],
            [
              -70.567583,
              10.50480000000016
            ],
            [
              -70.56831299999988,
              10.505316
            ],
            [
              -70.56823,
              10.505823
            ],
            [
              -70.567559,
              10.505951
            ],
            [
              -70.56761299999988,
              10.506318
            ],
            [
              -70.568367,
              10.506902
            ],
            [
              -70.567368,
              10.508024
            ],
            [
              -70.56715899999989,
              10.507982
            ],
            [
              -70.566004,
              10.508279
            ],
            [
              -70.565684,
              10.507342000000165
            ],
            [
              -70.565375,
              10.506979000000172
            ],
            [
              -70.564009,
              10.508338000000151
            ],
            [
              -70.56357899999989,
              10.5089210000001
            ],
            [
              -70.563,
              10.508977
            ],
            [
              -70.563128,
              10.509573
            ],
            [
              -70.562425,
              10.510414
            ],
            [
              -70.561965,
              10.511779000000104
            ],
            [
              -70.563046,
              10.512426000000175
            ],
            [
              -70.56306599999988,
              10.51343700000018
            ],
            [
              -70.563338,
              10.514283
            ],
            [
              -70.562879,
              10.514544000000114
            ],
            [
              -70.561928,
              10.514585000000125
            ],
            [
              -70.56057,
              10.515184000000147
            ],
            [
              -70.558982,
              10.515880000000152
            ],
            [
              -70.55786299999988,
              10.51564800000017
            ],
            [
              -70.556722,
              10.516634000000181
            ],
            [
              -70.556831,
              10.517437
            ],
            [
              -70.556403,
              10.518112
            ],
            [
              -70.555918,
              10.51936400000011
            ],
            [
              -70.556,
              10.520006000000137
            ],
            [
              -70.555887,
              10.521342000000175
            ],
            [
              -70.557222,
              10.52191500000015
            ],
            [
              -70.55836099999988,
              10.52200900000014
            ],
            [
              -70.559549,
              10.522195
            ],
            [
              -70.560966,
              10.522261000000185
            ],
            [
              -70.561724,
              10.52300600000018
            ],
            [
              -70.561472,
              10.524367
            ],
            [
              -70.56164,
              10.525790000000143
            ],
            [
              -70.562147,
              10.526792000000114
            ],
            [
              -70.5613259999999,
              10.52752
            ],
            [
              -70.56031499999983,
              10.528067
            ],
            [
              -70.5595689999999,
              10.529047000000162
            ],
            [
              -70.558846,
              10.530049000000133
            ],
            [
              -70.558831,
              10.531636000000162
            ],
            [
              -70.56011399999988,
              10.531934
            ],
            [
              -70.56128299999989,
              10.53235
            ],
            [
              -70.56130999999982,
              10.533706000000166
            ],
            [
              -70.56093,
              10.534472000000164
            ],
            [
              -70.561041,
              10.535367000000122
            ],
            [
              -70.562559,
              10.535799000000168
            ],
            [
              -70.5632829999999,
              10.537188000000128
            ],
            [
              -70.56361199999986,
              10.538585000000126
            ],
            [
              -70.563289,
              10.539833000000158
            ],
            [
              -70.563291,
              10.541097
            ],
            [
              -70.56265699999989,
              10.541914
            ],
            [
              -70.56152599999984,
              10.542256
            ],
            [
              -70.560105,
              10.543156000000124
            ],
            [
              -70.56035999999989,
              10.544301000000189
            ],
            [
              -70.560709,
              10.545514
            ],
            [
              -70.559791,
              10.546059000000128
            ],
            [
              -70.559086,
              10.54678500000017
            ],
            [
              -70.559042,
              10.548074
            ],
            [
              -70.559011,
              10.550006
            ],
            [
              -70.559012,
              10.551247
            ],
            [
              -70.558889,
              10.552077000000168
            ],
            [
              -70.55727699999989,
              10.552728
            ],
            [
              -70.556953,
              10.553952
            ],
            [
              -70.556911,
              10.556506000000184
            ],
            [
              -70.55619799999988,
              10.55801300000013
            ],
            [
              -70.554496,
              10.558803000000125
            ],
            [
              -70.553375,
              10.559676
            ],
            [
              -70.553322,
              10.561677
            ],
            [
              -70.552872,
              10.563548
            ],
            [
              -70.5531969999999,
              10.565888
            ],
            [
              -70.552562,
              10.567831000000183
            ],
            [
              -70.55191599999989,
              10.569176
            ],
            [
              -70.55162499999989,
              10.569711
            ],
            [
              -70.552093,
              10.571082
            ],
            [
              -70.552332,
              10.572572
            ],
            [
              -70.551343,
              10.574223
            ],
            [
              -70.550836,
              10.575612
            ],
            [
              -70.5484919999999,
              10.577700000000164
            ],
            [
              -70.548314,
              10.577935
            ],
            [
              -70.54729,
              10.577188
            ],
            [
              -70.546671,
              10.576749000000177
            ],
            [
              -70.54577599999982,
              10.576411
            ],
            [
              -70.545055,
              10.576412000000175
            ],
            [
              -70.544357,
              10.577123
            ],
            [
              -70.544292,
              10.577974
            ],
            [
              -70.543665,
              10.578729
            ],
            [
              -70.542322,
              10.57891
            ],
            [
              -70.5407469999999,
              10.579099
            ],
            [
              -70.53918,
              10.579563000000121
            ],
            [
              -70.538683,
              10.581461000000104
            ],
            [
              -70.538014,
              10.582355000000177
            ],
            [
              -70.53728199999983,
              10.583458000000121
            ],
            [
              -70.536259,
              10.583491
            ],
            [
              -70.53557399999983,
              10.583903
            ],
            [
              -70.534954,
              10.584864000000152
            ],
            [
              -70.53413099999989,
              10.585304000000122
            ],
            [
              -70.53281,
              10.585439000000122
            ],
            [
              -70.532569,
              10.586617
            ],
            [
              -70.53129599999988,
              10.587531000000183
            ],
            [
              -70.530319,
              10.588251
            ],
            [
              -70.529065,
              10.589049
            ],
            [
              -70.527616,
              10.589555000000132
            ],
            [
              -70.526246,
              10.589623
            ],
            [
              -70.52499,
              10.589595
            ],
            [
              -70.524196,
              10.590240000000165
            ],
            [
              -70.522954,
              10.59067
            ],
            [
              -70.522493,
              10.5928
            ],
            [
              -70.520456,
              10.60560100000015
            ],
            [
              -70.51971299999985,
              10.607071
            ],
            [
              -70.51899899999984,
              10.60874600000011
            ],
            [
              -70.518248,
              10.609987000000103
            ],
            [
              -70.518919,
              10.61134200000015
            ],
            [
              -70.520471,
              10.612600000000157
            ],
            [
              -70.521478,
              10.614265
            ],
            [
              -70.522002,
              10.616084000000114
            ],
            [
              -70.522388,
              10.61797600000017
            ],
            [
              -70.522654,
              10.619023
            ],
            [
              -70.522405,
              10.61995
            ],
            [
              -70.52061,
              10.622004000000175
            ],
            [
              -70.515382,
              10.633053
            ],
            [
              -70.51351099999988,
              10.633458
            ],
            [
              -70.51184599999988,
              10.633765
            ],
            [
              -70.510409,
              10.633903
            ],
            [
              -70.509119,
              10.634289
            ],
            [
              -70.508939,
              10.635213000000135
            ],
            [
              -70.508396,
              10.636424000000147
            ],
            [
              -70.50783499999983,
              10.637062000000128
            ],
            [
              -70.507859,
              10.637818
            ],
            [
              -70.50842099999988,
              10.639384
            ],
            [
              -70.50934499999988,
              10.640616
            ],
            [
              -70.51072199999987,
              10.64148900000015
            ],
            [
              -70.511746,
              10.642236000000139
            ],
            [
              -70.513139,
              10.642879
            ],
            [
              -70.514522,
              10.64393600000011
            ],
            [
              -70.515903,
              10.644947000000116
            ],
            [
              -70.516867,
              10.645971
            ],
            [
              -70.517364,
              10.646965
            ],
            [
              -70.51808199999988,
              10.648342000000184
            ],
            [
              -70.51938399999989,
              10.649768
            ],
            [
              -70.520944,
              10.651255000000162
            ],
            [
              -70.52262999999988,
              10.650879
            ],
            [
              -70.52479599999987,
              10.650235000000123
            ],
            [
              -70.526174,
              10.650419
            ],
            [
              -70.52816299999984,
              10.650768
            ],
            [
              -70.529762,
              10.651290000000188
            ],
            [
              -70.531449,
              10.651671
            ],
            [
              -70.533056,
              10.652468000000113
            ],
            [
              -70.534011,
              10.653217
            ],
            [
              -70.53493,
              10.654311
            ],
            [
              -70.536402,
              10.654516000000115
            ],
            [
              -70.536606,
              10.655817000000127
            ],
            [
              -70.537307,
              10.656644
            ],
            [
              -70.538346,
              10.657115
            ],
            [
              -70.539118,
              10.658696000000134
            ],
            [
              -70.54041699999988,
              10.659319000000153
            ],
            [
              -70.541515,
              10.660913
            ],
            [
              -70.542395,
              10.66295
            ],
            [
              -70.543724,
              10.663830000000189
            ],
            [
              -70.546284,
              10.66737200000017
            ],
            [
              -70.546619,
              10.669612
            ],
            [
              -70.547843,
              10.672059
            ],
            [
              -70.549029,
              10.674851000000103
            ],
            [
              -70.549363,
              10.677092
            ],
            [
              -70.54862,
              10.678994
            ],
            [
              -70.548187,
              10.680291
            ],
            [
              -70.549376,
              10.681362
            ],
            [
              -70.549892,
              10.682496
            ],
            [
              -70.54941799999989,
              10.684024
            ],
            [
              -70.548968,
              10.685551
            ],
            [
              -70.548215,
              10.686122
            ],
            [
              -70.54806899999983,
              10.68773300000015
            ],
            [
              -70.549395,
              10.689649
            ],
            [
              -70.54803,
              10.689915
            ],
            [
              -70.547594,
              10.692039
            ],
            [
              -70.549187,
              10.693442000000175
            ],
            [
              -70.55069,
              10.695927
            ],
            [
              -70.551034,
              10.697594000000151
            ],
            [
              -70.55178599999988,
              10.69791800000013
            ],
            [
              -70.552981,
              10.699241
            ],
            [
              -70.55456,
              10.700048000000152
            ],
            [
              -70.555426,
              10.7003
            ],
            [
              -70.556507,
              10.701672
            ],
            [
              -70.55744699999985,
              10.703024
            ],
            [
              -70.557684,
              10.703001
            ],
            [
              -70.558173,
              10.703586000000143
            ],
            [
              -70.558723,
              10.702898
            ],
            [
              -70.560435,
              10.703449
            ],
            [
              -70.55901,
              10.70415300000019
            ],
            [
              -70.558912,
              10.704867
            ],
            [
              -70.558181,
              10.705392000000188
            ],
            [
              -70.557771,
              10.705747
            ],
            [
              -70.557486,
              10.707407000000103
            ],
            [
              -70.55777199999983,
              10.70953500000013
            ],
            [
              -70.558268,
              10.711725000000172
            ],
            [
              -70.560337,
              10.712611
            ],
            [
              -70.560934,
              10.714202000000114
            ],
            [
              -70.561838,
              10.715004
            ],
            [
              -70.56281699999988,
              10.715116
            ],
            [
              -70.563774,
              10.71616900000015
            ],
            [
              -70.564793,
              10.716899000000183
            ],
            [
              -70.565754,
              10.718136000000186
            ],
            [
              -70.565996,
              10.719461
            ],
            [
              -70.566551,
              10.721191
            ],
            [
              -70.567925,
              10.721269
            ],
            [
              -70.56877399999985,
              10.721751000000154
            ],
            [
              -70.569462,
              10.722283000000118
            ],
            [
              -70.570459,
              10.723083
            ],
            [
              -70.570643,
              10.723951000000113
            ],
            [
              -70.569762,
              10.725007
            ],
            [
              -70.567801,
              10.725634
            ],
            [
              -70.566718,
              10.726995000000102
            ],
            [
              -70.565716,
              10.727826000000107
            ],
            [
              -70.566606,
              10.72901800000011
            ],
            [
              -70.566269,
              10.729487
            ],
            [
              -70.56452599999989,
              10.729556
            ],
            [
              -70.5635329999999,
              10.729858
            ],
            [
              -70.56031899999988,
              10.731597
            ],
            [
              -70.559201,
              10.732454
            ],
            [
              -70.558217,
              10.734041
            ],
            [
              -70.557754,
              10.735041
            ],
            [
              -70.55582299999986,
              10.735988
            ],
            [
              -70.55511599999988,
              10.736535
            ],
            [
              -70.554857,
              10.737345
            ],
            [
              -70.55540899999988,
              10.738042000000178
            ],
            [
              -70.554422,
              10.739492
            ],
            [
              -70.554709,
              10.74074700000017
            ],
            [
              -70.554204,
              10.74101300000018
            ],
            [
              -70.552846,
              10.741623000000175
            ],
            [
              -70.552179,
              10.741893000000118
            ],
            [
              -70.551837,
              10.74311900000015
            ],
            [
              -70.551431,
              10.74455300000011
            ],
            [
              -70.550867,
              10.746198000000163
            ],
            [
              -70.549405,
              10.747293000000184
            ],
            [
              -70.5483,
              10.747759
            ],
            [
              -70.547497,
              10.748194000000126
            ],
            [
              -70.547634,
              10.749958
            ],
            [
              -70.54791399999988,
              10.750937
            ],
            [
              -70.54511699999989,
              10.751655000000142
            ],
            [
              -70.5445749999999,
              10.75228900000019
            ],
            [
              -70.54557199999988,
              10.754053000000113
            ],
            [
              -70.545193,
              10.75470600000017
            ],
            [
              -70.546422,
              10.756441
            ],
            [
              -70.547495,
              10.756550000000118
            ],
            [
              -70.548085,
              10.756879
            ],
            [
              -70.54782399999988,
              10.757643
            ],
            [
              -70.547627,
              10.759072000000117
            ],
            [
              -70.54783,
              10.760673
            ],
            [
              -70.54703899999987,
              10.761613000000182
            ],
            [
              -70.547043,
              10.762693
            ],
            [
              -70.547788,
              10.76366
            ],
            [
              -70.54847,
              10.764904000000172
            ],
            [
              -70.549002,
              10.76668
            ],
            [
              -70.54941699999989,
              10.769332
            ],
            [
              -70.549431,
              10.770824
            ],
            [
              -70.547879,
              10.774837000000105
            ],
            [
              -70.546717,
              10.774891000000139
            ],
            [
              -70.545697,
              10.775951
            ],
            [
              -70.545731,
              10.777328000000182
            ],
            [
              -70.54564,
              10.779305000000136
            ],
            [
              -70.51394,
              10.8321
            ],
            [
              -70.516454,
              10.835181
            ],
            [
              -70.52017099999989,
              10.840331000000162
            ],
            [
              -70.523455,
              10.846892
            ],
            [
              -70.52433699999989,
              10.847307
            ],
            [
              -70.524345,
              10.847311
            ],
            [
              -70.532452,
              10.851131
            ],
            [
              -70.53374799999989,
              10.853002000000174
            ],
            [
              -70.53374899999989,
              10.853003
            ],
            [
              -70.535726,
              10.855857000000128
            ],
            [
              -70.536826,
              10.858669
            ],
            [
              -70.538234,
              10.862269
            ],
            [
              -70.54152,
              10.868984000000182
            ],
            [
              -70.550397,
              10.8798
            ],
            [
              -70.551291,
              10.880849000000126
            ],
            [
              -70.5513,
              10.880860000000155
            ],
            [
              -70.55273199999982,
              10.882542
            ],
            [
              -70.557254,
              10.888945
            ],
            [
              -70.562078,
              10.893815000000188
            ],
            [
              -70.563679,
              10.897542
            ],
            [
              -70.564048,
              10.898401
            ],
            [
              -70.564855,
              10.900278
            ],
            [
              -70.564856,
              10.900282
            ],
            [
              -70.564898,
              10.9003790000001
            ],
            [
              -70.565852,
              10.905269
            ],
            [
              -70.568028,
              10.90694
            ],
            [
              -70.56931499999985,
              10.915385000000185
            ],
            [
              -70.56931999999989,
              10.915416000000107
            ],
            [
              -70.570265,
              10.921618
            ],
            [
              -70.57121,
              10.922555000000159
            ],
            [
              -70.571211,
              10.922556
            ],
            [
              -70.57148199999989,
              10.922825000000103
            ],
            [
              -70.572204,
              10.923770000000104
            ],
            [
              -70.573345,
              10.92569
            ],
            [
              -70.574783,
              10.926409000000149
            ],
            [
              -70.575876,
              10.92732100000012
            ],
            [
              -70.577217,
              10.92694
            ],
            [
              -70.578998,
              10.926502
            ],
            [
              -70.580581,
              10.926505000000134
            ],
            [
              -70.58193799999987,
              10.92679
            ],
            [
              -70.583043,
              10.92722
            ],
            [
              -70.58413699999983,
              10.928177
            ],
            [
              -70.585372,
              10.929154
            ],
            [
              -70.586172,
              10.930418
            ],
            [
              -70.587531,
              10.931713
            ],
            [
              -70.588059,
              10.93328300000013
            ],
            [
              -70.58843899999988,
              10.934512
            ],
            [
              -70.588284,
              10.935757
            ],
            [
              -70.58722499999988,
              10.936244000000158
            ],
            [
              -70.587162,
              10.93744
            ],
            [
              -70.587706,
              10.937792000000172
            ],
            [
              -70.5886809999999,
              10.938615
            ],
            [
              -70.589787,
              10.940009
            ],
            [
              -70.590155,
              10.941698
            ],
            [
              -70.5895139999999,
              10.94306900000015
            ],
            [
              -70.58909199999982,
              10.944802
            ],
            [
              -70.58938599999988,
              10.945391
            ],
            [
              -70.590165,
              10.945830000000171
            ],
            [
              -70.59126399999985,
              10.946029000000124
            ],
            [
              -70.592547,
              10.946133
            ],
            [
              -70.59326499999986,
              10.946917
            ],
            [
              -70.59417599999983,
              10.947994000000165
            ],
            [
              -70.5938579999999,
              10.949242
            ],
            [
              -70.594441,
              10.950191
            ],
            [
              -70.59480199999985,
              10.951627
            ],
            [
              -70.595565,
              10.952318000000162
            ],
            [
              -70.597094,
              10.952988000000175
            ],
            [
              -70.597822,
              10.954185000000109
            ],
            [
              -70.596017,
              10.95457800000014
            ],
            [
              -70.59613999999988,
              10.955769
            ],
            [
              -70.596046,
              10.957585
            ],
            [
              -70.59647299999989,
              10.959754
            ],
            [
              -70.597091,
              10.96123
            ],
            [
              -70.596651,
              10.962229
            ],
            [
              -70.59530499999988,
              10.962403
            ],
            [
              -70.59492,
              10.962826
            ],
            [
              -70.594485,
              10.964032
            ],
            [
              -70.594284,
              10.966218
            ],
            [
              -70.59447199999988,
              10.967246
            ],
            [
              -70.595333,
              10.96905900000013
            ],
            [
              -70.596365,
              10.969398000000126
            ],
            [
              -70.5973939999999,
              10.971391000000153
            ],
            [
              -70.598075,
              10.972566
            ],
            [
              -70.5994409999999,
              10.973195
            ],
            [
              -70.598836,
              10.974129
            ],
            [
              -70.598962,
              10.975435000000118
            ],
            [
              -70.59942399999989,
              10.977167
            ],
            [
              -70.599875,
              10.978418
            ],
            [
              -70.6007,
              10.978832000000125
            ],
            [
              -70.60192099999983,
              10.979281000000185
            ],
            [
              -70.603491,
              10.979698
            ],
            [
              -70.603813,
              10.980447
            ],
            [
              -70.603627,
              10.98137
            ],
            [
              -70.603737,
              10.982997000000125
            ],
            [
              -70.604949,
              10.984915
            ],
            [
              -70.605833,
              10.986728000000141
            ],
            [
              -70.60517599999986,
              10.988398
            ],
            [
              -70.605851,
              10.989321
            ],
            [
              -70.606789,
              10.989571000000183
            ],
            [
              -70.607105,
              10.990114000000176
            ],
            [
              -70.60663599999987,
              10.990907
            ],
            [
              -70.606616,
              10.991963
            ],
            [
              -70.60617699999989,
              10.993031
            ],
            [
              -70.605075,
              10.993612
            ],
            [
              -70.60512,
              10.994483000000173
            ],
            [
              -70.605629,
              10.99529600000011
            ],
            [
              -70.606158,
              10.995947000000115
            ],
            [
              -70.607024,
              10.997071
            ],
            [
              -70.60804399999984,
              10.996677000000147
            ],
            [
              -70.60905799999989,
              10.998102
            ],
            [
              -70.60967699999986,
              10.999544
            ],
            [
              -70.609425,
              11.000196000000187
            ],
            [
              -70.60824,
              11.000244
            ],
            [
              -70.607471,
              11.000756000000138
            ],
            [
              -70.607438,
              11.001652
            ],
            [
              -70.606376,
              11.001855
            ],
            [
              -70.606327,
              11.002911
            ],
            [
              -70.60730299999989,
              11.002872
            ],
            [
              -70.60770899999983,
              11.00310700000017
            ],
            [
              -70.608696,
              11.002792
            ],
            [
              -70.60938499999986,
              11.004231
            ],
            [
              -70.609594,
              11.005873
            ],
            [
              -70.608873,
              11.007002
            ],
            [
              -70.610064,
              11.007091000000116
            ],
            [
              -70.610537,
              11.008401000000106
            ],
            [
              -70.61055199999987,
              11.010418
            ],
            [
              -70.610623,
              11.011561
            ],
            [
              -70.6120499999999,
              11.012832000000117
            ],
            [
              -70.61446099999989,
              11.014797000000158
            ],
            [
              -70.61538699999988,
              11.016341000000182
            ],
            [
              -70.61529899999988,
              11.018132
            ],
            [
              -70.61572199999989,
              11.019329000000141
            ],
            [
              -70.616972,
              11.019737000000134
            ],
            [
              -70.618571,
              11.018457000000126
            ],
            [
              -70.62004199999984,
              11.016908
            ],
            [
              -70.621811,
              11.015805
            ],
            [
              -70.623596,
              11.016191
            ],
            [
              -70.62486799999982,
              11.017652000000112
            ],
            [
              -70.62679899999989,
              11.01929200000012
            ],
            [
              -70.627809,
              11.021176
            ],
            [
              -70.62857699999984,
              11.02229100000011
            ],
            [
              -70.630092,
              11.022344
            ],
            [
              -70.63020999999986,
              11.02403500000014
            ],
            [
              -70.630113,
              11.02504800000014
            ],
            [
              -70.630552,
              11.027185
            ],
            [
              -70.629933,
              11.027967
            ],
            [
              -70.62999899999988,
              11.029545
            ],
            [
              -70.630169,
              11.030822
            ],
            [
              -70.631131,
              11.032112
            ],
            [
              -70.631772,
              11.031857
            ],
            [
              -70.632352,
              11.03071000000017
            ],
            [
              -70.633633,
              11.031827
            ],
            [
              -70.63544799999983,
              11.031799
            ],
            [
              -70.635929,
              11.031069
            ],
            [
              -70.637438,
              11.030962
            ],
            [
              -70.63920899999988,
              11.032677
            ],
            [
              -70.640886,
              11.033824
            ],
            [
              -70.640863,
              11.034925
            ],
            [
              -70.639915,
              11.035628000000145
            ],
            [
              -70.64082999999988,
              11.03692
            ],
            [
              -70.641627,
              11.038698000000124
            ],
            [
              -70.64159,
              11.04057900000015
            ],
            [
              -70.640778,
              11.042308
            ],
            [
              -70.639647,
              11.043637
            ],
            [
              -70.638538,
              11.044943000000103
            ],
            [
              -70.638252,
              11.046994000000154
            ],
            [
              -70.638841,
              11.048277
            ],
            [
              -70.64062599999988,
              11.04866200000015
            ],
            [
              -70.639955,
              11.04930800000011
            ],
            [
              -70.63833099999988,
              11.049420000000168
            ],
            [
              -70.637325,
              11.049851000000103
            ],
            [
              -70.6371309999999,
              11.051898
            ],
            [
              -70.636967,
              11.054082
            ],
            [
              -70.63715999999988,
              11.058108000000118
            ],
            [
              -70.63749999999987,
              11.06011100000012
            ],
            [
              -70.639549,
              11.06176900000014
            ],
            [
              -70.641183,
              11.062986000000137
            ],
            [
              -70.641358,
              11.063827
            ],
            [
              -70.641354,
              11.06650900000011
            ],
            [
              -70.642482,
              11.066761
            ],
            [
              -70.643022,
              11.067426000000125
            ],
            [
              -70.642458,
              11.067839
            ],
            [
              -70.642124,
              11.068219
            ],
            [
              -70.642752,
              11.069294000000127
            ],
            [
              -70.643819,
              11.069204000000184
            ],
            [
              -70.646334,
              11.068690000000117
            ],
            [
              -70.647833,
              11.068904
            ],
            [
              -70.648943,
              11.069821
            ],
            [
              -70.648537,
              11.070135000000107
            ],
            [
              -70.64807899999988,
              11.069764000000134
            ],
            [
              -70.646753,
              11.070345
            ],
            [
              -70.645516,
              11.07080900000011
            ],
            [
              -70.64411599999988,
              11.070729
            ],
            [
              -70.64340899999985,
              11.07107800000017
            ],
            [
              -70.644132,
              11.072218000000134
            ],
            [
              -70.64623499999988,
              11.07408
            ],
            [
              -70.647165,
              11.075142000000142
            ],
            [
              -70.647498,
              11.075862
            ],
            [
              -70.6469919999999,
              11.079343000000108
            ],
            [
              -70.64770199999987,
              11.080713000000117
            ],
            [
              -70.648498,
              11.080818
            ],
            [
              -70.649221,
              11.079757
            ],
            [
              -70.64932499999986,
              11.078355
            ],
            [
              -70.649957,
              11.077871000000187
            ],
            [
              -70.65095699999989,
              11.07840300000015
            ],
            [
              -70.65099099999986,
              11.07977700000015
            ],
            [
              -70.649664,
              11.080862
            ],
            [
              -70.649055,
              11.081895
            ],
            [
              -70.649279,
              11.084430000000168
            ],
            [
              -70.649546,
              11.085794
            ],
            [
              -70.648969,
              11.08648200000016
            ],
            [
              -70.648189,
              11.086743
            ],
            [
              -70.647329,
              11.087328000000127
            ],
            [
              -70.647459,
              11.088217000000157
            ],
            [
              -70.648882,
              11.088273000000186
            ],
            [
              -70.6511139999999,
              11.089833000000112
            ],
            [
              -70.652539,
              11.091608
            ],
            [
              -70.653209,
              11.092039
            ],
            [
              -70.654533,
              11.09143500000016
            ],
            [
              -70.655601,
              11.091369
            ],
            [
              -70.65586999999988,
              11.092229000000145
            ],
            [
              -70.654816,
              11.092615
            ],
            [
              -70.653789,
              11.093115
            ],
            [
              -70.65314,
              11.093738
            ],
            [
              -70.653288,
              11.094488000000183
            ],
            [
              -70.654796,
              11.094908
            ],
            [
              -70.654124,
              11.096631
            ],
            [
              -70.653639,
              11.098393000000158
            ],
            [
              -70.65219499999989,
              11.10003300000011
            ],
            [
              -70.651356,
              11.100548000000117
            ],
            [
              -70.65494799999988,
              11.099623000000122
            ],
            [
              -70.655211,
              11.101445
            ],
            [
              -70.657426,
              11.101516
            ],
            [
              -70.657635,
              11.100957
            ],
            [
              -70.6584069999999,
              11.101040000000125
            ],
            [
              -70.659771,
              11.10192400000011
            ],
            [
              -70.660337,
              11.102635000000134
            ],
            [
              -70.660869,
              11.103117
            ],
            [
              -70.662426,
              11.103054000000157
            ],
            [
              -70.663501,
              11.103697
            ]
          ]
        ]
      }
    }
  ]
}