{"type": "FeatureCollection", "features": [{"type": "Feature", "properties": {"Pais": "Venezuela", "Estado": "Anzo\u00e1tegui", "Municipio": "Diego Bautista Urbaneja", "Parroquia": "Diego Bautista Urbaneja"}, "geometry": {"type": "Polygon", "coordinates": [[[-64.70425186699993, 10.205536728000027], [-64.70859468599991, 10.207152661000066], [-64.708673, 10.206997], [-64.708837, 10.206666], [-64.70901999999984, 10.206373], [-64.70909, 10.206274], [-64.709208, 10.206136], [-64.709483, 10.205849000000114], [-64.709837, 10.205498], [-64.709933, 10.2054], [-64.709994, 10.205362], [-64.710088, 10.205327], [-64.710162, 10.205311000000165], [-64.710586, 10.205041], [-64.71069921399993, 10.204993102000174], [-64.71041068799997, 10.204922339000063], [-64.71011267199992, 10.204862339000101], [-64.70992865499989, 10.204799335000189], [-64.70983164999996, 10.204764332000025], [-64.70977265199986, 10.204749338000056], [-64.70969364499996, 10.204732334000084], [-64.70962464299993, 10.204711332000102], [-64.70955464799994, 10.20467233300019], [-64.70948863699988, 10.204610333000176], [-64.7094566369999, 10.204565338000123], [-64.7094566369999, 10.204523333999987], [-64.70946263199994, 10.20444333600011], [-64.70946863899991, 10.20437333000001], [-64.70948563199988, 10.20433532300018], [-64.70955363999985, 10.204276326000183], [-64.7096146479999, 10.204221326000038], [-64.70961164399995, 10.204210329000148], [-64.7096006459999, 10.204210329000148], [-64.70947164199998, 10.204314321000027], [-64.70945063999994, 10.204332332000035], [-64.70943063199996, 10.204356325000106], [-64.70939963699988, 10.204363326000077], [-64.70937163399998, 10.204359329], [-64.70933662999994, 10.204335324000056], [-64.70932662599989, 10.20431432200013], [-64.70931163099988, 10.204262326000105], [-64.70929462499998, 10.20422432000015], [-64.70925662999997, 10.204203329999984], [-64.70921462499996, 10.204182328000059], [-64.70918962599984, 10.204154326000037], [-64.70914162599996, 10.204154326000037], [-64.70906561199996, 10.204161328000055], [-64.70895260699996, 10.20420232700019], [-64.70885961099998, 10.204230328999984], [-64.70879760999998, 10.204230330000087], [-64.70873960599982, 10.204223329000115], [-64.7086525929999, 10.204185323], [-64.70854859899998, 10.204132323000067], [-64.70841958199998, 10.204045325000152], [-64.70828458099999, 10.203955323000173], [-64.70807557599994, 10.203798319000157], [-64.70797156999987, 10.203711321000071], [-64.70785356199997, 10.203638312000123], [-64.70766255599995, 10.203554317000055], [-64.70756254699995, 10.203506319000155], [-64.70752354599983, 10.203471316], [-64.70742954399998, 10.20336031200003], [-64.70735653299994, 10.203294315], [-64.7073215289999, 10.20325931300016], [-64.70730052699986, 10.203217309000024], [-64.70728952899992, 10.203168305000077], [-64.70728553199996, 10.203113306000034], [-64.7073345359999, 10.20289730400009], [-64.70737053099998, 10.202706289000048], [-64.7073655289999, 10.202658290000045], [-64.70733653199989, 10.202505294], [-64.70730052299996, 10.202404281999975], [-64.70726952799987, 10.202366288000064], [-64.70708451599984, 10.202185278000172], [-64.70706351399997, 10.202178278000133], [-64.70703651599996, 10.202195283000037], [-64.70700251799997, 10.20222627700008], [-64.70698950999997, 10.202257283], [-64.70699651099994, 10.202306288000045], [-64.70701751299998, 10.202324286000135], [-64.70708051999986, 10.202404284000181], [-64.70716451799996, 10.202539293000086], [-64.70721452899994, 10.202657298000133], [-64.7072185259999, 10.202710298999989], [-64.7072185259999, 10.202755294000099], [-64.70718652699992, 10.202918306000072], [-64.70712252799996, 10.203106306000166], [-64.70708552699983, 10.203175307000095], [-64.70703452299995, 10.20321731100006], [-64.70702151599994, 10.203262306000113], [-64.70701852399998, 10.203297309000106], [-64.70704251799998, 10.203328314999965], [-64.70711952599999, 10.203394312], [-64.7073375309999, 10.203492319000077], [-64.70746953999998, 10.203565316000152], [-64.70750153999995, 10.203592313000172], [-64.70752254199994, 10.203631313000187], [-64.70756054899988, 10.203662319000102], [-64.70747554799993, 10.203784321000057], [-64.70772555299993, 10.203965330000187], [-64.70773656199998, 10.203965330000187], [-64.70773955399994, 10.203951329], [-64.70770155799988, 10.203926330000172], [-64.70777255899992, 10.20383332400013], [-64.70842958799994, 10.204309337000154], [-64.70818257799993, 10.20464634800004], [-64.70789356099988, 10.204434333], [-64.70743454399991, 10.205021357000078], [-64.70617748499984, 10.204182345000106], [-64.70576347099995, 10.203909335999981], [-64.70564946099995, 10.203838337000093], [-64.70560146099996, 10.203821332000189], [-64.7055504569999, 10.20380933000007], [-64.70550544899999, 10.203815338000027], [-64.70545244699997, 10.203826335000144], [-64.70538544399994, 10.20386933300017], [-64.70528544799993, 10.203991335000126], [-64.70490842899989, 10.204486357000064], [-64.70469742799986, 10.204750359000059], [-64.70454641499998, 10.204580359000033], [-64.70434740199994, 10.20451636100006], [-64.70416440199989, 10.204443364000156], [-64.70363037099992, 10.204224350000118], [-64.70351436199985, 10.204187349], [-64.70351137099993, 10.204187350000097], [-64.70353037399991, 10.204147355999964], [-64.70358636699996, 10.204054350000092], [-64.70396238099988, 10.203498332000095], [-64.70422839399993, 10.203110318000142], [-64.70451840099997, 10.202693308000107], [-64.70464641199999, 10.202509305999968], [-64.7047014119999, 10.202452295000171], [-64.7047494119999, 10.202413295000099], [-64.70477741399998, 10.202401304000091], [-64.70480541699993, 10.202396302000068], [-64.70512342999984, 10.202402296], [-64.70561644799994, 10.202425293000033], [-64.70592047099996, 10.202445300000022], [-64.70619048399993, 10.202463297000179], [-64.7062954829999, 10.202485291000016], [-64.70634548099997, 10.202488295000137], [-64.70637949099995, 10.202500297000029], [-64.70657849199989, 10.202667293], [-64.70670950799996, 10.202792298000134], [-64.70672950499994, 10.202801297000065], [-64.70676951099995, 10.202812295000115], [-64.70681650599994, 10.202809302000105], [-64.70683950599988, 10.202787295000178], [-64.70684450799996, 10.20276729900013], [-64.70684751199985, 10.202750294000055], [-64.70683851299998, 10.202733301000137], [-64.70682150699992, 10.202710301000025], [-64.70675550899995, 10.202642294000157], [-64.70643449099998, 10.202335286000164], [-64.7064284839999, 10.202330284000084], [-64.7064144819999, 10.202324289000046], [-64.70631048799999, 10.202301289000104], [-64.70621147299988, 10.202292291000049], [-64.70595747199991, 10.202281294000102], [-64.70568445599997, 10.20226128700017], [-64.70510143299998, 10.202248294000071], [-64.70478641299985, 10.202242301000183], [-64.70473341099989, 10.20224029100001], [-64.70468841499991, 10.20225429200002], [-64.70464941399996, 10.202271297000095], [-64.70458840699996, 10.20235030300006], [-64.70437139799998, 10.202650312000117], [-64.70403638299996, 10.203124321000132], [-64.70377637699994, 10.203472330000068], [-64.70368237599996, 10.203606335000075], [-64.70351336699986, 10.203849346000027], [-64.70342136499988, 10.203974352000046], [-64.70331035999993, 10.204096355000104], [-64.70328336199992, 10.204124357000126], [-64.70327435099995, 10.204127349000032], [-64.70315534999997, 10.204087356000173], [-64.70307634399995, 10.20407035200003], [-64.70294134299996, 10.204030360000047], [-64.70281633499991, 10.203973350000126], [-64.70266933199991, 10.203874349000046], [-64.7025383159999, 10.203780351000091], [-64.70250732099993, 10.20376635000008], [-64.70247332299994, 10.20376635000008], [-64.70238531699994, 10.203717346000133], [-64.70233530699988, 10.203697350000027], [-64.70220730599988, 10.203581344000042], [-64.70200229799997, 10.203396338], [-64.70187428599996, 10.203283336000084], [-64.70179728899996, 10.203197342000067], [-64.70172927999994, 10.20314133800008], [-64.7016472819999, 10.20310933900015], [-64.70153726899997, 10.203087333000099], [-64.70145827399989, 10.203084341000022], [-64.70135925899996, 10.203100341000152], [-64.70132025799995, 10.203117335000115], [-64.7012642649999, 10.203151345000094], [-64.70126226599996, 10.203151345000094], [-64.70121826299993, 10.203137344000083], [-64.70112624899997, 10.20312033900018], [-64.70103024899993, 10.203105333], [-64.70094825099989, 10.203093343000091], [-64.70084523799989, 10.203091345000075], [-64.70076523899985, 10.203081341000143], [-64.70069223899992, 10.203069339000024], [-64.7006252359999, 10.20304234200006], [-64.70054022199997, 10.202990335000095], [-64.70046522399997, 10.202929340000082], [-64.70043622799989, 10.20291134200005], [-64.7004012239999, 10.20289034100017], [-64.70034221399993, 10.202840332], [-64.70024921799995, 10.202763337000135], [-64.70012021299993, 10.20268933500006], [-64.70001820499994, 10.202645334000067], [-64.69989219199982, 10.20259132800004], [-64.69973818799997, 10.20252533200005], [-64.69965417899994, 10.20249833500003], [-64.69955218399991, 10.202481331000058], [-64.69947418199996, 10.202469328000063], [-64.69935916699995, 10.202452324000092], [-64.69926016399984, 10.202436325000065], [-64.69920616799988, 10.202421331000096], [-64.69910416099998, 10.202382331000024], [-64.69903315999989, 10.202343332000112], [-64.6989991499999, 10.202324329000021], [-64.69896914799983, 10.202278328000034], [-64.69891715099988, 10.202220325000155], [-64.69889215199993, 10.202174325000044], [-64.69888814299998, 10.20215731999997], [-64.69888414499997, 10.202116322000165], [-64.69886614699993, 10.20206432600014], [-64.69885813999997, 10.202020324000046], [-64.69885115099993, 10.201979326000185], [-64.69884314499996, 10.201954314999966], [-64.69883014899995, 10.201941319000127], [-64.69881814599995, 10.201925320000157], [-64.69881814599995, 10.201912323000045], [-64.69882014399991, 10.201893320000181], [-64.69882514599982, 10.201885314000037], [-64.69885014599993, 10.201873312000146], [-64.69891414499989, 10.201808319000179], [-64.69892614799983, 10.201791314000104], [-64.6989411539999, 10.201777313000093], [-64.69899914699982, 10.201727315000028], [-64.69906915299993, 10.201662311000177], [-64.69909915399984, 10.201604308000071], [-64.69909915399984, 10.201585304000105], [-64.69909515699993, 10.201568311000187], [-64.69908115599986, 10.20155431], [-64.69906614899986, 10.201552312000047], [-64.69904514699988, 10.201556309000068], [-64.69902615499984, 10.201566313000058], [-64.69896415399995, 10.201614313000107], [-64.69883014799996, 10.20174630800011], [-64.69879014199995, 10.201785320000113], [-64.69868813599993, 10.201891322], [-64.69866713399989, 10.20191432300004], [-64.69865014099997, 10.201918320000118], [-64.69863713199999, 10.201912324000148], [-64.69860413899983, 10.201885316000073], [-64.69857513099998, 10.201871315000062], [-64.69856213499997, 10.201860317000012], [-64.6985581369999, 10.20185031300008], [-64.69855913099991, 10.201823316000059], [-64.69854613399991, 10.201802314000133], [-64.69852012999996, 10.201769321000143], [-64.69848012399996, 10.20173631700004], [-64.69845712299991, 10.201719311999966], [-64.69843212399996, 10.20171131900014], [-64.69842012099997, 10.201700309000103], [-64.69839711999992, 10.201651317000142], [-64.69837312599998, 10.201621316000058], [-64.69834611599998, 10.201599310000177], [-64.69831112399999, 10.201542312000072], [-64.69824311499997, 10.201416313000038], [-64.6981651129999, 10.201307308000025], [-64.69811711299985, 10.201245308000011], [-64.69810210599996, 10.201228303000107], [-64.69806910099999, 10.201189303000092], [-64.69799910499995, 10.201135297000064], [-64.69792409499996, 10.201079305000064], [-64.69787609499997, 10.201042304000111], [-64.69783509599995, 10.200994293000122], [-64.69780208999998, 10.200927291000085], [-64.6977710949999, 10.200869300000022], [-64.69773808999992, 10.200831293000135], [-64.6976850879999, 10.200757291000059], [-64.69763708799991, 10.200709292000113], [-64.69759308499994, 10.200692287000038], [-64.69756607499983, 10.200690289000022], [-64.69755307899999, 10.200692287000038], [-64.69754508499994, 10.200686292000114], [-64.69752707399988, 10.20064529400014], [-64.69749208199994, 10.20058428700014], [-64.69745907699996, 10.20050128500003], [-64.69743706899988, 10.200437287000057], [-64.69742207399997, 10.200371278000034], [-64.69742306699999, 10.200368286000128], [-64.69739507599996, 10.200283286], [-64.69735906599993, 10.200156281999966], [-64.69733406599988, 10.20006027200003], [-64.69728206899993, 10.199925274000066], [-64.69725005599997, 10.199798271000134], [-64.69720606399994, 10.199627265000174], [-64.69718805399998, 10.199550258000102], [-64.69716605799994, 10.199457264000046], [-64.69715205599994, 10.199407255000096], [-64.69713305199997, 10.199378259000184], [-64.69708904899994, 10.199361255000042], [-64.69683703499999, 10.19927225900011], [-64.69679704099997, 10.199251257000128], [-64.69677603899999, 10.199228257000016], [-64.69676203699998, 10.199199249000117], [-64.69675203199995, 10.199158251000085], [-64.69675103899988, 10.199114249], [-64.69675803899992, 10.199050250000141], [-64.69675803899992, 10.198987245000183], [-64.69675203099996, 10.198970252000095], [-64.69674203899996, 10.198946247000151], [-64.69672202999988, 10.19891224900016], [-64.69671203699994, 10.198891247], [-64.69671003799994, 10.198808245000066], [-64.6967010269999, 10.198748244], [-64.6966890349999, 10.198687237], [-64.69667703199997, 10.198633242000085], [-64.69667303499983, 10.198603241000171], [-64.69667003099994, 10.198526235000031], [-64.69666202399998, 10.198464235000074], [-64.69665402999993, 10.198416236000071], [-64.69664902799997, 10.198373227000161], [-64.6966450299999, 10.198321231000136], [-64.69663302699996, 10.198262235000016], [-64.69661702699989, 10.198247228000128], [-64.6966300229999, 10.198248234], [-64.69662802499994, 10.198244225000167], [-64.69662302199987, 10.19822223], [-64.69662202899997, 10.198218233000148], [-64.69661702699989, 10.198201228000073], [-64.69661602199989, 10.198197231000165], [-64.69660702199997, 10.198169229000143], [-64.69659802299992, 10.198143225000138], [-64.69658801799989, 10.198113224000053], [-64.6965830279999, 10.198102226], [-64.69658101699986, 10.198098229000152], [-64.6965690259999, 10.19807022700013], [-64.69656802099985, 10.19806522500005], [-64.69656202499988, 10.198048219999976], [-64.69656002699998, 10.198044223000124], [-64.69654901699994, 10.198019225000166], [-64.69654802399998, 10.198014223000143], [-64.69654501999997, 10.19800522300011], [-64.69654302099991, 10.19800022100003], [-64.69653301699998, 10.19797322400018], [-64.69653202299997, 10.197969227000101], [-64.69652401699994, 10.197942218000094], [-64.69652201899993, 10.197938221000072], [-64.69651901499998, 10.197927224000125], [-64.69651802199996, 10.197924220000061], [-64.6965120139999, 10.197895224000149], [-64.69651102099994, 10.19789022200007], [-64.69650401999996, 10.197863225000049], [-64.69650301499996, 10.197859215999983], [-64.69650002299989, 10.197846219999974], [-64.69649502099992, 10.197817213000178], [-64.69649001799996, 10.19778922200004], [-64.69648501599988, 10.197758216000182], [-64.69648401099982, 10.197745220000172], [-64.69648301699993, 10.197735216000012], [-64.69648101899992, 10.197707214000047], [-64.69647801499997, 10.197679211000093], [-64.69647601599996, 10.197650216000113], [-64.69647401699996, 10.197623218], [-64.69647001999982, 10.19754621200002], [-64.69646901499993, 10.197535214000027], [-64.69646901499993, 10.197532211], [-64.69646800899983, 10.197512214000085], [-64.69646701599993, 10.197507212000176], [-64.69646601099993, 10.197502210000096], [-64.69646501699992, 10.197498213000074], [-64.69646201399996, 10.1974902070001], [-64.6964570109999, 10.19747420800013], [-64.6964570109999, 10.197470211000052], [-64.69645601799988, 10.197466213999974], [-64.69645200899993, 10.197437206000075], [-64.69645101599991, 10.197420212999987], [-64.69645101599991, 10.197416204000092], [-64.69645000999992, 10.197387209000112], [-64.69644901699996, 10.197373207], [-64.69644700599997, 10.197345205000033], [-64.69644601299996, 10.197317203000182], [-64.69644601299996, 10.197313206000103], [-64.69644700599997, 10.197284198000034], [-64.69644700599997, 10.197281206000127], [-64.69644801099997, 10.197278203000167], [-64.69644901599986, 10.197271202000024], [-64.69645601699989, 10.197244205000175], [-64.69646201199987, 10.197216202999982], [-64.69646201199987, 10.197213199000089], [-64.69646401099993, 10.197195201000056], [-64.69646701399984, 10.197167198000102], [-64.69646800699991, 10.197164195000141], [-64.69647101099997, 10.197135199000058], [-64.69647101099997, 10.197130197000149], [-64.69647101099997, 10.197101201000066], [-64.69647101099997, 10.197097203999988], [-64.69647001699991, 10.19708819300007], [-64.69646901199991, 10.197083202999977], [-64.69646501499994, 10.197055201000182], [-64.69646100599994, 10.197028192000175], [-64.69645900699999, 10.197011199000087], [-64.69645900699999, 10.197002200000156], [-64.69645601499997, 10.196972199000072], [-64.69645500999991, 10.196953195000106], [-64.69645500999991, 10.196925193000084], [-64.69645400499991, 10.196912197000074], [-64.6964520059999, 10.196886193000068], [-64.69647401299989, 10.196793186999969], [-64.69642200399994, 10.19672218800008], [-64.69642100999994, 10.196680184000115], [-64.69642100999994, 10.19665218200015], [-64.69642500599991, 10.196560181000052], [-64.696424, 10.19639217800011], [-64.69642300599992, 10.196189173000107], [-64.69640799899992, 10.19603916900013], [-64.69638299799988, 10.195878167000103], [-64.69636800299998, 10.195815162000144], [-64.69635999699994, 10.19569616299998], [-64.69635499299989, 10.195392158000175], [-64.69633699399998, 10.19528414600012], [-64.69632199799992, 10.195088141000156], [-64.69630599699991, 10.19485313600012], [-64.69629399299998, 10.194626137000114], [-64.69630698799983, 10.194385125000053], [-64.69631699099995, 10.194217122999987], [-64.69635098799989, 10.194021118000023], [-64.69642999199988, 10.19360810600017], [-64.69651799499997, 10.19296008900011], [-64.69660799699994, 10.192606074000025], [-64.69665599499984, 10.192340063000131], [-64.69673199599998, 10.19202905600008], [-64.6967630019999, 10.191878057999986], [-64.69685999299992, 10.191556042000173], [-64.6969650019999, 10.191212031000077], [-64.69699899899996, 10.191027024000107], [-64.69700500599993, 10.190915026000084], [-64.69699399599983, 10.190831019000143], [-64.69697999399989, 10.190758021000136], [-64.69698999799994, 10.190625022000063], [-64.69702699899989, 10.190376016000073], [-64.69706799699998, 10.190147999000146], [-64.697133, 10.189780988000052], [-64.69723399899988, 10.189391982000188], [-64.69729200199998, 10.189142975000095], [-64.69738300999995, 10.188869963000059], [-64.69738601399985, 10.188834972000109], [-64.69736100199998, 10.188796966000154], [-64.69734700099997, 10.18875796600014], [-64.69735700499984, 10.188687960000038], [-64.69757901399998, 10.188018941000166], [-64.69767700999995, 10.187720930000125], [-64.69783701999995, 10.187349921000077], [-64.69791402599992, 10.187163920000046], [-64.69801502699994, 10.18698490800017], [-64.69805703099996, 10.186886911000101], [-64.69809902299994, 10.186802904], [-64.69814102699996, 10.18673890500014], [-64.69823302899994, 10.186629899000025], [-64.6982530379999, 10.186570902000028], [-64.69826703899992, 10.186479894000115], [-64.69826302899992, 10.186423901000182], [-64.69822003099995, 10.186350892000121], [-64.69816702899988, 10.186287887000105], [-64.69813803199997, 10.186228890000109], [-64.6981350289999, 10.186193888000048], [-64.69814102399988, 10.18613089400003], [-64.69818302699997, 10.186028888000124], [-64.69823903299988, 10.18591687900016], [-64.69835103099985, 10.185751879000179], [-64.69849203799998, 10.185547868000072], [-64.69854104199993, 10.185466864000148], [-64.69869104799989, 10.18525286], [-64.69881105299999, 10.185080859999971], [-64.69897505999995, 10.184827845000086], [-64.69915006399998, 10.184561845000133], [-64.69921706699989, 10.184459839000056], [-64.69932506899988, 10.18426282900009], [-64.69937506699995, 10.18422483400002], [-64.69941307399995, 10.18419582600012], [-64.6994380729999, 10.184150830000135], [-64.69944807699994, 10.18404182400019], [-64.69945806899995, 10.183971818000089], [-64.69943306999994, 10.183909818000075], [-64.69942606899997, 10.183874815000138], [-64.69942507499997, 10.1838078130001], [-64.69945307699999, 10.183705820000114], [-64.69951207399998, 10.183562815000073], [-64.69959307799985, 10.183449812000049], [-64.69964908399993, 10.183369802000186], [-64.69968108299992, 10.183320797000135], [-64.69969807599983, 10.18326779600011], [-64.69968407499994, 10.183225805000063], [-64.69964107699991, 10.183173797000052], [-64.69955907799988, 10.183128802000113], [-64.69946707499997, 10.183069794000062], [-64.69939606299988, 10.183055793000051], [-64.6993510669999, 10.183049798000184], [-64.69930506499998, 10.183035797000173], [-64.69924405699993, 10.182986793], [-64.69922605799997, 10.182920796000133], [-64.69921905699988, 10.182818791000159], [-64.69923205299989, 10.182734784000047], [-64.69927405599992, 10.182640784000057], [-64.69940006799993, 10.182405779000078], [-64.69957507299995, 10.18209977400005], [-64.69972907499982, 10.181840763000025], [-64.69988307699987, 10.181559757000059], [-64.69998808699995, 10.181373744000041], [-64.70006808599999, 10.181240744000036], [-64.70019109399993, 10.18104774200009], [-64.70027509099998, 10.180934739000065], [-64.70030008899988, 10.180861729000071], [-64.70031009299993, 10.180801727000073], [-64.7003160999999, 10.180647726000188], [-64.7003290959999, 10.180532724000102], [-64.70035709799998, 10.180437720000043], [-64.70045109799997, 10.180150707], [-64.70051410299993, 10.179964705999964], [-64.70060110199995, 10.17978970200005], [-64.70066009899995, 10.179652694000083], [-64.70068110099999, 10.179561698000043], [-64.70067010299988, 10.179491692000113], [-64.70063410599994, 10.179421686000182], [-64.70058810399985, 10.179338684000072], [-64.70057309699985, 10.17928269100014], [-64.70056609599987, 10.179233686999964], [-64.70057609999992, 10.179156681], [-64.70062210099991, 10.179089678000082], [-64.70072709899989, 10.178973683000152], [-64.70082910499997, 10.178833670000188], [-64.70091610499998, 10.178692664999971], [-64.70102111499995, 10.178513664000036], [-64.70115112399998, 10.178313662000164], [-64.70128812199994, 10.178134649000185], [-64.70146013499988, 10.177909648000139], [-64.70160713699994, 10.177737636000131], [-64.70173014499994, 10.177593638000076], [-64.70192014499992, 10.177389626000092], [-64.70210915099995, 10.177182623000078], [-64.70230616399988, 10.176999613000078], [-64.70251017699997, 10.176774612000031], [-64.70267517799994, 10.176598602000183], [-64.70298818599991, 10.176260586000126], [-64.7031812009999, 10.176077588000055], [-64.70339520699991, 10.17585957500006], [-64.70355321899996, 10.175711568000168], [-64.70372221699989, 10.175567570000169], [-64.70383122399994, 10.175468568000099], [-64.70394023099993, 10.175332564000087], [-64.7040422369999, 10.17519855900008], [-64.70412623399994, 10.175124556000071], [-64.70433024699992, 10.174896550000028], [-64.70451624899988, 10.174681541000098], [-64.70466025999997, 10.174533535000137], [-64.70481125899994, 10.174344530000042], [-64.7049622699999, 10.174171524000087], [-64.70505627099988, 10.174038524000082], [-64.70511326899998, 10.173982519], [-64.70520127499998, 10.173922517], [-64.70534828899997, 10.173767510000062], [-64.70544628699992, 10.173662512000078], [-64.70568229899988, 10.173412499999984], [-64.70589930799991, 10.173162488000116], [-64.7060433069999, 10.173015486], [-64.70624031899996, 10.172842480999975], [-64.70648032899993, 10.172652470000173], [-64.7067333359999, 10.17246947200016], [-64.7068813439999, 10.172380462000035], [-64.70704335299996, 10.17230645800015], [-64.70721236299994, 10.172221456000045], [-64.70744836499983, 10.172143455000082], [-64.70778338199995, 10.172047444000043], [-64.70800939099996, 10.172003452000126], [-64.70821840799994, 10.171981444000096], [-64.70846841099996, 10.171927448000076], [-64.70873642399982, 10.171831437000037], [-64.70885642999997, 10.17178543600005], [-64.70895843599988, 10.171711432000109], [-64.70901143799995, 10.171641426000178], [-64.70905643299994, 10.171518431000038], [-64.70906643699993, 10.171417431000066], [-64.70908769099992, 10.171290190999969], [-64.70883460699997, 10.171333032000064], [-64.70800813799997, 10.171418297000116], [-64.70346437899997, 10.171887068999979], [-64.70140094899995, 10.172099950000131], [-64.682131, 10.174088], [-64.6875884339999, 10.192353856000125], [-64.6887485129999, 10.196236605000138], [-64.68988627499988, 10.20004465900007], [-64.69049199999989, 10.202072], [-64.690523, 10.202216], [-64.69144099999983, 10.202121], [-64.6916149999999, 10.202182000000107], [-64.69161999999989, 10.20219400000019], [-64.69162099999988, 10.202195], [-64.691625, 10.202199], [-64.691634, 10.202212], [-64.691641, 10.202228000000162], [-64.691643, 10.202241000000186], [-64.691643, 10.202256], [-64.69164699999982, 10.20227], [-64.691655, 10.202286000000186], [-64.69166299999989, 10.202299], [-64.691672, 10.202312000000177], [-64.691689, 10.202324], [-64.69169899999986, 10.202333000000124], [-64.691712, 10.202338], [-64.691729, 10.202351], [-64.691755, 10.202364], [-64.693247, 10.20254100000011], [-64.693809, 10.202608000000168], [-64.69458, 10.202699], [-64.695079, 10.202760000000126], [-64.695169, 10.202781], [-64.695255, 10.202787], [-64.695574, 10.202788000000112], [-64.695687, 10.202798], [-64.69577, 10.202815], [-64.695906, 10.202848000000131], [-64.6960289999999, 10.202865], [-64.696508, 10.202973000000156], [-64.696901, 10.203084000000104], [-64.697106, 10.203158], [-64.697421, 10.203269000000148], [-64.697761, 10.203399], [-64.69778410899994, 10.20340766600009], [-64.69790499999988, 10.203453], [-64.698018, 10.203507000000116], [-64.698179, 10.203621000000112], [-64.698213, 10.203658000000189], [-64.698206, 10.20368800000017], [-64.698177, 10.203761000000156], [-64.69813625899991, 10.203852183000151], [-64.698135, 10.203855000000146], [-64.69811, 10.203938], [-64.6981, 10.204012000000148], [-64.69810699999988, 10.204039], [-64.698118, 10.204062], [-64.698154, 10.204086], [-64.698171, 10.204089000000124], [-64.69819699999988, 10.204072000000167], [-64.69823, 10.204039], [-64.69824731899996, 10.203992373000062], [-64.698256, 10.203969000000143], [-64.698294, 10.203828], [-64.698323, 10.203711000000112], [-64.698339, 10.203691], [-64.698352, 10.203691], [-64.698568, 10.203715000000102], [-64.698685, 10.203725], [-64.698801, 10.203752000000122], [-64.69903399999987, 10.203813], [-64.699507, 10.203960000000109], [-64.700294, 10.20422600000012], [-64.700624, 10.204347000000155], [-64.70115399999986, 10.204545], [-64.701751, 10.204800000000148], [-64.70183544199995, 10.204836125000043], [-64.70425186699993, 10.205536728000027]]]}}, {"type": "Feature", "properties": {"Pais": "Venezuela", "Estado": "Anzo\u00e1tegui", "Municipio": "Diego Bautista Urbaneja", "Parroquia": "El Morro"}, "geometry": {"type": "MultiPolygon", "coordinates": [[[[-64.72971799999988, 10.308137000000158], [-64.731155, 10.309536], [-64.732084, 10.311039000000108], [-64.73443, 10.311624], [-64.736771, 10.311704], [-64.739118, 10.312390000000164], [-64.743081, 10.311751], [-64.744868, 10.306697], [-64.746092, 10.306988000000104], [-64.74729599999984, 10.305063000000189], [-64.748612, 10.304145], [-64.750123, 10.3024190000001], [-64.750098, 10.299597], [-64.750489, 10.29778000000016], [-64.75221699999986, 10.297564], [-64.753019, 10.296246], [-64.754737, 10.294922], [-64.756568, 10.294805], [-64.756749, 10.292284000000166], [-64.757357, 10.29197500000015], [-64.757653, 10.290864], [-64.75762699999984, 10.287942], [-64.758542, 10.28793400000012], [-64.759067, 10.289743], [-64.762436, 10.290924], [-64.76303999999988, 10.290213], [-64.763026, 10.288701000000174], [-64.762606, 10.287193], [-64.759852, 10.286411], [-64.759032, 10.285713], [-64.758817, 10.284405000000163], [-64.758007, 10.28491600000018], [-64.75679399999984, 10.285833], [-64.755575, 10.286045000000115], [-64.753946, 10.285958], [-64.7529219999999, 10.285161000000187], [-64.75188999999989, 10.283558], [-64.750753, 10.281552], [-64.74952, 10.280353000000105], [-64.74645, 10.278364000000181], [-64.744192, 10.2761670000001], [-64.74417799999986, 10.274555], [-64.743537, 10.271033], [-64.74292999999989, 10.271441], [-64.740814, 10.27377700000011], [-64.738593, 10.275812], [-64.735853, 10.276642], [-64.73465, 10.278668], [-64.734167, 10.281695000000127], [-64.7341909999999, 10.284416], [-64.733403, 10.287345], [-64.7328179999999, 10.290273000000184], [-64.731009, 10.29280800000015], [-64.730102, 10.293824], [-64.730022, 10.296344000000147], [-64.729835, 10.29826], [-64.729638, 10.298967000000118], [-64.728952, 10.301996], [-64.728055, 10.304121], [-64.728173, 10.306034], [-64.72971799999988, 10.308137000000158]]], [[[-64.70557357099995, 10.224396896000144], [-64.7056395699999, 10.224429900000018], [-64.70581158499994, 10.22457290300008], [-64.70598858999995, 10.224705902000153], [-64.7061536039999, 10.224794910000071], [-64.70619760699998, 10.224810910000144], [-64.70631961199996, 10.224899906000019], [-64.70646762099994, 10.224982908000129], [-64.7065786149999, 10.225032916000032], [-64.70671562599995, 10.225054911000143], [-64.70681363599988, 10.22504391300015], [-64.70691263899982, 10.225027912000144], [-64.70700464199996, 10.224988912000128], [-64.70710864699998, 10.2249449090001], [-64.70726664799997, 10.22483989900013], [-64.70739665699989, 10.224718902000177], [-64.70753665799992, 10.224542893000091], [-64.70768766899982, 10.224332886000184], [-64.70782867599996, 10.224178884000082], [-64.70795267799997, 10.224073875000158], [-64.70808368099989, 10.224023876000047], [-64.70819268899993, 10.223957879000181], [-64.7082846909999, 10.22389787600008], [-64.70846369299989, 10.22373187200003], [-64.70851769999985, 10.223659867000038], [-64.70866370899995, 10.223511860000087], [-64.70869570899998, 10.22344485800005], [-64.70872770799997, 10.223356853000155], [-64.70877070499989, 10.223257852000074], [-64.70880770699995, 10.223152842000047], [-64.70883970599994, 10.22303684800005], [-64.70885370599996, 10.222881841000117], [-64.70885931399994, 10.222858650999967], [-64.70887571299988, 10.222790833000033], [-64.7089737099999, 10.222478832999968], [-64.70909671699997, 10.222172817000057], [-64.7091807249999, 10.221941808000054], [-64.70924972499995, 10.22173880300005], [-64.70928872599995, 10.221661807999965], [-64.70935372999992, 10.221548805000111], [-64.70946072699996, 10.221381795000184], [-64.70957673399988, 10.22119979100006], [-64.70961973099998, 10.221149793000166], [-64.70970674299997, 10.221039781000115], [-64.7097767379999, 10.22094178499998], [-64.70981974699993, 10.220872783000175], [-64.70987874399992, 10.220800779000058], [-64.7099367479999, 10.22073478100009], [-64.70997675399997, 10.220709770000099], [-64.71005475499999, 10.220633769000074], [-64.71012775299994, 10.22053976900014], [-64.71018275299986, 10.220435765000047], [-64.71022875399984, 10.220325765000041], [-64.71029575699998, 10.220190755000033], [-64.71034476099993, 10.220133757000099], [-64.71040676199993, 10.220068753000078], [-64.71046577099992, 10.220030757000131], [-64.71057476699997, 10.219995753999967], [-64.71064277599999, 10.219983751000143], [-64.71073378499989, 10.21998375000004], [-64.71082378899996, 10.219992748999971], [-64.71098078499989, 10.22004974600003], [-64.71110379499993, 10.220106755000188], [-64.71118879699998, 10.22015374900019], [-64.71124480299989, 10.220207755000047], [-64.71126380699997, 10.220223754000187], [-64.71130180199998, 10.220223754000187], [-64.71132980499982, 10.220207754000114], [-64.71133581199996, 10.220182755999986], [-64.71133480699996, 10.220144749000156], [-64.71131880699988, 10.220119750000094], [-64.71126580499993, 10.220075748], [-64.71113679899992, 10.220009752000067], [-64.71103579699991, 10.219952743000078], [-64.71093578799997, 10.219889750000107], [-64.7108467889999, 10.219810745000018], [-64.71075577899984, 10.219706742000028], [-64.71068577099999, 10.21962474500009], [-64.71065377099984, 10.219549738000012], [-64.7106397689999, 10.21947073300015], [-64.71063877499995, 10.219372736000139], [-64.71066276899995, 10.219247730000063], [-64.71067676999996, 10.219155729000022], [-64.71072577399991, 10.219061729000032], [-64.71076277599997, 10.219020719000014], [-64.71083777299998, 10.21900172700009], [-64.7109217819999, 10.21900172700009], [-64.71098077999989, 10.219002720000049], [-64.71105978599996, 10.219002719000173], [-64.71107178899996, 10.218995719000077], [-64.71107778399994, 10.218980724], [-64.71107178899996, 10.218961721000142], [-64.71104578399996, 10.218926717999977], [-64.71097377799993, 10.218885720000173], [-64.71085778099985, 10.218844722000142], [-64.71077277899991, 10.21882271600009], [-64.71066677499994, 10.218790717], [-64.71062576399999, 10.218759723000119], [-64.71057876899994, 10.2187187130001], [-64.71054076099989, 10.218671719000099], [-64.71052076399991, 10.218573710999976], [-64.71050976599992, 10.218494706000115], [-64.71051176399988, 10.218391707000023], [-64.71053175999987, 10.218264702999988], [-64.71053276499993, 10.218259701000136], [-64.71054376199999, 10.218073701000037], [-64.71053775399992, 10.21791269900001], [-64.71054575899996, 10.217882698000096], [-64.71056276399986, 10.217821691000154], [-64.71060475599995, 10.217800689000171], [-64.71067376999997, 10.217791689000137], [-64.71069076399988, 10.21778369499998], [-64.71069876899992, 10.217770688000087], [-64.71069076299995, 10.217752689000122], [-64.7106557599999, 10.217735685000093], [-64.71060376299994, 10.217730695000057], [-64.71050976099991, 10.217696686000181], [-64.71044475599996, 10.217657686000166], [-64.71037474899993, 10.217600688000061], [-64.71032674899993, 10.217535685000087], [-64.71031375199993, 10.217470681000066], [-64.7103037469999, 10.217384687000049], [-64.71031574899985, 10.217293679000136], [-64.71033174899992, 10.217215679999981], [-64.71031774699992, 10.217098668000062], [-64.71030774199988, 10.216985665000038], [-64.71030574199989, 10.216829665000091], [-64.71028774299992, 10.21672166500008], [-64.71024874199998, 10.216601662000187], [-64.71022173199998, 10.216533654000045], [-64.71019374099996, 10.216461662000142], [-64.71015773099998, 10.21629665100005], [-64.71014172999992, 10.216036648000113], [-64.71013073099988, 10.215811636000183], [-64.71014872799998, 10.215504625999984], [-64.7101757239999, 10.215248620000125], [-64.71021772799998, 10.21514061900018], [-64.71025773199995, 10.214958615], [-64.71028273099995, 10.214858607999986], [-64.71040273399996, 10.214490603], [-64.7104657399999, 10.214295591000052], [-64.71051174099989, 10.214192592000131], [-64.71058374599988, 10.214101584000105], [-64.71065974799996, 10.214014585000086], [-64.71070173999988, 10.213919580000095], [-64.7107427499999, 10.213776575999987], [-64.71076274599989, 10.213655579000033], [-64.71077874599996, 10.213503576000164], [-64.71077773999997, 10.213425565000023], [-64.71079375099998, 10.213317564000022], [-64.71081374799991, 10.21321756900005], [-64.71084274399993, 10.213170563000062], [-64.71088575299996, 10.213131563000047], [-64.71095374899994, 10.21310156100003], [-64.71103575899991, 10.213079554000046], [-64.71110775299991, 10.213044563000096], [-64.71118476099997, 10.212971553000102], [-64.71123576399992, 10.21290255100007], [-64.7113157629999, 10.21282455100004], [-64.71139676699994, 10.212720547000117], [-64.71145876799983, 10.212657541000056], [-64.71150777299988, 10.212636539000073], [-64.71157677499991, 10.21260554500003], [-64.71162477499996, 10.212564546000067], [-64.71168178499988, 10.212535538000168], [-64.71177878999993, 10.212484535000158], [-64.71184079099999, 10.212437541000156], [-64.71190378599988, 10.2124005390001], [-64.71192278899986, 10.212383534000026], [-64.71193479199997, 10.21239154000017], [-64.7119577929999, 10.212389529000063], [-64.71200379399988, 10.21237153100003], [-64.71207479399982, 10.212331537000068], [-64.71215979599992, 10.212259532000076], [-64.71222479999989, 10.212213532000021], [-64.71229580099998, 10.212167531000034], [-64.71239280499992, 10.212118526000154], [-64.71247281699988, 10.212089530000071], [-64.7125728129999, 10.212063525000133], [-64.71260381999997, 10.212057518000051], [-64.71262381699995, 10.212046520000058], [-64.71264382499999, 10.212023520000116], [-64.71268082799998, 10.212011517000064], [-64.71281282399997, 10.21198851600002], [-64.71284383099993, 10.21198851600002], [-64.71285882499996, 10.212000518000139], [-64.71288183799999, 10.212006526000096], [-64.71298183499988, 10.21201451900015], [-64.71308783899997, 10.212043514000129], [-64.71311983899994, 10.21204952100004], [-64.71315183899992, 10.212067519000072], [-64.71325584499994, 10.212191519000044], [-64.71332585299996, 10.212306520000084], [-64.71341985499998, 10.212457529], [-64.71344886299983, 10.212515532000111], [-64.71348086299997, 10.212558529000034], [-64.71350186599994, 10.21261053600017], [-64.71351686099996, 10.212645539000107], [-64.7135798679999, 10.212714540000093], [-64.71363186499997, 10.212760540000147], [-64.71367586799994, 10.212772531000155], [-64.71371587299996, 10.212766535000185], [-64.71372687099989, 10.212763531000121], [-64.71373487699987, 10.212737539000102], [-64.71373187299997, 10.212705540000059], [-64.7137148679999, 10.212674534000143], [-64.71365687499997, 10.212613527000144], [-64.71361287199989, 10.21254153500007], [-64.71358987099995, 10.212526529000058], [-64.71352186199982, 10.212388528000076], [-64.71342485599996, 10.212200517000099], [-64.71338985199998, 10.212139522000086], [-64.71333485099996, 10.212090518000139], [-64.71327684699997, 10.212047522000148], [-64.71321984699995, 10.211994521000065], [-64.71319884499991, 10.211963515000036], [-64.71317884799993, 10.211911519000125], [-64.71317784199994, 10.211876516000189], [-64.71317784199994, 10.21185652000014], [-64.7131828439999, 10.211827512000013], [-64.71323984299994, 10.211758511000085], [-64.71332185299997, 10.211692513000173], [-64.71341284999994, 10.211608506000061], [-64.71351185299989, 10.21152150600011], [-64.71359686599988, 10.211461504000113], [-64.71362886599997, 10.211455497000088], [-64.71372286699994, 10.211452504000079], [-64.71382386899995, 10.211458499000173], [-64.71391786999982, 10.211458499000173], [-64.7139748809999, 10.211441494000098], [-64.71403187999994, 10.211441493000166], [-64.71407788099998, 10.211427492000155], [-64.71409488599988, 10.211409494000065], [-64.71411187899997, 10.211395492000179], [-64.71410588399993, 10.211360489000015], [-64.71409388099988, 10.211331494000035], [-64.71405988199984, 10.211317493000024], [-64.71398787599992, 10.211308494000093], [-64.71390186899998, 10.211308494999969], [-64.71382186999995, 10.211308494999969], [-64.71376686899993, 10.211302500000102], [-64.71371286199991, 10.21127950000016], [-64.71368886799996, 10.211262495000085], [-64.71364486399995, 10.211163494000175], [-64.7136218629999, 10.211100488999989], [-64.71360685599984, 10.211028484], [-64.71355786199996, 10.210837481999988], [-64.71352285799998, 10.21074848500001], [-64.71349085799994, 10.21067248300011], [-64.71346884999997, 10.210557482000127], [-64.71346985399998, 10.210387469000182], [-64.71349785499996, 10.210112459000129], [-64.7135078469999, 10.209959463000132], [-64.71353885299987, 10.209867462000034], [-64.71359984799994, 10.209752449], [-64.71368985199996, 10.209619449000058], [-64.7137268539999, 10.209552446000089], [-64.7137858619999, 10.20942044000003], [-64.71380686399993, 10.209357446000126], [-64.71384386499989, 10.209233434000168], [-64.71386485499994, 10.20915444000019], [-64.71387185599991, 10.20907243199997], [-64.71387285999998, 10.209002437000152], [-64.71386485399995, 10.20892343200012], [-64.71385286299994, 10.208855425000081], [-64.71382385399994, 10.208757429000116], [-64.71379784899983, 10.208679429000085], [-64.71375585599998, 10.208614425], [-64.7137138519999, 10.208572422000032], [-64.71364384399988, 10.208514419000096], [-64.7135528469999, 10.208464422000134], [-64.71347783699991, 10.20843541500011], [-64.71343483899989, 10.208424418], [-64.71341183899995, 10.208422419000101], [-64.71336783599997, 10.208424418], [-64.71329383199998, 10.208435416000043], [-64.71321882199999, 10.208444416000077], [-64.71317483199988, 10.208449418000157], [-64.7131528239999, 10.208445421000079], [-64.71310581799986, 10.208436422000148], [-64.71305781799998, 10.208421416000135], [-64.71303782099983, 10.208418424000058], [-64.71301381499995, 10.208423415000027], [-64.71298982099995, 10.208427424000092], [-64.7128918109999, 10.20843142100017], [-64.71285480899996, 10.208438422000086], [-64.71278481299993, 10.20843942800019], [-64.71274680599998, 10.20843942800019], [-64.71270780599997, 10.20844742200012], [-64.71260079699982, 10.208493423000107], [-64.71255079799994, 10.208524429000022], [-64.7124687999999, 10.208550422000144], [-64.71238378699996, 10.208579430000043], [-64.71229779099997, 10.20859843400001], [-64.71224277899995, 10.208609431000127], [-64.7122077869999, 10.208614434000083], [-64.71215478499994, 10.208612436000124], [-64.71212177999996, 10.208607434000044], [-64.71206677999993, 10.208585427000116], [-64.71201277199992, 10.208573425000168], [-64.71192276799985, 10.208549431000165], [-64.71187476799997, 10.208536436000031], [-64.71185676999988, 10.208536436000031], [-64.71184376199989, 10.20854043300011], [-64.71183877099992, 10.20854043300011], [-64.71181976699995, 10.208532426999966], [-64.71174076099999, 10.20845743100017], [-64.71168876299993, 10.208388431000174], [-64.71162475099999, 10.208299422000152], [-64.71159875899997, 10.208261427000139], [-64.71156175599998, 10.208194425000102], [-64.71151474899995, 10.20809141500007], [-64.71144673999999, 10.207954419000146], [-64.71127273699989, 10.207593404000022], [-64.71116473299992, 10.2073744], [-64.71108972299993, 10.207218401000148], [-64.71104472599995, 10.207126400000107], [-64.7110037139999, 10.207013397000082], [-64.71098672099993, 10.206963388000077], [-64.71096571799995, 10.206889385000125], [-64.71095171599995, 10.206817393], [-64.71094771899993, 10.206769382000061], [-64.71094671299983, 10.206683388000044], [-64.71095671699993, 10.206601379000062], [-64.71098272099988, 10.206533383000135], [-64.7110347179999, 10.206437373000028], [-64.71108672599996, 10.206337378000171], [-64.71115672099995, 10.206212372000152], [-64.71120072299988, 10.206136371000127], [-64.71122372299993, 10.206096365000064], [-64.71123671999993, 10.206063361000133], [-64.71124972699994, 10.206009366000046], [-64.71125772099998, 10.205961367000043], [-64.71125872599998, 10.2059003600001], [-64.71125071999995, 10.205833358000064], [-64.71124572899998, 10.205739359000177], [-64.71124472299988, 10.205714360000115], [-64.71123271999994, 10.205664351000166], [-64.71121371599997, 10.205617357], [-64.71120671499995, 10.205579350000164], [-64.71121871799994, 10.205526349000138], [-64.71124272399999, 10.205482347000043], [-64.71129572599995, 10.20543935000012], [-64.71136972999994, 10.205408343000158], [-64.71180875199991, 10.205277340000066], [-64.71187674799995, 10.205239345], [-64.71195975199998, 10.205208338000034], [-64.71203075199998, 10.205168333000188], [-64.7121757679999, 10.20512433000016], [-64.71227276099995, 10.205115330000126], [-64.71245276999991, 10.205121337000037], [-64.71253978199991, 10.205134332000114], [-64.71262278499995, 10.205134332000114], [-64.71268178299994, 10.20513132800005], [-64.71272178899989, 10.20510933300011], [-64.71274678799989, 10.205103325000096], [-64.7130108049999, 10.205122327000083], [-64.71337782199998, 10.205163323000136], [-64.71344281499995, 10.205147323], [-64.7134608259999, 10.205125328000065], [-64.71346381699982, 10.20509133000013], [-64.71345782199995, 10.205069324000078], [-64.71344182199994, 10.205063328000108], [-64.71332681799993, 10.205044325000017], [-64.71300079999997, 10.205025324000133], [-64.71293179799994, 10.204990321000025], [-64.7128607969999, 10.204984326000158], [-64.71268678399991, 10.204987331000098], [-64.71241677199987, 10.204999335000025], [-64.71210376199997, 10.205027327000039], [-64.71204475299999, 10.20503933000009], [-64.71200775099993, 10.205064329000095], [-64.71194675499999, 10.205102336000152], [-64.7118537469999, 10.205136334000088], [-64.71180974399994, 10.205142342000045], [-64.71176374299995, 10.20513633500019], [-64.71163074199995, 10.205180338], [-64.71154773799998, 10.205226338999978], [-64.71146973699996, 10.205248346000133], [-64.71132172899996, 10.205317348000165], [-64.71130672299995, 10.205345350000186], [-64.71128172399995, 10.205354349000118], [-64.7112227259999, 10.205357341000024], [-64.71116671999982, 10.20534834300014], [-64.71114471299995, 10.20533534700013], [-64.71110070999987, 10.205282346000104], [-64.71098770399993, 10.20513534600019], [-64.71086870299996, 10.20504433900004], [-64.71081260799991, 10.205024347000176], [-64.71078170299995, 10.205013333000124], [-64.71069921399993, 10.204993102000174], [-64.710586, 10.205041], [-64.710162, 10.205311000000165], [-64.710088, 10.205327], [-64.709994, 10.205362], [-64.709933, 10.2054], [-64.709837, 10.205498], [-64.709483, 10.205849000000114], [-64.709208, 10.206136], [-64.70909, 10.206274], [-64.70901999999984, 10.206373], [-64.708837, 10.206666], [-64.708673, 10.206997], [-64.70859468599991, 10.207152661000066], [-64.70425186699993, 10.205536728000027], [-64.70183544199995, 10.204836125000043], [-64.701751, 10.204800000000148], [-64.70115399999986, 10.204545], [-64.700624, 10.204347000000155], [-64.700294, 10.20422600000012], [-64.699507, 10.203960000000109], [-64.69903399999987, 10.203813], [-64.698801, 10.203752000000122], [-64.698685, 10.203725], [-64.698568, 10.203715000000102], [-64.698352, 10.203691], [-64.698339, 10.203691], [-64.698323, 10.203711000000112], [-64.698294, 10.203828], [-64.698256, 10.203969000000143], [-64.69824731899996, 10.203992373000062], [-64.69823, 10.204039], [-64.69819699999988, 10.204072000000167], [-64.698171, 10.204089000000124], [-64.698154, 10.204086], [-64.698118, 10.204062], [-64.69810699999988, 10.204039], [-64.6981, 10.204012000000148], [-64.69811, 10.203938], [-64.698135, 10.203855000000146], [-64.69813625899991, 10.203852183000151], [-64.698177, 10.203761000000156], [-64.698206, 10.20368800000017], [-64.698213, 10.203658000000189], [-64.698179, 10.203621000000112], [-64.698018, 10.203507000000116], [-64.69790499999988, 10.203453], [-64.69778410899994, 10.20340766600009], [-64.697761, 10.203399], [-64.697421, 10.203269000000148], [-64.697106, 10.203158], [-64.696901, 10.203084000000104], [-64.696508, 10.202973000000156], [-64.6960289999999, 10.202865], [-64.695906, 10.202848000000131], [-64.69577, 10.202815], [-64.695687, 10.202798], [-64.695574, 10.202788000000112], [-64.695255, 10.202787], [-64.695169, 10.202781], [-64.695079, 10.202760000000126], [-64.69458, 10.202699], [-64.693809, 10.202608000000168], [-64.693247, 10.20254100000011], [-64.691755, 10.202364], [-64.691729, 10.202351], [-64.691712, 10.202338], [-64.69169899999986, 10.202333000000124], [-64.691689, 10.202324], [-64.691672, 10.202312000000177], [-64.69166299999989, 10.202299], [-64.691655, 10.202286000000186], [-64.69164699999982, 10.20227], [-64.691643, 10.202256], [-64.691643, 10.202241000000186], [-64.691641, 10.202228000000162], [-64.691634, 10.202212], [-64.691625, 10.202199], [-64.69162099999988, 10.202195], [-64.69161999999989, 10.20219400000019], [-64.6916149999999, 10.202182000000107], [-64.69144099999983, 10.202121], [-64.690523, 10.202216], [-64.69049199999989, 10.202072], [-64.68988627499988, 10.20004465900007], [-64.6887485129999, 10.196236605000138], [-64.6875884339999, 10.192353856000125], [-64.682131, 10.174088], [-64.68212499999987, 10.174475], [-64.682102, 10.174731], [-64.68208199999987, 10.175183000000118], [-64.68209, 10.175566], [-64.68204, 10.176452000000154], [-64.681991, 10.176749], [-64.68195, 10.176925], [-64.669369, 10.176866000000132], [-64.659387, 10.187766000000124], [-64.67193137299995, 10.197662336000064], [-64.67391444199995, 10.199226792000161], [-64.67614423899983, 10.200985893000166], [-64.67840699999988, 10.202771000000155], [-64.67843615099991, 10.202793997000185], [-64.67866624299995, 10.202791456000057], [-64.67933956899998, 10.203317526000092], [-64.67941562999994, 10.203315456000098], [-64.67977191899996, 10.203308100000186], [-64.68160566099988, 10.203270239000176], [-64.69179588899988, 10.203059844000052], [-64.70311978799998, 10.205810676000112], [-64.70324386799996, 10.205840818000127], [-64.70549448499997, 10.206387543000176], [-64.70608226799993, 10.206530329000088], [-64.7065573939999, 10.206645748000085], [-64.7061492929999, 10.222858650999967], [-64.70611460099997, 10.22423689700014], [-64.70603858599998, 10.224291897000057], [-64.70592959099992, 10.224346897000032], [-64.70581957799988, 10.2243749000001], [-64.7057265819999, 10.224352893000173], [-64.70568257899993, 10.224318896000113], [-64.70560457699997, 10.224241890000144], [-64.70552556999996, 10.224042893999979], [-64.7055085639999, 10.223970889000157], [-64.70548656799997, 10.223937885000112], [-64.70543655799997, 10.223937885000112], [-64.70539955599997, 10.223981887000036], [-64.70538855899991, 10.224031897000089], [-64.70540056199997, 10.224141896], [-64.70541856099993, 10.224197901000139], [-64.70547356199995, 10.224285893000115], [-64.70557357099995, 10.224396896000144]]], [[[-64.760726, 10.247101], [-64.761143, 10.248307000000182], [-64.762274, 10.249607], [-64.762891, 10.250408000000107], [-64.76288299999987, 10.24950100000018], [-64.762872, 10.248191000000133], [-64.762864, 10.247284], [-64.761942, 10.246587000000147], [-64.761018, 10.245688], [-64.760726, 10.247101]]], [[[-64.744688, 10.263062000000104], [-64.742663, 10.264188], [-64.74134, 10.264199], [-64.742061, 10.265201000000161], [-64.743184, 10.265594], [-64.744002, 10.266091], [-64.744516, 10.26669100000015], [-64.745442, 10.267893000000129], [-64.746573, 10.269193], [-64.747894, 10.26898], [-64.74829299999988, 10.26807], [-64.748591, 10.267261], [-64.749498, 10.266245], [-64.752132, 10.26491300000015], [-64.752123, 10.263905], [-64.752009, 10.262495], [-64.751395, 10.262198], [-64.74997599999989, 10.262815000000103], [-64.748858, 10.26292500000011], [-64.747737, 10.262733], [-64.746314, 10.262846], [-64.744688, 10.263062000000104]]]]}}]}