{
  "type": "FeatureCollection",
  "features": [
    {
      "type": "Feature",
      "properties": {
        "Pais": "Venezuela",
        "Estado": "Carabobo",
        "Municipio": "Diego Ibarra",
        "Parroquia": "Aguas Calientes"
      },
      "geometry": {
        "type": "Polygon",
        "coordinates": [
          [
            [
              -67.65118681299998,
              10.293678560000046
            ],
            [
              -67.65105813199989,
              10.295251244000156
            ],
            [
              -67.65102314299992,
              10.297690297000088
            ],
            [
              -67.65153820599988,
              10.299173737999979
            ],
            [
              -67.65174118899989,
              10.29975835100015
            ],
            [
              -67.65242122899997,
              10.30205741200001
            ],
            [
              -67.6528842909999,
              10.303282069000034
            ],
            [
              -67.65310827899998,
              10.30387445000008
            ],
            [
              -67.6546943539999,
              10.306189506000123
            ],
            [
              -67.65633043699995,
              10.307905538
            ],
            [
              -67.65752549799987,
              10.309613579000029
            ],
            [
              -67.65941660199991,
              10.312010629000099
            ],
            [
              -67.65968292299993,
              10.31219414900005
            ],
            [
              -67.66119867899994,
              10.313238642000044
            ],
            [
              -67.66245174199997,
              10.31462268100006
            ],
            [
              -67.66369080999982,
              10.316948724000042
            ],
            [
              -67.66403683299995,
              10.318293757000049
            ],
            [
              -67.66590893799992,
              10.321519832999968
            ],
            [
              -67.66648196599994,
              10.323408876000087
            ],
            [
              -67.66728601799991,
              10.325221928000133
            ],
            [
              -67.66824906999994,
              10.326269939999975
            ],
            [
              -67.66991714999995,
              10.327547963000143
            ],
            [
              -67.67108620699992,
              10.329165008000075
            ],
            [
              -67.67070719799995,
              10.330973053000037
            ],
            [
              -67.67184126399997,
              10.332837094000183
            ],
            [
              -67.67423837999996,
              10.335023143000114
            ],
            [
              -67.67642848299994,
              10.335977148999973
            ],
            [
              -67.67937261899988,
              10.337294164000184
            ],
            [
              -67.68074567699989,
              10.338714198000048
            ],
            [
              -67.68294878999984,
              10.340035214000125
            ],
            [
              -67.68510588699996,
              10.34073722300002
            ],
            [
              -67.68650145199996,
              10.340893723000022
            ],
            [
              -67.6878970059999,
              10.341050210999981
            ],
            [
              -67.69082913499994,
              10.34171321500014
            ],
            [
              -67.69286616699998,
              10.341300250000188
            ],
            [
              -67.69295522999988,
              10.341282194000087
            ],
            [
              -67.69484130299998,
              10.34091616600017
            ],
            [
              -67.69709639499996,
              10.33925211800016
            ],
            [
              -67.69859446199996,
              10.339038095000149
            ],
            [
              -67.70086255299992,
              10.337740053
            ],
            [
              -67.70229599899994,
              10.33645226300007
            ],
            [
              -67.70328363699997,
              10.33556498500019
            ],
            [
              -67.70478869899995,
              10.33431793800014
            ],
            [
              -67.70703378899992,
              10.332997889000069
            ],
            [
              -67.70521461999994,
              10.32958699
            ],
            [
              -67.70090996299996,
              10.323146012000166
            ],
            [
              -67.690037,
              10.306877
            ],
            [
              -67.690037,
              10.306836
            ],
            [
              -67.690063,
              10.30649000000011
            ],
            [
              -67.690101,
              10.306001
            ],
            [
              -67.690139,
              10.305494000000124
            ],
            [
              -67.690155,
              10.305306
            ],
            [
              -67.690231,
              10.304484
            ],
            [
              -67.690269,
              10.303968
            ],
            [
              -67.6903769999999,
              10.302644
            ],
            [
              -67.690399,
              10.302313
            ],
            [
              -67.690438,
              10.301795
            ],
            [
              -67.690457,
              10.301550000000134
            ],
            [
              -67.690501,
              10.300969
            ],
            [
              -67.69054299999988,
              10.300364
            ],
            [
              -67.690613,
              10.299381
            ],
            [
              -67.690619,
              10.299312
            ],
            [
              -67.690622,
              10.299295
            ],
            [
              -67.69062699999989,
              10.299283000000173
            ],
            [
              -67.69063399999987,
              10.29926600000016
            ],
            [
              -67.690642,
              10.299248
            ],
            [
              -67.69065,
              10.299228
            ],
            [
              -67.690657,
              10.299207
            ],
            [
              -67.690662,
              10.299192
            ],
            [
              -67.69066699999985,
              10.299172
            ],
            [
              -67.69067199999989,
              10.299149
            ],
            [
              -67.69067499999989,
              10.299118
            ],
            [
              -67.690687,
              10.298582
            ],
            [
              -67.690706,
              10.298172
            ],
            [
              -67.690735,
              10.297492
            ],
            [
              -67.690738,
              10.297444
            ],
            [
              -67.69075,
              10.297117000000185
            ],
            [
              -67.6907599999999,
              10.296832
            ],
            [
              -67.690767,
              10.296522000000152
            ],
            [
              -67.69078899999988,
              10.296121
            ],
            [
              -67.690825,
              10.295703
            ],
            [
              -67.690866,
              10.295116000000178
            ],
            [
              -67.690895,
              10.294816
            ],
            [
              -67.690927,
              10.294415
            ],
            [
              -67.690956,
              10.293962
            ],
            [
              -67.691029,
              10.29299
            ],
            [
              -67.691047,
              10.292648
            ],
            [
              -67.691096,
              10.292034
            ],
            [
              -67.691142,
              10.291385
            ],
            [
              -67.691184,
              10.290794000000119
            ],
            [
              -67.691246,
              10.289912000000186
            ],
            [
              -67.691282,
              10.289451
            ],
            [
              -67.691356,
              10.288659
            ],
            [
              -67.691387,
              10.288351000000148
            ],
            [
              -67.691429,
              10.287836
            ],
            [
              -67.691547,
              10.286552
            ],
            [
              -67.691655,
              10.285361
            ],
            [
              -67.69175699999988,
              10.284236
            ],
            [
              -67.691832,
              10.283446
            ],
            [
              -67.69187099999988,
              10.283230000000117
            ],
            [
              -67.69329665399982,
              10.269330383000124
            ],
            [
              -67.69370800799993,
              10.265319826000052
            ],
            [
              -67.6940617979999,
              10.261198107000155
            ],
            [
              -67.6925377259999,
              10.26128612000008
            ],
            [
              -67.68782851799989,
              10.26070713300004
            ],
            [
              -67.68673647099996,
              10.259272090000024
            ],
            [
              -67.68776250399998,
              10.258019063
            ],
            [
              -67.68969158899995,
              10.258070042000043
            ],
            [
              -67.69218769299988,
              10.257733030000054
            ],
            [
              -67.69435577299998,
              10.255913965000104
            ],
            [
              -67.6958738269999,
              10.25406891200015
            ],
            [
              -67.69772689599984,
              10.251845838000065
            ],
            [
              -67.69947896999992,
              10.250775803000067
            ],
            [
              -67.70184707699985,
              10.250787792000096
            ],
            [
              -67.70395216299994,
              10.251246791000142
            ],
            [
              -67.70589924999985,
              10.251847789000124
            ],
            [
              -67.70828235399995,
              10.252296794000074
            ],
            [
              -67.71096547899998,
              10.251976762000027
            ],
            [
              -67.71346957899988,
              10.251892752
            ],
            [
              -67.71565367699992,
              10.25124472400006
            ],
            [
              -67.71629568599985,
              10.24959067900005
            ],
            [
              -67.7144306109999,
              10.249354680000181
            ],
            [
              -67.71271454399994,
              10.250124707
            ],
            [
              -67.71062145099995,
              10.250033723000115
            ],
            [
              -67.70804633499995,
              10.249384718000158
            ],
            [
              -67.7060612379999,
              10.248347697000042
            ],
            [
              -67.70317611499996,
              10.247455695000156
            ],
            [
              -67.7017360459999,
              10.246744683000145
            ],
            [
              -67.70034096999996,
              10.245297652000033
            ],
            [
              -67.69955093399994,
              10.243874622000078
            ],
            [
              -67.69825786999996,
              10.243389615000183
            ],
            [
              -67.69663980199994,
              10.244317651000017
            ],
            [
              -67.69473171899989,
              10.244197659000065
            ],
            [
              -67.69280863399996,
              10.242928637000034
            ],
            [
              -67.69227160899999,
              10.242118618000063
            ],
            [
              -67.6922145879999,
              10.24039557600014
            ],
            [
              -67.69219757999991,
              10.237821513000085
            ],
            [
              -67.6911345289999,
              10.236569479000025
            ],
            [
              -67.68993347599991,
              10.237460512000155
            ],
            [
              -67.69034350099997,
              10.239308557000186
            ],
            [
              -67.69109455399996,
              10.24165161999997
            ],
            [
              -67.68989951299994,
              10.243416672000023
            ],
            [
              -67.68781443099988,
              10.244221703999983
            ],
            [
              -67.68579833099989,
              10.243645693000019
            ],
            [
              -67.68440725999989,
              10.24162265100017
            ],
            [
              -67.68290718599997,
              10.240500627000074
            ],
            [
              -67.68128611699996,
              10.239910624000174
            ],
            [
              -67.68009706499998,
              10.24045664100015
            ],
            [
              -67.6807611019999,
              10.242273691000037
            ],
            [
              -67.68089312099994,
              10.244154742000148
            ],
            [
              -67.67960807299994,
              10.245300776000136
            ],
            [
              -67.67783799699993,
              10.245842799000116
            ],
            [
              -67.67604192099998,
              10.244891783000128
            ],
            [
              -67.67361640599995,
              10.243808622000131
            ],
            [
              -67.67251275199993,
              10.24331576200018
            ],
            [
              -67.67345581099988,
              10.245023804000084
            ],
            [
              -67.67393783299997,
              10.245445811000138
            ],
            [
              -67.67900007899988,
              10.24987289400002
            ],
            [
              -67.68005013499999,
              10.251392925000118
            ],
            [
              -67.67992212799999,
              10.252042951000078
            ],
            [
              -67.67832607199989,
              10.253769006000027
            ],
            [
              -67.67717002699999,
              10.254754038000158
            ],
            [
              -67.67598397899991,
              10.255368062000173
            ],
            [
              -67.67473193599994,
              10.256693096
            ],
            [
              -67.67328988499992,
              10.258637161000024
            ],
            [
              -67.67288196699991,
              10.258885648000046
            ],
            [
              -67.6726348599999,
              10.259036175000176
            ],
            [
              -67.6716978209999,
              10.259558197
            ],
            [
              -67.67135280299988,
              10.260114213000179
            ],
            [
              -67.67010376099984,
              10.260820239000168
            ],
            [
              -67.66807467599989,
              10.262080273000151
            ],
            [
              -67.66704363699995,
              10.262850307000065
            ],
            [
              -67.66657712799997,
              10.26348182300012
            ],
            [
              -67.66629161099996,
              10.263868329000104
            ],
            [
              -67.66597560199995,
              10.264609352000036
            ],
            [
              -67.66597060599997,
              10.265568385000108
            ],
            [
              -67.66562558799995,
              10.266154401999984
            ],
            [
              -67.66616562799993,
              10.268855466
            ],
            [
              -67.66588161899989,
              10.269596488000047
            ],
            [
              -67.6658763669999,
              10.27055117100008
            ],
            [
              -67.66587463799993,
              10.270865522000065
            ],
            [
              -67.66592765099989,
              10.27269056900019
            ],
            [
              -67.66576464399998,
              10.274113604000036
            ],
            [
              -67.6655736429999,
              10.274824626000054
            ],
            [
              -67.66501062099996,
              10.27537864499999
            ],
            [
              -67.66441360499994,
              10.27649067699997
            ],
            [
              -67.66327557199992,
              10.27964176200004
            ],
            [
              -67.66166250099997,
              10.27975277600018
            ],
            [
              -67.66131649099992,
              10.280493799000112
            ],
            [
              -67.66034944999996,
              10.280922815000054
            ],
            [
              -67.65701931299998,
              10.280784833000041
            ],
            [
              -67.65207609399982,
              10.280922863000058
            ],
            [
              -67.65149607399997,
              10.282544908999967
            ],
            [
              -67.65147209199995,
              10.284637966000048
            ],
            [
              -67.65139898699994,
              10.286553077000178
            ],
            [
              -67.65138509399992,
              10.286917023000058
            ],
            [
              -67.65143812099996,
              10.289192082000113
            ],
            [
              -67.65122112599994,
              10.291751152000131
            ],
            [
              -67.65120713499994,
              10.293430193
            ],
            [
              -67.65118681299998,
              10.293678560000046
            ]
          ]
        ]
      }
    },
    {
      "type": "Feature",
      "properties": {
        "Pais": "Venezuela",
        "Estado": "Carabobo",
        "Municipio": "Diego Ibarra",
        "Parroquia": "Mariara"
      },
      "geometry": {
        "type": "Polygon",
        "coordinates": [
          [
            [
              -67.73998286999995,
              10.34314314200003
            ],
            [
              -67.7401464539999,
              10.342125289000137
            ],
            [
              -67.74053296199992,
              10.33896813400014
            ],
            [
              -67.74085299999984,
              10.334664000000146
            ],
            [
              -67.741698,
              10.332176000000175
            ],
            [
              -67.742432,
              10.32980600000019
            ],
            [
              -67.74283065099996,
              10.328765708999981
            ],
            [
              -67.743628,
              10.326685
            ],
            [
              -67.744546,
              10.323573000000124
            ],
            [
              -67.74634999999984,
              10.321236
            ],
            [
              -67.746662,
              10.315983
            ],
            [
              -67.743848,
              10.313111000000106
            ],
            [
              -67.742296,
              10.308358000000169
            ],
            [
              -67.740796,
              10.305166
            ],
            [
              -67.74077699999987,
              10.303213
            ],
            [
              -67.742252,
              10.300105000000144
            ],
            [
              -67.74376399999983,
              10.297409000000187
            ],
            [
              -67.744276,
              10.293966
            ],
            [
              -67.744125,
              10.290131
            ],
            [
              -67.744416,
              10.287730000000124
            ],
            [
              -67.743094,
              10.285705
            ],
            [
              -67.74093099999982,
              10.284214000000134
            ],
            [
              -67.740209,
              10.279962
            ],
            [
              -67.73708976299997,
              10.268105299000013
            ],
            [
              -67.7355842259999,
              10.262382522
            ],
            [
              -67.73566764599997,
              10.262340812000105
            ],
            [
              -67.73467078599998,
              10.259541466000144
            ],
            [
              -67.73128440399995,
              10.260731878000058
            ],
            [
              -67.70974648199984,
              10.26202903899997
            ],
            [
              -67.69647754599993,
              10.260553874000038
            ],
            [
              -67.69406879299993,
              10.260286080000128
            ],
            [
              -67.6940617979999,
              10.261198107000155
            ],
            [
              -67.69370800799993,
              10.265319826000052
            ],
            [
              -67.69329665399982,
              10.269330383000124
            ],
            [
              -67.69187099999988,
              10.283230000000117
            ],
            [
              -67.691832,
              10.283446
            ],
            [
              -67.69175699999988,
              10.284236
            ],
            [
              -67.691655,
              10.285361
            ],
            [
              -67.691547,
              10.286552
            ],
            [
              -67.691429,
              10.287836
            ],
            [
              -67.691387,
              10.288351000000148
            ],
            [
              -67.691356,
              10.288659
            ],
            [
              -67.691282,
              10.289451
            ],
            [
              -67.691246,
              10.289912000000186
            ],
            [
              -67.691184,
              10.290794000000119
            ],
            [
              -67.691142,
              10.291385
            ],
            [
              -67.691096,
              10.292034
            ],
            [
              -67.691047,
              10.292648
            ],
            [
              -67.691029,
              10.29299
            ],
            [
              -67.690956,
              10.293962
            ],
            [
              -67.690927,
              10.294415
            ],
            [
              -67.690895,
              10.294816
            ],
            [
              -67.690866,
              10.295116000000178
            ],
            [
              -67.690825,
              10.295703
            ],
            [
              -67.69078899999988,
              10.296121
            ],
            [
              -67.690767,
              10.296522000000152
            ],
            [
              -67.6907599999999,
              10.296832
            ],
            [
              -67.69075,
              10.297117000000185
            ],
            [
              -67.690738,
              10.297444
            ],
            [
              -67.690735,
              10.297492
            ],
            [
              -67.690706,
              10.298172
            ],
            [
              -67.690687,
              10.298582
            ],
            [
              -67.69067499999989,
              10.299118
            ],
            [
              -67.69067199999989,
              10.299149
            ],
            [
              -67.69066699999985,
              10.299172
            ],
            [
              -67.690662,
              10.299192
            ],
            [
              -67.690657,
              10.299207
            ],
            [
              -67.69065,
              10.299228
            ],
            [
              -67.690642,
              10.299248
            ],
            [
              -67.69063399999987,
              10.29926600000016
            ],
            [
              -67.69062699999989,
              10.299283000000173
            ],
            [
              -67.690622,
              10.299295
            ],
            [
              -67.690619,
              10.299312
            ],
            [
              -67.690613,
              10.299381
            ],
            [
              -67.69054299999988,
              10.300364
            ],
            [
              -67.690501,
              10.300969
            ],
            [
              -67.690457,
              10.301550000000134
            ],
            [
              -67.690438,
              10.301795
            ],
            [
              -67.690399,
              10.302313
            ],
            [
              -67.6903769999999,
              10.302644
            ],
            [
              -67.690269,
              10.303968
            ],
            [
              -67.690231,
              10.304484
            ],
            [
              -67.690155,
              10.305306
            ],
            [
              -67.690139,
              10.305494000000124
            ],
            [
              -67.690101,
              10.306001
            ],
            [
              -67.690063,
              10.30649000000011
            ],
            [
              -67.690037,
              10.306836
            ],
            [
              -67.690037,
              10.306877
            ],
            [
              -67.70090996299996,
              10.323146012000166
            ],
            [
              -67.70521461999994,
              10.32958699
            ],
            [
              -67.70703378899992,
              10.332997889000069
            ],
            [
              -67.70762281499998,
              10.332628877000047
            ],
            [
              -67.70762881099995,
              10.33263587800002
            ],
            [
              -67.70947788899991,
              10.331464842000116
            ],
            [
              -67.71309603299994,
              10.33094480200009
            ],
            [
              -67.71808727199993,
              10.334367869000062
            ],
            [
              -67.7224824789999,
              10.337307912000085
            ],
            [
              -67.7252006029999,
              10.338150922000182
            ],
            [
              -67.72826873499992,
              10.338430904000063
            ],
            [
              -67.7308268669999,
              10.340564955000161
            ],
            [
              -67.73398701199983,
              10.342699985000081
            ],
            [
              -67.73745116499992,
              10.342413958000122
            ],
            [
              -67.73998286999995,
              10.34314314200003
            ]
          ]
        ]
      }
    }
  ]
}