{"type": "FeatureCollection", "features": [{"type": "Feature", "properties": {"Pais": "Venezuela", "Estado": "Bol\u00edvar", "Municipio": "El Callao"}, "geometry": {"type": "Polygon", "coordinates": [[[-61.66509, 6.93941800000016], [-61.66610999999983, 6.940633000000105], [-61.66628899999989, 6.941753], [-61.665814, 6.942776000000151], [-61.665245, 6.943800000000181], [-61.664677, 6.944636], [-61.66467, 6.945569000000148], [-61.664941999999826, 6.946781], [-61.664934, 6.947807], [-61.664926, 6.948925], [-61.664634, 6.950416], [-61.66415999999987, 6.951253], [-61.6634949999999, 6.952649000000122], [-61.662647, 6.953485000000171], [-61.661892, 6.954321], [-61.661136, 6.95525], [-61.661036, 6.956182], [-61.661028, 6.957208], [-61.661021, 6.95814], [-61.660359, 6.95906900000017], [-61.659605, 6.959812], [-61.658662999999876, 6.960741000000155], [-61.657722, 6.961483], [-61.656967, 6.96232], [-61.656427, 6.963023000000135], [-61.656097, 6.96349], [-61.655721, 6.963770000000125], [-61.655156, 6.96433], [-61.654546, 6.964657000000159], [-61.654216, 6.965077], [-61.653791999999896, 6.965684], [-61.6536, 6.966479000000106], [-61.653596, 6.967228], [-61.653594, 6.967696], [-61.653589999999895, 6.968257000000108], [-61.653588, 6.968772000000115], [-61.65353699999986, 6.969473], [-61.653486, 6.970269000000144], [-61.653389, 6.970783], [-61.653153, 6.971204], [-61.652726, 6.97223200000019], [-61.652256, 6.972652000000153], [-61.65187999999989, 6.97297900000018], [-61.65136399999983, 6.973212000000103], [-61.650849, 6.973211], [-61.649961, 6.973209], [-61.649399, 6.973161000000175], [-61.648885, 6.973067000000185], [-61.647858, 6.972644000000173], [-61.647439, 6.972409], [-61.646972, 6.972175000000107], [-61.646506, 6.971940000000188], [-61.645852, 6.9717050000001], [-61.64533699999987, 6.971704], [-61.644821, 6.972030000000188], [-61.644771, 6.972545], [-61.644768, 6.973059], [-61.644766, 6.973574], [-61.644809, 6.974182], [-61.644805, 6.974837], [-61.644802, 6.975398000000155], [-61.644798, 6.97614700000014], [-61.644781, 6.976644], [-61.644790999999884, 6.977317000000141], [-61.644695, 6.977831], [-61.644692, 6.978439], [-61.644735, 6.979001], [-61.644779, 6.979469], [-61.644777, 6.979936000000123], [-61.644867, 6.980545], [-61.644957, 6.981153], [-61.645093, 6.981949], [-61.645277, 6.982557], [-61.645649, 6.982979000000171], [-61.64588, 6.983541000000116], [-61.646158, 6.984009000000128], [-61.646155, 6.984524], [-61.646198, 6.985225000000185], [-61.646474, 6.985974000000169], [-61.646471, 6.98658300000011], [-61.646374, 6.987097000000176], [-61.646184, 6.987658], [-61.645761, 6.987985], [-61.645244999999875, 6.988218], [-61.644869, 6.988498000000106], [-61.6444, 6.988731], [-61.643837, 6.989151000000163], [-61.64383299999986, 6.989759000000163], [-61.64383, 6.990367], [-61.643873, 6.990975], [-61.64386999999988, 6.991584], [-61.64386699999983, 6.992051000000117], [-61.643864, 6.992519], [-61.643862, 6.993034], [-61.643812, 6.993595000000141], [-61.643435, 6.994015], [-61.642917999999895, 6.994389000000126], [-61.642167999999856, 6.994762], [-61.641789999999844, 6.995322], [-61.6416, 6.995837], [-61.641317, 6.996351], [-61.641174, 6.996865000000128], [-61.64112399999988, 6.99733300000014], [-61.64098, 6.997941], [-61.640978, 6.998455], [-61.641021, 6.99897], [-61.641159, 6.999485], [-61.641156, 6.999953], [-61.641153, 7.000467000000128], [-61.641151, 7.000935], [-61.641007999999886, 7.001403], [-61.640159, 7.002664], [-61.639968999999894, 7.003132000000164], [-61.639685, 7.003646], [-61.639449, 7.004113000000132], [-61.639352, 7.004674], [-61.639116, 7.005142], [-61.638973, 7.005609000000106], [-61.637978, 7.007806000000187], [-61.637552, 7.0087410000001], [-61.637408, 7.009302000000162], [-61.637125, 7.009769], [-61.63674899999984, 7.010049000000151], [-61.636279, 7.010376], [-61.635763, 7.010796000000141], [-61.635292999999876, 7.011076], [-61.634636999999884, 7.011215000000163], [-61.63412199999988, 7.011401], [-61.63341999999989, 7.011447], [-61.632809, 7.011820000000114], [-61.63238599999988, 7.012287], [-61.632149, 7.012801000000138], [-61.631727, 7.013034], [-61.63121199999989, 7.013033000000121], [-61.630792, 7.012799000000143], [-61.630326, 7.012611], [-61.629026, 7.012598], [-61.628303, 7.013385000000142], [-61.62724999999983, 7.014675], [-61.627086, 7.014757000000145], [-61.62675599999989, 7.015177], [-61.62624, 7.015363], [-61.625537, 7.015549000000135], [-61.625300999999865, 7.016063], [-61.624969, 7.016764], [-61.62496599999986, 7.017279], [-61.625244, 7.017794], [-61.625616, 7.018169000000171], [-61.626081, 7.018638], [-61.626407, 7.019059], [-61.626779, 7.019387], [-61.627245, 7.01980900000018], [-61.627616, 7.020231], [-61.627799999999866, 7.020793], [-61.627797, 7.021354], [-61.627654, 7.0218220000001], [-61.627464, 7.022336000000166], [-61.62704, 7.02285], [-61.626524, 7.023223], [-61.626007, 7.023596000000168], [-61.625630999999885, 7.023876], [-61.625255, 7.024156000000119], [-61.624787, 7.024249000000168], [-61.624132, 7.024341000000163], [-61.623523, 7.024387], [-61.623055, 7.024433000000101], [-61.622353, 7.024525], [-61.62193, 7.024852000000124], [-61.621506999999895, 7.025225], [-61.62113099999988, 7.02550500000018], [-61.620707, 7.025972], [-61.620099, 7.026065000000131], [-61.619631, 7.026064], [-61.619023, 7.026063], [-61.618461, 7.026062], [-61.6179, 7.026061], [-61.617292, 7.02606], [-61.616403, 7.026105], [-61.615698, 7.026525], [-61.615134999999896, 7.026804], [-61.614675, 7.026814000000115], [-61.614291, 7.027317], [-61.613914, 7.027644], [-61.613165, 7.027783], [-61.612697, 7.027782000000116], [-61.612183, 7.027781], [-61.611528, 7.027780000000121], [-61.610825, 7.027966], [-61.610542, 7.028433000000121], [-61.610539, 7.028901000000133], [-61.610817, 7.02941600000014], [-61.611095, 7.029931], [-61.611279, 7.030446], [-61.611323, 7.031008], [-61.61132, 7.031475000000114], [-61.611317, 7.032084], [-61.611314, 7.032598000000121], [-61.611123, 7.033206000000177], [-61.610839999999826, 7.033673], [-61.610743, 7.034281000000135], [-61.610739, 7.03493600000013], [-61.61069, 7.035404000000142], [-61.610546999999826, 7.035871], [-61.610544, 7.036433], [-61.61054, 7.037041], [-61.610538, 7.037556], [-61.610534, 7.038117000000113], [-61.610671, 7.038819000000103], [-61.610667, 7.039427000000103], [-61.610618, 7.03994200000011], [-61.610615, 7.040410000000122], [-61.610612, 7.040971000000127], [-61.610468, 7.041626000000178], [-61.610465, 7.04214], [-61.610312, 7.043065], [-61.610264999999856, 7.044650000000104], [-61.610359, 7.045349], [-61.610452, 7.04586200000017], [-61.610499, 7.046468], [-61.610826, 7.047074000000123], [-61.611059999999895, 7.04754], [-61.611201, 7.048239], [-61.611201, 7.048705], [-61.611201, 7.049311000000102], [-61.611294, 7.04977700000012], [-61.611388, 7.050243000000137], [-61.611575, 7.050896000000137], [-61.61171499999983, 7.051408], [-61.611761999999885, 7.051874], [-61.611761999999885, 7.052434], [-61.611761999999885, 7.052993], [-61.611761999999885, 7.053599000000133], [-61.611761999999885, 7.054298], [-61.611761999999885, 7.054764], [-61.611622, 7.055277], [-61.611341, 7.05579], [-61.611154, 7.056256], [-61.610967, 7.056815000000142], [-61.610826, 7.057328000000155], [-61.610826, 7.0579800000001], [-61.610826, 7.058539000000167], [-61.61068599999987, 7.059099000000117], [-61.610452, 7.059518000000139], [-61.610218, 7.059984000000156], [-61.609984, 7.060450000000174], [-61.60989099999989, 7.061056], [-61.60989099999989, 7.061616000000186], [-61.60989099999989, 7.062082], [-61.60989099999989, 7.062641], [-61.60989099999989, 7.063247000000104], [-61.60989099999989, 7.063760000000116], [-61.60984399999984, 7.064226000000133], [-61.60984399999984, 7.06469200000015], [-61.60984399999984, 7.065344], [-61.60984399999984, 7.065811000000167], [-61.609704, 7.066277000000184], [-61.60951699999987, 7.066743], [-61.60947, 7.067209], [-61.60947, 7.067675], [-61.609704, 7.068234000000132], [-61.609937999999886, 7.068654], [-61.610312, 7.069073], [-61.61068599999987, 7.069446], [-61.610826, 7.069912], [-61.610967, 7.070611000000156], [-61.610967, 7.071264000000156], [-61.6110139999999, 7.071823], [-61.611248, 7.072429000000113], [-61.611248, 7.072942], [-61.61110699999989, 7.073454], [-61.61078, 7.074014000000147], [-61.61059299999988, 7.074526], [-61.61059299999988, 7.075039], [-61.61063899999988, 7.075599], [-61.61078, 7.076065], [-61.610826, 7.076624], [-61.61078, 7.077323], [-61.61059299999988, 7.078069], [-61.610452, 7.078815000000191], [-61.610452, 7.079281], [-61.610452, 7.079840000000104], [-61.610452, 7.080492], [-61.610452, 7.081005], [-61.610452, 7.081564], [-61.610359, 7.082077], [-61.610172, 7.08273000000014], [-61.610172, 7.083336], [-61.610125, 7.083942], [-61.610078, 7.084594000000152], [-61.610078, 7.08548], [-61.610172, 7.085992], [-61.610499, 7.086458], [-61.61092, 7.086925000000122], [-61.611294, 7.087204], [-61.61171499999983, 7.08753], [-61.61213599999985, 7.087810000000161], [-61.612604, 7.08809], [-61.613166, 7.088416], [-61.61354, 7.088696], [-61.61400799999984, 7.088975], [-61.614476, 7.089115000000106], [-61.614943, 7.089255000000151], [-61.615411, 7.089581000000123], [-61.615505, 7.090094000000136], [-61.6152239999999, 7.090560000000153], [-61.614897, 7.09102600000017], [-61.61442899999986, 7.091166], [-61.613867, 7.091399], [-61.613446, 7.091632], [-61.612977999999885, 7.091725], [-61.612463999999875, 7.091865], [-61.611996, 7.091912], [-61.611341, 7.091912], [-61.61078, 7.091912], [-61.610172, 7.091912], [-61.609657, 7.091958], [-61.609049, 7.092285], [-61.608674, 7.092844000000127], [-61.608534, 7.093450000000132], [-61.608347, 7.093963000000144], [-61.608347, 7.094475], [-61.608347, 7.095081000000107], [-61.608347, 7.095687000000169], [-61.608487, 7.096200000000124], [-61.608908, 7.096619], [-61.609283, 7.096992000000114], [-61.60961, 7.097365], [-61.60984399999984, 7.097878], [-61.60984399999984, 7.098344], [-61.60984399999984, 7.098996], [-61.60984399999984, 7.099602], [-61.60984399999984, 7.100255000000118], [-61.609797, 7.100861000000123], [-61.60951699999987, 7.101513], [-61.609189, 7.102073], [-61.608955, 7.102492], [-61.608815, 7.103098000000159], [-61.60872099999989, 7.103564000000176], [-61.60872099999989, 7.104123], [-61.608581, 7.104729], [-61.608581, 7.105242], [-61.608534, 7.105895], [-61.608487, 7.106361000000106], [-61.608487, 7.106873], [-61.608487, 7.107526], [-61.608487, 7.107992], [-61.608487, 7.108458], [-61.608441, 7.108924], [-61.608534, 7.109670000000165], [-61.608862, 7.1104160000001], [-61.60909599999985, 7.110975000000167], [-61.609236, 7.111441000000127], [-61.609329, 7.111954000000139], [-61.609329, 7.11256], [-61.609329, 7.113026], [-61.609329, 7.113632], [-61.609329, 7.114144000000181], [-61.609329, 7.114657000000136], [-61.609283, 7.115170000000148], [-61.609236, 7.115636000000165], [-61.609189, 7.116288000000111], [-61.60872099999989, 7.117407000000128], [-61.608581, 7.117873000000145], [-61.607973, 7.118992], [-61.607692, 7.119411], [-61.60722399999986, 7.120110000000125], [-61.606944, 7.120623000000137], [-61.606569, 7.120996000000105], [-61.606242, 7.121509], [-61.605914, 7.121975], [-61.60554, 7.122348], [-61.60522299999985, 7.122794000000169], [-61.6048, 7.123162], [-61.604518, 7.123532000000125], [-61.604376, 7.123994000000152], [-61.604, 7.124594], [-61.603904, 7.125102], [-61.6038089999999, 7.125611], [-61.60380699999985, 7.12612], [-61.6039449999999, 7.126675], [-61.60417699999988, 7.127278000000103], [-61.604455, 7.127973], [-61.604781, 7.128437], [-61.605293, 7.128947000000153], [-61.605619, 7.129319], [-61.606039, 7.129783], [-61.606411, 7.130293000000165], [-61.606456, 7.130849000000126], [-61.606454, 7.131450000000143], [-61.606405, 7.131959000000165], [-61.606075, 7.132559], [-61.605839, 7.133021], [-61.605604, 7.133436000000131], [-61.605509, 7.133945000000153], [-61.605413, 7.134453000000121], [-61.605411, 7.135147000000131], [-61.605409, 7.135656000000154], [-61.60563999999988, 7.136259000000109], [-61.60606, 7.136723000000131], [-61.606433, 7.137048], [-61.606898999999885, 7.13742], [-61.607413, 7.137699000000111], [-61.607927, 7.137886], [-61.608441, 7.137934], [-61.608956, 7.137936], [-61.609516, 7.138262000000111], [-61.609748, 7.13868], [-61.610074, 7.13919], [-61.610305, 7.139977000000101], [-61.610397, 7.14044], [-61.610488, 7.140995000000146], [-61.610486, 7.141551000000106], [-61.610575, 7.142661000000146], [-61.61076, 7.14331], [-61.610945, 7.143912], [-61.611176999999884, 7.144375], [-61.611503, 7.144839], [-61.611876, 7.145211], [-61.612295, 7.145721], [-61.612761, 7.146278000000109], [-61.61332, 7.146789], [-61.613834, 7.147115], [-61.614346999999896, 7.14753300000018], [-61.614766, 7.147951000000148], [-61.615419, 7.148462000000109], [-61.615885999999875, 7.148742], [-61.61635199999989, 7.149114], [-61.616819, 7.149485], [-61.617192, 7.149903000000165], [-61.617518, 7.150274000000138], [-61.618077, 7.150739], [-61.618356, 7.151157000000183], [-61.618448, 7.151758], [-61.618165, 7.15222], [-61.61779, 7.152589], [-61.617367, 7.153096], [-61.617038, 7.153465], [-61.616380999999876, 7.154018000000121], [-61.61563, 7.154616], [-61.61502, 7.155169000000114], [-61.61459699999989, 7.155677], [-61.614034, 7.156091], [-61.613564, 7.156691000000137], [-61.613188, 7.157106000000169], [-61.612485, 7.157381], [-61.611876, 7.157749], [-61.611546, 7.158349], [-61.611262999999894, 7.158949], [-61.611074, 7.159411], [-61.611025, 7.160012000000108], [-61.611023, 7.160521000000131], [-61.610973999999885, 7.161123], [-61.61097199999989, 7.161631000000114], [-61.61097099999989, 7.162140000000136], [-61.61096899999984, 7.162649000000158], [-61.611059999999895, 7.163112], [-61.611152, 7.163575], [-61.611431, 7.163993000000175], [-61.61180399999989, 7.164457], [-61.61213, 7.164828000000171], [-61.612456, 7.165292], [-61.61254799999983, 7.165755000000104], [-61.612591999999836, 7.16631], [-61.612544, 7.166819], [-61.612401, 7.167327000000171], [-61.611885, 7.167742], [-61.611322, 7.168156000000181], [-61.61113299999988, 7.168664], [-61.61071, 7.169172], [-61.61042799999984, 7.169541], [-61.610146, 7.170002000000125], [-61.60991, 7.17051], [-61.609487, 7.170925000000125], [-61.609112, 7.171248], [-61.60869, 7.17157], [-61.608267999999896, 7.17184600000013], [-61.607985, 7.172261], [-61.607703, 7.17263], [-61.607374, 7.173092], [-61.6072319999999, 7.173554], [-61.60723, 7.174109000000158], [-61.607228, 7.174572], [-61.607226, 7.175127], [-61.607412, 7.175590000000113], [-61.607737, 7.176193], [-61.6081089999999, 7.17675], [-61.608529, 7.177121000000113], [-61.608948, 7.177493], [-61.609322, 7.177772000000175], [-61.610022, 7.178098000000148], [-61.610488, 7.178516000000116], [-61.610955, 7.178842], [-61.611422, 7.179121], [-61.611886999999854, 7.179817], [-61.612353, 7.180374], [-61.612913, 7.18079200000011], [-61.61342599999989, 7.181211000000133], [-61.613985, 7.181675000000155], [-61.61421699999988, 7.182139000000177], [-61.61430899999988, 7.182602000000145], [-61.614542, 7.183065], [-61.61482, 7.183668], [-61.61505099999988, 7.184316], [-61.615142999999875, 7.184826000000101], [-61.61514099999988, 7.185427000000118], [-61.615138999999886, 7.18593600000014], [-61.615183999999886, 7.186538], [-61.615275, 7.187093000000118], [-61.615319, 7.187926000000118], [-61.615457, 7.188389], [-61.615549, 7.188991000000101], [-61.61554699999988, 7.189454], [-61.61554499999983, 7.190055], [-61.615402, 7.190702000000101], [-61.615166, 7.191349000000173], [-61.615163, 7.192089000000124], [-61.61516, 7.192830000000129], [-61.61534499999988, 7.193432], [-61.61538999999988, 7.193941], [-61.615481, 7.194589], [-61.61575999999985, 7.195006], [-61.615758, 7.195608000000107], [-61.615756, 7.196209000000124], [-61.615988, 7.196673000000146], [-61.615986, 7.197135000000173], [-61.616171, 7.197691], [-61.616638, 7.197970000000169], [-61.617105, 7.198296000000141], [-61.617712, 7.198391000000186], [-61.61817999999988, 7.198439], [-61.618648, 7.198487000000114], [-61.619209, 7.198581000000104], [-61.619675999999856, 7.198629000000153], [-61.620191, 7.198631000000148], [-61.620752, 7.198726], [-61.62126599999988, 7.198774], [-61.62178, 7.1991], [-61.621964999999875, 7.199609], [-61.622057, 7.200119], [-61.622054999999875, 7.200581], [-61.62205299999988, 7.20109], [-61.622050999999885, 7.20155300000016], [-61.622002999999836, 7.202015000000188], [-61.621698, 7.203056000000174], [-61.621321, 7.204081], [-61.621131999999875, 7.205385000000149], [-61.620756, 7.20641], [-61.620193, 7.207155], [-61.619724, 7.207993000000101], [-61.619254, 7.208831000000146], [-61.619159, 7.209856], [-61.619157, 7.210788], [-61.619529, 7.211721000000182], [-61.620556, 7.212935], [-61.621116, 7.213868], [-61.622238, 7.214243000000124], [-61.62317399999989, 7.214152], [-61.62383, 7.213407], [-61.624393, 7.212662], [-61.625329, 7.212571], [-61.626358, 7.212852000000112], [-61.626356, 7.213785], [-61.62625999999989, 7.214810000000114], [-61.62579099999982, 7.215834000000143], [-61.62513399999989, 7.216579000000138], [-61.625039, 7.217697000000101], [-61.625037, 7.218629000000135], [-61.625503, 7.219563000000107], [-61.626063, 7.220309], [-61.626622999999825, 7.221149], [-61.62737, 7.222083], [-61.62792999999988, 7.22283], [-61.628707, 7.22389], [-61.629142, 7.224789000000158], [-61.62913999999989, 7.225815000000125], [-61.6291379999999, 7.226933], [-61.628576, 7.227678], [-61.628106, 7.228516000000127], [-61.62717, 7.229074000000139], [-61.62614, 7.229445000000112], [-61.62576299999989, 7.23047], [-61.626323, 7.231216], [-61.62716399999982, 7.232057], [-61.628191, 7.232991], [-61.629219, 7.233739000000128], [-61.630154, 7.234300000000189], [-61.630994, 7.235327], [-61.632208999999875, 7.235888000000102], [-61.633519, 7.236077000000137], [-61.634735, 7.236079000000132], [-61.63567099999989, 7.236081], [-61.636701, 7.235617], [-61.637357, 7.234872], [-61.63745299999982, 7.233847], [-61.637736, 7.232729], [-61.638018, 7.23170400000015], [-61.638861, 7.231240000000128], [-61.63989, 7.231241], [-61.64091999999988, 7.231150000000127], [-61.641856, 7.230965], [-61.642885, 7.230967], [-61.64382, 7.231249000000162], [-61.6443799999999, 7.232089], [-61.644565, 7.233208], [-61.644563, 7.234326000000181], [-61.644561, 7.235259], [-61.644185, 7.236283000000128], [-61.643995999999845, 7.237308], [-61.64371299999988, 7.238520000000108], [-61.643524, 7.239638], [-61.642961, 7.240383], [-61.642678, 7.241407], [-61.64277, 7.242340000000183], [-61.643049, 7.243272], [-61.643609, 7.244112], [-61.643607, 7.245231000000103], [-61.643605, 7.246256000000187], [-61.64341599999989, 7.247375], [-61.64341299999984, 7.24868], [-61.64350499999989, 7.249705], [-61.644065, 7.250452], [-61.645000999999866, 7.250174000000129], [-61.6458439999999, 7.249710000000107], [-61.646687, 7.249245], [-61.647344, 7.248221], [-61.648001, 7.24729], [-61.648096, 7.246265], [-61.649219, 7.24617400000011], [-61.649685, 7.247014], [-61.650151, 7.248040000000174], [-61.65071099999989, 7.24888], [-61.65136399999983, 7.249813000000131], [-61.652205, 7.250467], [-61.653046, 7.251028000000133], [-61.653982, 7.251216], [-61.6549169999999, 7.25140400000015], [-61.656411999999875, 7.252339], [-61.657347, 7.252900000000125], [-61.658374, 7.253741], [-61.659122, 7.254395000000159], [-61.659869, 7.254956], [-61.660990999999854, 7.255331000000183], [-61.662207, 7.255613], [-61.66435799999982, 7.255990000000168], [-61.666509, 7.256646000000103], [-61.667538, 7.256648], [-61.668474, 7.25665], [-61.66941, 7.256652], [-61.670439, 7.25656], [-61.671189, 7.256002], [-61.672218, 7.256004], [-61.67324599999989, 7.256845], [-61.67418, 7.257593], [-61.675021, 7.25834], [-61.675674, 7.259180000000129], [-61.67614, 7.260020000000168], [-61.676138, 7.261139], [-61.676136, 7.26235], [-61.676227, 7.2634690000001], [-61.676787, 7.264216], [-61.677534, 7.264963], [-61.678376, 7.265431], [-61.679311, 7.265432000000146], [-61.68043399999982, 7.265341], [-61.680899999999895, 7.26627400000018], [-61.680149999999855, 7.267112], [-61.679307, 7.267949], [-61.678463, 7.268600000000106], [-61.677714, 7.269158], [-61.677151, 7.270089], [-61.676744, 7.270522000000142], [-61.676461, 7.271124], [-61.676412, 7.271681000000115], [-61.676317, 7.272145000000137], [-61.6760799999999, 7.272841000000142], [-61.675751, 7.27349], [-61.675468, 7.273907], [-61.675373, 7.274417], [-61.675183, 7.275067000000149], [-61.675087, 7.275670000000105], [-61.674898, 7.27636600000011], [-61.674615, 7.276968], [-61.674611999999854, 7.277711], [-61.674563, 7.278222], [-61.674421, 7.2787790000001], [-61.674138, 7.279335000000117], [-61.673761, 7.279984000000184], [-61.673712, 7.28068], [-61.673617, 7.281144], [-61.67356699999988, 7.282073], [-61.67333, 7.282861], [-61.673138, 7.284021], [-61.673136, 7.284532], [-61.673134, 7.285043], [-61.673132, 7.285786], [-61.67313, 7.286343000000159], [-61.67322, 7.287226], [-61.673450999999886, 7.288016], [-61.673635, 7.288760000000138], [-61.673913, 7.289504], [-61.674238999999886, 7.290016000000151], [-61.674563, 7.290806000000146], [-61.674889, 7.291318], [-61.675261, 7.291738000000123], [-61.675634, 7.29225], [-61.67596, 7.292669000000103], [-61.676705, 7.293415], [-61.67735899999985, 7.293928000000165], [-61.678012, 7.294209000000137], [-61.67848, 7.294304000000182], [-61.67894699999988, 7.294398000000172], [-61.679509, 7.294447000000105], [-61.68011699999988, 7.2944490000001], [-61.680585, 7.294451], [-61.681286, 7.294407], [-61.681848, 7.294316], [-61.682224, 7.294039000000112], [-61.682646, 7.293669], [-61.683068999999875, 7.293206000000112], [-61.683443999999895, 7.292836], [-61.683773, 7.292419], [-61.684194999999875, 7.292189000000178], [-61.684757, 7.292005], [-61.685366, 7.291914000000133], [-61.685928, 7.291777], [-61.686583, 7.291687], [-61.687051, 7.291688], [-61.68751799999984, 7.291969], [-61.687937, 7.292342], [-61.68840299999988, 7.292808], [-61.688776, 7.293181000000175], [-61.689196, 7.2936], [-61.689567999999895, 7.294112], [-61.689894, 7.294532], [-61.69026599999984, 7.295044000000132], [-61.690592, 7.295649], [-61.69105699999983, 7.296300000000144], [-61.691523, 7.2968130000001], [-61.691802, 7.297232000000179], [-61.692174, 7.297744], [-61.692547, 7.298256000000151], [-61.693571, 7.299607], [-61.69389699999988, 7.300026], [-61.69426899999985, 7.30063100000018], [-61.694593999999825, 7.301329], [-61.695011, 7.302259], [-61.695336, 7.302910000000111], [-61.695475, 7.303468], [-61.69566, 7.304072000000133], [-61.695798, 7.304630000000145], [-61.695936, 7.305234], [-61.696074, 7.305792000000167], [-61.696212, 7.30635000000018], [-61.69621, 7.306907], [-61.696208, 7.307511000000147], [-61.696206, 7.308022000000108], [-61.696204, 7.30848600000013], [-61.696202, 7.30909], [-61.696154, 7.309554], [-61.696104999999875, 7.310018], [-61.69610299999988, 7.310575000000142], [-61.69605399999983, 7.311086000000159], [-61.696006, 7.311643], [-61.695957, 7.312200000000132], [-61.695861, 7.312757], [-61.695859, 7.313268], [-61.695951, 7.313732], [-61.69618299999985, 7.31429], [-61.6963209999999, 7.314755000000162], [-61.696366, 7.315313000000117], [-61.696364, 7.315916000000129], [-61.696362, 7.316474], [-61.696266, 7.317077], [-61.696029999999894, 7.317587000000174], [-61.695467, 7.318049], [-61.69509199999982, 7.318326], [-61.694669, 7.318696000000102], [-61.694061, 7.318787000000157], [-61.693593, 7.318878], [-61.69289, 7.319015], [-61.692422, 7.319059], [-61.691953, 7.319476000000122], [-61.691764, 7.32003200000014], [-61.691762, 7.320636], [-61.691713, 7.3211], [-61.691852, 7.321565], [-61.692084, 7.321984], [-61.692596, 7.322821000000147], [-61.69105899999988, 7.337118], [-61.690174, 7.342056], [-61.68944199999987, 7.344692], [-61.688823, 7.347446000000161], [-61.688288, 7.351929], [-61.687208, 7.354905], [-61.68495, 7.359935], [-61.68298499999986, 7.361169000000132], [-61.678015, 7.364426], [-61.678294, 7.368117], [-61.67674099999988, 7.372007], [-61.675336, 7.373941000000173], [-61.673987999999895, 7.379217], [-61.667523, 7.389589000000115], [-61.666717, 7.389921], [-61.662689, 7.391581], [-61.66027999999989, 7.392116000000101], [-61.656926, 7.394363], [-61.65515999999985, 7.397328], [-61.65386499999988, 7.399494], [-61.64949399999989, 7.401149], [-61.639673, 7.413883], [-61.635186, 7.415535000000148], [-61.631358, 7.418811000000119], [-61.62765, 7.421743000000106], [-61.625848, 7.426780000000122], [-61.618397, 7.441167000000178], [-61.617515, 7.445874], [-61.617488, 7.453935], [-61.61871599999989, 7.455568000000142], [-61.620358, 7.459742000000176], [-61.622429999999895, 7.465420000000108], [-61.62395, 7.476502], [-61.623994, 7.487100000000169], [-61.626227, 7.490132], [-61.627657, 7.493265], [-61.629075, 7.497205000000122], [-61.635147, 7.502950000000112], [-61.63317599999988, 7.504530000000102], [-61.6312, 7.506454000000133], [-61.629807, 7.507698], [-61.629193, 7.510106000000121], [-61.6299, 7.515415000000132], [-61.629263, 7.519206], [-61.627381, 7.541863000000149], [-61.633074, 7.556239000000176], [-61.634874, 7.557882], [-61.639362, 7.56268], [-61.644521, 7.56841], [-61.64533299999988, 7.574297], [-61.644755, 7.581198], [-61.636139, 7.603281], [-61.63250099999988, 7.615197000000137], [-61.633353, 7.625346], [-61.635847999999896, 7.63298900000018], [-61.637057, 7.642339], [-61.636793999999895, 7.650856], [-61.640208, 7.664964000000111], [-61.639567, 7.670321000000172], [-61.632716, 7.679100000000176], [-61.641795999999886, 7.680267], [-61.659513, 7.681138], [-61.673984999999846, 7.676650000000166], [-61.73412599999989, 7.632630000000177], [-61.750665, 7.627472], [-61.769826, 7.617114000000129], [-61.783006, 7.612409], [-61.786958, 7.608673000000181], [-61.786139999999875, 7.603017], [-61.78980899999988, 7.595707000000118], [-61.789776, 7.590985], [-61.793642, 7.57884], [-61.801359, 7.5688320000001], [-61.806568, 7.565003], [-61.810231, 7.558038000000181], [-61.815324, 7.554321], [-61.81601399999988, 7.554102000000114], [-61.816266, 7.552724000000126], [-61.816748, 7.544554], [-61.817418, 7.538807], [-61.817487, 7.534777], [-61.817412, 7.532473], [-61.81646, 7.527966000000106], [-61.816161, 7.525427], [-61.815839, 7.524155000000121], [-61.817784, 7.517392], [-61.818818, 7.510384], [-61.819818, 7.505332], [-61.820781, 7.502468], [-61.820951, 7.499246], [-61.821341, 7.496489], [-61.82159699999988, 7.494881], [-61.82242, 7.493512], [-61.823472, 7.492148], [-61.825456, 7.489762000000155], [-61.828363, 7.486930000000143], [-61.830573, 7.484663000000126], [-61.831394, 7.48341], [-61.840245, 7.480445], [-61.84532, 7.477764], [-61.847878, 7.475158], [-61.851468, 7.472452], [-61.852697, 7.467404000000158], [-61.853447, 7.463616], [-61.854991, 7.460186000000135], [-61.85777, 7.458043], [-61.863336, 7.453297], [-61.864386, 7.452048], [-61.864625, 7.451476000000127], [-61.866097, 7.445511], [-61.867269, 7.443803000000116], [-61.868549, 7.442442000000142], [-61.866717, 7.42916600000018], [-61.867751, 7.428837000000158], [-61.87177, 7.427752], [-61.873842, 7.426864000000137], [-61.875386, 7.423434], [-61.87585899999988, 7.418275], [-61.877075, 7.418377000000135], [-61.878526, 7.418202], [-61.880726, 7.417662000000121], [-61.88152199999985, 7.417390000000182], [-61.882223, 7.417395], [-61.884658, 7.416439], [-61.88611, 7.415662000000168], [-61.888312, 7.413685], [-61.888733999999886, 7.413364000000115], [-61.88967, 7.412907000000132], [-61.890232, 7.412819000000127], [-61.890467, 7.412403], [-61.890842, 7.411803], [-61.89103, 7.411249000000112], [-61.891125, 7.410647], [-61.891126, 7.410091], [-61.891127, 7.409534000000122], [-61.891221, 7.408979], [-61.891645, 7.407406], [-61.891646999999864, 7.406803], [-61.891646999999864, 7.406340000000171], [-61.891649, 7.405413], [-61.89165, 7.404949], [-61.891698, 7.40444], [-61.891979999999876, 7.403376], [-61.892262, 7.402775], [-61.892731, 7.402222000000165], [-61.89305899999988, 7.401808000000187], [-61.893434, 7.401486], [-61.894464, 7.401262000000145], [-61.894932, 7.401034], [-61.895353999999884, 7.400805000000162], [-61.895869, 7.400577000000112], [-61.896337, 7.400395000000174], [-61.896992, 7.4004], [-61.898161, 7.400501], [-61.898769, 7.400552000000175], [-61.899424, 7.400557], [-61.899939, 7.400561], [-61.900781, 7.400799000000177], [-61.90218399999986, 7.401041000000134], [-61.90480199999985, 7.401941], [-61.905269, 7.402222000000165], [-61.906252, 7.40223], [-61.906812999999886, 7.402234], [-61.907374, 7.402238], [-61.907983, 7.402242], [-61.908544, 7.402246], [-61.9091049999999, 7.40239], [-61.91018, 7.402907], [-61.910601, 7.403142], [-61.9109739999999, 7.403516], [-61.911348, 7.403982], [-61.91176799999988, 7.404217000000187], [-61.9121889999999, 7.404452000000106], [-61.91303, 7.405014], [-61.91359099999988, 7.40520400000014], [-61.914106, 7.40520800000013], [-61.91471399999989, 7.40521200000012], [-61.91534399999989, 7.405147], [-61.915906, 7.405056000000172], [-61.91642099999984, 7.404779000000133], [-61.91721699999988, 7.404782], [-61.917778, 7.404784], [-61.918433, 7.404786], [-61.918947, 7.405021], [-61.919927, 7.405628], [-61.920627, 7.406188], [-61.92141999999984, 7.406794], [-61.921886, 7.40726], [-61.922398, 7.40782], [-61.922677, 7.408331], [-61.922909, 7.408797], [-61.923235, 7.409402], [-61.92328, 7.409866], [-61.923653, 7.410193000000106], [-61.925515, 7.41275300000018], [-61.92583999999988, 7.413173000000143], [-61.926354, 7.413453], [-61.926821, 7.413733], [-61.927335, 7.413921000000187], [-61.927802, 7.41410900000011], [-61.928409, 7.41425], [-61.92892399999988, 7.414252], [-61.929392, 7.414254], [-61.929953, 7.414256], [-61.930515, 7.414258000000189], [-61.930983, 7.414027], [-61.931359, 7.413704000000166], [-61.931594, 7.413240000000144], [-61.931783, 7.412777], [-61.932066, 7.412313], [-61.932348, 7.411803], [-61.93258399999985, 7.411386], [-61.932726, 7.410923000000139], [-61.933055, 7.410552000000166], [-61.933384, 7.410043000000144], [-61.93375999999989, 7.409673], [-61.934136, 7.409163000000149], [-61.934325, 7.408653], [-61.934607, 7.408283], [-61.934936, 7.407912], [-61.935312, 7.407496], [-61.935781, 7.407219], [-61.936202, 7.406988000000126], [-61.936671999999874, 7.406572], [-61.937189, 7.40597], [-61.93770499999988, 7.405461000000116], [-61.93817399999989, 7.405138], [-61.938643, 7.404954], [-61.939018, 7.40463], [-61.939394, 7.404307000000188], [-61.93990899999983, 7.404123], [-61.9403769999999, 7.404032], [-61.940846, 7.40375500000016], [-61.941314, 7.403617000000111], [-61.94197, 7.403387], [-61.94257899999985, 7.403157], [-61.943048, 7.402927], [-61.943703999999855, 7.402744], [-61.944312, 7.402607], [-61.94478, 7.402562], [-61.945248999999876, 7.402424000000167], [-61.945623999999896, 7.402101], [-61.945766, 7.401637], [-61.945768, 7.401033], [-61.945724, 7.400476], [-61.94558499999988, 7.399918000000127], [-61.94553999999988, 7.39940700000011], [-61.94549599999988, 7.398896], [-61.945357, 7.398431000000187], [-61.945218, 7.397966], [-61.945033, 7.397501000000148], [-61.944754, 7.397082000000125], [-61.944475, 7.396663000000103], [-61.944102, 7.396337000000131], [-61.943589, 7.395824000000118], [-61.942982, 7.39545], [-61.94237399999986, 7.395355], [-61.941766, 7.395353], [-61.941252, 7.395305000000178], [-61.940784999999835, 7.395117], [-61.94045899999986, 7.394605000000183], [-61.940414, 7.39414], [-61.940462, 7.393676], [-61.94069799999983, 7.393259000000171], [-61.94079399999987, 7.392702], [-61.94116899999989, 7.392286000000126], [-61.941592, 7.391869], [-61.941968, 7.391453000000126], [-61.94229699999988, 7.391036], [-61.942766, 7.390620000000126], [-61.943049, 7.390157], [-61.943658, 7.389834000000121], [-61.94422, 7.389697000000126], [-61.944642, 7.389466], [-61.945203999999876, 7.389329], [-61.945859, 7.389285], [-61.94637299999988, 7.389287], [-61.946841, 7.389288], [-61.947356, 7.38929], [-61.947917, 7.389246000000128], [-61.948293, 7.38892200000015], [-61.948762, 7.388506], [-61.949231, 7.388275], [-61.949792999999886, 7.38813800000014], [-61.950261, 7.388001000000145], [-61.950729, 7.388002], [-61.951337, 7.388005000000135], [-61.951852, 7.388006], [-61.952366, 7.388008], [-61.953068, 7.38815], [-61.953628, 7.388292], [-61.954095, 7.388572000000124], [-61.954562, 7.388759000000164], [-61.955076, 7.388994], [-61.955543, 7.389227000000176], [-61.956011, 7.389229000000171], [-61.956479, 7.389138], [-61.9569479999999, 7.388954000000126], [-61.957416, 7.388816], [-61.957931, 7.388772000000188], [-61.958399, 7.388727000000188], [-61.958728, 7.388357], [-61.958963, 7.38794], [-61.958965, 7.387429], [-61.958967, 7.386918], [-61.958969, 7.386454], [-61.958877, 7.385943], [-61.958692, 7.385338000000104], [-61.95846, 7.384873], [-61.958134, 7.3845], [-61.957761, 7.384035], [-61.957763, 7.38357], [-61.957951999999864, 7.38306], [-61.958233999999834, 7.38269], [-61.958703, 7.382459], [-61.959125, 7.382182], [-61.959547, 7.381952], [-61.960015, 7.38181400000019], [-61.960391, 7.381351], [-61.961141, 7.380843000000141], [-61.96165599999989, 7.380845000000136], [-61.962124, 7.380847000000131], [-61.962497, 7.381127], [-61.962963, 7.381593], [-61.963803, 7.382107], [-61.96431699999988, 7.382248], [-61.96478499999989, 7.38229600000011], [-61.9653, 7.382298000000105], [-61.965719, 7.382764000000122], [-61.96581, 7.383368000000132], [-61.965949, 7.38387900000015], [-61.966181, 7.384298], [-61.966226, 7.384809000000189], [-61.966224, 7.385273], [-61.966503, 7.385832000000107], [-61.966548, 7.386296000000129], [-61.96664, 7.386807000000147], [-61.96649699999989, 7.387318000000107], [-61.966542, 7.387782000000129], [-61.966681, 7.388340000000142], [-61.96686599999987, 7.388851000000159], [-61.96719199999984, 7.389224], [-61.967565, 7.38955], [-61.967937, 7.390063], [-61.968404, 7.390297], [-61.969246, 7.390532000000121], [-61.969713, 7.390534000000116], [-61.97036899999989, 7.390304000000128], [-61.970745, 7.38984100000016], [-61.971447999999896, 7.389472000000183], [-61.97187, 7.389195], [-61.97215299999988, 7.388778000000116], [-61.97290199999986, 7.388502], [-61.975941, 7.389117000000113], [-61.976408, 7.389397], [-61.977945, 7.391075000000114], [-61.978177, 7.39154], [-61.978503, 7.392145], [-61.978641, 7.392656], [-61.978873, 7.393121000000122], [-61.979714, 7.39345], [-61.980228999999895, 7.393452], [-61.981071, 7.393455], [-61.981679, 7.393457], [-61.982334, 7.393459], [-61.982989, 7.393508000000168], [-61.983457, 7.393510000000163], [-61.983924, 7.393558], [-61.98481399999986, 7.393376000000103], [-61.985236, 7.393052000000125], [-61.985659, 7.392636000000152], [-61.98631399999988, 7.392452], [-61.986829, 7.392454], [-61.987858, 7.392504], [-61.988372, 7.392506], [-61.989542, 7.392418], [-61.990011, 7.39228], [-61.99047899999988, 7.392236], [-61.99104, 7.392238], [-61.991554999999835, 7.392239000000131], [-61.992163, 7.392288000000121], [-61.992583, 7.392615], [-61.993096, 7.392895], [-61.993468, 7.393454000000133], [-61.993606999999884, 7.393919], [-61.993699, 7.394384000000173], [-61.993744, 7.394848], [-61.994116, 7.39536], [-61.994629, 7.395734000000118], [-61.995097, 7.395921000000158], [-61.99561, 7.39620200000013], [-61.996124, 7.396436000000165], [-61.996685, 7.396484], [-61.997153, 7.396486], [-61.997809, 7.396303000000159], [-61.99837, 7.39616500000011], [-61.998793, 7.395842000000187], [-61.999260999999876, 7.395658], [-61.99968299999989, 7.395334000000105], [-62.000106, 7.395057], [-62.00043499999987, 7.394594000000154], [-62.000437, 7.394037], [-62.000439, 7.393526], [-62.000254, 7.392922000000169], [-61.999788, 7.392502], [-61.99960199999987, 7.391991], [-61.999604, 7.391526000000113], [-61.99988599999989, 7.391156], [-62.0004009999999, 7.39120400000013], [-62.000915, 7.391299000000174], [-62.001382, 7.391347], [-62.00184999999988, 7.391349], [-62.002505, 7.391537], [-62.003299, 7.391726000000176], [-62.003813, 7.392006], [-62.004091999999844, 7.392425000000117], [-62.004699, 7.392752000000144], [-62.005353, 7.392894000000183], [-62.005868, 7.392803000000129], [-62.006244, 7.392479], [-62.006526, 7.392016000000183], [-62.007327, 7.390533], [-62.01179699999989, 7.384756], [-62.015039, 7.375364000000104], [-62.013736, 7.371196], [-62.013527, 7.356336000000113], [-62.013644, 7.349312], [-62.01544, 7.344389], [-62.022576, 7.334368], [-62.023831, 7.327592], [-62.023411, 7.318487], [-62.025491, 7.310228], [-62.01984199999987, 7.278925000000129], [-62.0148, 7.26606], [-62.011909, 7.261292], [-62.007734, 7.25823], [-62.00204999999988, 7.256527000000176], [-61.998057, 7.256232000000125], [-61.991217, 7.255316000000164], [-61.984818, 7.255443000000184], [-61.934113, 7.220417], [-61.93079299999988, 7.214029], [-61.924434, 7.211737], [-61.91905899999989, 7.212111000000107], [-61.91491, 7.207551000000137], [-61.91302, 7.204411], [-61.908497, 7.201688000000104], [-61.902095, 7.202045000000169], [-61.894777, 7.202501], [-61.893631, 7.202713], [-61.889152, 7.198322000000132], [-61.893512, 7.192258], [-61.904823, 7.185343000000103], [-61.917886999999894, 7.172358], [-61.916169, 7.163677000000121], [-61.908916, 7.156545000000108], [-61.9011, 7.152733], [-61.899995, 7.143731], [-61.902976, 7.129498000000126], [-61.913671, 7.111589000000151], [-61.91676399999989, 7.09747300000015], [-61.923987, 7.082272], [-61.923735, 7.070058], [-61.92496199999988, 7.065011], [-61.92841799999985, 7.056429], [-61.925897, 7.050169], [-61.923862, 7.042073], [-61.923074, 7.034688], [-61.92146799999989, 7.028328000000158], [-61.921145, 7.020375000000115], [-61.92054899999988, 7.015068], [-61.921404, 7.011742], [-61.921713999999895, 7.006909], [-61.914233, 6.996883], [-61.90921699999984, 6.989659], [-61.903752, 6.975173], [-61.893918, 6.962574], [-61.883335, 6.946967], [-61.874674, 6.939339000000189], [-61.871504, 6.93779], [-61.869436, 6.938562], [-61.864309, 6.924427], [-61.862683, 6.919333000000108], [-61.861995, 6.912757], [-61.86286999999987, 6.908279000000107], [-61.863022, 6.906092000000172], [-61.86216, 6.903084000000149], [-61.860178, 6.885314000000164], [-61.85805, 6.876181000000145], [-61.854691, 6.87232500000016], [-61.852913999999885, 6.869416000000115], [-61.850786999999855, 6.866963], [-61.84773799999982, 6.86495500000018], [-61.84487699999988, 6.862118], [-61.844819, 6.862137], [-61.83816, 6.860624], [-61.837371999999846, 6.861035000000186], [-61.836123, 6.861371], [-61.833983, 6.861916], [-61.831175, 6.86254], [-61.828944, 6.863217], [-61.826536, 6.863802], [-61.824132, 6.864210000000185], [-61.82150899999988, 6.864348], [-61.818885, 6.864530000000173], [-61.817064, 6.86454700000013], [-61.8160529999999, 6.863822], [-61.81517799999989, 6.862965], [-61.813814, 6.862101000000109], [-61.812584, 6.861150000000123], [-61.811039, 6.860572], [-61.807911, 6.858838000000105], [-61.806137, 6.858634000000109], [-61.804004, 6.858735000000138], [-61.8016889999999, 6.859055000000126], [-61.79963899999984, 6.859513], [-61.798378, 6.86064800000014], [-61.798176, 6.862287], [-61.798604999999895, 6.863315000000171], [-61.799708, 6.863775], [-61.800454, 6.864408], [-61.800925, 6.865525], [-61.801254, 6.867305000000101], [-61.801237, 6.868415], [-61.799587, 6.871808000000158], [-61.798538, 6.873568000000148], [-61.797904, 6.874402], [-61.796741, 6.874961], [-61.795226, 6.87524900000011], [-61.792257, 6.874805000000151], [-61.789965, 6.873616], [-61.788244, 6.87288], [-61.787238999999886, 6.871755], [-61.78685399999989, 6.870817], [-61.785574, 6.864449], [-61.784081, 6.863273000000106], [-61.783741, 6.862291], [-61.783538, 6.861045000000104], [-61.782801, 6.859791], [-61.782348, 6.857498], [-61.782504, 6.855991000000131], [-61.78327599999989, 6.854849000000115], [-61.783962, 6.853572000000156], [-61.784815999999864, 6.852874000000156], [-61.785768999999846, 6.851557], [-61.78663, 6.850416000000166], [-61.788239, 6.84973], [-61.790267, 6.847807000000103], [-61.790864, 6.846485000000143], [-61.791585, 6.845785000000149], [-61.792041, 6.845037], [-61.792142999999896, 6.844151000000124], [-61.792156, 6.843308], [-61.792046, 6.841753000000153], [-61.791185, 6.839964], [-61.790098999999884, 6.838350000000105], [-61.78878, 6.837442000000124], [-61.787907, 6.836408], [-61.786496, 6.835721], [-61.785386, 6.835748000000137], [-61.783883, 6.83528200000012], [-61.782564, 6.834352], [-61.78156099999984, 6.83313800000019], [-61.780404, 6.830369], [-61.778748, 6.825328], [-61.777539, 6.823001], [-61.776603, 6.820279], [-61.776415, 6.818013000000178], [-61.77573299999989, 6.816138], [-61.7753, 6.815421000000129], [-61.774331, 6.81483], [-61.77364, 6.813576], [-61.77307699999989, 6.812591], [-61.77219699999989, 6.812090000000182], [-61.770615, 6.810956000000147], [-61.767793, 6.809649], [-61.766467, 6.809185000000184], [-61.764752, 6.808094000000153], [-61.762981, 6.807712000000151], [-61.761606, 6.807603], [-61.759392, 6.80717], [-61.757304, 6.807227000000182], [-61.75591999999989, 6.807739], [-61.754262, 6.808735], [-61.752298, 6.809371000000112], [-61.75086899999985, 6.809926000000189], [-61.748732, 6.810294000000113], [-61.746505, 6.810704000000101], [-61.744731, 6.810544000000164], [-61.74243, 6.810065000000179], [-61.741248, 6.808893000000182], [-61.74104499999987, 6.807648], [-61.740967999999896, 6.806892000000175], [-61.740448, 6.805996000000107], [-61.739581, 6.804652], [-61.737785, 6.8029820000001], [-61.735801, 6.802065], [-61.733997, 6.800972], [-61.73108, 6.800062], [-61.728655, 6.798916000000133], [-61.727113, 6.798094000000162], [-61.725628, 6.796474], [-61.723875, 6.794938000000172], [-61.72300499999989, 6.793771], [-61.72179999999986, 6.79117900000017], [-61.721347, 6.788864000000103], [-61.721375, 6.787], [-61.721974, 6.785589], [-61.722623999999826, 6.783668], [-61.723129, 6.782610000000147], [-61.723146, 6.781457000000103], [-61.723082, 6.779858000000161], [-61.722709999999836, 6.777988000000164], [-61.722118, 6.776026000000172], [-61.721931, 6.773715], [-61.72104999999988, 6.770329], [-61.720757999999876, 6.769082], [-61.719845, 6.767737000000182], [-61.718655, 6.767186], [-61.717293, 6.766233000000113], [-61.716469, 6.764934], [-61.71621899999985, 6.763865], [-61.715973, 6.762508], [-61.715736, 6.760507], [-61.715329, 6.758060000000114], [-61.715167, 6.757036000000141], [-61.714306, 6.755248000000165], [-61.712792, 6.752607000000125], [-61.71206199999989, 6.750953], [-61.711236, 6.749787], [-61.709158, 6.749179], [-61.707172, 6.748394], [-61.704485, 6.747023000000127], [-61.70201999999989, 6.745610000000113], [-61.69956499999989, 6.743509000000188], [-61.698878, 6.741990000000101], [-61.697917, 6.740139], [-61.69764, 6.740517], [-61.697452, 6.740981], [-61.696982999999875, 6.741258], [-61.696514, 6.741535000000113], [-61.695905, 6.741718000000105], [-61.694777, 6.743107000000123], [-61.694165, 6.744127000000162], [-61.693836, 6.74459], [-61.693414, 6.744820000000118], [-61.693037, 6.745562], [-61.692848, 6.746026], [-61.692472, 6.746535], [-61.692047, 6.747555], [-61.691433999999845, 6.748807000000113], [-61.691057999999884, 6.749409000000185], [-61.690681, 6.75015], [-61.690305, 6.750428000000113], [-61.68965, 6.750565000000108], [-61.689088, 6.750562], [-61.688669, 6.750189], [-61.688296, 6.749724000000128], [-61.68806399999988, 6.749258000000111], [-61.68806599999988, 6.748748], [-61.68806799999987, 6.748283000000129], [-61.68806899999987, 6.747819000000106], [-61.68802499999987, 6.747262], [-61.687839, 6.746797], [-61.687560999999846, 6.746238], [-61.686769, 6.745399], [-61.686116, 6.744886], [-61.685509, 6.744559], [-61.684994, 6.744464000000164], [-61.68452599999989, 6.744462000000169], [-61.684012, 6.744507000000169], [-61.68335499999989, 6.745015], [-61.68293199999982, 6.745525], [-61.68251, 6.745848], [-61.682178, 6.746915], [-61.681754, 6.747842], [-61.681425, 6.748212], [-61.680909, 6.748535000000174], [-61.680017, 6.749275000000125], [-61.679642, 6.749599000000103], [-61.679079, 6.749922], [-61.67833, 6.750198000000125], [-61.677859999999896, 6.750614], [-61.677251, 6.75089], [-61.676549, 6.750934], [-61.676174, 6.751258], [-61.675704, 6.75172], [-61.674905, 6.752739], [-61.67467, 6.753156], [-61.674668, 6.753713000000175], [-61.6749, 6.754132], [-61.67536699999988, 6.754459], [-61.675505, 6.754924000000187], [-61.675969, 6.755854], [-61.67648, 6.756924], [-61.676478, 6.7574350000001], [-61.676569999999856, 6.757992000000172], [-61.6768, 6.758829000000162], [-61.676892, 6.759433], [-61.67689, 6.759897], [-61.676935, 6.760455], [-61.676931, 6.761569000000179], [-61.676929, 6.762034000000142], [-61.677347, 6.762918], [-61.67743799999988, 6.763614000000132], [-61.677294, 6.764403000000186], [-61.677012, 6.764913], [-61.67644799999988, 6.765654000000154], [-61.67607199999986, 6.765978000000132], [-61.676021999999875, 6.766767], [-61.67611399999987, 6.767324000000144], [-61.676346, 6.767790000000105], [-61.676858, 6.768442], [-61.677792, 6.768909000000178], [-61.67797699999983, 6.769375], [-61.677648, 6.769838000000107], [-61.67718, 6.770022], [-61.676804, 6.770392000000129], [-61.676289, 6.770483000000183], [-61.675821, 6.770481], [-61.67526, 6.770479], [-61.674792, 6.770524], [-61.673808, 6.771031], [-61.673338, 6.771447], [-61.672729, 6.771677], [-61.672073999999895, 6.771767], [-61.671559, 6.771951000000172], [-61.671137, 6.7721820000001], [-61.670387, 6.772458], [-61.66945099999987, 6.772547], [-61.668983, 6.772545], [-61.668515, 6.77259], [-61.667625, 6.773005000000126], [-61.66495099999986, 6.775084], [-61.66227899999984, 6.776375], [-61.66012099999989, 6.777992], [-61.658575, 6.77863600000012], [-61.658107, 6.778728000000115], [-61.657405, 6.778725], [-61.656843, 6.778723], [-61.65632899999986, 6.778582], [-61.655768, 6.77858], [-61.655254, 6.778485], [-61.654412, 6.778435000000172], [-61.653804, 6.778340000000128], [-61.65315, 6.778198], [-61.652636, 6.77805700000016], [-61.652122, 6.777823000000183], [-61.65156, 6.777821000000188], [-61.650905, 6.777819], [-61.650157, 6.777862], [-61.649735, 6.778093000000126], [-61.649125, 6.778555000000154], [-61.648562, 6.778878], [-61.648092, 6.779433000000154], [-61.646965, 6.780683], [-61.646635, 6.781285], [-61.64541299999985, 6.782906], [-61.644519, 6.78411], [-61.64400399999988, 6.784387], [-61.643675, 6.784757000000127], [-61.642783, 6.785636], [-61.642268, 6.785820000000172], [-61.642031, 6.786469], [-61.641702, 6.78684], [-61.641654, 6.787304], [-61.64146399999987, 6.787907000000189], [-61.641322, 6.788417], [-61.64132, 6.788881000000117], [-61.641319, 6.789346], [-61.641410999999835, 6.78981], [-61.641594, 6.790786], [-61.641779, 6.791483], [-61.641776, 6.792087], [-61.641774, 6.792644], [-61.641819, 6.793202], [-61.64200199999988, 6.794178000000159], [-61.641998999999885, 6.795153], [-61.64199699999989, 6.795664], [-61.642182, 6.796175], [-61.642133999999885, 6.796639], [-61.64203799999984, 6.79715], [-61.641849, 6.797660000000121], [-61.641613, 6.798309000000188], [-61.641189, 6.799004000000139], [-61.64072, 6.799327], [-61.640251, 6.799558000000161], [-61.639454999999884, 6.799973], [-61.639033, 6.800203], [-61.638188, 6.800804], [-61.637579, 6.801173], [-61.637064, 6.801171], [-61.636219, 6.802050000000122], [-61.63537499999984, 6.802558], [-61.635045999999875, 6.803021000000172], [-61.634483, 6.803298000000154], [-61.633874999999875, 6.803388000000155], [-61.632424, 6.803522], [-61.631909, 6.80352], [-61.631114, 6.80351700000017], [-61.630413, 6.803329], [-61.629945, 6.803235], [-61.62933699999985, 6.803186000000153], [-61.628823, 6.803184000000158], [-61.628355, 6.803229000000158], [-61.62783999999988, 6.80332], [-61.627371, 6.80355], [-61.627229, 6.804060000000163], [-61.627227, 6.804571000000124], [-61.627272, 6.805082000000141], [-61.627504, 6.805594], [-61.627875, 6.806338000000153], [-61.628340999999864, 6.806851000000165], [-61.628855, 6.807178], [-61.629134, 6.807597], [-61.629272, 6.808061], [-61.62950499999988, 6.808527], [-61.630392, 6.808831], [-61.630859, 6.809019], [-61.631091, 6.809716], [-61.631276, 6.810366], [-61.63145999999989, 6.811016000000166], [-61.631692, 6.811573], [-61.631784, 6.812083000000143], [-61.63192199999986, 6.812594000000161], [-61.631687, 6.813010000000133], [-61.631543, 6.813983000000121], [-61.6314, 6.814492], [-61.631960999999876, 6.814773000000116], [-61.632380999999896, 6.815053], [-61.63266, 6.815565000000106], [-61.632656, 6.816399], [-61.632561, 6.816862000000128], [-61.63223, 6.817833], [-61.632182, 6.818297], [-61.6326, 6.819087], [-61.633067, 6.819321], [-61.633392, 6.819833000000131], [-61.633437, 6.820482], [-61.633435, 6.820946], [-61.633056999999894, 6.821824], [-61.63254199999989, 6.821914000000163], [-61.632073, 6.822375000000136], [-61.631510999999875, 6.822418000000141], [-61.631136, 6.822694], [-61.63048, 6.822969], [-61.63001, 6.82343], [-61.629542, 6.823659000000134], [-61.628745, 6.824072], [-61.627669, 6.824066], [-61.627107, 6.824062], [-61.626639999999895, 6.82406], [-61.62617199999988, 6.824057], [-61.625704, 6.824055], [-61.625142, 6.824098], [-61.62472, 6.82442], [-61.624205, 6.824556], [-61.623736, 6.824832], [-61.623268, 6.824922000000186], [-61.6228, 6.824919000000136], [-61.622332, 6.824917000000141], [-61.621538, 6.824727], [-61.620647, 6.825185], [-61.620132999999896, 6.825044000000162], [-61.619618, 6.82518], [-61.61896, 6.826103], [-61.61867699999988, 6.826611000000128], [-61.618582, 6.827074], [-61.61834599999986, 6.827629000000172], [-61.618344, 6.82818500000019], [-61.618342, 6.828649], [-61.618386, 6.829298], [-61.61917799999986, 6.83023], [-61.61955099999989, 6.830510000000174], [-61.620066, 6.830605], [-61.620579, 6.83084], [-61.621046, 6.831213], [-61.621606, 6.831634], [-61.62216599999982, 6.831961000000149], [-61.622585, 6.832381], [-61.622865, 6.832753000000139], [-61.623097, 6.833264], [-61.623376, 6.833729], [-61.623654, 6.834333000000129], [-61.623886, 6.834798], [-61.62454, 6.835172], [-61.624678, 6.83563700000019], [-61.62491, 6.836287000000141], [-61.62555999999989, 6.837681], [-61.625604, 6.838191000000108], [-61.625789999999824, 6.838656], [-61.626114, 6.839538000000175], [-61.626158, 6.84037300000017], [-61.626156, 6.840929000000187], [-61.626153, 6.841671], [-61.626151, 6.84218], [-61.626149, 6.842644000000121], [-61.626148, 6.843107], [-61.626145, 6.84366400000016], [-61.626143, 6.844266], [-61.626141, 6.844776000000138], [-61.62609199999986, 6.845517], [-61.625996, 6.845980000000111], [-61.62576, 6.846535000000188], [-61.62538499999988, 6.846811000000116], [-61.625382999999886, 6.847506], [-61.625052999999866, 6.848015], [-61.624678, 6.848383000000183], [-61.624676, 6.848847], [-61.62500099999983, 6.849358], [-61.62542099999985, 6.849685], [-61.625841, 6.849966], [-61.626355, 6.850247], [-61.62696199999988, 6.850482000000113], [-61.62742999999989, 6.850531], [-61.62808299999983, 6.850859], [-61.628876999999875, 6.851419], [-61.629947, 6.852862], [-61.630364, 6.8539770000001], [-61.630456, 6.854441000000122], [-61.630454, 6.854904], [-61.630359, 6.855367000000172], [-61.630124, 6.855783000000145], [-61.62988799999988, 6.856245000000172], [-61.629512, 6.856568], [-61.6291829999999, 6.856983000000128], [-61.628948, 6.85749200000015], [-61.628805999999884, 6.857954000000177], [-61.628756999999894, 6.858464], [-61.6287549999999, 6.8590200000001], [-61.62875299999985, 6.859484000000123], [-61.628985, 6.859902], [-61.629359, 6.860182000000123], [-61.62996399999986, 6.860835000000179], [-61.630056, 6.861345], [-61.630148, 6.861809000000108], [-61.630426999999884, 6.862367], [-61.630518, 6.862923], [-61.630563, 6.863434], [-61.630935, 6.863946000000169], [-61.631354, 6.864504000000125], [-61.63168, 6.864877], [-61.632053, 6.865203], [-61.632425999999896, 6.865669], [-61.63359, 6.867112000000134], [-61.63429, 6.867672], [-61.63485, 6.868], [-61.63512899999989, 6.868372], [-61.63517399999989, 6.868882], [-61.635592, 6.869626], [-61.635731, 6.870090000000118], [-61.636009999999885, 6.870463], [-61.636289, 6.871021], [-61.636568, 6.87157800000017], [-61.636658, 6.87232], [-61.636657, 6.872784], [-61.636373999999876, 6.873292], [-61.635998, 6.873661], [-61.63566899999989, 6.874076], [-61.63524699999988, 6.874445], [-61.634825, 6.874721000000136], [-61.634357, 6.874764000000141], [-61.633887, 6.875179], [-61.63341799999989, 6.875686], [-61.633603, 6.876197], [-61.633882, 6.876616], [-61.634114, 6.877127], [-61.634533, 6.877685], [-61.634906, 6.878058], [-61.635607, 6.878201000000104], [-61.636774, 6.879042], [-61.63812499999989, 6.880394], [-61.638263, 6.881182], [-61.63825999999989, 6.881785], [-61.63825899999989, 6.882248000000118], [-61.63821, 6.882712], [-61.637928, 6.883127], [-61.637599, 6.883543], [-61.637055, 6.884408000000178], [-61.637235, 6.885341], [-61.638074, 6.885810000000163], [-61.639103, 6.885814000000153], [-61.640412, 6.886005000000125], [-61.641347, 6.886008], [-61.6423769999999, 6.886012000000164], [-61.6435919999999, 6.886203], [-61.645179, 6.886582], [-61.64620399999984, 6.887145000000146], [-61.647139, 6.887335], [-61.647977, 6.887804000000131], [-61.649375, 6.88855500000011], [-61.650772, 6.889399], [-61.65170399999988, 6.889962000000139], [-61.653384, 6.890527000000191], [-61.65441299999986, 6.89053100000018], [-61.655629, 6.890536], [-61.656752, 6.89054], [-61.657688, 6.890543], [-61.658717, 6.890547], [-61.659366, 6.891295000000127], [-61.6591719999999, 6.89232], [-61.65851, 6.893157], [-61.657664999999895, 6.893620000000112], [-61.656819, 6.894082], [-61.656067, 6.894639], [-61.65522, 6.895288000000107], [-61.654279, 6.895937000000174], [-61.653342, 6.896214000000157], [-61.652496, 6.896677000000125], [-61.651555, 6.897419], [-61.65108, 6.898349], [-61.650605, 6.899373], [-61.650035999999886, 6.900396000000171], [-61.650029, 6.901328], [-61.650022, 6.902261000000124], [-61.64992099999989, 6.903192], [-61.649727, 6.904124], [-61.64972, 6.905149000000108], [-61.649712, 6.906175000000133], [-61.649704, 6.9072], [-61.649732, 6.908657000000119], [-61.650437, 6.909347], [-61.650804, 6.910280000000114], [-61.650609, 6.911305], [-61.650133, 6.912422], [-61.649939, 6.913447000000133], [-61.649557, 6.914377000000172], [-61.649269, 6.915402], [-61.649169, 6.91633400000012], [-61.64916099999988, 6.917359], [-61.649154, 6.918291], [-61.649146, 6.919316], [-61.648857, 6.920527000000106], [-61.648289, 6.921364], [-61.64772, 6.922387000000185], [-61.646965, 6.923317], [-61.646955999999875, 6.924435000000187], [-61.647417, 6.92536900000016], [-61.648442, 6.926026], [-61.649465, 6.926775], [-61.650209, 6.927431], [-61.65057599999989, 6.928364], [-61.65075399999989, 6.929577000000165], [-61.651120999999875, 6.930603000000133], [-61.651959, 6.931166000000189], [-61.653355, 6.932103], [-61.65466299999986, 6.932481000000109], [-61.656245999999896, 6.933419], [-61.657082999999886, 6.934168], [-61.65745, 6.935101], [-61.659027, 6.936972], [-61.659956, 6.937814000000117], [-61.663132, 6.938571], [-61.66415999999987, 6.938669000000175], [-61.66509, 6.93941800000016]]]}}]}