{"type": "FeatureCollection", "features": [{"type": "Feature", "properties": {"Pais": "Venezuela", "Estado": "Trujillo", "Municipio": "Escuque"}, "geometry": {"type": "Polygon", "coordinates": [[[-70.656526, 9.374943], [-70.656575, 9.373946], [-70.65676, 9.372341], [-70.657314, 9.370873000000131], [-70.657313, 9.369177], [-70.65796, 9.367526000000112], [-70.658561, 9.366333000000168], [-70.659185, 9.365255000000161], [-70.660133, 9.364635], [-70.661058, 9.363557000000185], [-70.661936, 9.362983], [-70.662885, 9.362639], [-70.663787, 9.362111], [-70.664597, 9.361446000000115], [-70.66536, 9.360689], [-70.66656199999989, 9.358991], [-70.666329, 9.356974], [-70.666329, 9.356057], [-70.666837, 9.355529000000104], [-70.668526, 9.354657], [-70.670491, 9.353393], [-70.67093, 9.352063], [-70.67060499999985, 9.35055], [-70.670257, 9.348991], [-70.66910799999988, 9.34052700000018], [-70.674548, 9.335981], [-70.686327, 9.330295], [-70.686328, 9.330249], [-70.68831399999988, 9.329418], [-70.691592, 9.328751000000125], [-70.6958499999999, 9.328779000000168], [-70.698406, 9.327377000000126], [-70.700947, 9.32548], [-70.70283399999983, 9.323798000000124], [-70.706609, 9.321536], [-70.711415, 9.31872], [-70.712809, 9.317395], [-70.714145, 9.314418000000103], [-70.717165, 9.311727], [-70.722057, 9.309258], [-70.72585, 9.307248000000186], [-70.729854, 9.305082], [-70.734549, 9.303091000000109], [-70.73912, 9.300386000000117], [-70.741292, 9.298411000000158], [-70.746599, 9.295951000000173], [-70.74924299999986, 9.294605], [-70.75607899999989, 9.292107000000101], [-70.758873, 9.290237000000104], [-70.761138, 9.289297], [-70.763157, 9.28793800000011], [-70.765622, 9.286291], [-70.76875, 9.285070000000132], [-70.771883, 9.283619000000158], [-70.773375, 9.281998000000158], [-70.776116, 9.280471], [-70.778351, 9.278751], [-70.781737, 9.276204000000178], [-70.785089, 9.274231], [-70.78906299999989, 9.271238], [-70.79297899999989, 9.268818000000124], [-70.795775, 9.266856000000132], [-70.798309, 9.265233], [-70.802532, 9.264837], [-70.80441999999988, 9.265242], [-70.806656, 9.2657], [-70.809073, 9.266345000000172], [-70.810353, 9.26600400000018], [-70.811367, 9.265084000000115], [-70.811411, 9.265062], [-70.814329, 9.258449], [-70.813791, 9.256324], [-70.81382, 9.255313], [-70.81463699999989, 9.254334], [-70.815985, 9.253231], [-70.81575399999986, 9.251972], [-70.815012, 9.250562], [-70.815161, 9.248470000000168], [-70.8152199999999, 9.246563], [-70.814985, 9.245029], [-70.813844, 9.243327], [-70.812845, 9.241783], [-70.812168, 9.240142000000162], [-70.81141799999989, 9.239673], [-70.810286, 9.238499000000104], [-70.809048, 9.237878], [-70.80866, 9.236875], [-70.80759199999989, 9.23537800000014], [-70.8065069999999, 9.234249], [-70.805406, 9.233557000000133], [-70.803281, 9.23319000000015], [-70.802062, 9.230448], [-70.800599, 9.228843000000154], [-70.80017, 9.226807000000122], [-70.799104, 9.224117], [-70.798512, 9.222038], [-70.7977709999999, 9.220673], [-70.797268, 9.219718000000114], [-70.796632, 9.217754000000127], [-70.796069, 9.21601900000013], [-70.796366, 9.214452000000165], [-70.796072, 9.21351600000014], [-70.795562, 9.212148000000127], [-70.794957, 9.210643000000118], [-70.79476199999988, 9.20874], [-70.795131, 9.205955000000188], [-70.794832, 9.204215], [-70.795112, 9.203019], [-70.795106, 9.20193300000011], [-70.79509999999988, 9.20071200000018], [-70.794822, 9.199763000000132], [-70.793086, 9.196625], [-70.791613, 9.196671], [-70.79011, 9.196836], [-70.788502, 9.197599], [-70.787037, 9.19861200000014], [-70.785711, 9.1996], [-70.78488899999985, 9.200280000000134], [-70.783168, 9.201183], [-70.78155699999985, 9.201832], [-70.77981499999987, 9.202896], [-70.778127, 9.203086], [-70.7758639999999, 9.20211600000016], [-70.774792, 9.201722], [-70.773239, 9.201634], [-70.772368, 9.202156], [-70.770721, 9.202047000000107], [-70.7693589999999, 9.202301], [-70.76801399999982, 9.202164], [-70.765176, 9.201433000000122], [-70.76314499999984, 9.201882000000126], [-70.76136799999989, 9.202212], [-70.759415, 9.201764], [-70.75711699999988, 9.201575000000162], [-70.754756, 9.200239000000124], [-70.753805, 9.199028000000112], [-70.753318, 9.198526000000129], [-70.752438, 9.198025], [-70.752046, 9.198004], [-70.75193, 9.198051], [-70.750872, 9.199179000000129], [-70.749556, 9.199553], [-70.747755, 9.199768], [-70.74673899999988, 9.199818000000107], [-70.745838, 9.199685000000102], [-70.74473, 9.199782000000141], [-70.743967, 9.19978500000019], [-70.7429499999999, 9.199515], [-70.740201, 9.19929900000011], [-70.73886, 9.199053], [-70.73728799999986, 9.19873900000016], [-70.736224, 9.198331000000167], [-70.73453599999988, 9.197949000000165], [-70.733772, 9.197471], [-70.73296099999988, 9.196718], [-70.732197, 9.1964], [-70.731137, 9.19707000000011], [-70.729594, 9.198408000000143], [-70.728648, 9.198756000000117], [-70.72641, 9.199317], [-70.724771, 9.199669], [-70.723409, 9.199904000000117], [-70.721193, 9.200328000000184], [-70.71812299999988, 9.200938], [-70.716116, 9.201681], [-70.714618, 9.202812], [-70.71268, 9.203440000000114], [-70.712476, 9.204726000000107], [-70.7125989999999, 9.206743000000188], [-70.713366, 9.208116], [-70.71413299999989, 9.209511], [-70.714621, 9.210518], [-70.715064, 9.2116860000001], [-70.71516, 9.212832], [-70.71521499999989, 9.215355], [-70.715101, 9.215906000000189], [-70.71424999999988, 9.216873], [-70.711829, 9.218192000000158], [-70.711114, 9.218631], [-70.709479, 9.2199], [-70.708372, 9.220524000000182], [-70.706457, 9.221519000000114], [-70.705539, 9.223450000000184], [-70.705547, 9.225606], [-70.70396099999988, 9.228021000000183], [-70.70242, 9.230048], [-70.7013869999999, 9.232048000000134], [-70.699915, 9.233912], [-70.698236, 9.235961], [-70.696624, 9.237528], [-70.694942, 9.239027], [-70.692982, 9.240045000000123], [-70.69076599999988, 9.240583], [-70.688345, 9.242084], [-70.6866399999999, 9.243423], [-70.68413, 9.245682], [-70.683119, 9.247361], [-70.681181, 9.248287000000118], [-70.680005, 9.248957000000132], [-70.676661, 9.251014000000168], [-70.67498099999989, 9.252971], [-70.674084, 9.254122000000109], [-70.67277399999989, 9.256146], [-70.671669, 9.257344], [-70.670402, 9.258565], [-70.669388, 9.259304], [-70.668537, 9.2605], [-70.667315, 9.261308], [-70.665448, 9.262464], [-70.66468899999984, 9.263476], [-70.66427699999986, 9.264694000000134], [-70.664052, 9.266485], [-70.6641939999999, 9.267723000000103], [-70.664337, 9.268823], [-70.664615, 9.269234], [-70.664427, 9.27097], [-70.664391, 9.271300000000167], [-70.66268799999983, 9.27328], [-70.660728, 9.274458000000152], [-70.65729, 9.275781], [-70.654776, 9.277169], [-70.651546, 9.278789000000188], [-70.65032199999985, 9.279253], [-70.648756, 9.28082], [-70.647929, 9.282222], [-70.64733199999989, 9.283487], [-70.647177, 9.285506000000169], [-70.647714, 9.287269], [-70.648299, 9.289331], [-70.648604, 9.29070600000017], [-70.648566, 9.293366000000162], [-70.64818, 9.29536400000012], [-70.647721, 9.296467], [-70.646824, 9.297778000000164], [-70.64535, 9.299184000000139], [-70.644033, 9.301350000000127], [-70.642822, 9.303209], [-70.642689, 9.304999], [-70.640941, 9.307599], [-70.63979099999989, 9.309324000000174], [-70.63952, 9.311069000000145], [-70.639088, 9.313272000000154], [-70.638842, 9.315842], [-70.63912299999987, 9.316896000000156], [-70.638158, 9.31857500000018], [-70.63691599999987, 9.320415], [-70.63657199999983, 9.321426000000145], [-70.635561, 9.323105000000169], [-70.63524, 9.323932], [-70.63425199999989, 9.32567900000015], [-70.6340009999999, 9.326460000000111], [-70.633819, 9.327447], [-70.634535, 9.32749], [-70.633102, 9.32740500000017], [-70.631136, 9.326565], [-70.631672, 9.328947002000177], [-70.631673, 9.328947], [-70.634521, 9.341592000000162], [-70.633633, 9.343361000000186], [-70.629289, 9.352014], [-70.638054, 9.366445], [-70.638615, 9.367153], [-70.63936399999983, 9.36815700000011], [-70.639783, 9.368544000000156], [-70.641015, 9.369315], [-70.641851, 9.369631], [-70.642475, 9.369626000000153], [-70.643334, 9.369895], [-70.643979, 9.369592000000182], [-70.645368, 9.369628000000148], [-70.64645699999988, 9.36985], [-70.64807999999988, 9.370343000000162], [-70.649286, 9.37070100000011], [-70.650678, 9.371219000000167], [-70.652213, 9.372263], [-70.653008, 9.373313], [-70.653225, 9.374482000000114], [-70.654012, 9.374568000000124], [-70.655306, 9.374375000000157], [-70.656526, 9.374943]]]}}]}