{
  "type": "FeatureCollection",
  "features": [
    {
      "type": "Feature",
      "properties": {
        "Pais": "Venezuela",
        "Estado": "Cojedes",
        "Municipio": "Ezequiel Zamora"
      },
      "geometry": {
        "type": "Polygon",
        "coordinates": [
          [
            [
              -68.6382096769999,
              9.96331203300008
            ],
            [
              -68.64133381499994,
              9.964036031000148
            ],
            [
              -68.64409393499989,
              9.965827063000177
            ],
            [
              -68.64685107099996,
              9.968926127000088
            ],
            [
              -68.64984922099995,
              9.971787170000084
            ],
            [
              -68.65272835499997,
              9.973936212000126
            ],
            [
              -68.65609151399997,
              9.975372234000076
            ],
            [
              -68.65921664399997,
              9.975739226000087
            ],
            [
              -68.66161975599994,
              9.976341226000159
            ],
            [
              -68.66270478599995,
              9.975038178000148
            ],
            [
              -68.66427782799997,
              9.971240084000158
            ],
            [
              -68.66560787499998,
              9.968512003000114
            ],
            [
              -68.6674149449999,
              9.966972953000095
            ],
            [
              -68.66982403899993,
              9.965198896000174
            ],
            [
              -68.67343816999994,
              9.962358805000065
            ],
            [
              -68.67632829099995,
              9.960704748000069
            ],
            [
              -68.68295353699995,
              9.955497581000088
            ],
            [
              -68.68668668399994,
              9.953251498000157
            ],
            [
              -68.68993781099988,
              9.951123422000137
            ],
            [
              -68.69511301899996,
              9.94888234400014
            ],
            [
              -68.70004622199997,
              9.947352275000128
            ],
            [
              -68.70257033099989,
              9.947717272000034
            ],
            [
              -68.7064174979999,
              9.94737223500016
            ],
            [
              -68.7099076369999,
              9.946195184000032
            ],
            [
              -68.71231772099992,
              9.943945123000105
            ],
            [
              -68.71580986099997,
              9.941223025000113
            ],
            [
              -68.71689888999998,
              9.938374955000029
            ],
            [
              -68.71739487699989,
              9.932553807000147
            ],
            [
              -68.71776387099999,
              9.928989719000128
            ],
            [
              -68.71909390399998,
              9.92590463300013
            ],
            [
              -68.72150798699988,
              9.92187251100006
            ],
            [
              -68.72272400599996,
              9.916172367000058
            ],
            [
              -68.72285399099997,
              9.912014261000138
            ],
            [
              -68.72322397899995,
              9.908569171000181
            ],
            [
              -68.72359497899998,
              9.904293070000108
            ],
            [
              -68.72352717799998,
              9.904112951000059
            ],
            [
              -68.72216189499989,
              9.900485982000077
            ],
            [
              -68.72000178999997,
              9.898815942999988
            ],
            [
              -68.71687765299993,
              9.898211949000142
            ],
            [
              -68.71471754999982,
              9.896779929000104
            ],
            [
              -68.71412351599997,
              9.894281874000114
            ],
            [
              -68.71472952599999,
              9.892263813
            ],
            [
              -68.7166605889999,
              9.889061724000044
            ],
            [
              -68.71943567999995,
              9.884792598000104
            ],
            [
              -68.72220877499996,
              9.880999487000054
            ],
            [
              -68.72243580799983,
              9.88081648900004
            ],
            [
              -68.72704235799995,
              9.877103430000034
            ],
            [
              -68.72823100499988,
              9.87614533400017
            ],
            [
              -68.73364522899993,
              9.873667240000088
            ],
            [
              -68.74122254099996,
              9.87155114300009
            ],
            [
              -68.74849766499995,
              9.869975306000185
            ],
            [
              -68.74879885099995,
              9.869910067000035
            ],
            [
              -68.75541212999997,
              9.868860002000076
            ],
            [
              -68.75985931399998,
              9.868873977000078
            ],
            [
              -68.76068839499999,
              9.869264675000068
            ],
            [
              -68.76213841499998,
              9.869947985000124
            ],
            [
              -68.76004941199989,
              9.86828647200008
            ],
            [
              -68.75864011899989,
              9.867165575000115
            ],
            [
              -68.7585412439999,
              9.867086934000099
            ],
            [
              -68.75710018499996,
              9.86648892400018
            ],
            [
              -68.75530209199997,
              9.86446388800016
            ],
            [
              -68.75614712099997,
              9.862802843000111
            ],
            [
              -68.75795219699984,
              9.861856810000063
            ],
            [
              -68.76095832099998,
              9.86150979100006
            ],
            [
              -68.76252437599993,
              9.859850740000184
            ],
            [
              -68.76349239599995,
              9.85712066300016
            ],
            [
              -68.76481844899996,
              9.85510460800009
            ],
            [
              -68.76458242599989,
              9.853440565000142
            ],
            [
              -68.76530644599984,
              9.852016524000021
            ],
            [
              -68.76662850299988,
              9.852020512000138
            ],
            [
              -68.76807455199997,
              9.850361463000127
            ],
            [
              -68.76867857999997,
              9.849174436000055
            ],
            [
              -68.77144368899997,
              9.848826413000097
            ],
            [
              -68.77409379399995,
              9.84622032700014
            ],
            [
              -68.7733787489999,
              9.843603274000031
            ],
            [
              -68.77169866799983,
              9.842291244000023
            ],
            [
              -68.77098062899984,
              9.84122021900015
            ],
            [
              -68.77194765799999,
              9.83884615500017
            ],
            [
              -68.77231365499989,
              9.83647110200019
            ],
            [
              -68.77400371299996,
              9.833030002000044
            ],
            [
              -68.77509274199997,
              9.829943923000087
            ],
            [
              -68.77638452799994,
              9.828531775000101
            ],
            [
              -68.77722030299998,
              9.827618138000105
            ],
            [
              -68.77726081699996,
              9.827573849999965
            ],
            [
              -68.82746337299989,
              9.727627097000095
            ],
            [
              -68.8268623479999,
              9.726568075000046
            ],
            [
              -68.82684133799995,
              9.725188039000102
            ],
            [
              -68.82651831999988,
              9.724428017000093
            ],
            [
              -68.82614929999988,
              9.723715001000073
            ],
            [
              -68.82550226199999,
              9.722770979000131
            ],
            [
              -68.82640630499992,
              9.7217369600001
            ],
            [
              -68.82666329999995,
              9.720240916000137
            ],
            [
              -68.82622527699988,
              9.719274898000094
            ],
            [
              -68.82574024899998,
              9.718330875000106
            ],
            [
              -68.82553323799988,
              9.717410857000175
            ],
            [
              -68.82611226099993,
              9.717226841000013
            ],
            [
              -68.82632226599998,
              9.716398821000098
            ],
            [
              -68.82720230499996,
              9.71589281200005
            ],
            [
              -68.82849935099989,
              9.715939798000022
            ],
            [
              -68.8301674199999,
              9.71575679199998
            ],
            [
              -68.83090945299995,
              9.714722760000086
            ],
            [
              -68.83269352999991,
              9.714470742000174
            ],
            [
              -68.83304154299987,
              9.714217737000126
            ],
            [
              -68.83332153599991,
              9.712469684000155
            ],
            [
              -68.83408657099989,
              9.711756662000141
            ],
            [
              -68.83427357399984,
              9.71072164100002
            ],
            [
              -68.83364953699999,
              9.70984662
            ],
            [
              -68.8331645099999,
              9.709063598000057
            ],
            [
              -68.83325950599993,
              9.707499561000077
            ],
            [
              -68.83363151899994,
              9.706487539000022
            ],
            [
              -68.83374851699989,
              9.705866521000132
            ],
            [
              -68.83374851399998,
              9.705291504000058
            ],
            [
              -68.83393551899991,
              9.704693498000154
            ],
            [
              -68.83381950799992,
              9.704209478000053
            ],
            [
              -68.83393651699993,
              9.703519459000063
            ],
            [
              -68.83349849599983,
              9.702737442000114
            ],
            [
              -68.83363849299997,
              9.70186342300019
            ],
            [
              -68.83431151199994,
              9.70075939800006
            ],
            [
              -68.83535555399999,
              9.699333356000011
            ],
            [
              -68.83711562599996,
              9.699012336000123
            ],
            [
              -68.83859868499985,
              9.698783319000086
            ],
            [
              -68.83973473199995,
              9.697817293000071
            ],
            [
              -68.84017574799987,
              9.696990265000068
            ],
            [
              -68.83962071399986,
              9.696345256000086
            ],
            [
              -68.83964471499996,
              9.69560923900002
            ],
            [
              -68.84020172799995,
              9.69485021800017
            ],
            [
              -68.84013372499993,
              9.693745191000119
            ],
            [
              -68.83976470399995,
              9.692710161000093
            ],
            [
              -68.83879464799998,
              9.691099136000162
            ],
            [
              -68.83951567399998,
              9.689167080000175
            ],
            [
              -68.83951766499996,
              9.6878320510001
            ],
            [
              -68.83900863199995,
              9.687165036000067
            ],
            [
              -68.83801458799991,
              9.68645101900006
            ],
            [
              -68.83787657999994,
              9.68569200100012
            ],
            [
              -68.83781405199994,
              9.685682785000097
            ],
            [
              -68.83708954399987,
              9.685576
            ],
            [
              -68.83687953899988,
              9.686335019000012
            ],
            [
              -68.83630051499995,
              9.686266022000098
            ],
            [
              -68.83629847799995,
              9.686247565000087
            ],
            [
              -68.83614050699993,
              9.684815993000143
            ],
            [
              -68.83477643899988,
              9.683480961000157
            ],
            [
              -68.83472579599993,
              9.683469482000021
            ],
            [
              -68.83375738699993,
              9.683249971000066
            ],
            [
              -68.83374977799991,
              9.68323709800012
            ],
            [
              -68.83299535499992,
              9.681960936000053
            ],
            [
              -68.83262633499999,
              9.680925917000138
            ],
            [
              -68.83292834299982,
              9.680465900000172
            ],
            [
              -68.83285933799988,
              9.679867882000053
            ],
            [
              -68.83293033199988,
              9.678808857000092
            ],
            [
              -68.83318732699985,
              9.677221817999964
            ],
            [
              -68.83337432999997,
              9.676140796000084
            ],
            [
              -68.83397735599993,
              9.675565776000099
            ],
            [
              -68.83390934199997,
              9.674507755000036
            ],
            [
              -68.83289229599995,
              9.673586736000118
            ],
            [
              -68.83238426499992,
              9.672435711
            ],
            [
              -68.83203824699996,
              9.671721691000073
            ],
            [
              -68.83197024299994,
              9.670548668000094
            ],
            [
              -68.83280527199992,
              9.669582633
            ],
            [
              -68.83387131399996,
              9.66896261400018
            ],
            [
              -68.83408131699991,
              9.667766580000148
            ],
            [
              -68.83329627399996,
              9.666546557000174
            ],
            [
              -68.83447132299995,
              9.665920542000151
            ],
            [
              -68.83450031599995,
              9.665254518000097
            ],
            [
              -68.83441431499995,
              9.664333493000015
            ],
            [
              -68.83440329699982,
              9.66277046200014
            ],
            [
              -68.83427428599998,
              9.661505428000055
            ],
            [
              -68.83291721799998,
              9.660276410000165
            ],
            [
              -68.83137015299997,
              9.659460390000163
            ],
            [
              -68.83110513399987,
              9.657803360000173
            ],
            [
              -68.83210816899998,
              9.657029329000181
            ],
            [
              -68.83211486599993,
              9.65699810200016
            ],
            [
              -68.83254117299992,
              9.655010277000088
            ],
            [
              -68.83346320599992,
              9.652764222000144
            ],
            [
              -68.83507226099994,
              9.651582181000151
            ],
            [
              -68.83628930999998,
              9.65012113600011
            ],
            [
              -68.83751235099993,
              9.647924084000067
            ],
            [
              -68.83697031799994,
              9.64612603900008
            ],
            [
              -68.83809234999995,
              9.644825002000175
            ],
            [
              -68.83805834399982,
              9.643330957999979
            ],
            [
              -68.83799533199993,
              9.642479941000033
            ],
            [
              -68.83684028499994,
              9.641964931000018
            ],
            [
              -68.83629724799994,
              9.640351894000048
            ],
            [
              -68.83545633499989,
              9.63961956900016
            ],
            [
              -68.83544521599998,
              9.639609885000027
            ],
            [
              -68.83492318299994,
              9.638271855000028
            ],
            [
              -68.83388713399984,
              9.637344841000015
            ],
            [
              -68.83294808599993,
              9.635957811000026
            ],
            [
              -68.83158601999997,
              9.635211795000146
            ],
            [
              -68.83111099299998,
              9.633828772000186
            ],
            [
              -68.82884789199989,
              9.632730759000026
            ],
            [
              -68.82656378799999,
              9.631448731000148
            ],
            [
              -68.82534673399994,
              9.62996770400008
            ],
            [
              -68.82494669999994,
              9.627780654000162
            ],
            [
              -68.82374864099995,
              9.626943642000185
            ],
            [
              -68.82227356899995,
              9.625943621000147
            ],
            [
              -68.82124052099988,
              9.624602603000028
            ],
            [
              -68.82000345599994,
              9.622776559999977
            ],
            [
              -68.81878539799999,
              9.62154853400017
            ],
            [
              -68.81854837799989,
              9.619363481000107
            ],
            [
              -68.81816434999985,
              9.61809644900012
            ],
            [
              -68.81759632599983,
              9.61657442
            ],
            [
              -68.81745030499991,
              9.614550368000039
            ],
            [
              -68.81739529499998,
              9.612780335000082
            ],
            [
              -68.81762028699995,
              9.610759285000029
            ],
            [
              -68.81752027899995,
              9.608759226000188
            ],
            [
              -68.81751425999988,
              9.60662117700008
            ],
            [
              -68.81905931099982,
              9.604679125000189
            ],
            [
              -68.82114039799995,
              9.602420056000028
            ],
            [
              -68.82237543699995,
              9.601534026000081
            ],
            [
              -68.82026333999994,
              9.599034976000098
            ],
            [
              -68.81900527099998,
              9.596955930000036
            ],
            [
              -68.81736818899998,
              9.595839917000148
            ],
            [
              -68.81731429199993,
              9.595822380000186
            ],
            [
              -68.81577312599995,
              9.595320913000023
            ],
            [
              -68.81576578099998,
              9.595314126000062
            ],
            [
              -68.81494508799994,
              9.594555892000017
            ],
            [
              -68.81490832399999,
              9.594557092000116
            ],
            [
              -68.81323001099997,
              9.594611907000115
            ],
            [
              -68.81321738399998,
              9.594584256000076
            ],
            [
              -68.8123869609999,
              9.59276586500016
            ],
            [
              -68.81217894699995,
              9.592339859999981
            ],
            [
              -68.81212730899995,
              9.592343307000021
            ],
            [
              -68.80865780899984,
              9.5925748840001
            ],
            [
              -68.80699973999998,
              9.594101927000054
            ],
            [
              -68.80542566899993,
              9.593928933000143
            ],
            [
              -68.80380560899982,
              9.593639930999984
            ],
            [
              -68.80194952599999,
              9.593877950000092
            ],
            [
              -68.80042145599992,
              9.593704955000078
            ],
            [
              -68.80040632799995,
              9.593684698000061
            ],
            [
              -68.79909139599994,
              9.591923919000124
            ],
            [
              -68.79810733899996,
              9.590307892000112
            ],
            [
              -68.79653727399989,
              9.589605879000032
            ],
            [
              -68.79647631999995,
              9.589582378000102
            ],
            [
              -68.79452718199997,
              9.588830873000177
            ],
            [
              -68.79242109299997,
              9.588583879000169
            ],
            [
              -68.79015099599997,
              9.5883818800001
            ],
            [
              -68.78795089599993,
              9.588272898000127
            ],
            [
              -68.78602881199998,
              9.588072896000085
            ],
            [
              -68.78389172099997,
              9.588653920000013
            ],
            [
              -68.78383641699992,
              9.588625168000135
            ],
            [
              -68.78303769399992,
              9.588209921000157
            ],
            [
              -68.78152061299988,
              9.586726896000073
            ],
            [
              -68.78004354399997,
              9.58590988200018
            ],
            [
              -68.78003911699989,
              9.585917806000111
            ],
            [
              -68.77931451999996,
              9.587214914000128
            ],
            [
              -68.77822347699993,
              9.587435922000168
            ],
            [
              -68.7765324049999,
              9.58732993100017
            ],
            [
              -68.77479533199988,
              9.587200937000148
            ],
            [
              -68.77352327199998,
              9.586937939000052
            ],
            [
              -68.77298625499998,
              9.5873709600001
            ],
            [
              -68.77220923299996,
              9.588972996000109
            ],
            [
              -68.76937311599994,
              9.58996204400006
            ],
            [
              -68.76933062899991,
              9.589927758999977
            ],
            [
              -68.76833706599996,
              9.589126024
            ],
            [
              -68.76665498799997,
              9.587940005
            ],
            [
              -68.76661582399998,
              9.587932914000078
            ],
            [
              -68.76505892099988,
              9.587651004000179
            ],
            [
              -68.76296982799994,
              9.587979026000141
            ],
            [
              -68.76063173499995,
              9.58773003300007
            ],
            [
              -68.76061637299989,
              9.587709365000137
            ],
            [
              -68.75980668699998,
              9.58662001000016
            ],
            [
              -68.75900465099994,
              9.58548799099998
            ],
            [
              -68.75855462099986,
              9.583805951999977
            ],
            [
              -68.75842460499985,
              9.582678919000102
            ],
            [
              -68.7580165839999,
              9.581594897000116
            ],
            [
              -68.75774557299997,
              9.580673873000137
            ],
            [
              -68.75682751799997,
              9.579608856
            ],
            [
              -68.75653650899994,
              9.57838782600004
            ],
            [
              -68.75677750599988,
              9.577286796000067
            ],
            [
              -68.75687650499992,
              9.576528782000082
            ],
            [
              -68.75633247599995,
              9.57500774500005
            ],
            [
              -68.75547943999999,
              9.574494733000108
            ],
            [
              -68.75395536499997,
              9.57381573300006
            ],
            [
              -68.75308132499998,
              9.572981712000058
            ],
            [
              -68.75173026199991,
              9.571016675000067
            ],
            [
              -68.75055919699992,
              9.569696646000182
            ],
            [
              -68.74938714099994,
              9.568537622000065
            ],
            [
              -68.74934830399991,
              9.568539000000158
            ],
            [
              -68.74781007999991,
              9.56859363400008
            ],
            [
              -68.74630400699994,
              9.56855864
            ],
            [
              -68.74626731199999,
              9.568533681000133
            ],
            [
              -68.74524396399994,
              9.567837634000057
            ],
            [
              -68.74467893199994,
              9.566201597000088
            ],
            [
              -68.74337286499997,
              9.56430555999998
            ],
            [
              -68.74199679199995,
              9.562639526000169
            ],
            [
              -68.74156377299994,
              9.561739504000116
            ],
            [
              -68.74086172799991,
              9.55966545900003
            ],
            [
              -68.73946466299998,
              9.557745417000149
            ],
            [
              -68.73869960899998,
              9.55493535300019
            ],
            [
              -68.73955363299996,
              9.552529292000145
            ],
            [
              -68.73912660399998,
              9.550870251999982
            ],
            [
              -68.7380735569999,
              9.549299222000059
            ],
            [
              -68.73669647999998,
              9.547701183000072
            ],
            [
              -68.7352204149999,
              9.546862174000182
            ],
            [
              -68.73286531199989,
              9.545877164000046
            ],
            [
              -68.73153225099992,
              9.544510132000084
            ],
            [
              -68.73057319299994,
              9.54287010000013
            ],
            [
              -68.72991216299988,
              9.541555072
            ],
            [
              -68.72939113499996,
              9.540079042000116
            ],
            [
              -68.72915010999998,
              9.538421999000036
            ],
            [
              -68.72905208799995,
              9.536214951000034
            ],
            [
              -68.72863705399982,
              9.533108875000096
            ],
            [
              -68.7287970509999,
              9.53060480900001
            ],
            [
              -68.72962307599994,
              9.52879575999998
            ],
            [
              -68.73048510499996,
              9.528204739000046
            ],
            [
              -68.73057211599996,
              9.528109746000098
            ],
            [
              -68.73052034899996,
              9.528068199000131
            ],
            [
              -68.73041510799993,
              9.527983736000124
            ],
            [
              -68.73038417099997,
              9.527986226000166
            ],
            [
              -68.72711792299998,
              9.528249128000084
            ],
            [
              -68.72712677999994,
              9.52821734700018
            ],
            [
              -68.72670216699993,
              9.528251523000165
            ],
            [
              -68.726572,
              9.528262
            ],
            [
              -68.724796,
              9.530087
            ],
            [
              -68.722861,
              9.531611
            ],
            [
              -68.720328,
              9.532509000000118
            ],
            [
              -68.719676,
              9.53284900000017
            ],
            [
              -68.718809,
              9.533968
            ],
            [
              -68.717659,
              9.535728000000177
            ],
            [
              -68.717468,
              9.536439
            ],
            [
              -68.716788,
              9.537376000000108
            ],
            [
              -68.715673,
              9.537781
            ],
            [
              -68.71435399999984,
              9.537517
            ],
            [
              -68.7134539999999,
              9.537165
            ],
            [
              -68.71156,
              9.536414
            ],
            [
              -68.709618,
              9.535823
            ],
            [
              -68.70736099999988,
              9.536954
            ],
            [
              -68.70548299999984,
              9.53700700000013
            ],
            [
              -68.70423199999988,
              9.537066
            ],
            [
              -68.7038,
              9.538786
            ],
            [
              -68.702429,
              9.539349
            ],
            [
              -68.701562,
              9.540422
            ],
            [
              -68.70010284899985,
              9.540588539000055
            ],
            [
              -68.700055,
              9.540594
            ],
            [
              -68.69963782399998,
              9.539861539000128
            ],
            [
              -68.699621,
              9.539832000000104
            ],
            [
              -68.69784027899993,
              9.53995314399998
            ],
            [
              -68.697813,
              9.539955000000134
            ],
            [
              -68.696983,
              9.539350000000184
            ],
            [
              -68.69622057399988,
              9.53855912600011
            ],
            [
              -68.696179,
              9.538516
            ],
            [
              -68.694851,
              9.539448000000107
            ],
            [
              -68.693753,
              9.540520000000186
            ],
            [
              -68.69353299999989,
              9.54192
            ],
            [
              -68.693964,
              9.543027000000109
            ],
            [
              -68.69498,
              9.543426000000125
            ],
            [
              -68.695644,
              9.544351
            ],
            [
              -68.694711,
              9.545056000000159
            ],
            [
              -68.693069,
              9.544743
            ],
            [
              -68.6928759999999,
              9.545684
            ],
            [
              -68.693145,
              9.546721
            ],
            [
              -68.69153988699992,
              9.547110591000035
            ],
            [
              -68.691497,
              9.547121000000118
            ],
            [
              -68.690605,
              9.545711000000153
            ],
            [
              -68.690892,
              9.544656
            ],
            [
              -68.6892544129999,
              9.543388600000014
            ],
            [
              -68.68921099999989,
              9.543355
            ],
            [
              -68.688072,
              9.543782
            ],
            [
              -68.685634,
              9.5442910000001
            ],
            [
              -68.68448699999982,
              9.545637
            ],
            [
              -68.683598,
              9.546618
            ],
            [
              -68.68261699999988,
              9.547598000000164
            ],
            [
              -68.68168,
              9.548855
            ],
            [
              -68.680489,
              9.549879
            ],
            [
              -68.679927,
              9.550656
            ],
            [
              -68.67878499999983,
              9.551428000000158
            ],
            [
              -68.677716,
              9.551833000000101
            ],
            [
              -68.675921,
              9.553059
            ],
            [
              -68.67445699999985,
              9.553575000000137
            ],
            [
              -68.672375,
              9.553213
            ],
            [
              -68.670656,
              9.553636
            ],
            [
              -68.668474,
              9.5541
            ],
            [
              -68.667768,
              9.555473000000177
            ],
            [
              -68.66611360999997,
              9.555823272
            ],
            [
              -68.666096,
              9.555827000000136
            ],
            [
              -68.6541749999999,
              9.548487
            ],
            [
              -68.65280371899996,
              9.547642691000021
            ],
            [
              -68.652749,
              9.547609
            ],
            [
              -68.651116,
              9.548783000000128
            ],
            [
              -68.650638,
              9.550526000000104
            ],
            [
              -68.651649,
              9.551522
            ],
            [
              -68.651707,
              9.552902
            ],
            [
              -68.650409,
              9.552937
            ],
            [
              -68.649797,
              9.55408100000011
            ],
            [
              -68.649256,
              9.55499600000013
            ],
            [
              -68.649403,
              9.556859
            ],
            [
              -68.647817,
              9.558087
            ],
            [
              -68.646401,
              9.558351
            ],
            [
              -68.64476799999989,
              9.559647
            ],
            [
              -68.644064,
              9.560676
            ],
            [
              -68.64263999999986,
              9.561974
            ],
            [
              -68.642052,
              9.56298
            ],
            [
              -68.640976,
              9.564143
            ],
            [
              -68.639902,
              9.565077
            ],
            [
              -68.638955,
              9.564701
            ],
            [
              -68.637951,
              9.565589000000159
            ],
            [
              -68.63829,
              9.566626000000156
            ],
            [
              -68.637794,
              9.567679
            ],
            [
              -68.636168,
              9.568079000000125
            ],
            [
              -68.634957,
              9.56882700000017
            ],
            [
              -68.635342,
              9.569797000000165
            ],
            [
              -68.63540268899993,
              9.569808200000182
            ],
            [
              -68.636778,
              9.570062
            ],
            [
              -68.637958,
              9.57021
            ],
            [
              -68.638682,
              9.569502
            ],
            [
              -68.639353,
              9.569738
            ],
            [
              -68.63935365099996,
              9.569741474000182
            ],
            [
              -68.63953,
              9.570683
            ],
            [
              -68.638824,
              9.571941
            ],
            [
              -68.638121,
              9.5729
            ],
            [
              -68.637904,
              9.573841
            ],
            [
              -68.63797128999994,
              9.573858269000027
            ],
            [
              -68.638921,
              9.574102
            ],
            [
              -68.63892871199982,
              9.574112557000092
            ],
            [
              -68.639631,
              9.575074000000143
            ],
            [
              -68.63944,
              9.575831
            ],
            [
              -68.63818199999986,
              9.576601
            ],
            [
              -68.637664,
              9.577493000000118
            ],
            [
              -68.638588,
              9.577892
            ],
            [
              -68.63859073599991,
              9.577890382000135
            ],
            [
              -68.639124,
              9.577575000000138
            ],
            [
              -68.63915015499992,
              9.577623730000084
            ],
            [
              -68.639694,
              9.578637
            ],
            [
              -68.63910099999987,
              9.580264
            ],
            [
              -68.63819099999989,
              9.580969
            ],
            [
              -68.638113,
              9.581979
            ],
            [
              -68.637966,
              9.582943
            ],
            [
              -68.6371079999999,
              9.58291300000019
            ],
            [
              -68.635882,
              9.582673
            ],
            [
              -68.635387,
              9.583726000000127
            ],
            [
              -68.63545431999995,
              9.583747489000075
            ],
            [
              -68.636496,
              9.584080000000142
            ],
            [
              -68.63714399999986,
              9.584155000000123
            ],
            [
              -68.63714701899994,
              9.584173413000144
            ],
            [
              -68.637276,
              9.58496
            ],
            [
              -68.637706,
              9.586182000000122
            ],
            [
              -68.63834899999989,
              9.58685400000013
            ],
            [
              -68.63868899999989,
              9.587753
            ],
            [
              -68.639028,
              9.588791000000185
            ],
            [
              -68.640067,
              9.589259
            ],
            [
              -68.64009108399989,
              9.589266041000144
            ],
            [
              -68.64168499999988,
              9.589732
            ],
            [
              -68.6416852029999,
              9.589738603000171
            ],
            [
              -68.64172099999985,
              9.590905000000134
            ],
            [
              -68.641854,
              9.591619
            ],
            [
              -68.64191900199995,
              9.591641096999979
            ],
            [
              -68.642963,
              9.591996000000165
            ],
            [
              -68.64296463499988,
              9.59200000300001
            ],
            [
              -68.64334899999989,
              9.592941000000167
            ],
            [
              -68.643132,
              9.593951
            ],
            [
              -68.64276134699986,
              9.59467067700001
            ],
            [
              -68.642755,
              9.594683
            ],
            [
              -68.641741,
              9.594031000000143
            ],
            [
              -68.64060597799994,
              9.593199552999977
            ],
            [
              -68.640567,
              9.593171
            ],
            [
              -68.639732,
              9.59325600000011
            ],
            [
              -68.640323,
              9.594594
            ],
            [
              -68.640244,
              9.595650000000148
            ],
            [
              -68.640237,
              9.596524000000159
            ],
            [
              -68.640971,
              9.597357000000159
            ],
            [
              -68.6409895569999,
              9.597329456000182
            ],
            [
              -68.641417,
              9.596695000000125
            ],
            [
              -68.642346,
              9.596519000000114
            ],
            [
              -68.64235218699991,
              9.596556194000186
            ],
            [
              -68.642522,
              9.597577
            ],
            [
              -68.64271899999989,
              9.598981
            ],
            [
              -68.64375599999983,
              9.599633
            ],
            [
              -68.64467599999989,
              9.600446000000147
            ],
            [
              -68.64455,
              9.601594
            ],
            [
              -68.64405699999986,
              9.602394
            ],
            [
              -68.643108,
              9.602248
            ],
            [
              -68.64239099999986,
              9.60212700000011
            ],
            [
              -68.642799,
              9.60318800000016
            ],
            [
              -68.64226199999985,
              9.60362
            ],
            [
              -68.64093999999989,
              9.603747
            ],
            [
              -68.639847,
              9.604174
            ],
            [
              -68.640374,
              9.604914000000178
            ],
            [
              -68.64038899999986,
              9.605880000000127
            ],
            [
              -68.639843,
              9.607415000000117
            ],
            [
              -68.63921424599982,
              9.607815877000178
            ],
            [
              -68.639167,
              9.607846000000109
            ],
            [
              -68.63883599399998,
              9.606833455000071
            ],
            [
              -68.638828,
              9.606809000000112
            ],
            [
              -68.63776199999984,
              9.606777000000136
            ],
            [
              -68.635127,
              9.608709
            ],
            [
              -68.633259,
              9.610372
            ],
            [
              -68.633201,
              9.611704
            ],
            [
              -68.634117,
              9.612999000000116
            ],
            [
              -68.633181,
              9.614072
            ],
            [
              -68.63218553199994,
              9.61456625300002
            ],
            [
              -68.63217999999983,
              9.614569000000188
            ],
            [
              -68.630933,
              9.61398300000019
            ],
            [
              -68.62979803699994,
              9.61353978800014
            ],
            [
              -68.62973199999988,
              9.613514000000123
            ],
            [
              -68.629332,
              9.614131
            ],
            [
              -68.629581,
              9.614914000000113
            ],
            [
              -68.629991,
              9.61565300000018
            ],
            [
              -68.63019,
              9.616873
            ],
            [
              -68.62991996599999,
              9.617375854999977
            ],
            [
              -68.629907,
              9.617400000000146
            ],
            [
              -68.52510699499999,
              9.519910554000091
            ],
            [
              -68.525072,
              9.519878
            ],
            [
              -68.379309,
              9.551900000000103
            ],
            [
              -68.37884974299993,
              9.552594226000167
            ],
            [
              -68.37879299999986,
              9.55268000000018
            ],
            [
              -68.37885665499988,
              9.552675990000182
            ],
            [
              -68.37888024399996,
              9.552674504000095
            ],
            [
              -68.38107899999989,
              9.552536000000146
            ],
            [
              -68.383349,
              9.552637000000175
            ],
            [
              -68.385411,
              9.552234
            ],
            [
              -68.38796,
              9.551993
            ],
            [
              -68.38884,
              9.551996
            ],
            [
              -68.392154,
              9.551461
            ],
            [
              -68.393405,
              9.551512000000173
            ],
            [
              -68.39535,
              9.551475
            ],
            [
              -68.397553,
              9.550705
            ],
            [
              -68.399779,
              9.550210000000106
            ],
            [
              -68.402045,
              9.551091000000156
            ],
            [
              -68.40204666299991,
              9.551092036000057
            ],
            [
              -68.40456499999982,
              9.552661
            ],
            [
              -68.40461654199999,
              9.552678555000114
            ],
            [
              -68.407363,
              9.553614
            ],
            [
              -68.409678,
              9.553922
            ],
            [
              -68.4097014319999,
              9.553942551000091
            ],
            [
              -68.411386,
              9.55542
            ],
            [
              -68.41144588899982,
              9.555441142000177
            ],
            [
              -68.41302899999988,
              9.556
            ],
            [
              -68.414883,
              9.555573
            ],
            [
              -68.416715,
              9.554984
            ],
            [
              -68.418849,
              9.554191000000117
            ],
            [
              -68.420866,
              9.553626000000122
            ],
            [
              -68.42264999999986,
              9.55338200000017
            ],
            [
              -68.42441,
              9.55355
            ],
            [
              -68.426378,
              9.553742000000113
            ],
            [
              -68.42823,
              9.554094
            ],
            [
              -68.42825743499992,
              9.554112843000155
            ],
            [
              -68.430379,
              9.55557
            ],
            [
              -68.432414,
              9.556428000000153
            ],
            [
              -68.433961,
              9.557466
            ],
            [
              -68.434765,
              9.55925800000017
            ],
            [
              -68.43589199999985,
              9.56132700000012
            ],
            [
              -68.4363489999999,
              9.563141
            ],
            [
              -68.43722399999984,
              9.564497
            ],
            [
              -68.4372892319999,
              9.564522394000164
            ],
            [
              -68.438773,
              9.5651
            ],
            [
              -68.44065099999989,
              9.56465
            ],
            [
              -68.44493499999987,
              9.565035000000137
            ],
            [
              -68.4478529999999,
              9.56507
            ],
            [
              -68.44790509699993,
              9.565096048000044
            ],
            [
              -68.449471,
              9.565879000000166
            ],
            [
              -68.44948556499997,
              9.565879352000024
            ],
            [
              -68.45062999999988,
              9.565907000000152
            ],
            [
              -68.452997,
              9.564771000000121
            ],
            [
              -68.45303466199982,
              9.564810520000037
            ],
            [
              -68.454335,
              9.566175000000158
            ],
            [
              -68.45437509799996,
              9.566174521
            ],
            [
              -68.457184,
              9.566141000000187
            ],
            [
              -68.459614,
              9.56672500000019
            ],
            [
              -68.46177,
              9.566023
            ],
            [
              -68.463789,
              9.565137
            ],
            [
              -68.465456,
              9.565327000000138
            ],
            [
              -68.46548278699993,
              9.565348651000079
            ],
            [
              -68.4664259999999,
              9.566111
            ],
            [
              -68.46741999999989,
              9.566643000000113
            ],
            [
              -68.46743336499986,
              9.56664092800014
            ],
            [
              -68.47059399999989,
              9.566151000000104
            ],
            [
              -68.47061740399988,
              9.56618375100004
            ],
            [
              -68.472254,
              9.568474
            ],
            [
              -68.47396199999986,
              9.570201000000168
            ],
            [
              -68.475487,
              9.571194000000105
            ],
            [
              -68.476638,
              9.5734
            ],
            [
              -68.477649,
              9.575422000000174
            ],
            [
              -68.479078,
              9.577424
            ],
            [
              -68.47912438399993,
              9.577422371000011
            ],
            [
              -68.480815,
              9.577363000000162
            ],
            [
              -68.482552,
              9.577462
            ],
            [
              -68.48256877399984,
              9.577484533000188
            ],
            [
              -68.483682,
              9.57898
            ],
            [
              -68.484345,
              9.581253000000174
            ],
            [
              -68.484527,
              9.582332
            ],
            [
              -68.48495999999989,
              9.584191
            ],
            [
              -68.486807,
              9.58580400000011
            ],
            [
              -68.488725,
              9.587233
            ],
            [
              -68.490574,
              9.588365000000124
            ],
            [
              -68.491751,
              9.589310000000125
            ],
            [
              -68.49214,
              9.590641000000119
            ],
            [
              -68.49329299999988,
              9.59259500000013
            ],
            [
              -68.49349299999989,
              9.594798
            ],
            [
              -68.494391,
              9.596407
            ],
            [
              -68.495401,
              9.598819000000162
            ],
            [
              -68.49662299999989,
              9.600475
            ],
            [
              -68.49761299999989,
              9.602314000000149
            ],
            [
              -68.49807,
              9.604081000000178
            ],
            [
              -68.497436,
              9.606211
            ],
            [
              -68.496806,
              9.607699
            ],
            [
              -68.496473,
              9.610083
            ],
            [
              -68.496556,
              9.612675000000138
            ],
            [
              -68.496852,
              9.614235
            ],
            [
              -68.497145,
              9.61643800000013
            ],
            [
              -68.4970459999999,
              9.618272000000161
            ],
            [
              -68.497713,
              9.619444000000158
            ],
            [
              -68.49776384999996,
              9.61944422200014
            ],
            [
              -68.49977499999983,
              9.619453
            ],
            [
              -68.50148799999988,
              9.619804000000101
            ],
            [
              -68.50152640599998,
              9.619824647000087
            ],
            [
              -68.504094,
              9.621205
            ],
            [
              -68.511266,
              9.627774000000159
            ],
            [
              -68.514402,
              9.637392000000148
            ],
            [
              -68.51396,
              9.639593000000161
            ],
            [
              -68.513293,
              9.639923000000124
            ],
            [
              -68.512292,
              9.639922
            ],
            [
              -68.511514,
              9.641022
            ],
            [
              -68.510513,
              9.641132000000141
            ],
            [
              -68.509401,
              9.642452000000105
            ],
            [
              -68.5090699999999,
              9.644323
            ],
            [
              -68.507958,
              9.645203
            ],
            [
              -68.50706999999989,
              9.646523000000116
            ],
            [
              -68.506628,
              9.649716000000183
            ],
            [
              -68.505843,
              9.651124000000152
            ],
            [
              -68.505969,
              9.652642000000185
            ],
            [
              -68.506015,
              9.655217
            ],
            [
              -68.50481799999989,
              9.656999
            ],
            [
              -68.503672,
              9.658115
            ],
            [
              -68.50328899999988,
              9.659422000000177
            ],
            [
              -68.503994,
              9.661932
            ],
            [
              -68.504521,
              9.663981
            ],
            [
              -68.504194,
              9.665016
            ],
            [
              -68.504124,
              9.665269
            ],
            [
              -68.50432799999987,
              9.667248
            ],
            [
              -68.504881,
              9.668491
            ],
            [
              -68.5058729999999,
              9.669666
            ],
            [
              -68.50592980699997,
              9.66968021700012
            ],
            [
              -68.5068,
              9.669898000000103
            ],
            [
              -68.50682994199991,
              9.669914599000151
            ],
            [
              -68.508465,
              9.670821000000103
            ],
            [
              -68.50978099999986,
              9.672249000000136
            ],
            [
              -68.510726,
              9.674321000000134
            ],
            [
              -68.512042,
              9.675934
            ],
            [
              -68.51210304099988,
              9.67595398300017
            ],
            [
              -68.513383,
              9.676373
            ],
            [
              -68.51393899999988,
              9.676305000000127
            ],
            [
              -68.514449,
              9.676076
            ],
            [
              -68.51449559699995,
              9.676110178000044
            ],
            [
              -68.514888,
              9.676398
            ],
            [
              -68.515163,
              9.677687000000105
            ],
            [
              -68.51497599999982,
              9.678400000000124
            ],
            [
              -68.51485899999989,
              9.679159
            ],
            [
              -68.51492496299994,
              9.679183314000113
            ],
            [
              -68.51573799999989,
              9.679483
            ],
            [
              -68.51574886299989,
              9.679488415000037
            ],
            [
              -68.516755,
              9.67999
            ],
            [
              -68.51791,
              9.681097
            ],
            [
              -68.51848499999988,
              9.682777000000101
            ],
            [
              -68.51873399999988,
              9.68517
            ],
            [
              -68.51868599999983,
              9.686205
            ],
            [
              -68.518081,
              9.687147000000152
            ],
            [
              -68.517825,
              9.687929
            ],
            [
              -68.51761199999987,
              9.689700000000187
            ],
            [
              -68.51784,
              9.691058000000112
            ],
            [
              -68.517329,
              9.69165500000014
            ],
            [
              -68.517027,
              9.692069000000117
            ],
            [
              -68.51640099999986,
              9.69262
            ],
            [
              -68.515934,
              9.694207
            ],
            [
              -68.516346,
              9.696255
            ],
            [
              -68.515927,
              9.696968
            ],
            [
              -68.51460699999984,
              9.697127
            ],
            [
              -68.5138639999999,
              9.698161
            ],
            [
              -68.513421,
              9.699034000000154
            ],
            [
              -68.513074,
              9.699149
            ],
            [
              -68.512079,
              9.698802000000114
            ],
            [
              -68.51136099999985,
              9.698709
            ],
            [
              -68.510502,
              9.699697
            ],
            [
              -68.50932199999988,
              9.699465
            ],
            [
              -68.509043,
              9.699786000000188
            ],
            [
              -68.509388,
              9.700891000000126
            ],
            [
              -68.509894,
              9.70218
            ],
            [
              -68.509103,
              9.703882
            ],
            [
              -68.508796,
              9.706160000000182
            ],
            [
              -68.509002,
              9.707379000000117
            ],
            [
              -68.508722,
              9.70818400000013
            ],
            [
              -68.508556,
              9.709863000000155
            ],
            [
              -68.508808,
              9.710876
            ],
            [
              -68.509082,
              9.712349000000131
            ],
            [
              -68.50836299999986,
              9.713084
            ],
            [
              -68.507618,
              9.714509000000135
            ],
            [
              -68.507477,
              9.715567
            ],
            [
              -68.507242,
              9.716602000000137
            ],
            [
              -68.506893,
              9.717338
            ],
            [
              -68.506544,
              9.718257000000108
            ],
            [
              -68.506055,
              9.719361000000163
            ],
            [
              -68.50559,
              9.720096
            ],
            [
              -68.504431,
              9.720623000000103
            ],
            [
              -68.504172,
              9.722164
            ],
            [
              -68.505513,
              9.722880000000146
            ],
            [
              -68.505602,
              9.724766
            ],
            [
              -68.505045,
              9.724973000000148
            ],
            [
              -68.503746,
              9.725983
            ],
            [
              -68.503627,
              9.727455000000134
            ],
            [
              -68.50232599999987,
              9.728856
            ],
            [
              -68.502086,
              9.730371
            ],
            [
              -68.5021749959999,
              9.730580991000068
            ],
            [
              -68.50094,
              9.73412500000012
            ],
            [
              -68.499673,
              9.735241
            ],
            [
              -68.499891,
              9.736359
            ],
            [
              -68.49995526999999,
              9.736379129
            ],
            [
              -68.500967,
              9.736696
            ],
            [
              -68.50096369799996,
              9.736700626000072
            ],
            [
              -68.500231,
              9.737727
            ],
            [
              -68.49997,
              9.738309
            ],
            [
              -68.50011899999987,
              9.741082
            ],
            [
              -68.500081,
              9.742185000000177
            ],
            [
              -68.500284,
              9.742822000000103
            ],
            [
              -68.501198,
              9.743967000000168
            ],
            [
              -68.500255,
              9.74505100000016
            ],
            [
              -68.49894299999983,
              9.746971
            ],
            [
              -68.49761199999983,
              9.74988000000019
            ],
            [
              -68.497221,
              9.751613
            ],
            [
              -68.496553,
              9.753377000000171
            ],
            [
              -68.49605,
              9.754447
            ],
            [
              -68.494653,
              9.755061
            ],
            [
              -68.494849,
              9.756273
            ],
            [
              -68.4963709999999,
              9.75756
            ],
            [
              -68.497109,
              9.759054
            ],
            [
              -68.496763,
              9.76071700000017
            ],
            [
              -68.49390999999986,
              9.761511
            ],
            [
              -68.492358,
              9.762382
            ],
            [
              -68.49078999999989,
              9.762657000000104
            ],
            [
              -68.489189,
              9.762611
            ],
            [
              -68.487016,
              9.76203100000015
            ],
            [
              -68.484778,
              9.761613
            ],
            [
              -68.48283299999986,
              9.761692
            ],
            [
              -68.48120099999983,
              9.761349
            ],
            [
              -68.48066762899992,
              9.761259342000074
            ],
            [
              -68.48061799999988,
              9.76125100000013
            ],
            [
              -68.479904,
              9.762235
            ],
            [
              -68.479146,
              9.76329
            ],
            [
              -68.479118,
              9.763911000000121
            ],
            [
              -68.478307,
              9.764738000000136
            ],
            [
              -68.476813,
              9.766824
            ],
            [
              -68.4766709999999,
              9.768343000000186
            ],
            [
              -68.47679099999988,
              9.769304
            ],
            [
              -68.476323,
              9.76996
            ],
            [
              -68.474931,
              9.770735
            ],
            [
              -68.474901,
              9.77211300000016
            ],
            [
              -68.474302,
              9.773072000000127
            ],
            [
              -68.473684,
              9.774169
            ],
            [
              -68.473557,
              9.77541200000013
            ],
            [
              -68.474046,
              9.77629300000018
            ],
            [
              -68.474931,
              9.777255
            ],
            [
              -68.476433,
              9.778704000000175
            ],
            [
              -68.47698,
              9.779997
            ],
            [
              -68.476492,
              9.781573
            ],
            [
              -68.4757929999999,
              9.783085
            ],
            [
              -68.475485,
              9.783645
            ],
            [
              -68.474148,
              9.783936
            ],
            [
              -68.472478,
              9.783892
            ],
            [
              -68.471816,
              9.784256
            ],
            [
              -68.469845,
              9.784266000000116
            ],
            [
              -68.46863599999989,
              9.78494400000011
            ],
            [
              -68.467198,
              9.785789
            ],
            [
              -68.465041,
              9.787389
            ],
            [
              -68.464782,
              9.788843
            ],
            [
              -68.463829,
              9.789605000000108
            ],
            [
              -68.46346099999988,
              9.790511
            ],
            [
              -68.463961,
              9.792585
            ],
            [
              -68.463363,
              9.794370000000185
            ],
            [
              -68.463179,
              9.796051
            ],
            [
              -68.462686,
              9.797489000000155
            ],
            [
              -68.461628,
              9.798598
            ],
            [
              -68.461665,
              9.799883
            ],
            [
              -68.462204,
              9.80090100000018
            ],
            [
              -68.465662,
              9.804245
            ],
            [
              -68.46745999999985,
              9.805502
            ],
            [
              -68.468817,
              9.806726
            ],
            [
              -68.470247,
              9.808085
            ],
            [
              -68.472088,
              9.810053000000153
            ],
            [
              -68.473553,
              9.811824000000172
            ],
            [
              -68.474533,
              9.814482000000169
            ],
            [
              -68.475688,
              9.815138000000104
            ],
            [
              -68.478671,
              9.816476000000137
            ],
            [
              -68.47982999999988,
              9.818072
            ],
            [
              -68.480469,
              9.820143000000144
            ],
            [
              -68.481569,
              9.823763000000156
            ],
            [
              -68.481986,
              9.825358000000165
            ],
            [
              -68.482787,
              9.827424
            ],
            [
              -68.48485,
              9.829844
            ],
            [
              -68.487037,
              9.830883
            ],
            [
              -68.48704428999997,
              9.83088094700014
            ],
            [
              -68.49202899999983,
              9.829477
            ],
            [
              -68.49414999999982,
              9.82907200000011
            ],
            [
              -68.495032,
              9.829092000000173
            ],
            [
              -68.49786299999988,
              9.829975
            ],
            [
              -68.49789002599994,
              9.829988380000088
            ],
            [
              -68.499792,
              9.83093
            ],
            [
              -68.501689,
              9.833217
            ],
            [
              -68.502184,
              9.835912000000121
            ],
            [
              -68.502461,
              9.837511
            ],
            [
              -68.50320099999988,
              9.84068
            ],
            [
              -68.503397,
              9.842649000000108
            ],
            [
              -68.50337,
              9.845749000000126
            ],
            [
              -68.503326,
              9.848276000000112
            ],
            [
              -68.502981,
              9.850008
            ],
            [
              -68.501927,
              9.851232
            ],
            [
              -68.499916,
              9.853103
            ],
            [
              -68.498612,
              9.854518
            ],
            [
              -68.496293,
              9.857776000000115
            ],
            [
              -68.495884,
              9.859671
            ],
            [
              -68.496354,
              9.86234300000018
            ],
            [
              -68.4968453859999,
              9.863491931999988
            ],
            [
              -68.49732399999988,
              9.864611
            ],
            [
              -68.498558,
              9.867217
            ],
            [
              -68.499137,
              9.86883
            ],
            [
              -68.4994099999999,
              9.87107200000014
            ],
            [
              -68.49882299999985,
              9.874074000000178
            ],
            [
              -68.49723399999982,
              9.876897
            ],
            [
              -68.49561399999988,
              9.88025000000016
            ],
            [
              -68.494471,
              9.882464
            ],
            [
              -68.49338,
              9.884033000000159
            ],
            [
              -68.492859,
              9.885288
            ],
            [
              -68.49276247099993,
              9.886623804000124
            ],
            [
              -68.492593,
              9.888969
            ],
            [
              -68.49211599999984,
              9.892564000000107
            ],
            [
              -68.492172,
              9.895317000000148
            ],
            [
              -68.49208,
              9.897799000000134
            ],
            [
              -68.491972,
              9.899685
            ],
            [
              -68.491945,
              9.901982
            ],
            [
              -68.49200151799994,
              9.90201958700004
            ],
            [
              -68.49201106299995,
              9.902008333000026
            ],
            [
              -68.49310210399989,
              9.90124131400006
            ],
            [
              -68.49468916699993,
              9.900783288000184
            ],
            [
              -68.49565519799984,
              9.899676257000124
            ],
            [
              -68.49615321099992,
              9.898422228000015
            ],
            [
              -68.50121641899989,
              9.896046130000059
            ],
            [
              -68.50124042499993,
              9.896046130000059
            ],
            [
              -68.5019584449999,
              9.895932130000062
            ],
            [
              -68.50297848899993,
              9.895681120000063
            ],
            [
              -68.50407153599997,
              9.894233070000155
            ],
            [
              -68.50469855599988,
              9.89349805300003
            ],
            [
              -68.50592860699999,
              9.892948028000035
            ],
            [
              -68.50815469599996,
              9.89223800100001
            ],
            [
              -68.5097547549999,
              9.891711978000103
            ],
            [
              -68.51116981399991,
              9.890747948000126
            ],
            [
              -68.51272487499989,
              9.889921919000074
            ],
            [
              -68.5142569329999,
              9.888636878000057
            ],
            [
              -68.51597100599997,
              9.888730867999982
            ],
            [
              -68.51847511299997,
              9.888113833000034
            ],
            [
              -68.52114121699992,
              9.887358808000158
            ],
            [
              -68.52208926299994,
              9.88841882200012
            ],
            [
              -68.52171325899991,
              9.89051187900003
            ],
            [
              -68.52221729899998,
              9.89276693700009
            ],
            [
              -68.52369736599996,
              9.894310958
            ],
            [
              -68.5248754299999,
              9.895577984000056
            ],
            [
              -68.52591547899988,
              9.896799011000098
            ],
            [
              -68.52693652599999,
              9.896248987000092
            ],
            [
              -68.52793455799997,
              9.895237965999968
            ],
            [
              -68.52902559799992,
              9.894480939000175
            ],
            [
              -68.53088067499993,
              9.893954916000041
            ],
            [
              -68.53106767999998,
              9.893333897000105
            ],
            [
              -68.52935460999998,
              9.89284789900006
            ],
            [
              -68.52970361099989,
              9.892019866000169
            ],
            [
              -68.5294976049999,
              9.890961846000039
            ],
            [
              -68.53086565899991,
              9.890411820000168
            ],
            [
              -68.53137467899995,
              9.890849838000179
            ],
            [
              -68.53204570899999,
              9.891310843000042
            ],
            [
              -68.53311175299996,
              9.8910358280001
            ],
            [
              -68.53399379099994,
              9.89041680400004
            ],
            [
              -68.53471281499992,
              9.890095790000146
            ],
            [
              -68.53524684099989,
              9.889681783000071
            ],
            [
              -68.53624388299994,
              9.889223760000107
            ],
            [
              -68.53738092599997,
              9.888788748000024
            ],
            [
              -68.53876354499988,
              9.887951527000098
            ],
            [
              -68.53893498199994,
              9.887847717000056
            ],
            [
              -68.54023104999999,
              9.88853972700008
            ],
            [
              -68.54055606299988,
              9.888585725000155
            ],
            [
              -68.54108808199993,
              9.888885730000027
            ],
            [
              -68.54141109999995,
              9.889507739000067
            ],
            [
              -68.54085308199996,
              9.890265767000074
            ],
            [
              -68.53966903299994,
              9.890954787000055
            ],
            [
              -68.5392510179999,
              9.891758815000173
            ],
            [
              -68.53954903799996,
              9.89272582700005
            ],
            [
              -68.53857499899993,
              9.893437858000084
            ],
            [
              -68.53908003099997,
              9.895416901000146
            ],
            [
              -68.53944705499987,
              9.896797940999988
            ],
            [
              -68.53946507799992,
              9.898890983000172
            ],
            [
              -68.53950708099995,
              9.90084704100019
            ],
            [
              -68.5395270969999,
              9.902043064000111
            ],
            [
              -68.5384340519999,
              9.903744115999984
            ],
            [
              -68.53680799499989,
              9.905467166000108
            ],
            [
              -68.53613297999993,
              9.907030214000088
            ],
            [
              -68.53671001099997,
              9.907905224000046
            ],
            [
              -68.53698402999999,
              9.90963126600002
            ],
            [
              -68.53749006499993,
              9.911220312000069
            ],
            [
              -68.53716205799998,
              9.912760346000141
            ],
            [
              -68.53507397399989,
              9.913792387000171
            ],
            [
              -68.53338189999994,
              9.91418140200011
            ],
            [
              -68.53203185399997,
              9.916410467000048
            ],
            [
              -68.53028979099997,
              9.918478533000098
            ],
            [
              -68.52933476099992,
              9.920248585000024
            ],
            [
              -68.52898175999985,
              9.922732645
            ],
            [
              -68.52811774499986,
              9.925307715000088
            ],
            [
              -68.52774373599993,
              9.926733754000054
            ],
            [
              -68.52699871199991,
              9.92802078800014
            ],
            [
              -68.52713571599998,
              9.928941813000051
            ],
            [
              -68.52699471299991,
              9.929700832000037
            ],
            [
              -68.5271317289999,
              9.930620852000175
            ],
            [
              -68.52794176899994,
              9.931358864000117
            ],
            [
              -68.52861180599996,
              9.932003883000107
            ],
            [
              -68.52888582599991,
              9.933844927
            ],
            [
              -68.52879082499993,
              9.93481094800012
            ],
            [
              -68.52957885299998,
              9.934742935999964
            ],
            [
              -68.53018187999993,
              9.934214921000091
            ],
            [
              -68.53099292299999,
              9.934560925000085
            ],
            [
              -68.53168495899996,
              9.935850955000092
            ],
            [
              -68.53260899899993,
              9.936818980000169
            ],
            [
              -68.53369804699997,
              9.937072981000142
            ],
            [
              -68.53525509899993,
              9.934935916000143
            ],
            [
              -68.53727218699993,
              9.93480089500008
            ],
            [
              -68.54102834199995,
              9.93388684900009
            ],
            [
              -68.54223739499997,
              9.933986848000131
            ],
            [
              -68.54344244399994,
              9.93304081700012
            ],
            [
              -68.54452748799991,
              9.93197478400009
            ],
            [
              -68.54524951499991,
              9.931502773000034
            ],
            [
              -68.54597353999986,
              9.93079174899998
            ],
            [
              -68.54681557399988,
              9.930675738000048
            ],
            [
              -68.54717658099992,
              9.930320729000073
            ],
            [
              -68.55111376299982,
              9.931716742000049
            ],
            [
              -68.55366287199996,
              9.932007736000173
            ],
            [
              -68.55462491299988,
              9.932129732000135
            ],
            [
              -68.55654999599994,
              9.931542701000126
            ],
            [
              -68.56027915299984,
              9.930605667000066
            ],
            [
              -68.5631602819999,
              9.932041679
            ],
            [
              -68.56760347799985,
              9.93360169400006
            ],
            [
              -68.5732507319999,
              9.93469169399998
            ],
            [
              -68.57805893699992,
              9.93470865900008
            ],
            [
              -68.58455020799994,
              9.934730629000114
            ],
            [
              -68.58791735499995,
              9.934504604000153
            ],
            [
              -68.59549467199992,
              9.93310552100013
            ],
            [
              -68.60198994299998,
              9.931701454
            ],
            [
              -68.60367201799988,
              9.932183456000132
            ],
            [
              -68.6047530599999,
              9.932424449000052
            ],
            [
              -68.60666616599991,
              9.93623353300012
            ],
            [
              -68.60881827999998,
              9.940518630000042
            ],
            [
              -68.61097039299989,
              9.944565720000014
            ],
            [
              -68.6102373899999,
              9.948840830999984
            ],
            [
              -68.60938537099992,
              9.952402923000022
            ],
            [
              -68.61093646599994,
              9.956685021000112
            ],
            [
              -68.61128651199994,
              9.960608121000178
            ],
            [
              -68.61175655199992,
              9.964530216000071
            ],
            [
              -68.61259159999992,
              9.96679126700019
            ],
            [
              -68.61379165799991,
              9.967626280000104
            ],
            [
              -68.61487270099991,
              9.968105281000021
            ],
            [
              -68.61619376699997,
              9.968585286
            ],
            [
              -68.61811585199996,
              9.968948288000036
            ],
            [
              -68.62100396699998,
              9.968007249999971
            ],
            [
              -68.6230490559999,
              9.967539227999964
            ],
            [
              -68.62569516699989,
              9.967429202000119
            ],
            [
              -68.62870228399993,
              9.966845168000134
            ],
            [
              -68.63110838099988,
              9.966259140000147
            ],
            [
              -68.63351448899994,
              9.965435116000151
            ],
            [
              -68.63447852499996,
              9.964845087000072
            ],
            [
              -68.63544455299996,
              9.96330305000015
            ],
            [
              -68.63616658099988,
              9.962830034000092
            ],
            [
              -68.63688860999997,
              9.962595025999974
            ],
            [
              -68.6382096769999,
              9.96331203300008
            ]
          ]
        ]
      }
    }
  ]
}