{"type": "FeatureCollection", "features": [{"type": "Feature", "properties": {"Pais": "Venezuela", "Estado": "Falc\u00f3n", "Municipio": "Federaci\u00f3n", "Parroquia": "Churuguara"}, "geometry": {"type": "Polygon", "coordinates": [[[-69.429225, 10.935660000000155], [-69.42896899999988, 10.936511], [-69.429853, 10.937017], [-69.430901, 10.936696], [-69.431879, 10.937087], [-69.4336009999999, 10.936674], [-69.433974, 10.935939000000133], [-69.434207, 10.934766], [-69.435023, 10.93398500000012], [-69.435256, 10.933226], [-69.434208, 10.932398], [-69.435442, 10.931870000000117], [-69.436094, 10.93302], [-69.437584, 10.933458], [-69.439981, 10.932815000000119], [-69.44188999999989, 10.932103], [-69.442891, 10.932839000000172], [-69.4431699999999, 10.93398900000011], [-69.445172, 10.934105000000102], [-69.44696499999986, 10.932611000000122], [-69.446732, 10.931002], [-69.44757, 10.930129000000136], [-69.448781, 10.929899], [-69.448781, 10.928887], [-69.44927, 10.927829], [-69.449154, 10.926818], [-69.450015, 10.927025000000128], [-69.451109, 10.927324], [-69.451715, 10.925968], [-69.451715, 10.924888], [-69.45087699999988, 10.922749], [-69.451227, 10.921209000000147], [-69.451576, 10.919991], [-69.45062199999984, 10.919094000000143], [-69.449807, 10.91799], [-69.448737, 10.917277], [-69.44755, 10.916311], [-69.447387, 10.914311000000168], [-69.449273, 10.913691], [-69.45146099999988, 10.913485], [-69.45150799999988, 10.912565], [-69.452299, 10.912244], [-69.453486, 10.912796], [-69.45451, 10.912612], [-69.45478999999989, 10.912038], [-69.4547199999999, 10.910359], [-69.454301, 10.909210000000144], [-69.453114, 10.908818], [-69.453278, 10.907761000000164], [-69.454139, 10.906566], [-69.455117, 10.906819], [-69.455722, 10.906061], [-69.45635, 10.905716], [-69.45784, 10.905993], [-69.46019, 10.908155], [-69.463171, 10.907788], [-69.466127, 10.907904], [-69.46719699999983, 10.90864], [-69.468943, 10.909308], [-69.47136399999988, 10.908803], [-69.472178, 10.910068], [-69.473738, 10.909057], [-69.475646, 10.909241], [-69.476438, 10.908989000000133], [-69.479091, 10.908967000000132], [-69.481302, 10.909174000000178], [-69.482582, 10.909819], [-69.483839, 10.910233], [-69.48444399999988, 10.911244], [-69.484165, 10.912486000000115], [-69.48491, 10.912762], [-69.486424, 10.912119000000132], [-69.487471, 10.910901], [-69.488146, 10.909981000000187], [-69.4890309999999, 10.90966], [-69.490543, 10.910235], [-69.491707, 10.91058], [-69.492824, 10.911431], [-69.493918, 10.91219000000018], [-69.494989, 10.911961], [-69.496246, 10.912559000000158], [-69.49685099999988, 10.911915000000135], [-69.49710699999986, 10.910444], [-69.498201, 10.910927000000129], [-69.499016, 10.912399], [-69.49983, 10.913617000000102], [-69.501925, 10.913503000000105], [-69.50947899999989, 10.918029000000104], [-69.509963, 10.918584], [-69.510833, 10.917811], [-69.511031, 10.916687], [-69.51180899999986, 10.915774], [-69.5124459999999, 10.915045000000134], [-69.513363, 10.914225000000158], [-69.51462, 10.914397000000179], [-69.515315, 10.914886000000138], [-69.51639099999989, 10.91455000000019], [-69.51789899999989, 10.912932], [-69.51909399999988, 10.912345000000187], [-69.520404, 10.911874000000125], [-69.52166, 10.912275], [-69.52429599999982, 10.912115], [-69.525767, 10.911943000000122], [-69.525902, 10.912427], [-69.52566, 10.913344], [-69.525863, 10.914127], [-69.5267669999999, 10.914664], [-69.527251, 10.915196], [-69.526944, 10.915676000000133], [-69.52801199999988, 10.916122], [-69.52938799999987, 10.91613400000017], [-69.530811, 10.916077], [-69.53143299999988, 10.916864], [-69.532089, 10.916594], [-69.53312, 10.91609700000015], [-69.533963, 10.915783], [-69.53492299999988, 10.915309], [-69.535764, 10.91517800000014], [-69.53692799999988, 10.915372], [-69.537697, 10.915402], [-69.538449, 10.914765], [-69.538895, 10.914539], [-69.53950399999985, 10.914222], [-69.54027, 10.914619], [-69.540895, 10.915061], [-69.541476, 10.915273000000184], [-69.542062, 10.91498], [-69.542114, 10.914360000000102], [-69.541544, 10.912999000000127], [-69.54155, 10.912448], [-69.541556, 10.91178], [-69.541165, 10.911248], [-69.541706, 10.910725], [-69.542733, 10.910619], [-69.54324, 10.911220000000185], [-69.543938, 10.911387000000161], [-69.544968, 10.910983000000101], [-69.545787, 10.910714], [-69.54668, 10.909986], [-69.546646, 10.908584], [-69.54733, 10.907763000000159], [-69.548357, 10.907726], [-69.550946, 10.908218000000147], [-69.55059099999988, 10.909158000000104], [-69.55050599999987, 10.909743], [-69.551033, 10.910736], [-69.55134700299982, 10.910421003000067], [-69.55166899999989, 10.910098], [-69.552675, 10.909716000000117], [-69.552614, 10.908728], [-69.553412, 10.908229000000176], [-69.553184, 10.907698], [-69.55295499999988, 10.907237000000123], [-69.552843, 10.90673], [-69.552262, 10.906542], [-69.55249799999984, 10.906245000000126], [-69.552364, 10.905669000000103], [-69.551528, 10.905295], [-69.551557, 10.90467400000017], [-69.552235, 10.904473], [-69.552981, 10.90448], [-69.553756, 10.90393500000016], [-69.55487599999987, 10.90383], [-69.55566699999986, 10.903974000000176], [-69.55587199999985, 10.904528], [-69.55664, 10.904695000000117], [-69.556777, 10.904972000000157], [-69.558757, 10.905265], [-69.5591, 10.90598], [-69.5592529999999, 10.90706100000017], [-69.559588, 10.90865], [-69.559928, 10.909709], [-69.56095599999986, 10.909488], [-69.561466, 10.909814], [-69.561733, 10.908691], [-69.56281, 10.908241], [-69.563033, 10.909276], [-69.56448499999982, 10.908622], [-69.565465, 10.90858500000013], [-69.566352, 10.908432], [-69.567472, 10.908441], [-69.56894299999982, 10.908201000000133], [-69.569895, 10.908623], [-69.571041, 10.908242], [-69.571959, 10.907308000000171], [-69.573407, 10.90709], [-69.57465399999984, 10.905929000000128], [-69.575518, 10.905821], [-69.576682, 10.905992], [-69.57814899999983, 10.906166], [-69.578173, 10.906074], [-69.579485, 10.90551100000016], [-69.57998599999985, 10.904297], [-69.581624, 10.903713], [-69.582309, 10.902846000000125], [-69.582672, 10.901356], [-69.58335199999982, 10.900994], [-69.584313, 10.90045], [-69.585687, 10.9006], [-69.586838, 10.899714000000131], [-69.58815, 10.899104], [-69.58853099999988, 10.898188000000175], [-69.58886699999988, 10.897203], [-69.58999199999988, 10.896638000000166], [-69.59127199999989, 10.896902000000182], [-69.592369, 10.896727], [-69.593239, 10.896000000000129], [-69.59347899999989, 10.895243], [-69.593415, 10.894553000000144], [-69.594045, 10.894582], [-69.594862, 10.894474000000173], [-69.595492, 10.89441], [-69.595967, 10.893472], [-69.595838, 10.892322], [-69.59538, 10.891399000000149], [-69.594307, 10.889], [-69.59452, 10.888589000000138], [-69.595251, 10.887768], [-69.595885, 10.887221000000125], [-69.596195, 10.88655800000015], [-69.59719299999989, 10.887049000000104], [-69.597961, 10.887216], [-69.597899, 10.886364], [-69.5973, 10.885532000000183], [-69.597262, 10.884659], [-69.597458, 10.883626], [-69.597898, 10.883906], [-69.598715, 10.883844000000124], [-69.599677, 10.883163], [-69.600355, 10.882938000000138], [-69.60068499999988, 10.88262], [-69.601179, 10.882164], [-69.601788, 10.881848000000161], [-69.601655, 10.881088], [-69.600638, 10.880184000000156], [-69.60176399999983, 10.879435000000171], [-69.602842, 10.878778000000182], [-69.603874, 10.878212], [-69.604581, 10.877345000000105], [-69.603942, 10.875915], [-69.604594, 10.875966], [-69.60522, 10.876362000000142], [-69.60615399999989, 10.876209], [-69.60706299999987, 10.876217], [-69.6072779999999, 10.875690000000134], [-69.606795, 10.874997000000178], [-69.606194, 10.874371], [-69.606084, 10.873681000000147], [-69.60509699999983, 10.872018], [-69.60489499999989, 10.871166], [-69.6052289999999, 10.870388], [-69.60497699999985, 10.869857000000138], [-69.603762, 10.870123], [-69.602764, 10.869632], [-69.60230499999983, 10.868893000000128], [-69.60282199999989, 10.868437], [-69.603905, 10.867321], [-69.60431099999988, 10.866267000000107], [-69.603292, 10.865523000000167], [-69.602456, 10.86524], [-69.600706, 10.865387000000112], [-69.60057199999989, 10.864719], [-69.600857, 10.864170000000115], [-69.600373, 10.863546], [-69.59935099999984, 10.863146000000143], [-69.599476, 10.862251000000185], [-69.600179, 10.861889], [-69.5993979999999, 10.860642], [-69.598963, 10.859719], [-69.598305, 10.857853], [-69.59743999999989, 10.855616], [-69.59635399999985, 10.854550000000188], [-69.59561699999989, 10.853579000000138], [-69.596584, 10.852346], [-69.597746, 10.850242], [-69.59848099999988, 10.848962], [-69.599753, 10.847617000000128], [-69.600608, 10.845923], [-69.60176799999988, 10.843956], [-69.602763, 10.842333], [-69.60151999999988, 10.841163], [-69.580055, 10.81818], [-69.604673, 10.777435000000139], [-69.62575653499988, 10.754969788000153], [-69.63204241799997, 10.748271969000086], [-69.64140154299986, 10.738299509000058], [-69.64215513399995, 10.737593468], [-69.64158339199997, 10.737300476000087], [-69.62290426199996, 10.727728342000034], [-69.62020313499994, 10.727163346000168], [-69.61752302699989, 10.72710336199998], [-69.61488193299994, 10.729247424000107], [-69.61303386499998, 10.730868484000098], [-69.6114668059999, 10.732307527000103], [-69.60880869499988, 10.732522552000034], [-69.60429448799994, 10.731028536000053], [-69.59954428399993, 10.730084541], [-69.59609614199991, 10.72972156100019], [-69.59297600199994, 10.728992563000077], [-69.58948385499991, 10.728330569000036], [-69.58752177399992, 10.729284599999971], [-69.58446265599997, 10.73085366000015], [-69.58107851199992, 10.731983707000097], [-69.57760337899998, 10.732653751000157], [-69.57560228699998, 10.732022742000083], [-69.57150610199994, 10.73078274300002], [-69.56714791099995, 10.729599743000051], [-69.56409578899996, 10.730466782000121], [-69.55920461599999, 10.73540093300005], [-69.55717153699999, 10.736859988000106], [-69.55422842699994, 10.738337046000083], [-69.55039827699994, 10.740268119000064], [-69.54778217799992, 10.74174616900018], [-69.5450490639999, 10.74310921800003], [-69.54092689099997, 10.742512232000024], [-69.53552165099995, 10.74209126200003], [-69.53300654099996, 10.741595265000115], [-69.5284373579999, 10.742052307000108], [-69.52624925699996, 10.741442301000063], [-69.52366415199992, 10.741060312000172], [-69.52191906999997, 10.740339299000084], [-69.52033100499995, 10.741156331000013], [-69.51863593799993, 10.741342342000053], [-69.51855986599992, 10.741350760000046], [-69.515903, 10.750464], [-69.51407291099986, 10.753289209000059], [-69.49948199999989, 10.775814000000139], [-69.506835, 10.796603000000175], [-69.50106699999986, 10.808022000000165], [-69.50043899999986, 10.809011], [-69.500485, 10.810919], [-69.499531, 10.810942000000182], [-69.498484, 10.810183], [-69.497693, 10.811539], [-69.497926, 10.813079], [-69.49869299999989, 10.814367], [-69.499461, 10.81593], [-69.499694, 10.817034], [-69.499415, 10.818206], [-69.499462, 10.819356], [-69.499997, 10.820505], [-69.500044, 10.822161000000108], [-69.49888, 10.82446], [-69.49718, 10.826115], [-69.495831, 10.826506], [-69.494853, 10.82740200000012], [-69.49355, 10.828252000000134], [-69.49185099999983, 10.829286], [-69.49115299999988, 10.829171000000144], [-69.48894299999989, 10.829101], [-69.4875, 10.829354], [-69.48561499999988, 10.830135000000155], [-69.48394, 10.82972], [-69.482427, 10.828777], [-69.481171, 10.828846], [-69.47935599999983, 10.829374], [-69.47761, 10.831281000000104], [-69.476098, 10.833005], [-69.474655, 10.834361], [-69.473258, 10.83413], [-69.472513, 10.834291000000121], [-69.47074399999985, 10.835509000000172], [-69.468813, 10.836221], [-69.467509, 10.836841], [-69.466509, 10.836818000000108], [-69.463763, 10.837207000000149], [-69.46215699999988, 10.837919], [-69.460807, 10.838333], [-69.457945, 10.839688], [-69.45613, 10.839802], [-69.454734, 10.838974000000121], [-69.453873, 10.838284000000101], [-69.45303499999983, 10.838513], [-69.45159199999989, 10.839731], [-69.450405, 10.840052000000185], [-69.44973, 10.841018000000133], [-69.449195, 10.842282000000125], [-69.448007, 10.842419], [-69.44703, 10.841913000000147], [-69.445773, 10.841682], [-69.444354, 10.842027000000144], [-69.444609, 10.843084], [-69.444376, 10.843935000000101], [-69.443585, 10.844854000000112], [-69.442514, 10.84552], [-69.440769, 10.845910000000117], [-69.439024, 10.846622], [-69.437697, 10.84701200000012], [-69.436138, 10.847725], [-69.435276, 10.848759], [-69.434206, 10.849402], [-69.43371699999989, 10.849908000000141], [-69.432856, 10.850413000000174], [-69.43197099999986, 10.851103], [-69.431692, 10.852183], [-69.43232, 10.85354], [-69.431272, 10.853884000000107], [-69.430946, 10.854895000000113], [-69.431854, 10.855356], [-69.431993, 10.855724000000123], [-69.432016, 10.856436], [-69.432086, 10.857149000000106], [-69.432737, 10.858598], [-69.433435, 10.858897000000127], [-69.43425, 10.859104], [-69.433993, 10.860346000000106], [-69.434528, 10.861173000000122], [-69.435576, 10.861335], [-69.436483, 10.860853000000134], [-69.436576, 10.861634], [-69.436855, 10.862324000000172], [-69.43592499999988, 10.86202500000013], [-69.435366, 10.861703000000148], [-69.4344349999999, 10.862277000000176], [-69.43317799999988, 10.862644], [-69.43238699999989, 10.863173], [-69.432293, 10.864529000000175], [-69.433341, 10.864736], [-69.433573, 10.865472], [-69.43317699999989, 10.865886], [-69.432945, 10.866276000000141], [-69.433456, 10.86664500000012], [-69.432456, 10.867449], [-69.431827, 10.86790800000017], [-69.431385, 10.86910300000011], [-69.43175699999989, 10.869954000000178], [-69.43317599999989, 10.869863], [-69.433828, 10.870001000000116], [-69.4337579999999, 10.870553], [-69.43396699999988, 10.871128000000112], [-69.433641, 10.87207], [-69.432407, 10.873150000000123], [-69.431942, 10.87384], [-69.431662, 10.875541], [-69.431778, 10.876759000000106], [-69.432266, 10.878806], [-69.43254499999983, 10.880599], [-69.433592, 10.881979000000172], [-69.434849, 10.88239300000015], [-69.43412699999988, 10.883405], [-69.433708, 10.884370000000104], [-69.434429, 10.885727000000145], [-69.434242, 10.887222], [-69.434219, 10.888349000000176], [-69.434568, 10.88959], [-69.434381, 10.889889], [-69.433217, 10.890578], [-69.433217, 10.891797], [-69.43324, 10.893521], [-69.43203, 10.893497], [-69.431192, 10.893405], [-69.43033, 10.894577], [-69.42856099999989, 10.89611600000012], [-69.428119, 10.89653], [-69.427164, 10.897081], [-69.426815, 10.8976100000001], [-69.426954, 10.898506], [-69.427629, 10.899403000000177], [-69.426582, 10.900161], [-69.425418, 10.900023], [-69.424487, 10.899793000000102], [-69.423742, 10.900252], [-69.423579, 10.901125], [-69.42355499999985, 10.903241], [-69.424207, 10.903310000000147], [-69.424882, 10.903287], [-69.425114, 10.903678000000184], [-69.425277, 10.904667000000131], [-69.425672, 10.904989000000114], [-69.42588199999983, 10.90607], [-69.42597399999988, 10.907219], [-69.425532, 10.907449], [-69.42495, 10.907885000000135], [-69.425415, 10.908644], [-69.42502, 10.909104], [-69.424065, 10.909172], [-69.422785, 10.90933200000012], [-69.42234299999984, 10.909746], [-69.421412, 10.910021], [-69.420946, 10.910458], [-69.420899, 10.911447000000123], [-69.421714, 10.91147], [-69.42248199999989, 10.911103], [-69.422854, 10.910896], [-69.4237619999999, 10.911517], [-69.424786, 10.91177], [-69.425764, 10.911449000000118], [-69.42618299999987, 10.911587000000168], [-69.426532, 10.91209300000014], [-69.426834, 10.912622], [-69.427276, 10.913887], [-69.428579, 10.914278], [-69.429068, 10.914853], [-69.429603, 10.914992], [-69.429626, 10.91575], [-69.429277, 10.916785], [-69.428695, 10.918555], [-69.428904, 10.919313000000102], [-69.42876399999989, 10.920532], [-69.428205, 10.92306], [-69.427785, 10.923543000000166], [-69.427971, 10.925636000000168], [-69.42871599999984, 10.925935], [-69.42880899999989, 10.926487], [-69.42855299999985, 10.927315], [-69.42953, 10.929108], [-69.430786, 10.929799000000173], [-69.4306, 10.930810000000122], [-69.429576, 10.931614], [-69.428668, 10.932556], [-69.429225, 10.935660000000155]]]}}, {"type": "Feature", "properties": {"Pais": "Venezuela", "Estado": "Falc\u00f3n", "Municipio": "Federaci\u00f3n", "Parroquia": "Agua Larga"}, "geometry": {"type": "Polygon", "coordinates": [[[-69.81593199999986, 10.958585], [-69.818821, 10.95931000000013], [-69.82222699999988, 10.959119000000157], [-69.825192, 10.958031000000176], [-69.8269739999999, 10.958692000000156], [-69.835431, 10.957756000000188], [-69.837784, 10.95841], [-69.84228599999983, 10.958109], [-69.84625199999988, 10.957415], [-69.84907899999985, 10.955889], [-69.851256, 10.953418], [-69.85252, 10.951747000000182], [-69.855027, 10.948175], [-69.858217, 10.94219500000014], [-69.860212, 10.938047000000154], [-69.86148999999989, 10.932174], [-69.86239, 10.928044], [-69.865975, 10.922479], [-69.870467, 10.917676], [-69.875727, 10.913404], [-69.882804, 10.909302000000139], [-69.88724, 10.907507000000123], [-69.891788, 10.90709100000015], [-69.895637, 10.906648], [-69.899159, 10.906066], [-69.90373199999988, 10.905053000000123], [-69.910538, 10.901935], [-69.86648, 10.853681], [-69.83791899999989, 10.7814130000001], [-69.836653, 10.780548000000124], [-69.835454, 10.77904500000011], [-69.834742, 10.777799], [-69.83371699999987, 10.777699000000155], [-69.832638, 10.7758070000001], [-69.83267499999988, 10.774244], [-69.832387, 10.772473000000105], [-69.8331, 10.770824], [-69.83296999999988, 10.769766000000118], [-69.832212, 10.768405000000143], [-69.832203, 10.766796], [-69.8316779999999, 10.765529000000186], [-69.832645, 10.764180000000124], [-69.83183899999989, 10.763025000000141], [-69.830778, 10.761777000000109], [-69.829529, 10.760595], [-69.829731, 10.758827], [-69.82978563599994, 10.758580357000028], [-69.830046, 10.757405000000176], [-69.830071, 10.754556], [-69.82955488999994, 10.754215637000186], [-69.82919, 10.753975], [-69.828944, 10.752756], [-69.82846699999988, 10.75128100000012], [-69.827497, 10.75030900000013], [-69.8255549999999, 10.748502], [-69.81918172799988, 10.743069723000076], [-69.81860543199997, 10.742576137000071], [-69.818606, 10.742579], [-69.81803927799996, 10.743312729000081], [-69.80832431299996, 10.755890577], [-69.80467350999993, 10.760617227000125], [-69.779412, 10.793323], [-69.737155, 10.808731], [-69.676131, 10.828837], [-69.672795, 10.829590000000167], [-69.672084, 10.830939], [-69.669679, 10.831379], [-69.668553, 10.832105], [-69.667463, 10.831545], [-69.66673899999984, 10.831700000000126], [-69.665925, 10.831463], [-69.663967, 10.83144700000014], [-69.66206, 10.830834], [-69.660222, 10.830474], [-69.658754, 10.830393000000186], [-69.655492, 10.830136], [-69.653438, 10.830487000000119], [-69.65252, 10.831398], [-69.65175299999987, 10.831208000000117], [-69.650776, 10.830993], [-69.64932, 10.832130000000177], [-69.647868, 10.832899], [-69.647696, 10.833794000000182], [-69.646228, 10.833736], [-69.643431, 10.833736], [-69.641284, 10.833948000000134], [-69.63988099999989, 10.834441], [-69.63896099999988, 10.835514], [-69.636529, 10.836344000000167], [-69.634567, 10.836672], [-69.633285, 10.836684], [-69.631543, 10.836049], [-69.630732, 10.835445], [-69.6289359999999, 10.835614000000135], [-69.626992, 10.836609], [-69.62521699999985, 10.836916], [-69.622631, 10.83671], [-69.62067499999984, 10.83651], [-69.619477, 10.837488000000121], [-69.617791, 10.838324], [-69.614859, 10.83761], [-69.61222499999985, 10.837565], [-69.60993699999989, 10.837913000000128], [-69.608693, 10.838845000000106], [-69.609495, 10.840299000000186], [-69.6071859999999, 10.840464000000168], [-69.6052, 10.840998000000127], [-69.603934, 10.841677000000175], [-69.602763, 10.842333], [-69.60176799999988, 10.843956], [-69.600608, 10.845923], [-69.599753, 10.847617000000128], [-69.59848099999988, 10.848962], [-69.597746, 10.850242], [-69.596584, 10.852346], [-69.59561699999989, 10.853579000000138], [-69.59635399999985, 10.854550000000188], [-69.59743999999989, 10.855616], [-69.598305, 10.857853], [-69.598963, 10.859719], [-69.5993979999999, 10.860642], [-69.600179, 10.861889], [-69.599476, 10.862251000000185], [-69.59935099999984, 10.863146000000143], [-69.600373, 10.863546], [-69.600857, 10.864170000000115], [-69.60057199999989, 10.864719], [-69.600706, 10.865387000000112], [-69.602456, 10.86524], [-69.603292, 10.865523000000167], [-69.60431099999988, 10.866267000000107], [-69.603905, 10.867321], [-69.60282199999989, 10.868437], [-69.60230499999983, 10.868893000000128], [-69.602764, 10.869632], [-69.603762, 10.870123], [-69.60497699999985, 10.869857000000138], [-69.6052289999999, 10.870388], [-69.60489499999989, 10.871166], [-69.60509699999983, 10.872018], [-69.606084, 10.873681000000147], [-69.606194, 10.874371], [-69.606795, 10.874997000000178], [-69.6072779999999, 10.875690000000134], [-69.60706299999987, 10.876217], [-69.60615399999989, 10.876209], [-69.60522, 10.876362000000142], [-69.604594, 10.875966], [-69.603942, 10.875915], [-69.604581, 10.877345000000105], [-69.603874, 10.878212], [-69.602842, 10.878778000000182], [-69.60176399999983, 10.879435000000171], [-69.600638, 10.880184000000156], [-69.601655, 10.881088], [-69.601788, 10.881848000000161], [-69.601179, 10.882164], [-69.60068499999988, 10.88262], [-69.600355, 10.882938000000138], [-69.599677, 10.883163], [-69.598715, 10.883844000000124], [-69.597898, 10.883906], [-69.597458, 10.883626], [-69.597262, 10.884659], [-69.5973, 10.885532000000183], [-69.597899, 10.886364], [-69.597961, 10.887216], [-69.59719299999989, 10.887049000000104], [-69.596195, 10.88655800000015], [-69.595885, 10.887221000000125], [-69.595251, 10.887768], [-69.59452, 10.888589000000138], [-69.594307, 10.889], [-69.59538, 10.891399000000149], [-69.595838, 10.892322], [-69.595967, 10.893472], [-69.595492, 10.89441], [-69.594862, 10.894474000000173], [-69.594045, 10.894582], [-69.593415, 10.894553000000144], [-69.59347899999989, 10.895243], [-69.593239, 10.896000000000129], [-69.592369, 10.896727], [-69.59127199999989, 10.896902000000182], [-69.58999199999988, 10.896638000000166], [-69.58886699999988, 10.897203], [-69.58853099999988, 10.898188000000175], [-69.58815, 10.899104], [-69.586838, 10.899714000000131], [-69.585687, 10.9006], [-69.584313, 10.90045], [-69.58335199999982, 10.900994], [-69.582672, 10.901356], [-69.582309, 10.902846000000125], [-69.581624, 10.903713], [-69.57998599999985, 10.904297], [-69.579485, 10.90551100000016], [-69.578173, 10.906074], [-69.57814899999983, 10.906166], [-69.576682, 10.905992], [-69.575518, 10.905821], [-69.57465399999984, 10.905929000000128], [-69.573407, 10.90709], [-69.571959, 10.907308000000171], [-69.571041, 10.908242], [-69.569895, 10.908623], [-69.56894299999982, 10.908201000000133], [-69.567472, 10.908441], [-69.566352, 10.908432], [-69.565465, 10.90858500000013], [-69.56448499999982, 10.908622], [-69.563033, 10.909276], [-69.56281, 10.908241], [-69.561733, 10.908691], [-69.561466, 10.909814], [-69.56095599999986, 10.909488], [-69.559928, 10.909709], [-69.559588, 10.90865], [-69.5592529999999, 10.90706100000017], [-69.5591, 10.90598], [-69.558757, 10.905265], [-69.556777, 10.904972000000157], [-69.55664, 10.904695000000117], [-69.55587199999985, 10.904528], [-69.55566699999986, 10.903974000000176], [-69.55487599999987, 10.90383], [-69.553756, 10.90393500000016], [-69.552981, 10.90448], [-69.552235, 10.904473], [-69.551557, 10.90467400000017], [-69.551528, 10.905295], [-69.552364, 10.905669000000103], [-69.55249799999984, 10.906245000000126], [-69.552262, 10.906542], [-69.552843, 10.90673], [-69.55295499999988, 10.907237000000123], [-69.553184, 10.907698], [-69.553412, 10.908229000000176], [-69.552614, 10.908728], [-69.552675, 10.909716000000117], [-69.55166899999989, 10.910098], [-69.55134700299982, 10.910421003000067], [-69.55166, 10.911821], [-69.558595, 10.93106], [-69.563347, 10.933067], [-69.566302, 10.93653], [-69.690996, 10.94057400000014], [-69.69743899999986, 10.943642000000125], [-69.70176699999985, 10.941638], [-69.7064749999999, 10.942374], [-69.71130099999988, 10.942719000000181], [-69.714779, 10.941565], [-69.718541, 10.939724000000126], [-69.721345, 10.93813], [-69.72570999999982, 10.937095], [-69.730771, 10.936867], [-69.735455, 10.937694], [-69.74196099999989, 10.937680000000114], [-69.745785, 10.937951000000169], [-69.752152, 10.937706000000162], [-69.756748, 10.938007], [-69.75965699999983, 10.938972], [-69.761972, 10.936995000000138], [-69.764823, 10.935172], [-69.768095, 10.933350000000189], [-69.77082799999988, 10.931916000000172], [-69.77460799999983, 10.931176], [-69.778054, 10.932755000000157], [-69.778513, 10.934938000000102], [-69.778784, 10.937374], [-69.78003599999988, 10.939378000000147], [-69.780635, 10.941494], [-69.781421, 10.943702000000144], [-69.783589, 10.94364400000012], [-69.785804, 10.944022000000132], [-69.78836599999988, 10.94474600000018], [-69.789643, 10.946589], [-69.791436, 10.947447], [-69.7930669999999, 10.947845], [-69.795304, 10.94843], [-69.797963, 10.948121000000185], [-69.799709, 10.949117000000172], [-69.801903, 10.948438000000124], [-69.804608, 10.948542], [-69.80730999999986, 10.949267000000134], [-69.808752, 10.950629], [-69.8091419999999, 10.952445], [-69.809718, 10.954675000000123], [-69.810459, 10.956171], [-69.81367399999988, 10.957426], [-69.81593199999986, 10.958585]]]}}, {"type": "Feature", "properties": {"Pais": "Venezuela", "Estado": "Falc\u00f3n", "Municipio": "Federaci\u00f3n", "Parroquia": "El Pauj\u00ed"}, "geometry": {"type": "Polygon", "coordinates": [[[-69.60151999999988, 10.841163], [-69.602763, 10.842333], [-69.603934, 10.841677000000175], [-69.6052, 10.840998000000127], [-69.6071859999999, 10.840464000000168], [-69.609495, 10.840299000000186], [-69.608693, 10.838845000000106], [-69.60993699999989, 10.837913000000128], [-69.61222499999985, 10.837565], [-69.614859, 10.83761], [-69.617791, 10.838324], [-69.619477, 10.837488000000121], [-69.62067499999984, 10.83651], [-69.622631, 10.83671], [-69.62521699999985, 10.836916], [-69.626992, 10.836609], [-69.6289359999999, 10.835614000000135], [-69.630732, 10.835445], [-69.631543, 10.836049], [-69.633285, 10.836684], [-69.634567, 10.836672], [-69.636529, 10.836344000000167], [-69.63896099999988, 10.835514], [-69.63988099999989, 10.834441], [-69.641284, 10.833948000000134], [-69.643431, 10.833736], [-69.646228, 10.833736], [-69.647696, 10.833794000000182], [-69.647868, 10.832899], [-69.64932, 10.832130000000177], [-69.650776, 10.830993], [-69.65175299999987, 10.831208000000117], [-69.65252, 10.831398], [-69.653438, 10.830487000000119], [-69.655492, 10.830136], [-69.658754, 10.830393000000186], [-69.660222, 10.830474], [-69.66206, 10.830834], [-69.663967, 10.83144700000014], [-69.665925, 10.831463], [-69.66673899999984, 10.831700000000126], [-69.667463, 10.831545], [-69.668553, 10.832105], [-69.669679, 10.831379], [-69.672084, 10.830939], [-69.672795, 10.829590000000167], [-69.676131, 10.828837], [-69.737155, 10.808731], [-69.71274488099982, 10.762029081000094], [-69.70766307499997, 10.75230647100011], [-69.69600571199993, 10.730003376000127], [-69.69085745299992, 10.720153627000059], [-69.69051543499995, 10.719499270000028], [-69.68855798499999, 10.719892727000172], [-69.6868769109999, 10.720526751000023], [-69.68321247899996, 10.721260210000025], [-69.68295975399991, 10.721310794000146], [-69.67999962899995, 10.721272806], [-69.67621447999994, 10.723894902000097], [-69.67411140899992, 10.72560695900006], [-69.66417903899992, 10.732928210000182], [-69.6607468979999, 10.734564274000036], [-69.65752177999997, 10.736936356000172], [-69.6528785989999, 10.73822141800008], [-69.64963646399997, 10.738916447000122], [-69.6470023469999, 10.739247478000095], [-69.64406922699987, 10.738428476000024], [-69.64215513399995, 10.737593468], [-69.64140154299986, 10.738299509000058], [-69.63204241799997, 10.748271969000086], [-69.62575653499988, 10.754969788000153], [-69.604673, 10.777435000000139], [-69.580055, 10.81818], [-69.60151999999988, 10.841163]]]}}, {"type": "Feature", "properties": {"Pais": "Venezuela", "Estado": "Falc\u00f3n", "Municipio": "Federaci\u00f3n", "Parroquia": "Independencia"}, "geometry": {"type": "Polygon", "coordinates": [[[-69.70766307499997, 10.75230647100011], [-69.71274488099982, 10.762029081000094], [-69.737155, 10.808731], [-69.779412, 10.793323], [-69.80467350999993, 10.760617227000125], [-69.80832431299996, 10.755890577], [-69.81803927799996, 10.743312729000081], [-69.818606, 10.742579], [-69.81860543199997, 10.742576137000071], [-69.81750429699991, 10.742111875000035], [-69.81650952099994, 10.741692461000127], [-69.81630350199987, 10.740657429000123], [-69.81090421399995, 10.731606235000129], [-69.81095520899993, 10.730297209000184], [-69.81298528799994, 10.729480174000173], [-69.81632142099994, 10.728485124000088], [-69.81881552399994, 10.728198097000075], [-69.82245966499994, 10.725551015000065], [-69.82505475499988, 10.722944926000025], [-69.82662680399994, 10.719805842000142], [-69.82800985099988, 10.717285767000078], [-69.8287058379999, 10.711294615000156], [-69.8287034839999, 10.71128494900006], [-69.82806179199991, 10.708650552000165], [-69.82606369599989, 10.706803512000079], [-69.82534935999996, 10.706160575000126], [-69.82360157599993, 10.704587478000064], [-69.82192550799988, 10.703959470000143], [-69.81787133599983, 10.70396349300006], [-69.81409317799995, 10.705117548000032], [-69.8101950329999, 10.707188621000057], [-69.80430980199986, 10.711042761000101], [-69.79873557699995, 10.712531839000064], [-69.79514742299989, 10.712308847999964], [-69.79214030599996, 10.712546875000044], [-69.78630507699995, 10.71534398700004], [-69.78422100599994, 10.718458075000115], [-69.78085388099987, 10.721657184000037], [-69.77697773399996, 10.724096260000067], [-69.77396662699994, 10.725505324000096], [-69.77090749999996, 10.727328391000071], [-69.76878142599992, 10.728810434000025], [-69.76553230499997, 10.731620525000096], [-69.76268319699994, 10.733259590000102], [-69.76021109099992, 10.733844615000066], [-69.75762298899991, 10.734314651999966], [-69.75568391099989, 10.735775692000061], [-69.75446687499993, 10.73717074300015], [-69.75171376199995, 10.738121787000125], [-69.74961467899982, 10.738547807000032], [-69.74520250299997, 10.74052488400008], [-69.74263341099993, 10.742096944000139], [-69.74049196099986, 10.743147104000172], [-69.73924827699989, 10.743757002000166], [-69.7369621869999, 10.744480039000052], [-69.73402307099991, 10.74533907200015], [-69.73150795999993, 10.744844080000064], [-69.72941186199995, 10.744259083999964], [-69.7265227389999, 10.744291102000147], [-69.72335161299998, 10.74450512500016], [-69.72082250599988, 10.74465615000014], [-69.69150110699997, 10.720304714000065], [-69.6905630679999, 10.719489696000096], [-69.69051543499995, 10.719499270000028], [-69.69085745299992, 10.720153627000059], [-69.69600571199993, 10.730003376000127], [-69.70766307499997, 10.75230647100011]]]}}, {"type": "Feature", "properties": {"Pais": "Venezuela", "Estado": "Falc\u00f3n", "Municipio": "Federaci\u00f3n", "Parroquia": "Maparari"}, "geometry": {"type": "Polygon", "coordinates": [[[-69.351062, 10.92338000000018], [-69.352086, 10.922852], [-69.35341199999988, 10.923726], [-69.35425, 10.924302], [-69.355576, 10.925199], [-69.355157, 10.925866], [-69.355622, 10.926349000000187], [-69.356157, 10.927338000000134], [-69.357182, 10.927109], [-69.358648, 10.927731000000108], [-69.359066, 10.9289950000001], [-69.359927, 10.930053], [-69.360904, 10.931043], [-69.361952, 10.930676], [-69.363092, 10.93047], [-69.36399999999986, 10.930332], [-69.364396, 10.929643], [-69.363722, 10.928723000000105], [-69.362907, 10.927849], [-69.361767, 10.926997000000142], [-69.361186, 10.926169000000186], [-69.361605, 10.925572], [-69.362932, 10.924883], [-69.364469, 10.924585], [-69.366309, 10.924334], [-69.366425, 10.92341400000015], [-69.367101, 10.922058], [-69.368125, 10.922335], [-69.368311, 10.922933000000171], [-69.369149, 10.923485], [-69.3703359999999, 10.923624000000132], [-69.371523, 10.923786], [-69.372291, 10.923763], [-69.372686, 10.924683000000186], [-69.373268, 10.925695], [-69.373407, 10.926799], [-69.374128, 10.927420000000154], [-69.374803, 10.928271], [-69.375571, 10.92926000000017], [-69.375896, 10.929858], [-69.376292, 10.930985], [-69.375639, 10.931904], [-69.37466199999989, 10.932225000000187], [-69.37382299999985, 10.93259200000017], [-69.37349699999987, 10.932937], [-69.37365999999986, 10.933558000000119], [-69.37461399999984, 10.934363000000133], [-69.375545, 10.934686], [-69.376057, 10.935537000000124], [-69.376382, 10.937353], [-69.376219, 10.938043000000164], [-69.376684, 10.939238000000103], [-69.377847, 10.9394], [-69.379151, 10.939516], [-69.380966, 10.940345], [-69.38240899999988, 10.941127], [-69.383434, 10.940944], [-69.384597, 10.941221], [-69.385017, 10.94062300000013], [-69.385808, 10.940371], [-69.386227, 10.941038000000162], [-69.38646, 10.940394], [-69.38646, 10.939222], [-69.386344, 10.938233], [-69.386345, 10.936325000000124], [-69.387207, 10.935544000000164], [-69.388767, 10.935499000000164], [-69.39007099999986, 10.935684], [-69.391491, 10.936627], [-69.39335199999982, 10.938491000000113], [-69.393888, 10.938399000000118], [-69.394121, 10.937342], [-69.3951919999999, 10.936561], [-69.396519, 10.936102000000119], [-69.39617, 10.934745000000134], [-69.39603099999988, 10.934101000000112], [-69.397125, 10.933826000000124], [-69.398754, 10.933574], [-69.399755, 10.933368], [-69.399221, 10.931712000000175], [-69.398174, 10.930769000000112], [-69.398755, 10.930677000000173], [-69.39985, 10.930057], [-69.400897, 10.929851], [-69.401573, 10.929185000000189], [-69.402504, 10.928450000000112], [-69.403714, 10.928841000000148], [-69.404389, 10.928865000000144], [-69.405018, 10.929348000000175], [-69.40548299999989, 10.930084000000136], [-69.406367, 10.931165], [-69.407181, 10.932039], [-69.40767, 10.933350000000189], [-69.40874, 10.933787000000109], [-69.409951, 10.934753], [-69.411208, 10.936018000000104], [-69.412581, 10.9371000000001], [-69.414187, 10.93802], [-69.415421, 10.938389], [-69.41698, 10.937976000000106], [-69.418075, 10.937195000000145], [-69.41882, 10.937540000000126], [-69.419658, 10.937793], [-69.420845, 10.938162], [-69.4212639999999, 10.937128000000143], [-69.420333, 10.936644], [-69.4198909999999, 10.935724000000107], [-69.419612, 10.934230000000127], [-69.418146, 10.933516], [-69.41633, 10.932872], [-69.416703, 10.932044000000133], [-69.41796, 10.931562], [-69.4205209999999, 10.931357000000105], [-69.42193999999989, 10.932001000000128], [-69.422848, 10.933128], [-69.423825, 10.933565], [-69.425245, 10.934394], [-69.42578, 10.935199], [-69.42617599999988, 10.935866000000146], [-69.42680399999989, 10.9356590000001], [-69.427573, 10.934855], [-69.42862, 10.934580000000153], [-69.429225, 10.935660000000155], [-69.428668, 10.932556], [-69.429576, 10.931614], [-69.4306, 10.930810000000122], [-69.430786, 10.929799000000173], [-69.42953, 10.929108], [-69.42855299999985, 10.927315], [-69.42880899999989, 10.926487], [-69.42871599999984, 10.925935], [-69.427971, 10.925636000000168], [-69.427785, 10.923543000000166], [-69.428205, 10.92306], [-69.42876399999989, 10.920532], [-69.428904, 10.919313000000102], [-69.428695, 10.918555], [-69.429277, 10.916785], [-69.429626, 10.91575], [-69.429603, 10.914992], [-69.429068, 10.914853], [-69.428579, 10.914278], [-69.427276, 10.913887], [-69.426834, 10.912622], [-69.426532, 10.91209300000014], [-69.42618299999987, 10.911587000000168], [-69.425764, 10.911449000000118], [-69.424786, 10.91177], [-69.4237619999999, 10.911517], [-69.422854, 10.910896], [-69.42248199999989, 10.911103], [-69.421714, 10.91147], [-69.420899, 10.911447000000123], [-69.420946, 10.910458], [-69.421412, 10.910021], [-69.42234299999984, 10.909746], [-69.422785, 10.90933200000012], [-69.424065, 10.909172], [-69.42502, 10.909104], [-69.425415, 10.908644], [-69.42495, 10.907885000000135], [-69.425532, 10.907449], [-69.42597399999988, 10.907219], [-69.42588199999983, 10.90607], [-69.425672, 10.904989000000114], [-69.425277, 10.904667000000131], [-69.425114, 10.903678000000184], [-69.424882, 10.903287], [-69.424207, 10.903310000000147], [-69.42355499999985, 10.903241], [-69.423579, 10.901125], [-69.423742, 10.900252], [-69.424487, 10.899793000000102], [-69.425418, 10.900023], [-69.426582, 10.900161], [-69.427629, 10.899403000000177], [-69.426954, 10.898506], [-69.426815, 10.8976100000001], [-69.427164, 10.897081], [-69.428119, 10.89653], [-69.42856099999989, 10.89611600000012], [-69.43033, 10.894577], [-69.431192, 10.893405], [-69.43203, 10.893497], [-69.43324, 10.893521], [-69.433217, 10.891797], [-69.433217, 10.890578], [-69.434381, 10.889889], [-69.434568, 10.88959], [-69.434219, 10.888349000000176], [-69.434242, 10.887222], [-69.434429, 10.885727000000145], [-69.433708, 10.884370000000104], [-69.43412699999988, 10.883405], [-69.434849, 10.88239300000015], [-69.433592, 10.881979000000172], [-69.43254499999983, 10.880599], [-69.432266, 10.878806], [-69.431778, 10.876759000000106], [-69.431662, 10.875541], [-69.431942, 10.87384], [-69.432407, 10.873150000000123], [-69.433641, 10.87207], [-69.43396699999988, 10.871128000000112], [-69.4337579999999, 10.870553], [-69.433828, 10.870001000000116], [-69.43317599999989, 10.869863], [-69.43175699999989, 10.869954000000178], [-69.431385, 10.86910300000011], [-69.431827, 10.86790800000017], [-69.432456, 10.867449], [-69.433456, 10.86664500000012], [-69.432945, 10.866276000000141], [-69.43317699999989, 10.865886], [-69.433573, 10.865472], [-69.433341, 10.864736], [-69.432293, 10.864529000000175], [-69.43238699999989, 10.863173], [-69.43317799999988, 10.862644], [-69.4344349999999, 10.862277000000176], [-69.435366, 10.861703000000148], [-69.43592499999988, 10.86202500000013], [-69.436855, 10.862324000000172], [-69.436576, 10.861634], [-69.436483, 10.860853000000134], [-69.435576, 10.861335], [-69.434528, 10.861173000000122], [-69.433993, 10.860346000000106], [-69.43425, 10.859104], [-69.433435, 10.858897000000127], [-69.432737, 10.858598], [-69.432086, 10.857149000000106], [-69.432016, 10.856436], [-69.431993, 10.855724000000123], [-69.431854, 10.855356], [-69.430946, 10.854895000000113], [-69.431272, 10.853884000000107], [-69.43232, 10.85354], [-69.431692, 10.852183], [-69.43197099999986, 10.851103], [-69.432856, 10.850413000000174], [-69.43371699999989, 10.849908000000141], [-69.434206, 10.849402], [-69.435276, 10.848759], [-69.436138, 10.847725], [-69.437697, 10.84701200000012], [-69.439024, 10.846622], [-69.440769, 10.845910000000117], [-69.442514, 10.84552], [-69.443585, 10.844854000000112], [-69.444376, 10.843935000000101], [-69.444609, 10.843084], [-69.444354, 10.842027000000144], [-69.445773, 10.841682], [-69.44703, 10.841913000000147], [-69.448007, 10.842419], [-69.449195, 10.842282000000125], [-69.44973, 10.841018000000133], [-69.450405, 10.840052000000185], [-69.45159199999989, 10.839731], [-69.45303499999983, 10.838513], [-69.453873, 10.838284000000101], [-69.454734, 10.838974000000121], [-69.45613, 10.839802], [-69.457945, 10.839688], [-69.460807, 10.838333], [-69.46215699999988, 10.837919], [-69.463763, 10.837207000000149], [-69.466509, 10.836818000000108], [-69.467509, 10.836841], [-69.468813, 10.836221], [-69.47074399999985, 10.835509000000172], [-69.472513, 10.834291000000121], [-69.473258, 10.83413], [-69.474655, 10.834361], [-69.476098, 10.833005], [-69.47761, 10.831281000000104], [-69.47935599999983, 10.829374], [-69.481171, 10.828846], [-69.482427, 10.828777], [-69.48394, 10.82972], [-69.48561499999988, 10.830135000000155], [-69.4875, 10.829354], [-69.48894299999989, 10.829101], [-69.49115299999988, 10.829171000000144], [-69.49185099999983, 10.829286], [-69.49355, 10.828252000000134], [-69.494853, 10.82740200000012], [-69.495831, 10.826506], [-69.49718, 10.826115], [-69.49888, 10.82446], [-69.500044, 10.822161000000108], [-69.499997, 10.820505], [-69.499462, 10.819356], [-69.499415, 10.818206], [-69.499694, 10.817034], [-69.499461, 10.81593], [-69.49869299999989, 10.814367], [-69.497926, 10.813079], [-69.497693, 10.811539], [-69.498484, 10.810183], [-69.499531, 10.810942000000182], [-69.500485, 10.810919], [-69.50043899999986, 10.809011], [-69.50106699999986, 10.808022000000165], [-69.506835, 10.796603000000175], [-69.49948199999989, 10.775814000000139], [-69.51407291099986, 10.753289209000059], [-69.515903, 10.750464], [-69.51855986599992, 10.741350760000046], [-69.51813891299992, 10.741397345000053], [-69.51610883199999, 10.74191437200011], [-69.51474176799996, 10.740068344000179], [-69.51470475199989, 10.737978281000153], [-69.51745986199995, 10.73670823800012], [-69.51798885099993, 10.73287513200006], [-69.51704080199994, 10.731308096000078], [-69.51564574099996, 10.730404084000043], [-69.51579472899994, 10.72831503700013], [-69.51710976999993, 10.726185965000013], [-69.51839481899998, 10.725435937000157], [-69.51825880699988, 10.724377916000094], [-69.51798479099995, 10.723250894999978], [-69.51885082599995, 10.722268857000131], [-69.52048787999996, 10.720876808000128], [-69.52193893199984, 10.719460765000122], [-69.52236993099996, 10.716936698999973], [-69.52114687199992, 10.714058640000133], [-69.52038682199992, 10.712056585000141], [-69.52046381899999, 10.710448545000133], [-69.51993178299995, 10.709389521000105], [-69.51893672699993, 10.707752491000178], [-69.51857170899996, 10.706005447000052], [-69.5188817049999, 10.704468403000078], [-69.51854067999994, 10.702468356000054], [-69.51795263099996, 10.698399261000077], [-69.51826263799995, 10.696770217000108], [-69.51831762499995, 10.694841166000117], [-69.51736957499998, 10.693021128000169], [-69.51516445199991, 10.689805061000072], [-69.51447743599994, 10.69140410700004], [-69.51255335799988, 10.691697126], [-69.51132231199989, 10.691815127000098], [-69.50972223999986, 10.692056149000166], [-69.50802518099994, 10.693171191000033], [-69.50648612099997, 10.694099215000108], [-69.50463704099991, 10.69464325000007], [-69.50211592999995, 10.693325228999981], [-69.50067387299993, 10.693946256000118], [-69.49871979099998, 10.694014264000089], [-69.4972547289999, 10.69385327200007], [-69.49425460099991, 10.694312302000071], [-69.49248651699992, 10.693483288000039], [-69.4903234229999, 10.6921722780001], [-69.48996826599983, 10.691907067999978], [-69.48909136499992, 10.691252253000073], [-69.48618323799991, 10.691389279000077], [-69.48460216999985, 10.691664299000081], [-69.48253208999989, 10.69131929700012], [-69.48104301799998, 10.69072029500012], [-69.48041498799995, 10.69049029700011], [-69.47991133099993, 10.690632650000055], [-69.47911293099997, 10.69085830900002], [-69.47727485699994, 10.69074231400009], [-69.47406571799996, 10.690051323000034], [-69.47255364799992, 10.689774324000098], [-69.47125059499984, 10.689751332000128], [-69.47029755499995, 10.689820339000107], [-69.46792446199998, 10.690209359000107], [-69.46673841099988, 10.69004836500011], [-69.46483132199995, 10.68984037000007], [-69.46336526899995, 10.690184389000024], [-69.46272733499984, 10.690829972000074], [-69.4623652279999, 10.691196429000058], [-69.46136519799995, 10.691977449000035], [-69.46034114799994, 10.692551468000033], [-69.45836407399997, 10.693769510000095], [-69.45738704499996, 10.69473454399997], [-69.45687503099992, 10.695814576000032], [-69.45585098999993, 10.697653630000104], [-69.45494396699996, 10.698480662000179], [-69.45415293099995, 10.69960669700015], [-69.45303688499996, 10.699284688999967], [-69.45091979599988, 10.69868569100015], [-69.44843069199999, 10.698500700000011], [-69.4474766539999, 10.699787737], [-69.44522056599993, 10.700591777000113], [-69.44373249699998, 10.699624761000052], [-69.44187140699995, 10.69898075400016], [-69.44068535299994, 10.698542753000027], [-69.4391733029999, 10.699461777000067], [-69.43826526399982, 10.700449811000112], [-69.4369632239999, 10.701575849], [-69.43512514399998, 10.702425887000174], [-69.43279903999996, 10.701780878000022], [-69.43124097799995, 10.701158877000125], [-69.42977591299996, 10.700583869000184], [-69.42875186899994, 10.700283868000156], [-69.42726380699992, 10.700328884000157], [-69.42561173599995, 10.700144881000085], [-69.42416967399998, 10.700028896], [-69.42309962199994, 10.700395911999976], [-69.42277362099992, 10.701085921000129], [-69.42272762499994, 10.701981948000139], [-69.42181958499998, 10.702693979000173], [-69.42005150599994, 10.702738986000043], [-69.41791142299996, 10.703014009000185], [-69.41598133399998, 10.702852013999973], [-69.41488828999996, 10.702667014000156], [-69.41384125099995, 10.703242038000099], [-69.41237518499997, 10.703310055000145], [-69.41002610299984, 10.704458094000188], [-69.40930407599996, 10.706687157000147], [-69.40823304799989, 10.70792819400009], [-69.4071169959999, 10.708571213000084], [-69.40651198099994, 10.708778231000167], [-69.40588395399993, 10.709030232000146], [-69.40423188799986, 10.70981126900017], [-69.40323184099998, 10.70983327000016], [-69.40232480099996, 10.709764275], [-69.40123076399988, 10.709740288999967], [-69.39990570399993, 10.709670291000066], [-69.3985796469999, 10.709118282000134], [-69.39734658699984, 10.70863428000007], [-69.39618453699995, 10.707898269000168], [-69.39576550699985, 10.707116252000048], [-69.39574249999998, 10.706127230999982], [-69.39551048899989, 10.705161200000077], [-69.39465044999997, 10.704287185000169], [-69.39346439799988, 10.704033185000128], [-69.3920683369999, 10.703918193], [-69.3908592869999, 10.704239210000026], [-69.3895562269999, 10.704767230000186], [-69.38834618699997, 10.70561625900018], [-69.38660110899991, 10.705523264000021], [-69.38564806699992, 10.70547727000013], [-69.38399599699994, 10.705430285999967], [-69.38257693599991, 10.705429290000097], [-69.38122788599986, 10.705933317000131], [-69.38087788799993, 10.708048369000153], [-69.38087789799994, 10.709566408000057], [-69.38094690599996, 10.710531435000064], [-69.38082991099998, 10.711566457000117], [-69.37973685799994, 10.711841474000039], [-69.37929483599999, 10.71064544100011], [-69.37864380099984, 10.709771425000099], [-69.3781327669999, 10.708713407000118], [-69.3777377529999, 10.707724376000101], [-69.37578465499996, 10.706251357000156], [-69.37520363099986, 10.706021359000147], [-69.37304054199996, 10.705468350000103], [-69.37287752599997, 10.70535335], [-69.37157447799996, 10.706041378000123], [-69.36957439299994, 10.705695382000044], [-69.36708528599996, 10.70507337500004], [-69.36534119899989, 10.704795385000125], [-69.36338811699994, 10.70398937300007], [-69.36257408099993, 10.70336836000007], [-69.36061999699996, 10.703022364000049], [-69.35894591399995, 10.702308363000043], [-69.35782886299995, 10.702031362000128], [-69.35645681099993, 10.702306380000152], [-69.35538677199997, 10.702926399000035], [-69.35436273599998, 10.703706426000167], [-69.35345569699996, 10.70389043400013], [-69.35219963299994, 10.702923416000033], [-69.35124658699988, 10.702118402000053], [-69.35013053799997, 10.701427396999975], [-69.3486414759999, 10.702185421000024], [-69.34798945999995, 10.703334454000128], [-69.34710443699998, 10.704873500000076], [-69.34605738899995, 10.705700533000027], [-69.34501034699991, 10.705699534000075], [-69.34433154599998, 10.705275057], [-69.34324326599989, 10.704594518000135], [-69.34068515199988, 10.70325950400013], [-69.33977810699997, 10.702361484000107], [-69.33896506099995, 10.70132645600006], [-69.33877905299994, 10.700636451000094], [-69.33810501799985, 10.699854424000137], [-69.33804036499998, 10.699824731000092], [-69.33745398699989, 10.699555424999971], [-69.33661595299992, 10.700290444000132], [-69.33619694499998, 10.700979472000142], [-69.33573192199998, 10.701553487000126], [-69.33484789699992, 10.701851502000181], [-69.33403385099996, 10.701690505000101], [-69.33401084499985, 10.700770472999977], [-69.33415085399997, 10.699989458000118], [-69.33447685299996, 10.698977435000131], [-69.33408282999994, 10.69755140000018], [-69.33287377199991, 10.696677375000093], [-69.33228920599993, 10.69656987500008], [-69.33036166599999, 10.696215388000155], [-69.33022166999996, 10.697295418000124], [-69.33022067199994, 10.69830744], [-69.33054569299992, 10.69977947500007], [-69.33045169599995, 10.70039948800013], [-69.32852062299997, 10.701662538000164], [-69.32768258999994, 10.702374557000041], [-69.3270085609999, 10.702603570000065], [-69.32577551799994, 10.702924587000041], [-69.32463546699995, 10.7027395880001], [-69.32375242699999, 10.701911573000075], [-69.3241014269999, 10.700968550000141], [-69.32419443199996, 10.700509539000052], [-69.32419543299994, 10.699819520000062], [-69.32363739299996, 10.698899491000077], [-69.3222893389999, 10.698116487000107], [-69.3209402729999, 10.697908489000156], [-69.31993923299996, 10.698091503], [-69.3184971789999, 10.699308536999979], [-69.31777515399995, 10.700066568000125], [-69.31707713499992, 10.700755585000024], [-69.31642510299997, 10.701215606000119], [-69.31519205699993, 10.7011906030001], [-69.31323896299989, 10.7003846020001], [-69.31151888699992, 10.698934571000166], [-69.31093786299994, 10.698681572000055], [-69.30961279399997, 10.697300538000036], [-69.30926377299994, 10.696725535000155], [-69.30828772299992, 10.69557451300011], [-69.30617162899989, 10.695044504000066], [-69.30614663999995, 10.696653550000121], [-69.30579664299995, 10.698883604000116], [-69.3057496429999, 10.69987163200011], [-69.3057486539999, 10.700538650000055], [-69.30498061599997, 10.701296668999987], [-69.30418958499996, 10.70141068200013], [-69.30288653399998, 10.701731700000039], [-69.30195649699994, 10.702213717], [-69.30053644599997, 10.702786745000026], [-69.29967640199993, 10.702969747000054], [-69.29800132899999, 10.702600749000055], [-69.29660626799995, 10.701633731000186], [-69.29623524899995, 10.700851714000066], [-69.29502618999993, 10.699700694], [-69.29474816599992, 10.698596673000054], [-69.29391112699994, 10.697653646000106], [-69.29291108999996, 10.697583657999985], [-69.290981, 10.697167656000033], [-69.28984095199996, 10.697511673000179], [-69.2885379039999, 10.698199701000078], [-69.28779287599997, 10.698589717], [-69.28704784999996, 10.69934773500006], [-69.28579179499997, 10.699737752999965], [-69.28488475099988, 10.699092748000169], [-69.28316367599996, 10.698631749000128], [-69.28172261499998, 10.697871734000046], [-69.28021054499993, 10.697708743000135], [-69.27941951899993, 10.698489763000111], [-69.27832547399993, 10.699086782000052], [-69.27767345399997, 10.699522797000157], [-69.27630138499995, 10.699107796000021], [-69.27513933299991, 10.69802577600018], [-69.27437228799994, 10.696989754000072], [-69.27332625199983, 10.697103769000023], [-69.2713711699999, 10.697837801000162], [-69.26974210699984, 10.698962836000078], [-69.26683399099994, 10.69902885100015], [-69.26677730799992, 10.69904237600008], [-69.26692634199992, 10.699672859000145], [-69.267254, 10.701059000000157], [-69.267021, 10.70314100000013], [-69.26694999999984, 10.704475000000173], [-69.266856, 10.705417000000125], [-69.267065, 10.706636000000117], [-69.267575, 10.707717000000173], [-69.267319, 10.708866], [-69.268225, 10.710247], [-69.269015, 10.711374], [-69.269222, 10.713581], [-69.269314, 10.71532900000011], [-69.26911180999991, 10.715569892000133], [-69.26819599999982, 10.716661], [-69.267149, 10.71705100000014], [-69.266241, 10.717556000000172], [-69.265427, 10.718244], [-69.265099, 10.720658000000128], [-69.264284, 10.721324], [-69.26405, 10.723048000000176], [-69.26384, 10.724174], [-69.263676, 10.725508000000161], [-69.26407, 10.726705], [-69.264558, 10.727441], [-69.264697, 10.728498000000116], [-69.264719, 10.729809], [-69.264718, 10.73105], [-69.264694, 10.732269], [-69.26504199999988, 10.733281], [-69.28094799999985, 10.750361], [-69.281801, 10.75127700000013], [-69.281731, 10.752311], [-69.281591, 10.752748000000167], [-69.28245099999987, 10.753416000000186], [-69.283428, 10.753486000000123], [-69.284521, 10.754108], [-69.28503299999988, 10.753464], [-69.28566199999989, 10.752384], [-69.284755, 10.75236], [-69.285197, 10.75162500000016], [-69.285965, 10.751879], [-69.287338, 10.751788000000147], [-69.28740699999986, 10.752317], [-69.288245, 10.751329000000169], [-69.289339, 10.750871000000132], [-69.29034, 10.750412000000154], [-69.291503, 10.750252], [-69.291596, 10.750459000000149], [-69.29199099999988, 10.750712], [-69.2925259999999, 10.750897000000123], [-69.293107, 10.751196000000164], [-69.293154, 10.751587], [-69.292456, 10.751839], [-69.292502, 10.752184], [-69.293525, 10.752415000000155], [-69.29392, 10.75289800000013], [-69.294082, 10.754117000000122], [-69.295105, 10.755451000000164], [-69.29619799999989, 10.756303000000116], [-69.296966, 10.757017], [-69.29771, 10.758213], [-69.298547, 10.75865000000016], [-69.298546, 10.759823], [-69.299127, 10.760996000000148], [-69.29989399999988, 10.761732000000109], [-69.30077799999987, 10.762216], [-69.301801, 10.7627], [-69.303266, 10.76325300000019], [-69.30468499999984, 10.76422], [-69.305103, 10.765278], [-69.305893, 10.766543], [-69.307032, 10.768153], [-69.308218, 10.768729000000121], [-69.308613, 10.769258], [-69.308589, 10.770247], [-69.308542, 10.771534], [-69.3090289999999, 10.77268400000014], [-69.309354, 10.773834], [-69.310052, 10.774892], [-69.31133, 10.777055000000132], [-69.31214399999988, 10.777331], [-69.31335299999989, 10.777769], [-69.313632, 10.778414000000112], [-69.31425999999982, 10.778921], [-69.31530699999985, 10.778531], [-69.3160989999999, 10.777979], [-69.3171, 10.778393000000165], [-69.316564, 10.779291], [-69.317402, 10.779222], [-69.31796, 10.7789], [-69.318729, 10.778165000000115], [-69.319264, 10.77777500000019], [-69.319939, 10.778005], [-69.319822, 10.778695000000141], [-69.319612, 10.779246], [-69.319984, 10.779684], [-69.32047199999988, 10.78023700000017], [-69.321519, 10.779985], [-69.32210099999986, 10.779501], [-69.322823, 10.77918000000011], [-69.324195, 10.77948], [-69.325451, 10.780033000000174], [-69.326615, 10.779942], [-69.327685, 10.780242], [-69.328941, 10.780772000000184], [-69.329522, 10.781209000000104], [-69.330336, 10.781394000000148], [-69.33115, 10.781831], [-69.332243, 10.783603000000141], [-69.331194, 10.786867], [-69.330239, 10.787924], [-69.3295179999999, 10.788383], [-69.32884199999984, 10.78918700000014], [-69.327957, 10.79081900000017], [-69.327538, 10.792037], [-69.326723, 10.792726000000187], [-69.325722, 10.793737], [-69.325349, 10.794794], [-69.32444, 10.796517000000165], [-69.3233919999999, 10.798218], [-69.32218099999989, 10.800056], [-69.321506, 10.80143500000014], [-69.32017899999988, 10.802307000000155], [-69.319084, 10.803364], [-69.317781, 10.804098000000181], [-69.316524, 10.80435], [-69.315245, 10.804257], [-69.314128, 10.804233000000181], [-69.313126, 10.805474000000174], [-69.31193799999988, 10.806553000000122], [-69.310868, 10.806506000000127], [-69.30996, 10.807287], [-69.308913, 10.807355], [-69.308167, 10.808228000000156], [-69.30781799999988, 10.808251], [-69.306818, 10.808640000000139], [-69.305538, 10.80898400000018], [-69.304955, 10.810133000000178], [-69.304047, 10.810477], [-69.30369799999988, 10.810937], [-69.303814, 10.811856], [-69.30381299999988, 10.812385000000177], [-69.304511, 10.8128], [-69.304255, 10.813328], [-69.303371, 10.813258000000133], [-69.30311399999988, 10.813879000000156], [-69.30264899999986, 10.814177000000143], [-69.302648, 10.815029], [-69.302043, 10.814707000000112], [-69.301346, 10.813670000000116], [-69.301184, 10.812934000000155], [-69.300462, 10.812865000000102], [-69.299206, 10.8133], [-69.297995, 10.813460000000134], [-69.29743699999983, 10.814081], [-69.2973659999999, 10.814564000000189], [-69.296574, 10.815897000000177], [-69.29678299999989, 10.816311], [-69.29678299999989, 10.817207], [-69.29699099999988, 10.81861], [-69.297084, 10.819599], [-69.297548, 10.820312], [-69.297757, 10.821852], [-69.29843, 10.823508000000174], [-69.298756, 10.824382000000185], [-69.29957, 10.825004000000149], [-69.300709, 10.82599400000015], [-69.30215099999987, 10.826777000000106], [-69.302825, 10.827628000000175], [-69.30308, 10.828939000000105], [-69.302963, 10.83018], [-69.302823, 10.831168000000162], [-69.30282199999988, 10.832686], [-69.30340299999989, 10.833721], [-69.30377399999986, 10.834940000000131], [-69.304379, 10.835147], [-69.3054499999999, 10.835240000000113], [-69.30689299999989, 10.834897000000126], [-69.308174, 10.834875000000125], [-69.30947699999984, 10.834807000000183], [-69.31064, 10.834762000000183], [-69.31164099999984, 10.834073], [-69.31222399999984, 10.833384], [-69.313085, 10.833040000000153], [-69.31322399999988, 10.833454000000131], [-69.314271, 10.833524], [-69.31583, 10.834031], [-69.317133, 10.833848], [-69.318483, 10.833735000000104], [-69.319786, 10.833575], [-69.321299, 10.833484000000112], [-69.322625, 10.834175], [-69.323672, 10.834728], [-69.325626, 10.835350000000119], [-69.32651, 10.835972], [-69.326811, 10.837535000000116], [-69.328161, 10.83824900000019], [-69.32913699999989, 10.839078], [-69.330021, 10.840274], [-69.330207, 10.841125000000147], [-69.330695, 10.842734], [-69.331207, 10.843838], [-69.332067, 10.845104], [-69.332858, 10.845610000000136], [-69.33302, 10.846208], [-69.333718, 10.847197000000165], [-69.33418299999988, 10.848117000000116], [-69.335113, 10.848348], [-69.337253, 10.850028000000123], [-69.33767199999988, 10.851201000000174], [-69.33816, 10.851408], [-69.33829999999989, 10.852006000000188], [-69.337857, 10.852856000000145], [-69.337949, 10.853937], [-69.3389269999999, 10.853455000000167], [-69.339392, 10.854168000000186], [-69.33950799999985, 10.854996000000142], [-69.339414, 10.855892], [-69.34013499999986, 10.856973], [-69.34067, 10.858307], [-69.341483, 10.859411], [-69.342601, 10.858676000000116], [-69.343206, 10.859298], [-69.343554, 10.859804], [-69.34397299999989, 10.860609], [-69.344206, 10.859207], [-69.344323, 10.858770000000106], [-69.345323, 10.859368000000188], [-69.346184, 10.85934600000013], [-69.346487, 10.859806], [-69.34737, 10.860956000000158], [-69.348278, 10.861141], [-69.349046, 10.86059], [-69.3494649999999, 10.860797000000105], [-69.349604, 10.861602000000119], [-69.350582, 10.861832000000163], [-69.350535, 10.8622], [-69.350535, 10.862545000000182], [-69.35158299999989, 10.862408000000187], [-69.352188, 10.861765000000105], [-69.352538, 10.861098], [-69.353027, 10.860915], [-69.354237, 10.860847], [-69.355074, 10.861698], [-69.355656, 10.86225], [-69.356865, 10.863424], [-69.357266, 10.864895000000104], [-69.3578409999999, 10.866574], [-69.357049, 10.867240000000152], [-69.3564669999999, 10.867517000000134], [-69.35649, 10.868643], [-69.355582, 10.86914800000011], [-69.354767, 10.86963], [-69.354348, 10.870458], [-69.353347, 10.870388], [-69.35216, 10.871008000000131], [-69.352183, 10.872203], [-69.352136, 10.873238], [-69.352391, 10.87441], [-69.352484, 10.875123], [-69.352064, 10.876226], [-69.352064, 10.876985000000161], [-69.351458, 10.87760500000013], [-69.350225, 10.877949000000172], [-69.349294, 10.878362], [-69.34791899999988, 10.87889], [-69.346616, 10.879418], [-69.346522, 10.880108], [-69.347197, 10.880476000000158], [-69.347476, 10.881005], [-69.34728899999988, 10.881579000000102], [-69.346707, 10.881786], [-69.344915, 10.881853], [-69.34416999999985, 10.882497], [-69.34442599999988, 10.883141], [-69.345729, 10.883303000000126], [-69.345496, 10.883900000000153], [-69.345496, 10.884613000000172], [-69.345286, 10.885348], [-69.344331, 10.885692], [-69.343982, 10.886543000000131], [-69.343516, 10.8876], [-69.343189, 10.888887000000125], [-69.342234, 10.889599], [-69.341279, 10.89120800000012], [-69.341279, 10.891989], [-69.341581, 10.892288000000121], [-69.34225599999985, 10.892358], [-69.3430469999999, 10.892772], [-69.343605, 10.893348000000117], [-69.343605, 10.894244000000128], [-69.343651, 10.895302000000129], [-69.344023, 10.896383], [-69.343976, 10.897532], [-69.343788, 10.899095], [-69.344486, 10.8999], [-69.34478799999982, 10.900774], [-69.345114, 10.901993], [-69.344648, 10.902751], [-69.343647, 10.903095000000121], [-69.343041, 10.904177000000118], [-69.34283099999982, 10.905142000000183], [-69.343226, 10.905648], [-69.342807, 10.90617600000013], [-69.34262, 10.906958000000145], [-69.34269, 10.907993], [-69.343015, 10.90955600000018], [-69.343736, 10.91043000000019], [-69.34462, 10.911512000000187], [-69.345575, 10.911581], [-69.346552, 10.911582000000124], [-69.34650599999986, 10.912042000000156], [-69.346016, 10.912823000000117], [-69.346412, 10.913053000000161], [-69.346994, 10.912824], [-69.347809, 10.912273], [-69.348205, 10.912319], [-69.349182, 10.912642], [-69.35002, 10.91275700000017], [-69.350159, 10.913125], [-69.350159, 10.914183], [-69.350693, 10.915379], [-69.3510419999999, 10.916322], [-69.350739, 10.917172], [-69.351111, 10.917678], [-69.35192599999988, 10.917932], [-69.352857, 10.917473], [-69.353323, 10.917289000000153], [-69.353276, 10.918438], [-69.353065, 10.919726], [-69.3524599999999, 10.920369000000107], [-69.35199399999982, 10.920438000000104], [-69.35187799999989, 10.920713000000148], [-69.352529, 10.921036], [-69.35255199999989, 10.921542000000159], [-69.35199299999982, 10.921955], [-69.351109, 10.922115000000133], [-69.3511319999999, 10.922460000000115], [-69.351062, 10.92338000000018]]]}}]}