{"type": "FeatureCollection", "features": [{"type": "Feature", "properties": {"Pais": "Venezuela", "Estado": "Anzo\u00e1tegui", "Municipio": "Francisco del Carmen Carvajal"}, "geometry": {"type": "Polygon", "coordinates": [[[-65.64231496299993, 9.950567431000024], [-65.64234095599994, 9.950572433000104], [-65.64348030399998, 9.950721876000102], [-65.65592657099995, 9.9523544], [-65.65619658499992, 9.952582402000019], [-65.66610003299996, 9.953502382000124], [-65.66804411999988, 9.954587392], [-65.66986422799994, 9.9577154750001], [-65.6697852339999, 9.959919526000135], [-65.6696610379999, 9.96040780200002], [-65.66963922699989, 9.960493551000127], [-65.66912621099982, 9.962513602], [-65.66983526099995, 9.965064663000135], [-65.67244140399993, 9.968906754000159], [-65.67535754099998, 9.970544781000058], [-65.68363993399987, 9.97587088400013], [-65.68699608899993, 9.977900919000149], [-65.68973222299991, 9.978137907000018], [-65.69158130599993, 9.979588934000105], [-65.69276186499985, 9.979750683000077], [-65.69380740399993, 9.979893933000028], [-65.69615351199997, 9.978865898000151], [-65.69974966599989, 9.978622868000116], [-65.70337282399993, 9.977368809000154], [-65.70822503299996, 9.976163759000087], [-65.70911214799997, 9.975116740999965], [-65.70939007699997, 9.974788716000091], [-65.71016409199996, 9.972448647000022], [-65.71196016099998, 9.969605559000172], [-65.71468327199989, 9.96722448100013], [-65.71577929999995, 9.965619436000111], [-65.71689634099994, 9.96362237000011], [-65.71770836699989, 9.962057332000086], [-65.71722620599996, 9.936345651000181], [-65.71678817699996, 9.93429359400011], [-65.71692616799999, 9.931902525000055], [-65.7171611579999, 9.928427442000043], [-65.71700413899998, 9.924277323000126], [-65.71652411099996, 9.923102303000064], [-65.71651710999998, 9.923083299999973], [-65.71642933499993, 9.922868338000171], [-65.71617921499995, 9.922255790000065], [-65.71306091099996, 9.914619087000176], [-65.71415594999996, 9.913606053000024], [-65.71547300199995, 9.912930028000119], [-65.71669406199999, 9.913491038000188], [-65.71767710299997, 9.912781017000157], [-65.7180941119999, 9.911646979000125], [-65.71825911299999, 9.909484931000065], [-65.71807708299991, 9.907307867999975], [-65.71808307999999, 9.905309815000123], [-65.7182160729999, 9.903859782000154], [-65.71852007899997, 9.902866749000168], [-65.71885309299995, 9.902124732000118], [-65.71970212699983, 9.901466708000044], [-65.72081817499998, 9.901876709000135], [-65.72164221099996, 9.901377688000139], [-65.72229924499987, 9.900605669000129], [-65.72347622899991, 9.88999538400003], [-65.72135911299989, 9.88498725500017], [-65.72100808899995, 9.883640223000043], [-65.72112409099998, 9.882535194000013], [-65.7220010989999, 9.876546033000182], [-65.72194708299998, 9.875031990000025], [-65.7167007939999, 9.864188734000095], [-65.71604475899983, 9.863811723000083], [-65.70666032599996, 9.859254650000082], [-65.7062752949999, 9.85855063200006], [-65.70639230199998, 9.857422603000089], [-65.70688030599996, 9.855184541000028], [-65.70565320399987, 9.845979306000174], [-65.70550618199997, 9.842649215000051], [-65.70741825799996, 9.841533179000066], [-65.70924133999983, 9.84140616500008], [-65.71141443199997, 9.84092214300017], [-65.71299649399992, 9.840062115000023], [-65.71317849299999, 9.838772078000147], [-65.71296348499988, 9.837261039999987], [-65.71201442099994, 9.833859954000161], [-65.71140638599991, 9.833596951000175], [-65.71045234899992, 9.83338695000009], [-65.70873127099998, 9.833032945000014], [-65.70763521999999, 9.83271094700001], [-65.70717819399994, 9.831847926000137], [-65.70649815899998, 9.830277882000075], [-65.70582511399988, 9.829074861000095], [-65.70537808899991, 9.827613822000103], [-65.70487706199987, 9.826889807000157], [-65.70390801299988, 9.825899785000104], [-65.70289296399994, 9.825001764000149], [-65.70227293499994, 9.824096741000119], [-65.70223693499992, 9.823454732000073], [-65.70252493399994, 9.821317671999964], [-65.70252192699996, 9.820755650000024], [-65.70096884499998, 9.818625611000073], [-65.69897974799989, 9.817169582000133], [-65.69731767099995, 9.81515153000015], [-65.6949985579999, 9.813696508000021], [-65.69377849799986, 9.812126479000028], [-65.69256443899997, 9.811455458000012], [-65.69090935699995, 9.810672453000166], [-65.69001731099996, 9.808652398000106], [-65.68934326699997, 9.806295344000091], [-65.68845120799995, 9.80416329100018], [-65.68778317699991, 9.802817255000036], [-65.68645711599999, 9.801809236], [-65.68347997499995, 9.800917233], [-65.68072684899988, 9.800698243], [-65.6780757219999, 9.799018209999986], [-65.67773369199995, 9.796773152000071], [-65.67848971999996, 9.794301077000057], [-65.67759967399996, 9.79250603500003], [-65.67736964599993, 9.790821992000076], [-65.67868370399987, 9.789471948000084], [-65.67801165999992, 9.787451904000136], [-65.67667257799991, 9.784084818000053], [-65.67655156899991, 9.782176768000113], [-65.67592351799993, 9.778378681000163], [-65.67329339899999, 9.777828675000137], [-65.67287936999992, 9.776804653000113], [-65.67230434099997, 9.774492593000161], [-65.67083976899994, 9.773714294000172], [-65.67070726399999, 9.77363458100001], [-65.67071383199982, 9.773613730000022], [-65.67025807599993, 9.773627684000076], [-65.66901337099989, 9.773690895000072], [-65.66134894099997, 9.774080120000065], [-65.65492649999999, 9.774406274], [-65.650521, 9.77463], [-65.615025, 9.894178], [-65.59147499999983, 9.912433], [-65.634333, 9.915714], [-65.6368497279999, 9.937737939000044], [-65.63764260499988, 9.944676423000033], [-65.6382193789999, 9.949723782000149], [-65.63822177199984, 9.949744719000023], [-65.63824738499983, 9.949968861000059], [-65.63825059599998, 9.95011836000009], [-65.63824124899992, 9.950189679000061], [-65.63831477499997, 9.950211439000043], [-65.63831878299987, 9.95004443], [-65.64231496299993, 9.950567431000024]]]}}]}