{"type": "FeatureCollection", "features": [{"type": "Feature", "properties": {"Pais": "Venezuela", "Estado": "Zulia", "Municipio": "Francisco Javier Pulgar"}, "geometry": {"type": "Polygon", "coordinates": [[[-71.65786, 9.065222], [-71.658408, 9.066747000000134], [-71.658632, 9.068093000000147], [-71.65885099999986, 9.069119000000114], [-71.6597349999999, 9.069680000000176], [-71.660968, 9.068407], [-71.66318799999988, 9.06668900000011], [-71.664164, 9.06521400000014], [-71.664997, 9.063306000000182], [-71.66639199999986, 9.062192], [-71.668753, 9.060608], [-71.670201, 9.060019000000182], [-71.6709, 9.058547], [-71.671533, 9.057419000000152], [-71.672585, 9.056514], [-71.67386, 9.054944], [-71.67371426599988, 9.05335931500008], [-71.673543, 9.051497], [-71.67351699999989, 9.049257], [-71.673499, 9.047703], [-71.673695, 9.046672], [-71.673798, 9.045550000000105], [-71.6729749999999, 9.044280000000185], [-71.672079, 9.042737], [-71.671825, 9.040660000000116], [-71.672212, 9.038187000000164], [-71.672046, 9.035811], [-71.671885, 9.033893000000148], [-71.67147099999988, 9.032001], [-71.67171999999988, 9.029644000000133], [-71.672065, 9.027468], [-71.67206038299997, 9.027078768000138], [-71.672049, 9.026119000000108], [-71.6720969999999, 9.024244], [-71.673162, 9.022517000000164], [-71.672954, 9.02043900000018], [-71.672131, 9.019169], [-71.671081, 9.018245], [-71.67001499999986, 9.01786900000019], [-71.66976725599989, 9.017450436], [-71.668672, 9.0156], [-71.66802299999989, 9.013322000000187], [-71.667332, 9.011478], [-71.666088, 9.009779000000151], [-71.664791, 9.009406000000183], [-71.663332, 9.00899], [-71.66151899999988, 9.00807500000019], [-71.66102199999989, 9.007006], [-71.660449, 9.005413], [-71.660364, 9.00402], [-71.66035499999987, 9.003243], [-71.660665, 9.00205000000011], [-71.66049, 9.000910000000147], [-71.659532, 8.999938], [-71.65834399999983, 8.998993000000155], [-71.657784, 8.99852], [-71.657576, 8.998454000000152], [-71.656441, 8.99817], [-71.654968, 8.998600000000124], [-71.653857, 8.998362000000157], [-71.652159, 8.997217], [-71.647084, 8.992673], [-71.646352, 8.99153900000016], [-71.64536099999987, 8.990054], [-71.645218, 8.987933], [-71.645842, 8.986087], [-71.646822, 8.983193], [-71.64777299999986, 8.981549], [-71.648453, 8.980434], [-71.648895, 8.978843], [-71.649297, 8.975908], [-71.650806, 8.972764], [-71.65143199999983, 8.971089], [-71.651688, 8.969362], [-71.6536119999999, 8.967834], [-71.654325, 8.965738], [-71.654293, 8.963243], [-71.65363, 8.960295000000144], [-71.652753, 8.956919], [-71.651468, 8.954128], [-71.65156099999984, 8.952361], [-71.651804, 8.951491], [-71.651487, 8.950261000000182], [-71.650258, 8.950061000000176], [-71.648841, 8.949578], [-71.647977, 8.948966000000155], [-71.647925, 8.946717], [-71.648403, 8.944317], [-71.649125, 8.942906], [-71.650022, 8.942537], [-71.650996, 8.942702], [-71.651555, 8.942964], [-71.65227399999986, 8.943095], [-71.652776, 8.942602000000136], [-71.65286, 8.941888000000176], [-71.6525299999999, 8.941441000000168], [-71.651714, 8.940973000000156], [-71.652099, 8.940315], [-71.653308, 8.93895], [-71.654486, 8.937073], [-71.655251, 8.935366], [-71.65508, 8.932904], [-71.653984, 8.930372], [-71.65435099999985, 8.928369], [-71.65511, 8.926246], [-71.654421, 8.924793], [-71.65264299999984, 8.923278000000153], [-71.651651, 8.921743000000163], [-71.65104, 8.919208], [-71.652047, 8.918344000000104], [-71.65481499999987, 8.917698000000144], [-71.656552, 8.917845], [-71.6574399999999, 8.918578], [-71.658331, 8.917695], [-71.65794099999988, 8.916175], [-71.657232, 8.915016], [-71.655839, 8.914630000000102], [-71.654282, 8.91403200000019], [-71.653708, 8.912596], [-71.654186, 8.911958], [-71.656244, 8.91194000000013], [-71.65784599999984, 8.912388], [-71.65872399999989, 8.912314000000151], [-71.658456, 8.911252], [-71.658158, 8.90965400000016], [-71.657569, 8.908831], [-71.65758, 8.906114000000173], [-71.657901, 8.904089000000113], [-71.65842999999984, 8.902004], [-71.658941, 8.900384], [-71.658898, 8.898894], [-71.65976499999988, 8.897915000000182], [-71.661151, 8.897788000000162], [-71.662463, 8.897299], [-71.66300699999982, 8.896362000000124], [-71.662695, 8.895548], [-71.661032, 8.895715], [-71.65883, 8.89535], [-71.657666, 8.894828000000189], [-71.657534, 8.893539000000146], [-71.65942799999988, 8.891548], [-71.66055099999983, 8.89075000000014], [-71.660759, 8.888903], [-71.658329, 8.887058], [-71.657316, 8.883787], [-71.656867, 8.881243], [-71.656215, 8.879151], [-71.655573, 8.877817000000107], [-71.655583, 8.876764], [-71.655925, 8.876402], [-71.65715099999989, 8.876382], [-71.6587679999999, 8.87616800000012], [-71.659587, 8.875143], [-71.6595, 8.873778], [-71.65863999999988, 8.873484], [-71.657524, 8.872984], [-71.657524, 8.871172], [-71.6586099999999, 8.869349], [-71.65955, 8.868635000000154], [-71.661089, 8.867863], [-71.66322799999989, 8.866887], [-71.664084, 8.865076], [-71.6641039999999, 8.863069], [-71.663555, 8.861705000000143], [-71.661552, 8.860643], [-71.660016, 8.859922], [-71.660655, 8.857463000000166], [-71.661377, 8.856052000000147], [-71.662636, 8.855027], [-71.664077, 8.853796000000159], [-71.664704, 8.852195], [-71.665283, 8.850425000000143], [-71.665754, 8.849297], [-71.6666019999999, 8.848711], [-71.66719099999989, 8.847699], [-71.66688899999986, 8.845856], [-71.66805799999986, 8.843221], [-71.669866, 8.841675], [-71.669908, 8.841355], [-71.672499, 8.839618], [-71.674744, 8.83795], [-71.676574, 8.836379], [-71.677759, 8.834991000000173], [-71.678033, 8.832944], [-71.677523, 8.83101500000015], [-71.67597599999988, 8.829462], [-71.67468799999989, 8.828164000000186], [-71.674244, 8.826011], [-71.675949, 8.823737000000165], [-71.677824, 8.82211400000017], [-71.679636, 8.820936], [-71.681196, 8.819918], [-71.68217599999986, 8.818811], [-71.682901, 8.817595], [-71.682835, 8.816106000000104], [-71.683025, 8.814652], [-71.683914, 8.813647], [-71.68480199999988, 8.812618000000157], [-71.684818, 8.812030000000163], [-71.683951, 8.811174], [-71.68367599999988, 8.809599000000105], [-71.68466, 8.80876000000012], [-71.685703, 8.80716], [-71.68576, 8.806202], [-71.685275, 8.804419000000166], [-71.68591, 8.803478], [-71.687113, 8.801721], [-71.688208, 8.80051], [-71.688631, 8.799238000000116], [-71.688411, 8.798345], [-71.68759299999988, 8.797681], [-71.684292, 8.798161000000164], [-71.683189, 8.796877000000165], [-71.68274999999983, 8.795140000000117], [-71.682488, 8.792757000000165], [-71.68243299999989, 8.79205], [-71.682733, 8.790222], [-71.682173, 8.788052], [-71.681476, 8.785986], [-71.680335, 8.78539], [-71.678783, 8.785184], [-71.67813899999987, 8.783677], [-71.67956, 8.782668], [-71.68205399999988, 8.782405], [-71.683197, 8.781337], [-71.682155, 8.779438], [-71.680515, 8.777793000000145], [-71.678756, 8.775837000000138], [-71.67917099999988, 8.774003], [-71.68038899999988, 8.77156], [-71.682488, 8.7711240000001], [-71.685073, 8.772569], [-71.686815, 8.773132000000146], [-71.68896399999988, 8.771273000000122], [-71.689627, 8.768813], [-71.68995799999988, 8.765785000000108], [-71.689734, 8.762788000000114], [-71.690289, 8.760994], [-71.691135, 8.760237], [-71.692861, 8.759577], [-71.69577, 8.759144], [-71.697466, 8.757972], [-71.697261, 8.756417], [-71.696528, 8.755186000000151], [-71.695497, 8.754119000000117], [-71.694397, 8.753177000000164], [-71.693454, 8.751762000000156], [-71.693074, 8.749165], [-71.69406, 8.746761000000106], [-71.695329, 8.744732], [-71.69646299999988, 8.743053], [-71.697638, 8.740783], [-71.6977619999999, 8.737864], [-71.69708899999989, 8.735945], [-71.696085, 8.735169], [-71.695278, 8.735386], [-71.69500499999987, 8.735695], [-71.693051, 8.736613], [-71.691238, 8.735858000000178], [-71.69131, 8.734313], [-71.691409, 8.732986], [-71.690928, 8.731544], [-71.69063399999987, 8.7302150000001], [-71.690647, 8.72767], [-71.689659, 8.726355000000126], [-71.688386, 8.726255], [-71.6875869999999, 8.727083000000107], [-71.686732, 8.728918], [-71.68542, 8.729334], [-71.68408099999982, 8.729556000000116], [-71.683368, 8.72798100000017], [-71.68380799999989, 8.726244000000179], [-71.68374226699996, 8.724434948000066], [-71.683737, 8.72429000000011], [-71.68252026499994, 8.721761574000027], [-71.6824299999999, 8.721574000000146], [-71.682039, 8.719957], [-71.6824309999999, 8.71807500000017], [-71.682618, 8.716351000000145], [-71.682203, 8.714711], [-71.68190835199982, 8.714524584], [-71.680036, 8.71334], [-71.679246, 8.71306600000014], [-71.677531, 8.712771], [-71.675871, 8.711372000000154], [-71.67335474099997, 8.705722790000095], [-71.67089725499994, 8.70773125400018], [-71.66095945299998, 8.715853271000071], [-71.64315448399998, 8.730405006000183], [-71.64313721699989, 8.7304191180001], [-71.59732895299999, 8.767857533999972], [-71.59724548599985, 8.767925750000131], [-71.53651021699989, 8.817563792999977], [-71.53632452099998, 8.817701809000027], [-71.50540018799995, 8.84068596600008], [-71.50172708499997, 8.843415958000037], [-71.42036203499993, 8.903878376000137], [-71.41836109999991, 8.905547334000175], [-71.41709500299999, 8.906603372000177], [-71.39411708199992, 8.925769001000106], [-71.37940755599993, 8.937977344000103], [-71.37779308799992, 8.939026546000036], [-71.37820947199992, 8.93982207200014], [-71.37860314299996, 8.940434457000094], [-71.37880265299998, 8.940744809000023], [-71.380584, 8.943528000000185], [-71.3812856859999, 8.94471736600019], [-71.381466, 8.945023], [-71.38242899999989, 8.945989], [-71.383071, 8.945862], [-71.383668, 8.945781], [-71.384175, 8.945816], [-71.384438, 8.946269000000143], [-71.385072, 8.946898], [-71.385547, 8.947622], [-71.38594, 8.9488750000001], [-71.385935, 8.949746], [-71.3866359999999, 8.95028200000013], [-71.38771399999985, 8.9501], [-71.388434, 8.950383000000159], [-71.38907, 8.951104000000157], [-71.38892499999986, 8.951909000000114], [-71.38891, 8.952322], [-71.388997, 8.95321500000017], [-71.389658, 8.954026000000113], [-71.390453, 8.954652], [-71.39213299999989, 8.954641], [-71.392351, 8.955164000000138], [-71.392665, 8.955891], [-71.39247299999988, 8.956651], [-71.392498, 8.956765], [-71.393015, 8.957282], [-71.393484, 8.957685], [-71.39421, 8.958335000000147], [-71.39566, 8.958306], [-71.396307, 8.958407], [-71.396889, 8.958739], [-71.397344, 8.958478], [-71.397879, 8.957596000000137], [-71.399167, 8.957478], [-71.400029, 8.957987000000116], [-71.400936, 8.95845], [-71.40196199999986, 8.959117], [-71.403887, 8.959834], [-71.404444, 8.960052000000132], [-71.405685, 8.959935], [-71.406187, 8.959741000000122], [-71.406405, 8.960264], [-71.40602, 8.960570000000132], [-71.40577, 8.960759000000166], [-71.40566299999983, 8.961128000000144], [-71.405766, 8.961699000000124], [-71.40650499999987, 8.961798000000158], [-71.407881, 8.961541], [-71.40872, 8.960882], [-71.409737, 8.961113000000125], [-71.411268, 8.961701000000119], [-71.412514, 8.962959000000126], [-71.414572, 8.964568], [-71.41541299999989, 8.966293000000121], [-71.416358, 8.968635], [-71.417267, 8.970335], [-71.418281, 8.972699], [-71.420061, 8.974221], [-71.423064, 8.97464100000019], [-71.424802, 8.975225], [-71.425475, 8.975509], [-71.426646, 8.976448000000119], [-71.427812, 8.977203], [-71.427836, 8.978418], [-71.428139, 8.979741000000104], [-71.429396, 8.981526], [-71.43016399999988, 8.981969], [-71.431894, 8.982140000000186], [-71.432812, 8.983107], [-71.433266, 8.983923], [-71.43449, 8.984127], [-71.435263, 8.985922], [-71.435681, 8.98839], [-71.435758, 8.989924], [-71.43737, 8.991060000000118], [-71.43919799999986, 8.992696000000137], [-71.440841, 8.995367000000158], [-71.44152999999989, 8.996431], [-71.442553, 8.997166000000163], [-71.44290299999989, 8.997248000000184], [-71.44335399999983, 8.997626], [-71.44385299999988, 8.998025000000155], [-71.444464, 8.998353000000122], [-71.444959, 8.998660000000143], [-71.44548299999985, 8.999128], [-71.446209, 8.999406], [-71.44671, 8.99992], [-71.447039, 9.000072], [-71.44736499999988, 9.000914], [-71.44792, 9.000897000000123], [-71.448701, 9.001473], [-71.449034, 9.001785], [-71.449791, 9.002315], [-71.450643, 9.002934], [-71.451306, 9.003444000000172], [-71.45177899999987, 9.004534000000149], [-71.451963, 9.005265], [-71.452303, 9.005785], [-71.452241, 9.006799000000115], [-71.45277499999986, 9.007612], [-71.4533239999999, 9.008171000000118], [-71.45377699999989, 9.008618000000183], [-71.4541559999999, 9.008906], [-71.454616, 9.008800000000122], [-71.454933, 9.008584], [-71.45568, 9.008792], [-71.456722, 9.009567000000175], [-71.457467, 9.009706000000165], [-71.458032, 9.010035000000187], [-71.459465, 9.009970000000123], [-71.459714, 9.010561], [-71.46026399999988, 9.011143], [-71.460384, 9.012037], [-71.4612269999999, 9.013139000000137], [-71.461529, 9.014695000000131], [-71.462146, 9.015942], [-71.462777, 9.0169360000001], [-71.463263, 9.01846300000011], [-71.463332, 9.019197], [-71.462831, 9.020983], [-71.462244, 9.021483], [-71.46175, 9.021981], [-71.46122999999989, 9.022387], [-71.46047799999985, 9.023831], [-71.459328, 9.023838], [-71.457494, 9.024536], [-71.456812, 9.025684], [-71.45669606199993, 9.026917258000083], [-71.456597, 9.027971], [-71.4556879999999, 9.029577], [-71.454085, 9.030502], [-71.452955, 9.033482], [-71.452747, 9.036683], [-71.452298, 9.038286], [-71.45229245499996, 9.038351501000022], [-71.452085, 9.040802000000156], [-71.452096, 9.042402], [-71.452237, 9.04409], [-71.452115, 9.045428000000129], [-71.452532, 9.045867], [-71.45289799999989, 9.046049000000153], [-71.45305699999983, 9.046712000000127], [-71.453013, 9.047541000000138], [-71.45314799999989, 9.04818100000017], [-71.45343799999989, 9.049369], [-71.453792, 9.051107000000172], [-71.4538179999999, 9.051959000000124], [-71.453743, 9.052559], [-71.453966, 9.053036], [-71.454464, 9.053435], [-71.45485199999985, 9.054022], [-71.45520363399999, 9.054512352000188], [-71.455288, 9.054630000000145], [-71.4556203599999, 9.055465040000115], [-71.45577711899983, 9.055858890000025], [-71.45587174699995, 9.056074419000026], [-71.45591634499988, 9.05606654800016], [-71.45945348299989, 9.05464249400012], [-71.45958349199998, 9.054576496000152], [-71.45966849299992, 9.054555494], [-71.46139855799998, 9.0538584680001], [-71.47273700699986, 9.050666326999988], [-71.48247938499992, 9.048212223000178], [-71.48729057899993, 9.047227175000046], [-71.4879686029999, 9.0468041580001], [-71.48995868999998, 9.04667915400006], [-71.4920767719999, 9.045932116000074], [-71.4931288109999, 9.045156101000089], [-71.49419584099991, 9.043874059000075], [-71.49548589299997, 9.043439047000106], [-71.49513687899997, 9.044096061000118], [-71.49578191099994, 9.043867049000028], [-71.49527788899991, 9.044643073000088], [-71.49643093299994, 9.044505066000113], [-71.4979099919999, 9.044297051000058], [-71.49950806499999, 9.044294038999965], [-71.50044510099997, 9.043566023000153], [-71.50211716699994, 9.04386902400006], [-71.50280118699993, 9.043593007000084], [-71.50585931499995, 9.043072985000038], [-71.51069350699998, 9.041779925000185], [-71.51399064399993, 9.042025907000095], [-71.52197796099989, 9.040687834000153], [-71.5237770249999, 9.03967180899997], [-71.52422104199997, 9.038486772999988], [-71.52458705199996, 9.038381774000129], [-71.5254460949999, 9.039131787000088], [-71.52906424299994, 9.038752755000132], [-71.53486447699999, 9.038529722000078], [-71.53540349399998, 9.038439717000188], [-71.53786959199994, 9.038245698000026], [-71.5456659059999, 9.03736962700009], [-71.55337722099989, 9.037029584000152], [-71.55622334299994, 9.036806555000055], [-71.57582013399991, 9.036159438000084], [-71.5790102609999, 9.036276419000103], [-71.58084434599994, 9.03620541000015], [-71.58404447799995, 9.036460392000095], [-71.59163678099992, 9.036010340000189], [-71.60321326399998, 9.03704830900017], [-71.61017254399997, 9.037954286000058], [-71.62102799199994, 9.038975242], [-71.63494857799998, 9.04146522200017], [-71.64205587599997, 9.042012196000087], [-71.65195128799996, 9.043911183000091], [-71.65442639299994, 9.04522319500012], [-71.65481340899998, 9.04570320400012], [-71.65585745999988, 9.046156212000142], [-71.65654749999993, 9.048049244000083], [-71.65728953299998, 9.049443273000065], [-71.65857958599997, 9.049192263000066], [-71.65923461099999, 9.049044254000023], [-71.6592776199999, 9.049056256000085], [-71.65999164199991, 9.048917246000144], [-71.6600796489999, 9.049285260000033], [-71.66030965499993, 9.049350250000089], [-71.66043767399987, 9.050774283000067], [-71.66071269399998, 9.051916307000056], [-71.66270877899984, 9.052282311000113], [-71.66367581499992, 9.05347733200017], [-71.66419184599988, 9.053778329000124], [-71.6649178909999, 9.05726141000008], [-71.66366984499996, 9.057925429000022], [-71.66182977699992, 9.058196439000085], [-71.65959368899985, 9.059055474000047], [-71.6571555829999, 9.059416501000157], [-71.65554153399995, 9.061469554000098], [-71.65354744999996, 9.061499566000123], [-71.65251541999993, 9.062222580000082], [-71.65103535999998, 9.063155614000152], [-71.65106136699995, 9.06366162800009], [-71.6514833889999, 9.06476064300017], [-71.65196640199997, 9.064984646000141], [-71.65184269099996, 9.065692830000103], [-71.654448, 9.064532], [-71.65469568799995, 9.064528986000084], [-71.65642, 9.06450800000016], [-71.65786, 9.065222]]]}}]}