{
  "type": "FeatureCollection",
  "features": [
    {
      "type": "Feature",
      "properties": {
        "Pais": "Venezuela",
        "Estado": "Aragua",
        "Municipio": "Francisco Linares Alcántara"
      },
      "geometry": {
        "type": "Polygon",
        "coordinates": [
          [
            [
              -67.562013,
              10.220412000000124
            ],
            [
              -67.562048,
              10.220335000000148
            ],
            [
              -67.56207,
              10.22034
            ],
            [
              -67.562132,
              10.220123
            ],
            [
              -67.56204,
              10.22009700000018
            ],
            [
              -67.562129,
              10.21986900000013
            ],
            [
              -67.562408,
              10.219622000000129
            ],
            [
              -67.562613,
              10.219265
            ],
            [
              -67.562663,
              10.21878
            ],
            [
              -67.562963,
              10.218257000000165
            ],
            [
              -67.563217,
              10.217645000000175
            ],
            [
              -67.563591,
              10.21732500000013
            ],
            [
              -67.56393099999985,
              10.217220000000168
            ],
            [
              -67.564718,
              10.217132000000163
            ],
            [
              -67.56518599999987,
              10.21694100000019
            ],
            [
              -67.567017,
              10.21546
            ],
            [
              -67.567133,
              10.215238000000113
            ],
            [
              -67.567029,
              10.214206
            ],
            [
              -67.567249,
              10.213466
            ],
            [
              -67.567534,
              10.213367
            ],
            [
              -67.56872,
              10.21362
            ],
            [
              -67.568974,
              10.213618
            ],
            [
              -67.569079,
              10.213617000000113
            ],
            [
              -67.569706,
              10.212887000000137
            ],
            [
              -67.569632,
              10.212751
            ],
            [
              -67.56967999999989,
              10.212543
            ],
            [
              -67.57031199999989,
              10.212319
            ],
            [
              -67.571853,
              10.211753000000101
            ],
            [
              -67.572452,
              10.21136700000011
            ],
            [
              -67.57277,
              10.211295
            ],
            [
              -67.574246,
              10.210411
            ],
            [
              -67.574397,
              10.209954
            ],
            [
              -67.574622,
              10.209491000000185
            ],
            [
              -67.57497199999989,
              10.208786
            ],
            [
              -67.575191,
              10.208491
            ],
            [
              -67.576115,
              10.208034
            ],
            [
              -67.57767899999988,
              10.206941
            ],
            [
              -67.578583,
              10.206531
            ],
            [
              -67.578746,
              10.206466000000148
            ],
            [
              -67.578836,
              10.20642
            ],
            [
              -67.5789759999999,
              10.206335
            ],
            [
              -67.579066,
              10.206268000000136
            ],
            [
              -67.57921699999986,
              10.206123
            ],
            [
              -67.579422,
              10.205907
            ],
            [
              -67.579556,
              10.205833
            ],
            [
              -67.57999,
              10.20544400000017
            ],
            [
              -67.580274,
              10.205332000000112
            ],
            [
              -67.58118,
              10.20517800000016
            ],
            [
              -67.58242599999988,
              10.205011
            ],
            [
              -67.584781,
              10.204732
            ],
            [
              -67.585636,
              10.204921
            ],
            [
              -67.586156,
              10.204916
            ],
            [
              -67.586527,
              10.204846
            ],
            [
              -67.586989,
              10.204793000000109
            ],
            [
              -67.587525,
              10.204732
            ],
            [
              -67.588041,
              10.204681000000107
            ],
            [
              -67.588219,
              10.204678
            ],
            [
              -67.588558,
              10.204627
            ],
            [
              -67.589194,
              10.204475000000116
            ],
            [
              -67.589478,
              10.204467000000136
            ],
            [
              -67.589825,
              10.20439000000016
            ],
            [
              -67.590077,
              10.2044
            ],
            [
              -67.5905939999999,
              10.204339
            ],
            [
              -67.592234,
              10.204154000000187
            ],
            [
              -67.5924,
              10.204127
            ],
            [
              -67.59265,
              10.204089000000124
            ],
            [
              -67.593874,
              10.203977000000123
            ],
            [
              -67.594558,
              10.203945
            ],
            [
              -67.594858,
              10.203913000000114
            ],
            [
              -67.595398,
              10.203848000000107
            ],
            [
              -67.595782,
              10.203767000000141
            ],
            [
              -67.59591499999988,
              10.203760000000102
            ],
            [
              -67.596059,
              10.203785
            ],
            [
              -67.596434,
              10.203735000000165
            ],
            [
              -67.597927,
              10.203498
            ],
            [
              -67.59879199999989,
              10.203323000000182
            ],
            [
              -67.59941499999985,
              10.203237000000172
            ],
            [
              -67.59967299999988,
              10.203170000000114
            ],
            [
              -67.5999589999999,
              10.203108000000157
            ],
            [
              -67.60015,
              10.203096
            ],
            [
              -67.600544,
              10.203087
            ],
            [
              -67.600716,
              10.203034
            ],
            [
              -67.601072,
              10.202888
            ],
            [
              -67.601169,
              10.202889000000141
            ],
            [
              -67.601241,
              10.202911
            ],
            [
              -67.6012889999999,
              10.202921000000117
            ],
            [
              -67.601344,
              10.202911
            ],
            [
              -67.6014679999999,
              10.202834
            ],
            [
              -67.60187,
              10.20255600000013
            ],
            [
              -67.602447,
              10.202383
            ],
            [
              -67.602864,
              10.20228
            ],
            [
              -67.603057,
              10.202256
            ],
            [
              -67.603233,
              10.20219800000018
            ],
            [
              -67.603403,
              10.202094000000102
            ],
            [
              -67.60354699999988,
              10.201989
            ],
            [
              -67.603689,
              10.201915
            ],
            [
              -67.603857,
              10.201903
            ],
            [
              -67.603971,
              10.201878
            ],
            [
              -67.604385,
              10.201693000000148
            ],
            [
              -67.60432999999989,
              10.20163
            ],
            [
              -67.604092,
              10.201440000000161
            ],
            [
              -67.60392499999989,
              10.201334
            ],
            [
              -67.60379099999989,
              10.20122
            ],
            [
              -67.603669,
              10.201131
            ],
            [
              -67.603627,
              10.201089
            ],
            [
              -67.603591,
              10.20105100000012
            ],
            [
              -67.603571,
              10.201042
            ],
            [
              -67.603524,
              10.201035
            ],
            [
              -67.603433,
              10.20104
            ],
            [
              -67.60329699999988,
              10.20105500000011
            ],
            [
              -67.603238,
              10.201046
            ],
            [
              -67.603128,
              10.20105500000011
            ],
            [
              -67.60296099999988,
              10.201035
            ],
            [
              -67.602702,
              10.200998
            ],
            [
              -67.602513,
              10.200953
            ],
            [
              -67.60248,
              10.200941
            ],
            [
              -67.602467,
              10.20093100000014
            ],
            [
              -67.6024589999999,
              10.200919
            ],
            [
              -67.602447,
              10.200888000000134
            ],
            [
              -67.602432,
              10.200746
            ],
            [
              -67.602439,
              10.200683
            ],
            [
              -67.602439,
              10.200637000000143
            ],
            [
              -67.602435,
              10.200621
            ],
            [
              -67.602427,
              10.20061
            ],
            [
              -67.60241799999989,
              10.200605000000166
            ],
            [
              -67.602401,
              10.200603000000172
            ],
            [
              -67.60237099999989,
              10.200602000000117
            ],
            [
              -67.602192,
              10.200594000000137
            ],
            [
              -67.60179199999988,
              10.200588
            ],
            [
              -67.601604,
              10.200592000000142
            ],
            [
              -67.60136,
              10.20057700000018
            ],
            [
              -67.60128799999984,
              10.200579000000118
            ],
            [
              -67.60120999999987,
              10.200583000000108
            ],
            [
              -67.6011309999999,
              10.20057700000018
            ],
            [
              -67.601073,
              10.200567
            ],
            [
              -67.601037,
              10.200562000000161
            ],
            [
              -67.60099599999984,
              10.200566000000151
            ],
            [
              -67.600945,
              10.200575000000185
            ],
            [
              -67.600855,
              10.20059
            ],
            [
              -67.600813,
              10.200591
            ],
            [
              -67.600733,
              10.200583000000108
            ],
            [
              -67.600646,
              10.200565
            ],
            [
              -67.60057,
              10.20055
            ],
            [
              -67.600466,
              10.200539
            ],
            [
              -67.600407,
              10.20053200000018
            ],
            [
              -67.600347,
              10.200526
            ],
            [
              -67.60017199999987,
              10.200533
            ],
            [
              -67.599987,
              10.200537
            ],
            [
              -67.599648,
              10.200534000000175
            ],
            [
              -67.599542,
              10.20052
            ],
            [
              -67.599408,
              10.200512000000117
            ],
            [
              -67.59924699999988,
              10.200510000000122
            ],
            [
              -67.59915,
              10.200507
            ],
            [
              -67.599011,
              10.200514000000112
            ],
            [
              -67.598857,
              10.200517000000161
            ],
            [
              -67.598693,
              10.200537
            ],
            [
              -67.598558,
              10.200559000000112
            ],
            [
              -67.5983849999999,
              10.200583000000108
            ],
            [
              -67.5982489999999,
              10.200602000000117
            ],
            [
              -67.598112,
              10.200645000000122
            ],
            [
              -67.597982,
              10.200669000000119
            ],
            [
              -67.597832,
              10.200693000000172
            ],
            [
              -67.597637,
              10.200703
            ],
            [
              -67.597438,
              10.200719
            ],
            [
              -67.597186,
              10.200725000000148
            ],
            [
              -67.59707,
              10.200723000000153
            ],
            [
              -67.596949,
              10.2007
            ],
            [
              -67.596843,
              10.20069
            ],
            [
              -67.596536,
              10.200684000000138
            ],
            [
              -67.596386,
              10.200678000000153
            ],
            [
              -67.596171,
              10.200656
            ],
            [
              -67.595894,
              10.200620000000185
            ],
            [
              -67.595655,
              10.200569
            ],
            [
              -67.595527,
              10.200547
            ],
            [
              -67.59537899999987,
              10.200533
            ],
            [
              -67.595242,
              10.200514000000112
            ],
            [
              -67.595222,
              10.200518
            ],
            [
              -67.595202,
              10.200523000000146
            ],
            [
              -67.59516699999989,
              10.200539
            ],
            [
              -67.595132,
              10.200546
            ],
            [
              -67.595105,
              10.20055
            ],
            [
              -67.59500899999989,
              10.20055
            ],
            [
              -67.59495899999985,
              10.200537
            ],
            [
              -67.594895,
              10.200524
            ],
            [
              -67.594806,
              10.200510000000122
            ],
            [
              -67.594694,
              10.200480000000141
            ],
            [
              -67.594575,
              10.200436
            ],
            [
              -67.594413,
              10.200382
            ],
            [
              -67.594271,
              10.200337
            ],
            [
              -67.594171,
              10.200314
            ],
            [
              -67.59395499999988,
              10.200288
            ],
            [
              -67.593916,
              10.200281000000189
            ],
            [
              -67.59384099999988,
              10.200262
            ],
            [
              -67.593724,
              10.200248000000101
            ],
            [
              -67.593576,
              10.200203000000101
            ],
            [
              -67.593439,
              10.20016900000013
            ],
            [
              -67.593376,
              10.200156000000163
            ],
            [
              -67.593291,
              10.200145000000134
            ],
            [
              -67.59320699999984,
              10.200138
            ],
            [
              -67.59305099999989,
              10.200144
            ],
            [
              -67.592982,
              10.20013900000015
            ],
            [
              -67.592912,
              10.200127
            ],
            [
              -67.59261,
              10.200068000000158
            ],
            [
              -67.59237399999984,
              10.20002
            ],
            [
              -67.592197,
              10.199980000000153
            ],
            [
              -67.59208999999987,
              10.199962
            ],
            [
              -67.59203799999983,
              10.199957
            ],
            [
              -67.59199,
              10.199958
            ],
            [
              -67.5919669999999,
              10.199962
            ],
            [
              -67.591936,
              10.199968
            ],
            [
              -67.5919,
              10.199985
            ],
            [
              -67.59182,
              10.20004200000011
            ],
            [
              -67.59175599999986,
              10.200099
            ],
            [
              -67.591718,
              10.200125
            ],
            [
              -67.5916759999999,
              10.200145000000134
            ],
            [
              -67.59162699999985,
              10.200155
            ],
            [
              -67.59154599999988,
              10.20016
            ],
            [
              -67.59145399999983,
              10.200167
            ],
            [
              -67.591393,
              10.200163
            ],
            [
              -67.59134399999988,
              10.200152000000173
            ],
            [
              -67.591278,
              10.200130000000115
            ],
            [
              -67.59114,
              10.200082
            ],
            [
              -67.590955,
              10.199994
            ],
            [
              -67.590852,
              10.19994
            ],
            [
              -67.590773,
              10.199905000000172
            ],
            [
              -67.590627,
              10.199864000000161
            ],
            [
              -67.590521,
              10.199817000000166
            ],
            [
              -67.590397,
              10.199746000000118
            ],
            [
              -67.5903,
              10.199692000000141
            ],
            [
              -67.590234,
              10.199634000000117
            ],
            [
              -67.590116,
              10.19952300000017
            ],
            [
              -67.590018,
              10.199432000000115
            ],
            [
              -67.589962,
              10.199373
            ],
            [
              -67.589885,
              10.19929
            ],
            [
              -67.589801,
              10.199184000000173
            ],
            [
              -67.589723,
              10.199076000000105
            ],
            [
              -67.58966899999984,
              10.199021000000187
            ],
            [
              -67.589593,
              10.198944
            ],
            [
              -67.58954799999987,
              10.198905
            ],
            [
              -67.58949599999983,
              10.19886600000018
            ],
            [
              -67.58946299999985,
              10.198848000000112
            ],
            [
              -67.589422,
              10.198835
            ],
            [
              -67.58938099999989,
              10.198832
            ],
            [
              -67.58929599999988,
              10.198845
            ],
            [
              -67.58911,
              10.198901
            ],
            [
              -67.58900099999988,
              10.198937000000171
            ],
            [
              -67.58879199999984,
              10.198991
            ],
            [
              -67.58866599999988,
              10.198999000000128
            ],
            [
              -67.588569,
              10.199011
            ],
            [
              -67.588515,
              10.199029000000166
            ],
            [
              -67.588439,
              10.199058
            ],
            [
              -67.58830299999988,
              10.199082
            ],
            [
              -67.588244,
              10.19909
            ],
            [
              -67.588182,
              10.199103
            ],
            [
              -67.5881399999999,
              10.19911900000011
            ],
            [
              -67.588109,
              10.199140000000114
            ],
            [
              -67.588035,
              10.199183000000119
            ],
            [
              -67.587927,
              10.199228000000119
            ],
            [
              -67.587851,
              10.199245
            ],
            [
              -67.58779,
              10.199239
            ],
            [
              -67.587681,
              10.199226000000124
            ],
            [
              -67.587593,
              10.199211000000105
            ],
            [
              -67.587485,
              10.199177000000134
            ],
            [
              -67.587394,
              10.199121000000105
            ],
            [
              -67.58733699999988,
              10.199072000000172
            ],
            [
              -67.5872609999999,
              10.199029000000166
            ],
            [
              -67.587203,
              10.198986000000161
            ],
            [
              -67.587079,
              10.198915000000113
            ],
            [
              -67.586959,
              10.198857000000146
            ],
            [
              -67.586853,
              10.198795000000132
            ],
            [
              -67.586762,
              10.198748
            ],
            [
              -67.586673,
              10.198729000000185
            ],
            [
              -67.586571,
              10.19873100000018
            ],
            [
              -67.586494,
              10.198736
            ],
            [
              -67.586433,
              10.198749
            ],
            [
              -67.58637999999985,
              10.198767000000146
            ],
            [
              -67.586352,
              10.198788
            ],
            [
              -67.586316,
              10.198824
            ],
            [
              -67.58629699999989,
              10.198855000000151
            ],
            [
              -67.586282,
              10.198884
            ],
            [
              -67.586271,
              10.198921
            ],
            [
              -67.58625999999987,
              10.198998
            ],
            [
              -67.58625399999988,
              10.199058
            ],
            [
              -67.586242,
              10.199098000000163
            ],
            [
              -67.5862259999999,
              10.199122
            ],
            [
              -67.58620699999983,
              10.199141000000168
            ],
            [
              -67.586186,
              10.199159
            ],
            [
              -67.586154,
              10.199172
            ],
            [
              -67.586107,
              10.199175000000139
            ],
            [
              -67.58605399999988,
              10.1991680000001
            ],
            [
              -67.586031,
              10.199162000000115
            ],
            [
              -67.585985,
              10.199146
            ],
            [
              -67.585929,
              10.199115000000177
            ],
            [
              -67.58589099999989,
              10.199092
            ],
            [
              -67.585853,
              10.199073
            ],
            [
              -67.585832,
              10.199063000000137
            ],
            [
              -67.585788,
              10.19906
            ],
            [
              -67.585739,
              10.199065000000132
            ],
            [
              -67.585694,
              10.1990780000001
            ],
            [
              -67.58566699999983,
              10.199076000000105
            ],
            [
              -67.585615,
              10.199064
            ],
            [
              -67.585565,
              10.199037
            ],
            [
              -67.585531,
              10.199013
            ],
            [
              -67.585501,
              10.198981
            ],
            [
              -67.585473,
              10.198945000000151
            ],
            [
              -67.585436,
              10.198858
            ],
            [
              -67.58542399999988,
              10.198831
            ],
            [
              -67.585403,
              10.198804
            ],
            [
              -67.585382,
              10.198783
            ],
            [
              -67.58534999999989,
              10.198751
            ],
            [
              -67.585324,
              10.198736
            ],
            [
              -67.585282,
              10.19872400000014
            ],
            [
              -67.585245,
              10.198718
            ],
            [
              -67.585181,
              10.198718
            ],
            [
              -67.58512699999989,
              10.19872800000013
            ],
            [
              -67.585028,
              10.19877
            ],
            [
              -67.5849649999999,
              10.198810000000151
            ],
            [
              -67.58488299999988,
              10.198864000000185
            ],
            [
              -67.5848519999999,
              10.198869
            ],
            [
              -67.5848089999999,
              10.198875
            ],
            [
              -67.584786,
              10.198873
            ],
            [
              -67.584711,
              10.198854
            ],
            [
              -67.584666,
              10.198835
            ],
            [
              -67.584596,
              10.198784000000103
            ],
            [
              -67.58450699999986,
              10.198715000000107
            ],
            [
              -67.5844709999999,
              10.198678
            ],
            [
              -67.58442999999988,
              10.198629
            ],
            [
              -67.584398,
              10.198587
            ],
            [
              -67.58437,
              10.19853
            ],
            [
              -67.58433799999989,
              10.198465
            ],
            [
              -67.584326,
              10.198442
            ],
            [
              -67.584307,
              10.198413000000187
            ],
            [
              -67.58429399999989,
              10.198399
            ],
            [
              -67.58427,
              10.198382
            ],
            [
              -67.584235,
              10.198368000000187
            ],
            [
              -67.584194,
              10.198348000000124
            ],
            [
              -67.584126,
              10.198308000000168
            ],
            [
              -67.584027,
              10.198230000000137
            ],
            [
              -67.583809,
              10.19807800000018
            ],
            [
              -67.583767,
              10.198047
            ],
            [
              -67.5837,
              10.198003
            ],
            [
              -67.583582,
              10.197930000000156
            ],
            [
              -67.58350799999988,
              10.197877
            ],
            [
              -67.583393,
              10.19776700000017
            ],
            [
              -67.583338,
              10.197688
            ],
            [
              -67.5832989999999,
              10.197632
            ],
            [
              -67.583248,
              10.197572
            ],
            [
              -67.583228,
              10.19754
            ],
            [
              -67.58321199999989,
              10.197493
            ],
            [
              -67.583203,
              10.197441
            ],
            [
              -67.583201,
              10.197410000000104
            ],
            [
              -67.583197,
              10.197376000000133
            ],
            [
              -67.583181,
              10.197338
            ],
            [
              -67.583174,
              10.197305000000142
            ],
            [
              -67.58317599999987,
              10.197253000000103
            ],
            [
              -67.583195,
              10.197207
            ],
            [
              -67.58321899999987,
              10.19716
            ],
            [
              -67.583251,
              10.197117
            ],
            [
              -67.583286,
              10.197077
            ],
            [
              -67.58333999999985,
              10.19702800000016
            ],
            [
              -67.583401,
              10.196971
            ],
            [
              -67.58341899999988,
              10.196943
            ],
            [
              -67.583429,
              10.196902
            ],
            [
              -67.583428,
              10.196866
            ],
            [
              -67.58342499999986,
              10.196794000000125
            ],
            [
              -67.58341,
              10.196726
            ],
            [
              -67.58338199999986,
              10.19666500000011
            ],
            [
              -67.58335,
              10.196627
            ],
            [
              -67.583268,
              10.196547000000123
            ],
            [
              -67.58321499999988,
              10.196497
            ],
            [
              -67.583183,
              10.196479000000181
            ],
            [
              -67.583164,
              10.196470000000147
            ],
            [
              -67.583144,
              10.196470000000147
            ],
            [
              -67.58308,
              10.196473
            ],
            [
              -67.583018,
              10.19646
            ],
            [
              -67.582984,
              10.196441
            ],
            [
              -67.582952,
              10.196421
            ],
            [
              -67.582914,
              10.196392000000117
            ],
            [
              -67.582873,
              10.196361
            ],
            [
              -67.582743,
              10.196267
            ],
            [
              -67.582634,
              10.196201
            ],
            [
              -67.582375,
              10.19605300000012
            ],
            [
              -67.582245,
              10.196072
            ],
            [
              -67.581804,
              10.195786
            ],
            [
              -67.581558,
              10.195742000000166
            ],
            [
              -67.581109,
              10.195717
            ],
            [
              -67.580955,
              10.195588
            ],
            [
              -67.58073,
              10.195172
            ],
            [
              -67.58042299999988,
              10.19517100000013
            ],
            [
              -67.580314,
              10.195015
            ],
            [
              -67.58012799999983,
              10.194834000000128
            ],
            [
              -67.580121,
              10.19447
            ],
            [
              -67.579846,
              10.194229000000178
            ],
            [
              -67.579551,
              10.194104000000152
            ],
            [
              -67.57933699999984,
              10.194168000000104
            ],
            [
              -67.57934499999988,
              10.194468
            ],
            [
              -67.579336,
              10.19458
            ],
            [
              -67.579211,
              10.194628
            ],
            [
              -67.579062,
              10.194496
            ],
            [
              -67.57893299999989,
              10.194007000000113
            ],
            [
              -67.578833,
              10.193727
            ],
            [
              -67.578687,
              10.193654
            ],
            [
              -67.578587,
              10.19345
            ],
            [
              -67.578482,
              10.193402000000162
            ],
            [
              -67.578206,
              10.193862
            ],
            [
              -67.57801199999989,
              10.193925
            ],
            [
              -67.577995,
              10.194246
            ],
            [
              -67.577837,
              10.194257
            ],
            [
              -67.577733,
              10.194109
            ],
            [
              -67.577365,
              10.193788
            ],
            [
              -67.57700099999983,
              10.194052000000113
            ],
            [
              -67.576648,
              10.194103
            ],
            [
              -67.576498,
              10.194227
            ],
            [
              -67.576296,
              10.194515
            ],
            [
              -67.576017,
              10.194418
            ],
            [
              -67.575755,
              10.194266
            ],
            [
              -67.575597,
              10.194021
            ],
            [
              -67.575399,
              10.194113000000186
            ],
            [
              -67.574829,
              10.19438
            ],
            [
              -67.574606,
              10.194303000000104
            ],
            [
              -67.574101,
              10.194379
            ],
            [
              -67.573681,
              10.194398000000149
            ],
            [
              -67.57342899999986,
              10.194454000000178
            ],
            [
              -67.573191,
              10.194421
            ],
            [
              -67.572909,
              10.194248000000186
            ],
            [
              -67.572687,
              10.193996
            ],
            [
              -67.572145,
              10.194059000000152
            ],
            [
              -67.571692,
              10.194066
            ],
            [
              -67.571632,
              10.194138000000123
            ],
            [
              -67.57149,
              10.194093000000123
            ],
            [
              -67.571162,
              10.194377
            ],
            [
              -67.57092399999988,
              10.194369
            ],
            [
              -67.57085199999989,
              10.194148
            ],
            [
              -67.570824,
              10.1938
            ],
            [
              -67.57068199999986,
              10.193748
            ],
            [
              -67.570464,
              10.193895000000111
            ],
            [
              -67.570193,
              10.194091000000128
            ],
            [
              -67.569861,
              10.194094
            ],
            [
              -67.56967999999989,
              10.19395
            ],
            [
              -67.5692269999999,
              10.193989
            ],
            [
              -67.569037,
              10.193845
            ],
            [
              -67.56884299999984,
              10.193888
            ],
            [
              -67.568491,
              10.194140000000118
            ],
            [
              -67.56841,
              10.194212
            ],
            [
              -67.568236,
              10.194236
            ],
            [
              -67.56783999999988,
              10.194423
            ],
            [
              -67.56767,
              10.194399
            ],
            [
              -67.56767799999989,
              10.194247
            ],
            [
              -67.5675609999999,
              10.194186000000172
            ],
            [
              -67.56697099999985,
              10.194277
            ],
            [
              -67.566785,
              10.194201
            ],
            [
              -67.566611,
              10.19430100000011
            ],
            [
              -67.566534,
              10.194541
            ],
            [
              -67.56634799999989,
              10.194633
            ],
            [
              -67.566109,
              10.19460800000013
            ],
            [
              -67.566041,
              10.19442
            ],
            [
              -67.56580999999989,
              10.194423
            ],
            [
              -67.56551499999989,
              10.194359000000134
            ],
            [
              -67.565455,
              10.194106000000147
            ],
            [
              -67.565322,
              10.193966000000103
            ],
            [
              -67.565249,
              10.194138000000123
            ],
            [
              -67.565172,
              10.19429
            ],
            [
              -67.5652,
              10.194478000000174
            ],
            [
              -67.565196,
              10.19457400000016
            ],
            [
              -67.56507,
              10.194586
            ],
            [
              -67.564896,
              10.194578
            ],
            [
              -67.5647709999999,
              10.19447300000013
            ],
            [
              -67.564492,
              10.19452100000018
            ],
            [
              -67.564294,
              10.194637
            ],
            [
              -67.56427,
              10.194729000000166
            ],
            [
              -67.564148,
              10.195141000000149
            ],
            [
              -67.5640259999999,
              10.195217
            ],
            [
              -67.563913,
              10.195101
            ],
            [
              -67.563841,
              10.194988
            ],
            [
              -67.563501,
              10.19504000000012
            ],
            [
              -67.563007,
              10.195643000000132
            ],
            [
              -67.56288499999988,
              10.195815000000152
            ],
            [
              -67.562626,
              10.195827
            ],
            [
              -67.562562,
              10.195739
            ],
            [
              -67.56263899999988,
              10.195455
            ],
            [
              -67.562466,
              10.195082
            ],
            [
              -67.56281399999989,
              10.194806000000142
            ],
            [
              -67.562718,
              10.194642000000101
            ],
            [
              -67.562706,
              10.194241
            ],
            [
              -67.562626,
              10.194101000000103
            ],
            [
              -67.56239499999987,
              10.194217
            ],
            [
              -67.562193,
              10.194188000000167
            ],
            [
              -67.5619779999999,
              10.194388
            ],
            [
              -67.561877,
              10.19462
            ],
            [
              -67.561331,
              10.194599
            ],
            [
              -67.561117,
              10.194539
            ],
            [
              -67.56121,
              10.19439100000011
            ],
            [
              -67.5613,
              10.194239000000152
            ],
            [
              -67.561199,
              10.194179000000133
            ],
            [
              -67.560887,
              10.194114
            ],
            [
              -67.560754,
              10.193965
            ],
            [
              -67.560661,
              10.19403300000016
            ],
            [
              -67.560673,
              10.194274000000178
            ],
            [
              -67.560588,
              10.19439
            ],
            [
              -67.560349,
              10.194625
            ],
            [
              -67.55993199999989,
              10.194825
            ],
            [
              -67.559455,
              10.194876
            ],
            [
              -67.55914699999988,
              10.195128000000125
            ],
            [
              -67.558925,
              10.195099
            ],
            [
              -67.558784,
              10.195011
            ],
            [
              -67.55859799999985,
              10.195147000000134
            ],
            [
              -67.558743,
              10.19535100000013
            ],
            [
              -67.559009,
              10.195624000000123
            ],
            [
              -67.55917,
              10.195869000000187
            ],
            [
              -67.55896699999983,
              10.196237
            ],
            [
              -67.559112,
              10.196517000000142
            ],
            [
              -67.55914399999989,
              10.196701
            ],
            [
              -67.55893,
              10.196821
            ],
            [
              -67.558623,
              10.19680000000011
            ],
            [
              -67.558497,
              10.196928
            ],
            [
              -67.558012,
              10.197008
            ],
            [
              -67.557883,
              10.196943
            ],
            [
              -67.55772499999989,
              10.197139000000107
            ],
            [
              -67.55767899999984,
              10.197519000000113
            ],
            [
              -67.55752199999989,
              10.197587
            ],
            [
              -67.5573,
              10.197499
            ],
            [
              -67.55709699999989,
              10.197574
            ],
            [
              -67.55710499999986,
              10.197659000000101
            ],
            [
              -67.5573189999999,
              10.19788700000015
            ],
            [
              -67.55718899999988,
              10.198167
            ],
            [
              -67.557241,
              10.19837600000011
            ],
            [
              -67.5573179999999,
              10.198644000000115
            ],
            [
              -67.557462,
              10.198969000000147
            ],
            [
              -67.557369,
              10.199149000000148
            ],
            [
              -67.557126,
              10.199256000000105
            ],
            [
              -67.556957,
              10.199128
            ],
            [
              -67.557001,
              10.199032
            ],
            [
              -67.557091,
              10.198924
            ],
            [
              -67.557022,
              10.198792
            ],
            [
              -67.55684,
              10.198755
            ],
            [
              -67.556613,
              10.199203000000182
            ],
            [
              -67.555958,
              10.19943400000011
            ],
            [
              -67.555777,
              10.199074000000167
            ],
            [
              -67.555983,
              10.198918
            ],
            [
              -67.55625,
              10.19863
            ],
            [
              -67.556227,
              10.19839
            ],
            [
              -67.556081,
              10.198309000000108
            ],
            [
              -67.55583,
              10.19860100000011
            ],
            [
              -67.55556299999989,
              10.198673
            ],
            [
              -67.55555,
              10.199017
            ],
            [
              -67.555449,
              10.199277
            ],
            [
              -67.55527099999989,
              10.199221
            ],
            [
              -67.555008,
              10.199256000000105
            ],
            [
              -67.554402,
              10.199211000000105
            ],
            [
              -67.554175,
              10.199399
            ],
            [
              -67.55413,
              10.199543
            ],
            [
              -67.55413,
              10.199831
            ],
            [
              -67.55402099999986,
              10.199963
            ],
            [
              -67.5538949999999,
              10.200067
            ],
            [
              -67.554121,
              10.200316
            ],
            [
              -67.554229,
              10.200668
            ],
            [
              -67.554164,
              10.201041
            ],
            [
              -67.55401399999988,
              10.201145
            ],
            [
              -67.55385699999988,
              10.200988
            ],
            [
              -67.553462,
              10.200479
            ],
            [
              -67.553235,
              10.200823
            ],
            [
              -67.553032,
              10.201018
            ],
            [
              -67.55273199999988,
              10.200958
            ],
            [
              -67.55257099999989,
              10.200853
            ],
            [
              -67.552171,
              10.200628000000108
            ],
            [
              -67.551413,
              10.201608
            ],
            [
              -67.551146,
              10.201700000000187
            ],
            [
              -67.550908,
              10.201679
            ],
            [
              -67.55068099999983,
              10.201559
            ],
            [
              -67.55027299999989,
              10.20143
            ],
            [
              -67.55018499999989,
              10.201197
            ],
            [
              -67.55023399999988,
              10.200861
            ],
            [
              -67.549907,
              10.200708000000134
            ],
            [
              -67.549664,
              10.200768000000153
            ],
            [
              -67.549494,
              10.201024000000189
            ],
            [
              -67.54951,
              10.201188
            ],
            [
              -67.54960299999988,
              10.20142
            ],
            [
              -67.549158,
              10.201556000000153
            ],
            [
              -67.5489879999999,
              10.20166300000011
            ],
            [
              -67.548918,
              10.202060000000131
            ],
            [
              -67.548974,
              10.202376000000129
            ],
            [
              -67.548844,
              10.202524000000153
            ],
            [
              -67.5487839999999,
              10.20266800000013
            ],
            [
              -67.54888,
              10.202845
            ],
            [
              -67.548839,
              10.203057000000172
            ],
            [
              -67.548621,
              10.202976
            ],
            [
              -67.548529,
              10.2028
            ],
            [
              -67.54846,
              10.20272400000016
            ],
            [
              -67.548302,
              10.202723000000105
            ],
            [
              -67.548099,
              10.203123000000119
            ],
            [
              -67.547796,
              10.203283
            ],
            [
              -67.547492,
              10.203563000000145
            ],
            [
              -67.547286,
              10.203518000000145
            ],
            [
              -67.547157,
              10.203354
            ],
            [
              -67.546959,
              10.203293
            ],
            [
              -67.54694199999989,
              10.203934000000118
            ],
            [
              -67.54697,
              10.20416200000011
            ],
            [
              -67.54706599999986,
              10.204355000000135
            ],
            [
              -67.547252,
              10.204479
            ],
            [
              -67.547418,
              10.204488
            ],
            [
              -67.54757099999989,
              10.204692
            ],
            [
              -67.547574,
              10.20492000000013
            ],
            [
              -67.547574,
              10.205108
            ],
            [
              -67.54739199999983,
              10.205344
            ],
            [
              -67.547258,
              10.205344
            ],
            [
              -67.547166,
              10.205232
            ],
            [
              -67.54665199999988,
              10.205311000000165
            ],
            [
              -67.54602099999988,
              10.205378
            ],
            [
              -67.545921,
              10.205257000000131
            ],
            [
              -67.545787,
              10.205069
            ],
            [
              -67.545263,
              10.204599
            ],
            [
              -67.54523099999989,
              10.204319000000169
            ],
            [
              -67.545061,
              10.204239
            ],
            [
              -67.544912,
              10.204322
            ],
            [
              -67.544931,
              10.204675000000123
            ],
            [
              -67.544712,
              10.20505500000013
            ],
            [
              -67.544263,
              10.205302000000131
            ],
            [
              -67.54385899999988,
              10.205217
            ],
            [
              -67.543592,
              10.205117
            ],
            [
              -67.54311599999988,
              10.205088
            ],
            [
              -67.542877,
              10.205284
            ],
            [
              -67.542811,
              10.205724
            ],
            [
              -67.54277799999988,
              10.206305000000157
            ],
            [
              -67.54255,
              10.206741
            ],
            [
              -67.542211,
              10.206832
            ],
            [
              -67.541644,
              10.207327
            ],
            [
              -67.5414899999999,
              10.207191
            ],
            [
              -67.54077899999987,
              10.206787
            ],
            [
              -67.539958,
              10.206754
            ],
            [
              -67.538894,
              10.206598
            ],
            [
              -67.53789,
              10.206504000000109
            ],
            [
              -67.53713,
              10.206440000000157
            ],
            [
              -67.536582,
              10.206468000000143
            ],
            [
              -67.536299,
              10.20575
            ],
            [
              -67.53435499999983,
              10.202020000000175
            ],
            [
              -67.53316299999989,
              10.200882
            ],
            [
              -67.532052,
              10.1993480000001
            ],
            [
              -67.525764,
              10.193138000000147
            ],
            [
              -67.52469699999989,
              10.192104
            ],
            [
              -67.525041,
              10.190828000000181
            ],
            [
              -67.52490499999988,
              10.188686
            ],
            [
              -67.524883,
              10.188335000000109
            ],
            [
              -67.523666,
              10.188176000000112
            ],
            [
              -67.52361299999984,
              10.187914
            ],
            [
              -67.519639,
              10.188358
            ],
            [
              -67.519014,
              10.18845
            ],
            [
              -67.515202,
              10.188258000000133
            ],
            [
              -67.51461599999988,
              10.188151000000175
            ],
            [
              -67.5135,
              10.188393000000133
            ],
            [
              -67.51318,
              10.188426
            ],
            [
              -67.511599,
              10.188547
            ],
            [
              -67.509799,
              10.188082000000179
            ],
            [
              -67.508343,
              10.187625
            ],
            [
              -67.506934,
              10.187126
            ],
            [
              -67.506516,
              10.186943
            ],
            [
              -67.504858,
              10.182649
            ],
            [
              -67.5046779999999,
              10.182823
            ],
            [
              -67.50425299999989,
              10.182850000000144
            ],
            [
              -67.503904,
              10.182881
            ],
            [
              -67.503585,
              10.182821
            ],
            [
              -67.503266,
              10.182733
            ],
            [
              -67.503188,
              10.18279600000011
            ],
            [
              -67.502976,
              10.18293
            ],
            [
              -67.502863,
              10.1829
            ],
            [
              -67.502898,
              10.182696
            ],
            [
              -67.5029,
              10.182552
            ],
            [
              -67.50282,
              10.182431000000122
            ],
            [
              -67.502757,
              10.182317000000126
            ],
            [
              -67.502627,
              10.18235200000015
            ],
            [
              -67.50252,
              10.182479
            ],
            [
              -67.502534,
              10.182676000000129
            ],
            [
              -67.502515,
              10.182880000000125
            ],
            [
              -67.502424,
              10.183035000000189
            ],
            [
              -67.50224599999984,
              10.18302100000011
            ],
            [
              -67.50211,
              10.18293100000011
            ],
            [
              -67.50182499999983,
              10.182723000000124
            ],
            [
              -67.50171099999989,
              10.182778
            ],
            [
              -67.501581,
              10.182764000000134
            ],
            [
              -67.501486,
              10.182919
            ],
            [
              -67.50135,
              10.183154
            ],
            [
              -67.501159,
              10.183184
            ],
            [
              -67.50097,
              10.183350000000132
            ],
            [
              -67.50087299999984,
              10.183365000000151
            ],
            [
              -67.500904,
              10.183145
            ],
            [
              -67.50083399999988,
              10.182939
            ],
            [
              -67.50087299999984,
              10.182719000000134
            ],
            [
              -67.50095799999986,
              10.182419
            ],
            [
              -67.500886,
              10.182334
            ],
            [
              -67.500691,
              10.182388000000117
            ],
            [
              -67.50041699999986,
              10.182593
            ],
            [
              -67.50033799999989,
              10.182792000000177
            ],
            [
              -67.500286,
              10.183037000000184
            ],
            [
              -67.500191,
              10.183164
            ],
            [
              -67.500114,
              10.183187000000146
            ],
            [
              -67.500052,
              10.182941
            ],
            [
              -67.499891,
              10.182867000000158
            ],
            [
              -67.4997929999999,
              10.182958
            ],
            [
              -67.499719,
              10.183061
            ],
            [
              -67.49966399999988,
              10.18296
            ],
            [
              -67.499612,
              10.182892
            ],
            [
              -67.49942099999987,
              10.182925000000125
            ],
            [
              -67.499225,
              10.183023000000105
            ],
            [
              -67.499104,
              10.183014
            ],
            [
              -67.49904,
              10.182961
            ],
            [
              -67.498789,
              10.182974000000115
            ],
            [
              -67.498595,
              10.182887
            ],
            [
              -67.49837799999989,
              10.182804
            ],
            [
              -67.4981279999999,
              10.182704000000172
            ],
            [
              -67.49790999999982,
              10.182634
            ],
            [
              -67.497603,
              10.182642
            ],
            [
              -67.497242,
              10.182954
            ],
            [
              -67.497041,
              10.18320000000017
            ],
            [
              -67.496838,
              10.183186
            ],
            [
              -67.496292,
              10.183191000000136
            ],
            [
              -67.496021,
              10.183167
            ],
            [
              -67.496007,
              10.183259
            ],
            [
              -67.496049,
              10.18346
            ],
            [
              -67.495825,
              10.183610000000158
            ],
            [
              -67.495578,
              10.183551
            ],
            [
              -67.495347,
              10.183580000000177
            ],
            [
              -67.495194,
              10.183558000000119
            ],
            [
              -67.495103,
              10.183400000000177
            ],
            [
              -67.4947959999999,
              10.183344
            ],
            [
              -67.494733,
              10.183199
            ],
            [
              -67.494537,
              10.183016
            ],
            [
              -67.494062,
              10.18305
            ],
            [
              -67.493994,
              10.183298
            ],
            [
              -67.493853,
              10.183621000000187
            ],
            [
              -67.493566,
              10.18359
            ],
            [
              -67.493413,
              10.183528000000138
            ],
            [
              -67.493055,
              10.183623000000182
            ],
            [
              -67.49266399999988,
              10.183803000000125
            ],
            [
              -67.492395,
              10.183956
            ],
            [
              -67.492077,
              10.184080000000165
            ],
            [
              -67.491741,
              10.184373
            ],
            [
              -67.49152,
              10.184571
            ],
            [
              -67.491062,
              10.18465300000014
            ],
            [
              -67.490373,
              10.184697
            ],
            [
              -67.489859,
              10.18469000000016
            ],
            [
              -67.488934,
              10.185121
            ],
            [
              -67.493685,
              10.196717
            ],
            [
              -67.49824399999983,
              10.20829
            ],
            [
              -67.49903499999982,
              10.210952
            ],
            [
              -67.499055,
              10.211611
            ],
            [
              -67.50528999999989,
              10.212102000000186
            ],
            [
              -67.506572,
              10.212265000000173
            ],
            [
              -67.521132,
              10.215539
            ],
            [
              -67.52345899999989,
              10.216093000000171
            ],
            [
              -67.52681899999988,
              10.216362
            ],
            [
              -67.54606299999989,
              10.216882000000112
            ],
            [
              -67.54822499999983,
              10.216960000000142
            ],
            [
              -67.549296,
              10.21701
            ],
            [
              -67.550496,
              10.217221
            ],
            [
              -67.553683,
              10.218033000000105
            ],
            [
              -67.562013,
              10.220412000000124
            ]
          ]
        ]
      }
    }
  ]
}