{"type": "FeatureCollection", "features": [{"type": "Feature", "properties": {"Pais": "Venezuela", "Estado": "T\u00e1chira", "Municipio": "Francisco de Miranda"}, "geometry": {"type": "Polygon", "coordinates": [[[-71.917654, 7.9971], [-71.917207, 7.997933], [-71.917023, 7.998816], [-71.918255, 7.999799], [-71.918692, 8.000599], [-71.918421, 8.001305000000173], [-71.917791, 8.002627000000132], [-71.917694, 8.003688000000125], [-71.919007, 8.005734000000132], [-71.920146, 8.007424000000185], [-71.922342, 8.00992], [-71.923392, 8.011610000000132], [-71.924799, 8.012949000000106], [-71.92540999999989, 8.014104], [-71.92505, 8.014897000000133], [-71.92423699999989, 8.016925], [-71.923941, 8.020904000000144], [-71.923661, 8.02276], [-71.92311299999989, 8.024967], [-71.922745, 8.026734], [-71.922916, 8.027531000000124], [-71.9243249999999, 8.028605000000141], [-71.926001, 8.029592], [-71.927138, 8.03146], [-71.928633, 8.032977], [-71.93094799999989, 8.031403000000182], [-71.93264099999982, 8.030178], [-71.935208, 8.030554000000109], [-71.938927, 8.0308500000001], [-71.940789, 8.0306], [-71.943084, 8.03176900000011], [-71.946809, 8.031181000000117], [-71.949385, 8.030229], [-71.951069, 8.030154], [-71.95363, 8.031326], [-71.956195, 8.031878], [-71.958323, 8.03163000000012], [-71.960906, 8.0298820000001], [-71.963495, 8.027249], [-71.963956, 8.024776], [-71.965478, 8.022665000000188], [-71.96780799999988, 8.019145], [-71.97030099999989, 8.017485], [-71.972877, 8.016533000000152], [-71.9743059999999, 8.015041000000167], [-71.97715, 8.01382500000011], [-71.9792, 8.0120730000001], [-71.981161, 8.010408000000155], [-71.982765, 8.009271], [-71.984548, 8.007693], [-71.986597, 8.006206000000134], [-71.98767, 8.004976000000113], [-71.987763, 8.004358], [-71.98795499999983, 8.00241300000016], [-71.986025, 7.999743], [-71.98462199999983, 7.996816], [-71.983898, 7.996106], [-71.983994, 7.995287000000133], [-71.985529, 7.994969], [-71.986755, 7.994346], [-71.987154, 7.993117], [-71.98734, 7.990868], [-71.9867119999999, 7.989441000000113], [-71.983614, 7.986909], [-71.981644, 7.984369], [-71.980181, 7.981212000000141], [-71.978735, 7.979996], [-71.9788099999999, 7.976828000000125], [-71.978489, 7.975195], [-71.97766699999983, 7.974997], [-71.97583, 7.976032], [-71.974194, 7.976555000000133], [-71.972451, 7.97667], [-71.970915, 7.97688600000015], [-71.9689699999999, 7.977309000000162], [-71.968767, 7.977515000000153], [-71.967951, 7.978134000000182], [-71.967647, 7.978545000000111], [-71.967031, 7.978447000000131], [-71.966412, 7.978043000000127], [-71.9666069999999, 7.976815000000101], [-71.966086, 7.975797000000114], [-71.9661789999999, 7.974672000000112], [-71.965966, 7.973856], [-71.964936, 7.973353], [-71.9639, 7.972134], [-71.962757, 7.970405], [-71.962135, 7.969592], [-71.961105, 7.969088000000113], [-71.96028, 7.968583], [-71.9595609999999, 7.968384000000128], [-71.95894, 7.967776], [-71.959032, 7.96644600000019], [-71.960154, 7.965723], [-71.960968, 7.965001], [-71.961063, 7.964081], [-71.961671, 7.963259000000107], [-71.961659, 7.961828], [-71.9618559999999, 7.960907000000191], [-71.96246599999984, 7.9602900000001], [-71.962662, 7.959266000000127], [-71.963273, 7.95875100000012], [-71.963985, 7.958030000000178], [-71.96418399999988, 7.95731300000017], [-71.963765, 7.956294], [-71.963027, 7.953949], [-71.96301599999987, 7.952621], [-71.962798, 7.95109], [-71.96289399999989, 7.950271000000157], [-71.963086, 7.948737], [-71.962976, 7.947920000000124], [-71.963378, 7.946998], [-71.964908, 7.945964000000117], [-71.96489799999989, 7.94484], [-71.96488899999986, 7.943818], [-71.965397, 7.943202], [-71.965493, 7.94238300000012], [-71.964872, 7.94177400000018], [-71.96527, 7.94034], [-71.9649409999999, 7.937788], [-71.965241, 7.93686600000018], [-71.966158, 7.936246], [-71.966146, 7.934815000000128], [-71.966647, 7.933381000000111], [-71.967774, 7.93327], [-71.96858899999984, 7.932651000000135], [-71.96909099999988, 7.931421000000114], [-71.969599, 7.930907], [-71.970207, 7.929982000000109], [-71.970503, 7.92865200000017], [-71.970494, 7.92763], [-71.96976299999989, 7.926000000000158], [-71.969037, 7.925086], [-71.969334, 7.923857000000112], [-71.969114, 7.922121000000175], [-71.969412, 7.920893], [-71.970836, 7.919554], [-71.971751, 7.918628000000183], [-71.973279, 7.91739], [-71.974605, 7.916563], [-71.975624, 7.91584], [-71.977148, 7.914194000000123], [-71.977856, 7.912962000000164], [-71.978565, 7.912037000000169], [-71.978555, 7.910811], [-71.978955, 7.909582], [-71.978945, 7.908458000000167], [-71.979243, 7.907332], [-71.9787209999999, 7.906211], [-71.97912, 7.90488], [-71.978904, 7.903655000000128], [-71.977655, 7.901416000000154], [-71.97712899999988, 7.899887], [-71.976711, 7.89897], [-71.976607, 7.898766], [-71.977519, 7.897431], [-71.978536, 7.896504000000164], [-71.97995899999984, 7.895062], [-71.980977, 7.894237], [-71.98250699999988, 7.893204000000139], [-71.98373, 7.892378000000178], [-71.983824, 7.891355], [-71.984534, 7.890532], [-71.985243, 7.889505000000156], [-71.985237, 7.888790000000142], [-71.986459, 7.887759000000131], [-71.986866, 7.887450000000115], [-71.98716799999988, 7.886732], [-71.98746099999988, 7.885095000000149], [-71.986938, 7.883872], [-71.98621899999989, 7.883673], [-71.98529799999989, 7.883884000000137], [-71.984574, 7.883174000000167], [-71.984773, 7.882355], [-71.985895, 7.881734], [-71.986603, 7.880604000000176], [-71.987312, 7.879577], [-71.987716, 7.878859], [-71.98791199999982, 7.877836000000116], [-71.988621, 7.876809], [-71.989021, 7.875579], [-71.989528, 7.874963], [-71.989831, 7.874347], [-71.99095099999982, 7.873521000000153], [-71.992278, 7.872796], [-71.993195, 7.872177000000136], [-71.993805, 7.871559000000161], [-71.994516, 7.870736], [-71.993484, 7.869926], [-71.991426, 7.869021000000146], [-71.98926099999989, 7.867607], [-71.987101, 7.866805000000113], [-71.984636, 7.866312000000164], [-71.982181, 7.866943000000163], [-71.980535, 7.866239000000178], [-71.97869, 7.866355000000169], [-71.97633899999988, 7.867189], [-71.973986, 7.86782], [-71.971322, 7.868043], [-71.968446, 7.867349000000161], [-71.965878, 7.866754000000128], [-71.964435, 7.865845], [-71.963822, 7.866156], [-71.962187, 7.866781], [-71.960867, 7.868221000000176], [-71.959955, 7.869556000000159], [-71.959145, 7.870788000000118], [-71.958026, 7.871818], [-71.956691, 7.871521], [-71.95525, 7.870816000000161], [-71.953904, 7.869395000000168], [-71.951636, 7.867981], [-71.948449, 7.86688], [-71.945884, 7.866591000000142], [-71.942799, 7.865591], [-71.940643, 7.865198], [-71.937775, 7.865525], [-71.93593999999985, 7.866765000000157], [-71.933788, 7.866882], [-71.932451, 7.866381], [-71.93256699999989, 7.868015000000185], [-71.933092, 7.869442000000163], [-71.932999, 7.870567000000165], [-71.930627, 7.868949], [-71.927839, 7.866720000000157], [-71.925064, 7.86582], [-71.92187399999989, 7.864514], [-71.920437, 7.864218000000108], [-71.9191, 7.863819], [-71.917353, 7.86332], [-71.916219, 7.862511], [-71.914887, 7.862622], [-71.914379, 7.863239], [-71.91345799999988, 7.863348], [-71.912321, 7.862232], [-71.911694, 7.860908000000109], [-71.9107479999999, 7.858053000000154], [-71.909818, 7.857139], [-71.908377, 7.856434000000149], [-71.907148, 7.85664700000018], [-71.906324, 7.856142000000148], [-71.906518, 7.854812], [-71.906402, 7.853280000000154], [-71.904549, 7.852373], [-71.90320899999989, 7.851565000000164], [-71.902488, 7.851161000000104], [-71.902175, 7.85055], [-71.90165799999983, 7.849941], [-71.901147, 7.850149], [-71.9001229999999, 7.850360000000137], [-71.898985, 7.849040000000116], [-71.89846399999988, 7.848021], [-71.89692, 7.847317], [-71.894861, 7.846309000000133], [-71.89321699999988, 7.84581], [-71.892184, 7.844897000000174], [-71.890745, 7.844499], [-71.889104, 7.844408], [-71.88756, 7.843601], [-71.88612, 7.842998], [-71.884273, 7.842909000000191], [-71.883347, 7.842404000000158], [-71.881497, 7.842008], [-71.879953, 7.841304], [-71.878618, 7.841007], [-71.877079, 7.840813000000139], [-71.874606, 7.839399], [-71.87244, 7.837779000000126], [-71.870798, 7.837484], [-71.869876, 7.837593], [-71.868741, 7.836783000000139], [-71.866889, 7.835978000000125], [-71.86534099999983, 7.834660000000156], [-71.86410299999989, 7.833749], [-71.86205199999984, 7.833661], [-71.860612, 7.83316], [-71.859376, 7.832555], [-71.8586499999999, 7.831538], [-71.858537, 7.830211], [-71.857499, 7.828685000000121], [-71.856571, 7.827976], [-71.85585099999986, 7.827776], [-71.8550249999999, 7.826964], [-71.853794, 7.826871000000153], [-71.85235299999988, 7.826165000000174], [-71.85019299999988, 7.825362000000155], [-71.848555, 7.82568], [-71.847126, 7.826406], [-71.84579, 7.826006000000177], [-71.84445, 7.825095], [-71.8435209999999, 7.824386], [-71.84361299999989, 7.823057], [-71.843402, 7.822343000000103], [-71.841967, 7.822353], [-71.840533, 7.822465], [-71.83868, 7.821558], [-71.83764699999989, 7.820645000000127], [-71.836713, 7.819221], [-71.835906, 7.820964], [-71.834583, 7.822199000000126], [-71.833972, 7.822715000000187], [-71.831716, 7.822628], [-71.829871, 7.82264], [-71.828429, 7.821833], [-71.827505, 7.821635000000185], [-71.826793, 7.822355], [-71.82598299999984, 7.823689000000115], [-71.824039, 7.824111], [-71.822395, 7.823714], [-71.82106, 7.823416], [-71.820551, 7.823931], [-71.820766, 7.825054], [-71.822019, 7.827907], [-71.82245099999989, 7.830664], [-71.822463, 7.832196000000181], [-71.820941, 7.834149000000139], [-71.81982099999988, 7.835076], [-71.81911899999989, 7.837023000000102], [-71.819228, 7.83784], [-71.818519, 7.838867], [-71.816673, 7.83888], [-71.815646, 7.83858], [-71.814625, 7.8392], [-71.81411999999989, 7.840124000000174], [-71.81382999999988, 7.842272], [-71.813735, 7.843295000000126], [-71.813453, 7.846363000000167], [-71.81316, 7.848205000000178], [-71.811861, 7.852404000000149], [-71.811165, 7.855169000000103], [-71.809948, 7.856813], [-71.808721, 7.857231000000183], [-71.807187, 7.857752000000119], [-71.806167, 7.858577], [-71.803925, 7.860227000000123], [-71.80149, 7.863515000000177], [-71.802223, 7.865349], [-71.80306, 7.867388000000176], [-71.80224699999985, 7.868313000000171], [-71.800599, 7.86740500000019], [-71.79986799999983, 7.865774], [-71.79912399999989, 7.862509000000102], [-71.797472, 7.861089], [-71.796239, 7.860791], [-71.794608, 7.861926000000153], [-71.793191, 7.864287000000104], [-71.792898, 7.866128], [-71.793318, 7.867250000000126], [-71.79383599999989, 7.867646], [-71.794246, 7.867959], [-71.79538, 7.868769], [-71.795695, 7.86968700000017], [-71.796733, 7.871213000000125], [-71.79653899999988, 7.872543], [-71.795125, 7.875312000000179], [-71.792889, 7.87778], [-71.7916699999999, 7.87922], [-71.789735, 7.880766], [-71.788205, 7.881901], [-71.782967, 7.889145], [-71.780077, 7.891257000000166], [-71.778553, 7.893005000000187], [-71.77929, 7.895453], [-71.781459, 7.897381], [-71.783526, 7.899411000000157], [-71.786615, 7.900924000000145], [-71.78921, 7.90479], [-71.793329, 7.907011000000182], [-71.795284, 7.907815], [-71.797559, 7.91015], [-71.799411, 7.910955000000172], [-71.801985, 7.912062000000105], [-71.80475399999989, 7.912145], [-71.808136, 7.911815000000104], [-71.810188, 7.912005], [-71.811426, 7.912917000000164], [-71.812986, 7.915563], [-71.813524, 7.918728000000101], [-71.814775, 7.921172000000183], [-71.816127, 7.923514000000125], [-71.818187, 7.924624000000165], [-71.819737, 7.926044], [-71.82057399999985, 7.928185], [-71.822128, 7.930116000000169], [-71.823669, 7.93031], [-71.82490299999989, 7.93071], [-71.825628, 7.931523], [-71.826652, 7.931413], [-71.828084, 7.930892], [-71.8300339999999, 7.931083], [-71.831682, 7.93199200000015], [-71.834045, 7.932588], [-71.83682199999987, 7.933489000000179], [-71.838984, 7.934598000000108], [-71.840217, 7.934896], [-71.842878, 7.934264], [-71.84472999999986, 7.934967], [-71.846682, 7.935464], [-71.847816, 7.936069000000145], [-71.84884, 7.93585800000011], [-71.84985499999988, 7.934522], [-71.851384, 7.933387], [-71.853624, 7.93143], [-71.85505, 7.930295], [-71.85709899999989, 7.930077000000153], [-71.85895, 7.930677], [-71.861011, 7.931889000000126], [-71.861943, 7.933007], [-71.86247299999985, 7.935149], [-71.86268599999988, 7.936067000000151], [-71.863613, 7.936572000000183], [-71.86454, 7.937076000000161], [-71.866995, 7.936242], [-71.86872499999987, 7.934696], [-71.870054, 7.934176], [-71.871591, 7.934063], [-71.87283699999983, 7.935792000000106], [-71.8745919999999, 7.93721], [-71.875065, 7.937975000000108], [-71.876671, 7.940568], [-71.87791, 7.941581], [-71.88038399999988, 7.943199000000163], [-71.882652, 7.944614000000172], [-71.884701, 7.944395000000156], [-71.886047, 7.945918], [-71.887795, 7.946519], [-71.889434, 7.946201], [-71.891283, 7.946597000000111], [-71.894355, 7.946064], [-71.896807, 7.944922], [-71.898133, 7.943993], [-71.8996729999999, 7.944288], [-71.901424, 7.94519600000018], [-71.902774, 7.94723], [-71.9041299999999, 7.949878000000126], [-71.905276, 7.952016000000128], [-71.904679, 7.954268000000127], [-71.90428999999989, 7.956826], [-71.904417, 7.959687000000145], [-71.904952, 7.96234], [-71.905989, 7.96376400000014], [-71.9071229999999, 7.964471000000174], [-71.9081609999999, 7.965997000000129], [-71.909299, 7.967112], [-71.911052, 7.968224], [-71.91424799999987, 7.970245], [-71.915186, 7.972078], [-71.915624, 7.975447], [-71.915644, 7.977798000000121], [-71.91586599999988, 7.979739000000109], [-71.91620099999989, 7.982905], [-71.918473, 7.984728], [-71.92012199999988, 7.985738], [-71.92115799999988, 7.986957000000132], [-71.921895, 7.98930200000018], [-71.922116, 7.99114], [-71.92161599999986, 7.992677000000185], [-71.91998699999988, 7.994017], [-71.918355, 7.995153], [-71.9177519999999, 7.996588000000145], [-71.917654, 7.9971]]]}}]}