{"type": "FeatureCollection", "features": [{"type": "Feature", "properties": {"Pais": "Venezuela", "Estado": "T\u00e1chira", "Municipio": "Garc\u00eda de Hevia", "Parroquia": "Garc\u00eda de Hevia"}, "geometry": {"type": "Polygon", "coordinates": [[[-72.34210499999989, 8.288176], [-72.341106, 8.288501000000167], [-72.33989199999985, 8.287612], [-72.33868599999988, 8.285070000000132], [-72.337363, 8.28385], [-72.335703, 8.283399], [-72.333926, 8.28427], [-72.332698, 8.285806], [-72.33114399999988, 8.286348], [-72.32981899999987, 8.28545800000012], [-72.330607, 8.283148], [-72.331719, 8.28238400000015], [-72.330617, 8.281275], [-72.328627, 8.280382], [-72.327188, 8.280153], [-72.32652799999988, 8.279267000000175], [-72.326753, 8.278607], [-72.327091, 8.277507000000185], [-72.325548, 8.275955], [-72.32335199999983, 8.272084], [-72.321041, 8.269095000000164], [-72.31994, 8.267766000000165], [-72.319945, 8.266884000000175], [-72.32095, 8.265458000000137], [-72.320624, 8.264243], [-72.3193, 8.2632440000001], [-72.317752, 8.262683], [-72.316978, 8.262238], [-72.316761, 8.261465000000157], [-72.316765, 8.260694000000171], [-72.317761, 8.26092], [-72.318872, 8.260486000000185], [-72.319098, 8.25960600000019], [-72.31810599999983, 8.258608], [-72.318112, 8.257506000000149], [-72.318674, 8.256187], [-72.32078, 8.255979000000139], [-72.321557, 8.255763000000172], [-72.321899, 8.254002000000128], [-72.321684, 8.252678], [-72.322029, 8.250476], [-72.32214999999985, 8.24849300000011], [-72.323045, 8.246956000000125], [-72.32327599999985, 8.245194], [-72.32239999999985, 8.243315000000166], [-72.319958, 8.244072], [-72.317629, 8.244499], [-72.31686099999985, 8.24306200000018], [-72.317644, 8.241744], [-72.31854, 8.239986], [-72.320208, 8.23889400000013], [-72.321545, 8.23758], [-72.321666, 8.235707], [-72.320005, 8.235477], [-72.318566, 8.235138], [-72.31636, 8.233251], [-72.316145, 8.232148000000109], [-72.317809, 8.231717000000117], [-72.319472, 8.231616000000145], [-72.3196999999999, 8.230406000000187], [-72.320259, 8.229527000000132], [-72.320045, 8.228093000000115], [-72.318937, 8.227977000000124], [-72.31815699999987, 8.228854], [-72.3174929999999, 8.228739000000132], [-72.317166, 8.227746], [-72.316951, 8.226422], [-72.315628, 8.225312], [-72.314746, 8.224425], [-72.315416, 8.223437], [-72.316752, 8.222232000000133], [-72.317536, 8.2208040000001], [-72.318543, 8.218937], [-72.31810699999988, 8.217612000000145], [-72.316116, 8.216939], [-72.314231, 8.217148000000122], [-72.312673, 8.21857100000011], [-72.311673, 8.219006], [-72.3111239999999, 8.218121000000167], [-72.311908, 8.216583], [-72.311583, 8.21514900000011], [-72.310371, 8.213929], [-72.310052, 8.211503], [-72.308059, 8.21105], [-72.30628499999989, 8.21126], [-72.305295, 8.209932], [-72.305303, 8.208389000000125], [-72.305197, 8.207617], [-72.303429, 8.20672500000012], [-72.30144, 8.205721], [-72.30156, 8.20395800000017], [-72.30256999999983, 8.20165], [-72.301805, 8.19966200000016], [-72.29959, 8.19953900000013], [-72.298598, 8.198651], [-72.297945, 8.196443000000102], [-72.296072, 8.194559], [-72.295308, 8.19235], [-72.294436, 8.18981], [-72.294557, 8.187827], [-72.294015, 8.18573], [-72.291137, 8.185162], [-72.29103, 8.184500000000128], [-72.291816, 8.182521000000179], [-72.29050299999989, 8.179538], [-72.288964, 8.17732500000011], [-72.287315, 8.174891000000173], [-72.28566299999989, 8.173008000000152], [-72.282789, 8.171778000000188], [-72.281571, 8.171771], [-72.27991, 8.17165100000011], [-72.278153, 8.168665], [-72.276166, 8.167441000000167], [-72.274502, 8.167872000000102], [-72.272845, 8.16709], [-72.27129799999989, 8.16631000000018], [-72.26942299999985, 8.164756], [-72.26821099999984, 8.163646], [-72.266775, 8.162756000000115], [-72.217628, 8.166073], [-72.217347, 8.166092000000106], [-72.210556, 8.17017600000014], [-72.139849, 8.242276000000174], [-72.14073699999989, 8.243047], [-72.141849, 8.244478000000129], [-72.142847, 8.245138], [-72.14451, 8.245357000000183], [-72.144956, 8.246348000000125], [-72.145406, 8.249104], [-72.14663, 8.25130700000011], [-72.14785599999988, 8.253951], [-72.149413, 8.256154], [-72.150415, 8.257916], [-72.15063899999984, 8.259018], [-72.151307, 8.26012], [-72.153081, 8.260558], [-72.154637, 8.26232], [-72.15563599999984, 8.263090000000147], [-72.156746, 8.26375], [-72.15796399999982, 8.263528000000179], [-72.15863499999989, 8.265952], [-72.159529, 8.268486], [-72.159756, 8.270581], [-72.159872, 8.272565], [-72.159099, 8.273889000000167], [-72.1587689999999, 8.274772], [-72.159027, 8.27584700000017], [-72.15747499999986, 8.276464], [-72.155797, 8.277533], [-72.154582, 8.278747000000124], [-72.14494599999989, 8.285486000000105], [-72.142528, 8.287031], [-72.13202499999989, 8.295091], [-72.128867, 8.297396], [-72.129466, 8.298185000000103], [-72.130132, 8.298845], [-72.132018, 8.299614], [-72.132685, 8.300495000000126], [-72.133684, 8.301045000000158], [-72.134241, 8.302478], [-72.13302499999986, 8.303582], [-72.132587, 8.305456], [-72.132591, 8.307], [-72.131927, 8.307442], [-72.131263, 8.307663], [-72.130932, 8.308325000000139], [-72.132709, 8.30997600000012], [-72.132712, 8.31129900000019], [-72.131718, 8.312403], [-72.132718, 8.313724], [-72.132832, 8.3149370000001], [-72.13261299999988, 8.315929], [-72.133834, 8.316589], [-72.13439099999982, 8.317691], [-72.13306199999988, 8.318354], [-72.131513, 8.319238000000155], [-72.13040699999988, 8.319791], [-72.129633, 8.320453000000157], [-72.129635, 8.321445000000153], [-72.129416, 8.322438], [-72.12853299999989, 8.323763], [-72.128427, 8.325637], [-72.127764, 8.32663], [-72.12765699999989, 8.327953], [-72.128092, 8.328226], [-72.128378, 8.329708], [-72.128217, 8.330466000000115], [-72.128935, 8.332668], [-72.12995099999989, 8.333631], [-72.130045, 8.335582000000102], [-72.12901, 8.337396000000126], [-72.128966, 8.339599000000135], [-72.1305349999999, 8.339621], [-72.351072, 8.331547], [-72.35399, 8.313015], [-72.352984, 8.30931], [-72.352002, 8.307294], [-72.349831, 8.305742000000123], [-72.346349, 8.304431], [-72.342246, 8.301324000000136], [-72.339338, 8.298204000000112], [-72.338006, 8.296868], [-72.341378, 8.289012000000184], [-72.34210499999989, 8.288176]]]}}, {"type": "Feature", "properties": {"Pais": "Venezuela", "Estado": "T\u00e1chira", "Municipio": "Garc\u00eda de Hevia", "Parroquia": "Boca de Grita"}, "geometry": {"type": "Polygon", "coordinates": [[[-72.351072, 8.331547], [-72.345088, 8.350567], [-72.344128, 8.353201], [-72.34485299999989, 8.356551000000138], [-72.345705, 8.360015], [-72.346173, 8.363135000000113], [-72.34665199999989, 8.365590000000168], [-72.346625, 8.367142000000172], [-72.34474, 8.370414], [-72.34509999999989, 8.372199], [-72.348066, 8.374284000000102], [-72.34805199999988, 8.375061], [-72.345661, 8.377431], [-72.344549, 8.38128], [-72.343283, 8.38645700000012], [-72.342473, 8.387986000000126], [-72.341934, 8.388968], [-72.343213, 8.390448000000106], [-72.346582, 8.39188], [-72.34809699999988, 8.394809000000123], [-72.349324, 8.399283000000139], [-72.34901799999989, 8.401825000000144], [-72.347275, 8.404436], [-72.34631499999989, 8.407069], [-72.347053, 8.409643], [-72.351662, 8.414772], [-72.352574, 8.414910000000134], [-72.3536079999999, 8.415495], [-72.354626, 8.416968], [-72.35499, 8.418532000000141], [-72.3547, 8.420187000000112], [-72.35469421299996, 8.420518861000119], [-72.35467099999983, 8.42185], [-72.3566, 8.423571000000152], [-72.35971399999988, 8.424663], [-72.3598104649999, 8.424728058000142], [-72.361778, 8.426055000000133], [-72.360321, 8.427232000000174], [-72.360436, 8.428123], [-72.36061988899996, 8.428816294000171], [-72.36077300799997, 8.429393577000042], [-72.36118271899994, 8.431273936000139], [-72.36325575499995, 8.430956121], [-72.36496483299993, 8.430945102000123], [-72.36653589499991, 8.430941097000016], [-72.36774894199993, 8.431206094], [-72.36864797399994, 8.43114209100014], [-72.36903899299989, 8.430596082000022], [-72.36923399099987, 8.429807064999977], [-72.36923398799996, 8.429303049000055], [-72.36909297499994, 8.428231031000166], [-72.36856095599995, 8.427705023000158], [-72.3680709279999, 8.427086009999982], [-72.36808592599994, 8.425387974000046], [-72.36830392399992, 8.424574952000057], [-72.36847492999993, 8.424143554000068], [-72.36865593999983, 8.423686933000056], [-72.37015299599994, 8.423066915000106], [-72.37176306299995, 8.42393292900016], [-72.37241009899992, 8.424934938000035], [-72.37301812499999, 8.426122959000168], [-72.37353416199994, 8.427818993000187], [-72.37407618999993, 8.429078024000148], [-72.37608527299989, 8.43006303300001], [-72.37665329999993, 8.430358035000097], [-72.37832436199989, 8.431037032000063], [-72.3791424019999, 8.431229034000125], [-72.38031344099988, 8.430555012000127], [-72.38059444499999, 8.429624990000093], [-72.38105845699988, 8.428134959000033], [-72.38119345699988, 8.426018912000188], [-72.38097343699997, 8.424744896000107], [-72.38106244099998, 8.423639874000173], [-72.38146243699993, 8.42125882200014], [-72.38217545799995, 8.41966577900007], [-72.38305349199993, 8.418133742], [-72.38466655499991, 8.417531722000149], [-72.38694863299992, 8.416898693000064], [-72.38914172699998, 8.41686568900019], [-72.39069079099994, 8.41635766800016], [-72.39214584299998, 8.415854649000039], [-72.39296587699994, 8.41508262200017], [-72.39256084399995, 8.413288590999969], [-72.39225882499989, 8.41172056500011], [-72.39198280799997, 8.409714519000033], [-72.39236680699997, 8.407999477000033], [-72.39299982699993, 8.406158436000055], [-72.39369485599997, 8.405690424000056], [-72.39456788299998, 8.405580421000082], [-72.39583293699997, 8.405453411000053], [-72.39740299099998, 8.404921397000123], [-72.39966109199997, 8.40529838600014], [-72.40233118999998, 8.405082371000105], [-72.40332223499985, 8.405013366000162], [-72.40415326799996, 8.404493346000095], [-72.40321521399994, 8.402656310000168], [-72.40257618699991, 8.402319305999981], [-72.4014831419999, 8.401658304000023], [-72.40029009199998, 8.401347306000048], [-72.3987500369999, 8.40151031300013], [-72.39757498399985, 8.401083310000047], [-72.3965119419999, 8.400582303000078], [-72.39544488999991, 8.399966296000173], [-72.3944658399999, 8.398773275000167], [-72.3937348049999, 8.397431255000129], [-72.39372380099996, 8.396170221999967], [-72.39493183999991, 8.395288206000032], [-72.39681991899988, 8.39515419200012], [-72.39908601199988, 8.395187185000111], [-72.40131409899993, 8.395404166], [-72.40234114099985, 8.39512716600018], [-72.40433122199994, 8.394186126000136], [-72.40487323899993, 8.39340410699998], [-72.40589426999992, 8.392485090999969], [-72.4059423039999, 8.39224974700005], [-72.40627227299996, 8.390633042000104], [-72.40622626399994, 8.389121018000083], [-72.40617926399989, 8.388067992000174], [-72.40575323299998, 8.386848964000023], [-72.4052712059999, 8.385380945000179], [-72.40469117899994, 8.383296901000051], [-72.40413314099999, 8.38219987600013], [-72.4033831029999, 8.380949856000086], [-72.40267806999992, 8.379170822000162], [-72.40208903399997, 8.377408791999983], [-72.40206502899991, 8.375345747000097], [-72.40219091199992, 8.374153235000051], [-72.40219402699995, 8.37412372500006], [-72.40270803999994, 8.373228705000088], [-72.40311305899996, 8.372475682000072], [-72.40363706299996, 8.371304661000067], [-72.40445509299997, 8.369477620000168], [-72.40504118599995, 8.368763122000189], [-72.40519911199988, 8.36857059600004], [-72.40592113599996, 8.367688570000098], [-72.40646475799997, 8.366895081000052], [-72.40603963199999, 8.366460612000083], [-72.40523656399995, 8.365782465000052], [-72.40434947099993, 8.36524535100017], [-72.40419629199994, 8.365154634000021], [-72.40404311499998, 8.3650639170001], [-72.40392533199991, 8.365046071000052], [-72.4037290249999, 8.365028227000153], [-72.40353985899998, 8.364974689000178], [-72.4033328459999, 8.36491044200011], [-72.4032599539999, 8.364799928000025], [-72.40312524299998, 8.364762289000168], [-72.40298891599997, 8.364695649000168], [-72.40289823999996, 8.36461365200006], [-72.40284750399991, 8.364512941000157], [-72.40282258399998, 8.364353967000113], [-72.40282898899989, 8.364157804000172], [-72.40289872299996, 8.363836907000177], [-72.40302005999996, 8.363594746000103], [-72.40323551199987, 8.363376744], [-72.40354161399995, 8.363181865000172], [-72.40375535799996, 8.363086587000055], [-72.40379038499992, 8.363077897000096], [-72.40393952999995, 8.363040889000047], [-72.40510191499999, 8.362937987000066], [-72.40550082099998, 8.36286407600005], [-72.40586204299996, 8.362697341], [-72.40633348699993, 8.362352736000048], [-72.40656886399995, 8.362140663000162], [-72.40710520999994, 8.361586510000052], [-72.40752805399995, 8.361228408999978], [-72.40757344999997, 8.361189964000118], [-72.40781286399988, 8.360906062000026], [-72.40788196799991, 8.360824117000107], [-72.40789769299988, 8.36079554000014], [-72.40797153799997, 8.360661343000118], [-72.40799916499992, 8.360515513000166], [-72.40796466599983, 8.360287384], [-72.40789947199994, 8.36016143500018], [-72.40788291999996, 8.360129459000177], [-72.40777206799999, 8.360077176000061], [-72.40759769499994, 8.360077715000159], [-72.40734243899993, 8.36013659300005], [-72.40708658999989, 8.360233855000104], [-72.40664072999988, 8.36055387600004], [-72.40623081899997, 8.360923213000149], [-72.40587290999986, 8.361200261000135], [-72.40566568599996, 8.361329018000049], [-72.40548634499993, 8.361391154000046], [-72.40520162799999, 8.361393066], [-72.40486067299986, 8.361301303000175], [-72.40443678399987, 8.361100352000165], [-72.40406637299986, 8.360857346000103], [-72.40390787899997, 8.36070681600006], [-72.40380476199988, 8.360556285000143], [-72.40373714799989, 8.360370731000103], [-72.40369938099997, 8.36013561500016], [-72.40368215299998, 8.359333983000113], [-72.4037932569999, 8.358381948000101], [-72.40380653799997, 8.35802824200016], [-72.40382391799994, 8.357565363000106], [-72.40379472799992, 8.35715243400017], [-72.40369906099994, 8.356811183000104], [-72.40356709499986, 8.356519166000169], [-72.40340067599993, 8.356241524000097], [-72.40321070999994, 8.355996302000051], [-72.40300596199995, 8.355794705000164], [-72.40280309899998, 8.355649465000056], [-72.40252297799998, 8.355509982000171], [-72.40223060799985, 8.355403874000103], [-72.40196709099996, 8.355347781000148], [-72.40167501299999, 8.35535767000016], [-72.40156802299998, 8.355398150000156], [-72.40146547899997, 8.355471078000107], [-72.40123661299992, 8.3557585800001], [-72.40106745499997, 8.356136935000052], [-72.40104304599998, 8.35643563200017], [-72.4011506029999, 8.357159062000164], [-72.40119491399997, 8.358208339000043], [-72.40112173099993, 8.358662503000119], [-72.40110055599996, 8.358718589000148], [-72.4009237699999, 8.35918682099998], [-72.40065637299989, 8.35963961699997], [-72.40033854399996, 8.36000079300004], [-72.39993281999989, 8.360292442000059], [-72.39949056199998, 8.360493152000174], [-72.3992074759999, 8.360559130000127], [-72.39893919899993, 8.360574049000036], [-72.39888768899993, 8.360576913000102], [-72.39857327399994, 8.360546007000039], [-72.39832998299994, 8.360468078000054], [-72.39802920099993, 8.360296845], [-72.39739015299983, 8.359814089000054], [-72.39646375199999, 8.35919766699999], [-72.39585519699995, 8.358874255000046], [-72.39536200999999, 8.358672211000055], [-72.39493692899998, 8.358567623999988], [-72.39412849999997, 8.35846033700011], [-72.39322201499994, 8.35841776600006], [-72.39302934899996, 8.358373272000108], [-72.39287209899993, 8.3583015050001], [-72.39268534699994, 8.35814777700017], [-72.39248825399994, 8.357904261000101], [-72.39207506799988, 8.357288071000085], [-72.39201754899983, 8.35718304400001], [-72.39182078199997, 8.356823760000168], [-72.39167349199994, 8.356461632000048], [-72.39154230399993, 8.355999849000113], [-72.39148401199992, 8.355654547000142], [-72.39148167299999, 8.355358174], [-72.39152015999997, 8.355119591000118], [-72.39159164799992, 8.354873086000055], [-72.39181857799997, 8.354402690000029], [-72.39200003599996, 8.354180090000057], [-72.39227473599988, 8.353931425000042], [-72.39248876799991, 8.35373767700014], [-72.39282000399999, 8.353338572000098], [-72.39312245899993, 8.352884251000035], [-72.39338876499994, 8.352341020000154], [-72.39363167499988, 8.35173179200018], [-72.39372825499998, 8.351311732000056], [-72.39371435599998, 8.3507925400001], [-72.39366967299992, 8.350564003000102], [-72.39360193399983, 8.350370549000104], [-72.39341896599996, 8.350104577000081], [-72.39310383399999, 8.349856640000098], [-72.39265428299996, 8.349626108000052], [-72.3922093839999, 8.349496326000121], [-72.39188616099989, 8.349452929], [-72.39164463899988, 8.349451358000124], [-72.3916020669999, 8.34945108100004], [-72.39083042499993, 8.349604223000085], [-72.39005639999993, 8.349688169000103], [-72.38973281599988, 8.34965837500016], [-72.3893425999999, 8.349539372000152], [-72.38896633099995, 8.34933942500004], [-72.38869871299994, 8.34909405100018], [-72.38852009899989, 8.348779697000111], [-72.38832680299998, 8.348233753000045], [-72.38824320499998, 8.347841529999982], [-72.3881292079999, 8.346843422], [-72.38790254499997, 8.345982575000107], [-72.38789101099991, 8.345674111000164], [-72.38792260499986, 8.345341970000106], [-72.3880315969999, 8.344928880000055], [-72.38820793799994, 8.344600966000087], [-72.38848168099992, 8.344298396000113], [-72.38904312599993, 8.343808212000056], [-72.38930370199989, 8.343653899000174], [-72.38956194199994, 8.343595902000061], [-72.38984009599994, 8.343600019000178], [-72.39065441799994, 8.343684435000057], [-72.39144953399989, 8.343844746000059], [-72.39231989499996, 8.344168895000166], [-72.39293878499996, 8.344351791000179], [-72.39308411499997, 8.34438010600013], [-72.39318537399998, 8.344399835000047], [-72.39338995799994, 8.34440069500016], [-72.39359627499988, 8.344355007000104], [-72.39371259599994, 8.34430882900017], [-72.39383872099995, 8.34425876000006], [-72.39406110099998, 8.344148350000125], [-72.39446805299997, 8.34394630200012], [-72.39463243699998, 8.34384533900004], [-72.39469692499983, 8.343805732000021], [-72.39474767699994, 8.343774561000032], [-72.39489869699992, 8.34364323699998], [-72.39500400399993, 8.343504537000058], [-72.39508452299992, 8.34332760600006], [-72.39513972099996, 8.34311183799997], [-72.3951756479999, 8.3426504090001], [-72.39513796299991, 8.342100937000112], [-72.39503980299997, 8.3416758890001], [-72.39488348899988, 8.341345725000167], [-72.39476907599993, 8.341204285000174], [-72.39460605999994, 8.34106272800011], [-72.39430383099989, 8.340842890000033], [-72.39403357899994, 8.340646312000104], [-72.39257167999995, 8.339582941000117], [-72.39245619599996, 8.339438170000165], [-72.39236442999993, 8.339246], [-72.39229867299991, 8.33901092900004], [-72.39225903399989, 8.338734195000086], [-72.39224775099996, 8.33836011000011], [-72.39229400499988, 8.338068707000104], [-72.39241489999995, 8.337731835999989], [-72.3926173719999, 8.337350001000118], [-72.39347617999988, 8.336001546000034], [-72.39379346399994, 8.335546765000117], [-72.39382887799997, 8.335504946000128], [-72.39418417699994, 8.33508538100017], [-72.3947033199999, 8.334635102000107], [-72.39487078699983, 8.33436454800011], [-72.39493015699986, 8.33416515700003], [-72.39496391499989, 8.33392705700004], [-72.39496973299993, 8.333478771000102], [-72.39497658099998, 8.332951101000106], [-72.39509096299992, 8.332001574000174], [-72.3951002529999, 8.331602830000065], [-72.39503198999995, 8.331258327000057], [-72.39486930399988, 8.330970326000113], [-72.39457556299993, 8.330661046000102], [-72.39409279799992, 8.330278630000066], [-72.39380805199994, 8.330103545000043], [-72.39366650599993, 8.330016511000167], [-72.39302375199986, 8.3297048230001], [-72.39214234299993, 8.329447861000176], [-72.39196353099999, 8.329361211000105], [-72.39183218999995, 8.32925332200017], [-72.39163756099992, 8.328945557000168], [-72.39158078999992, 8.32876962600011], [-72.3915075299999, 8.328542593000066], [-72.3914668189999, 8.328086294000059], [-72.39151161699988, 8.327682440000046], [-72.39156473399993, 8.327534906999972], [-72.39163714799997, 8.327428367000039], [-72.39172557799992, 8.327364910000028], [-72.39185170199994, 8.327326573000164], [-72.3923630249999, 8.327304472000037], [-72.39250911599999, 8.327298157000143], [-72.39313240599995, 8.327197771000158], [-72.39386626399994, 8.327079578000053], [-72.39408953999992, 8.327072925000152], [-72.39458079799982, 8.32711419800006], [-72.39481360899998, 8.327082067], [-72.39508348099992, 8.326950804000091], [-72.39529932799985, 8.326775947000101], [-72.39540136799997, 8.326612302000115], [-72.39544405299984, 8.326393210000106], [-72.3954298619999, 8.326131218000114], [-72.39536213899999, 8.325822807000065], [-72.39523756399996, 8.325466500000175], [-72.39523361599998, 8.325455208000108], [-72.39510841799995, 8.325218691000032], [-72.39467089399989, 8.32466327200018], [-72.39399113899998, 8.324046110999973], [-72.39368111799996, 8.323636238000063], [-72.39348913299989, 8.323294032000035], [-72.39341156999996, 8.323073121000107], [-72.39338764099995, 8.322896571000058], [-72.39341026499994, 8.322702442000093], [-72.39346313599998, 8.32224876400005], [-72.39345911999999, 8.322021866000114], [-72.39336369199992, 8.321668163000027], [-72.39319805199989, 8.32130676900016], [-72.39292521099998, 8.320905331000176], [-72.39260223199989, 8.320587489000161], [-72.39217552699995, 8.320304536000094], [-72.39171494299984, 8.320108491000155], [-72.39165650499996, 8.320097445000101], [-72.39135696899996, 8.32004082900005], [-72.39089965699998, 8.320029914000145], [-72.39020528799989, 8.320061598999985], [-72.3895067439999, 8.320170671000142], [-72.38920257899997, 8.320179574000065], [-72.38898670499998, 8.320139976000178], [-72.38874166299996, 8.320060088000162], [-72.38827604399995, 8.319817139], [-72.38807317199996, 8.31966202600006], [-72.38790731199992, 8.319487100000174], [-72.38774811699989, 8.319261469000025], [-72.38765439999997, 8.31908962200015], [-72.38759649799994, 8.318983449000143], [-72.38730184799994, 8.318273035000175], [-72.38726911599997, 8.318098518], [-72.38716552099999, 8.317546172000164], [-72.38711198299984, 8.317395093000187], [-72.38703939999988, 8.317279128000052], [-72.38683034399997, 8.31712949600012], [-72.38628661699994, 8.316948225000147], [-72.38608146399991, 8.316842529000098], [-72.38591938999991, 8.316686140000058], [-72.38551258799993, 8.31615736599997], [-72.38520693599997, 8.315921028000162], [-72.38491020399994, 8.315752830000065], [-72.38467693399997, 8.315669071000173], [-72.38443469599991, 8.31563104200012], [-72.38414020999988, 8.315630972000122], [-72.38378743599992, 8.315670659000148], [-72.38350883299995, 8.315762530000029], [-72.3834933359999, 8.315767640000047], [-72.38284538099998, 8.316100739000035], [-72.38253422799988, 8.316178138000112], [-72.38222893999995, 8.3161907920001], [-72.38198982599994, 8.316170565000107], [-72.38180540999997, 8.316120131], [-72.3816102699999, 8.316019295000046], [-72.38142396799992, 8.31587855600003], [-72.38128943599992, 8.315727155], [-72.38122204199993, 8.315583747000062], [-72.38119337099994, 8.315404936999983], [-72.38121537099994, 8.315147099000171], [-72.38122083199994, 8.315083099], [-72.3812357139999, 8.315029732000141], [-72.38056984499997, 8.31542261300001], [-72.38057196699998, 8.315425662], [-72.38050399999986, 8.315398], [-72.38046981299993, 8.31534898600006], [-72.380199, 8.31496], [-72.380315, 8.314079000000163], [-72.380209, 8.313086], [-72.37954899999988, 8.312201000000186], [-72.3788064439999, 8.312159784000187], [-72.377333, 8.312078000000156], [-72.37633899999986, 8.3113], [-72.37618947999994, 8.311074322000081], [-72.3749773749999, 8.309244834000026], [-72.37436, 8.308313], [-72.373592, 8.306876000000159], [-72.37338050099993, 8.306754186000035], [-72.37204499999984, 8.305985000000135], [-72.37071999999989, 8.304875000000152], [-72.36995, 8.303769000000102], [-72.368729, 8.304202], [-72.367618, 8.304637000000184], [-72.366732, 8.304631], [-72.365292, 8.304513], [-72.364854, 8.303408000000104], [-72.36475299999984, 8.301534000000117], [-72.363873, 8.300427000000184], [-72.362321, 8.30041800000015], [-72.36176499999988, 8.300855], [-72.362202, 8.301960000000179], [-72.362741, 8.304718], [-72.362073, 8.305376], [-72.361077, 8.305039], [-72.360207, 8.301948], [-72.3595519999999, 8.300181], [-72.358119, 8.298630000000173], [-72.356906, 8.297520000000134], [-72.356138, 8.296083000000124], [-72.35525499999983, 8.295527000000106], [-72.35337, 8.29562600000014], [-72.352819, 8.294962], [-72.352942, 8.292868], [-72.352063, 8.291321], [-72.35018799999989, 8.289656], [-72.348422, 8.288213000000155], [-72.346105, 8.286216000000138], [-72.344551, 8.286647], [-72.34377099999989, 8.287524000000133], [-72.34210499999989, 8.288176], [-72.341378, 8.289012000000184], [-72.338006, 8.296868], [-72.339338, 8.298204000000112], [-72.342246, 8.301324000000136], [-72.346349, 8.304431], [-72.349831, 8.305742000000123], [-72.352002, 8.307294], [-72.352984, 8.30931], [-72.35399, 8.313015], [-72.351072, 8.331547]]]}}, {"type": "Feature", "properties": {"Pais": "Venezuela", "Estado": "T\u00e1chira", "Municipio": "Garc\u00eda de Hevia", "Parroquia": "Jos\u00e9 Antonio P\u00e1ez"}, "geometry": {"type": "Polygon", "coordinates": [[[-72.3347078299999, 8.47337715100008], [-72.34059516499985, 8.49025247500009], [-72.34421436199989, 8.50061768], [-72.34854154199991, 8.500640657000076], [-72.34838452399998, 8.498494611000126], [-72.34943655899997, 8.49723857400005], [-72.35058759499998, 8.495625545000053], [-72.3520076509999, 8.494321507000166], [-72.35247865199989, 8.492969477000031], [-72.35235764499998, 8.491323438000165], [-72.35190562399998, 8.490541424000128], [-72.3514946009999, 8.48962040500004], [-72.35096157599986, 8.489071397000089], [-72.34985952899996, 8.487700371000187], [-72.34939249899998, 8.486575355000184], [-72.34842745199995, 8.485679337000079], [-72.34824144099997, 8.484128314000088], [-72.34857943899993, 8.482393276000096], [-72.34866844599992, 8.481815257000108], [-72.35066351599988, 8.480461219000176], [-72.35292159999995, 8.479806195000151], [-72.35458867099993, 8.479362172000094], [-72.35617873599995, 8.479266166000173], [-72.3574307799999, 8.478841148000186], [-72.35924484899988, 8.4775641170001], [-72.3601518829999, 8.476674085000184], [-72.36057988999994, 8.475920069000153], [-72.36132091899998, 8.475450058999968], [-72.36211494299988, 8.473578010999972], [-72.36135090199997, 8.472030988000142], [-72.36066887199996, 8.470731964000151], [-72.36007983899998, 8.469474943000137], [-72.35947180399995, 8.468814931000054], [-72.35790273799995, 8.468337933000043], [-72.35674969499996, 8.468390940000063], [-72.35518163599988, 8.468462940000165], [-72.3543455979999, 8.468386944000088], [-72.35343155799995, 8.468108949000111], [-72.35221150899997, 8.467705939000155], [-72.35078144899995, 8.466739930000074], [-72.35032141999983, 8.46575291400012], [-72.34996940299999, 8.46411688000012], [-72.34960837799997, 8.46328586300018], [-72.35033939399989, 8.46104981000019], [-72.35040638799995, 8.459486784000148], [-72.35110641399996, 8.458101747000057], [-72.35206744999988, 8.456359705000125], [-72.35293046299995, 8.454484665000109], [-72.35332847799992, 8.453067631000067], [-72.35347047599998, 8.452647621000153], [-72.35284743899985, 8.450612580999973], [-72.35278742999992, 8.449307559000033], [-72.35267742199989, 8.447890528000073], [-72.35217539899992, 8.44649250200007], [-72.35266241199997, 8.445001465000075], [-72.35240138799998, 8.442812423000134], [-72.35242637599998, 8.440815375000113], [-72.35281938499992, 8.438778331000094], [-72.35321238799992, 8.437774306000108], [-72.35323439499996, 8.437750313000151], [-72.35369439999994, 8.436674283000116], [-72.35525745699994, 8.434468227000025], [-72.35557245999996, 8.433766219], [-72.35649249999989, 8.432645192000052], [-72.35775654599996, 8.431990161000158], [-72.36068565499994, 8.431350140000063], [-72.36118271899994, 8.431273936000139], [-72.36077300799997, 8.429393577000042], [-72.36061988899996, 8.428816294000171], [-72.360436, 8.428123], [-72.360321, 8.427232000000174], [-72.361778, 8.426055000000133], [-72.3598104649999, 8.424728058000142], [-72.35971399999988, 8.424663], [-72.3566, 8.423571000000152], [-72.35467099999983, 8.42185], [-72.35469421299996, 8.420518861000119], [-72.3547, 8.420187000000112], [-72.35499, 8.418532000000141], [-72.354626, 8.416968], [-72.3536079999999, 8.415495], [-72.352574, 8.414910000000134], [-72.351662, 8.414772], [-72.347053, 8.409643], [-72.34631499999989, 8.407069], [-72.347275, 8.404436], [-72.34901799999989, 8.401825000000144], [-72.349324, 8.399283000000139], [-72.34809699999988, 8.394809000000123], [-72.346582, 8.39188], [-72.343213, 8.390448000000106], [-72.341934, 8.388968], [-72.342473, 8.387986000000126], [-72.343283, 8.38645700000012], [-72.344549, 8.38128], [-72.345661, 8.377431], [-72.34805199999988, 8.375061], [-72.348066, 8.374284000000102], [-72.34509999999989, 8.372199], [-72.34474, 8.370414], [-72.346625, 8.367142000000172], [-72.34665199999989, 8.365590000000168], [-72.346173, 8.363135000000113], [-72.345705, 8.360015], [-72.34485299999989, 8.356551000000138], [-72.344128, 8.353201], [-72.345088, 8.350567], [-72.351072, 8.331547], [-72.1305349999999, 8.339621], [-72.13194399999986, 8.341685], [-72.134296, 8.341545], [-72.135888, 8.341842], [-72.137459, 8.343607000000134], [-72.13845, 8.343446], [-72.14094299999988, 8.344751], [-72.14251399999984, 8.346655], [-72.143945, 8.346516000000122], [-72.145004, 8.345734], [-72.14627499999989, 8.347661000000187], [-72.147729, 8.347843000000125], [-72.148492, 8.349632], [-72.149276, 8.349356], [-72.149371, 8.351284], [-72.14877299999989, 8.352937], [-72.149744, 8.354933000000187], [-72.150163, 8.357526000000178], [-72.15081099999986, 8.359499], [-72.151412, 8.360646], [-72.152821, 8.361654000000101], [-72.152247, 8.363881000000163], [-72.1517669999999, 8.367530000000102], [-72.153497, 8.367529], [-72.15372999999988, 8.369548000000123], [-72.152118, 8.37111], [-72.149997, 8.372237], [-72.1495149999999, 8.374326], [-72.149586, 8.375474000000168], [-72.1493569999999, 8.376714], [-72.15030299999984, 8.377448], [-72.150628, 8.378687], [-72.150676, 8.38027000000011], [-72.150608, 8.381739], [-72.148971, 8.382131000000129], [-72.147173, 8.383074000000136], [-72.147336, 8.384336000000133], [-72.14833, 8.38575800000018], [-72.149508, 8.387363000000107], [-72.15043199999985, 8.388395], [-72.151865, 8.390184], [-72.153205, 8.392087000000174], [-72.153691, 8.393326], [-72.154731, 8.395322000000135], [-72.154341, 8.396676], [-72.154643, 8.398351000000105], [-72.154414, 8.400257], [-72.153031, 8.401061], [-72.152317, 8.401911000000155], [-72.15445, 8.404506], [-72.152782, 8.404825], [-72.154307, 8.406384], [-72.15573199999989, 8.405505000000176], [-72.15751099999989, 8.404844], [-72.157744, 8.406427], [-72.15807, 8.409273], [-72.159547, 8.408904], [-72.160219, 8.410831000000144], [-72.159735, 8.411750000000154], [-72.1596909999999, 8.413517000000127], [-72.15985920799994, 8.41396713000006], [-72.160154, 8.414756000000182], [-72.162461, 8.414799000000187], [-72.164492, 8.415486000000158], [-72.166152, 8.41415300000017], [-72.167122, 8.415277000000117], [-72.168737, 8.4157340000001], [-72.170169, 8.416651000000115], [-72.17175999999989, 8.416328], [-72.172269, 8.417176], [-72.17233423199997, 8.418482027000152], [-72.172363, 8.41905800000012], [-72.17232, 8.421193], [-72.17249876699992, 8.422388137000041], [-72.17250290999993, 8.422415831000023], [-72.17258954699997, 8.423474585000065], [-72.17282556299995, 8.42346607800016], [-72.21622677399989, 8.42190169900016], [-72.30865526799982, 8.375672249000104], [-72.3091663639999, 8.391121570000053], [-72.31911783699996, 8.404491796000173], [-72.32284714599996, 8.433635381000045], [-72.32271420599989, 8.445207632000177], [-72.32544038699996, 8.459421913000028], [-72.3347078299999, 8.47337715100008]]]}}]}