{"type": "FeatureCollection", "features": [{"type": "Feature", "properties": {"Pais": "Venezuela", "Estado": "Aragua", "Municipio": "Girardot", "Parroquia": "No Urbana Choroni"}, "geometry": {"type": "Polygon", "coordinates": [[[-67.568126, 10.512611], [-67.5666849999999, 10.514383000000123], [-67.56608040399988, 10.515165923000154], [-67.565556, 10.515845000000127], [-67.56519575299995, 10.516107883000075], [-67.56489764199989, 10.516325423000126], [-67.56466470999999, 10.516510966000112], [-67.56469671999997, 10.516546535000145], [-67.56813287699998, 10.517343541], [-67.56922291799992, 10.517373535], [-67.56931892199998, 10.518104552000182], [-67.57008495199995, 10.517503526000041], [-67.5702369629999, 10.516580512000019], [-67.57057196199997, 10.515604483000175], [-67.57139599399994, 10.514680448000036], [-67.57262804099992, 10.513512407000121], [-67.57430310699988, 10.51242136999997], [-67.57553416699994, 10.51249236200016], [-67.57615817999988, 10.511185330000046], [-67.57649419599989, 10.51023230200002], [-67.57797424999995, 10.50951427200016], [-67.57905129199992, 10.509178261000159], [-67.58056535799994, 10.508757236], [-67.58178540699998, 10.508530230000076], [-67.58315046999996, 10.507840203000114], [-67.58426151199996, 10.507800191000172], [-67.58454653599995, 10.508616206999989], [-67.58503755599997, 10.50873620699997], [-67.58590358299995, 10.508339191000175], [-67.5865076149999, 10.507744173000162], [-67.58796367499997, 10.507004148000135], [-67.58961474299997, 10.50717514400003], [-67.59148782499994, 10.507682143000181], [-67.59288388699991, 10.507839139], [-67.59348990199999, 10.506670109000083], [-67.59555799699984, 10.506826096000111], [-67.59718407299994, 10.508191130000114], [-67.59830913499991, 10.509161142000039], [-67.59786412399995, 10.5102781760001], [-67.59730310499998, 10.51142220700018], [-67.59854315799993, 10.512365221000039], [-67.60180730799982, 10.51227220800007], [-67.60284035099994, 10.512626204000071], [-67.60432441899997, 10.512665195000181], [-67.60484042999997, 10.511568168999986], [-67.60606148099998, 10.510744139000053], [-67.60777754899988, 10.510133115000087], [-67.6089985989999, 10.509309084000051], [-67.60999162699994, 10.50794304100009], [-67.6116446979999, 10.506875004999984], [-67.61283931799983, 10.506556661000104], [-67.61343477099996, 10.506397984000046], [-67.61508683999989, 10.505949961], [-67.61558186199989, 10.504921924000143], [-67.61630988199994, 10.503932898000187], [-67.61775193799997, 10.502802862000124], [-67.61966102299982, 10.502413833], [-67.62202411599992, 10.502375824000126], [-67.62387919299994, 10.501781792000031], [-67.62523725799997, 10.501526783000145], [-67.62676532699993, 10.501495768000154], [-67.63138352299995, 10.501652745000115], [-67.63507468199998, 10.501819732000115], [-67.6366817519999, 10.500775689000022], [-67.63833781899996, 10.500441674000172], [-67.64005189599987, 10.50104567700015], [-67.64282001799995, 10.501956694000114], [-67.64469467799995, 10.50217626000017], [-67.64473900099989, 10.502008005000164], [-67.64490352699994, 10.501179955000055], [-67.645225, 10.499562], [-67.646405, 10.496308000000113], [-67.64658627599988, 10.494914790999985], [-67.646793, 10.493326], [-67.646574, 10.490938], [-67.647071, 10.48938], [-67.6490639999999, 10.485946000000183], [-67.64919896299989, 10.485637514000075], [-67.65068799999989, 10.482234000000176], [-67.654238, 10.474423000000115], [-67.655512, 10.471076000000153], [-67.656931, 10.46649200000013], [-67.657873, 10.46408600000018], [-67.657033, 10.460686], [-67.656126, 10.459015], [-67.651358, 10.451718], [-67.650829, 10.450685], [-67.65035499999988, 10.450169], [-67.64990199999988, 10.44814700000012], [-67.650052, 10.446265], [-67.649437, 10.444174], [-67.647347, 10.439896], [-67.644953, 10.436191000000122], [-67.642763, 10.433267000000171], [-67.64110799999986, 10.430183], [-67.639703, 10.42808900000017], [-67.637843, 10.424294], [-67.636049, 10.421119], [-67.63402899999988, 10.417002000000139], [-67.633644, 10.415256000000113], [-67.632709, 10.4121990000001], [-67.63203199999987, 10.408639], [-67.631097, 10.405628], [-67.630644, 10.403629000000137], [-67.630258, 10.402136], [-67.629936, 10.401561000000129], [-67.62869099999983, 10.40004], [-67.6277429999999, 10.399233], [-67.627315, 10.396890000000155], [-67.627385, 10.395036], [-67.627421, 10.394114000000172], [-67.627424, 10.394022000000177], [-67.627667, 10.392187], [-67.629304, 10.389989], [-67.631758, 10.387131], [-67.633416, 10.385554000000127], [-67.63429, 10.382781], [-67.633375, 10.380367000000149], [-67.63246, 10.377907000000164], [-67.63190999999989, 10.376689000000113], [-67.63123599999989, 10.372509], [-67.631057, 10.371337], [-67.631254, 10.369295], [-67.631771, 10.368265000000122], [-67.631933, 10.366563], [-67.632175, 10.365587], [-67.632129, 10.364501], [-67.63123399999989, 10.364705], [-67.629638, 10.363619000000142], [-67.628317, 10.363086], [-67.627599, 10.362945000000138], [-67.626857, 10.362689000000103], [-67.6263699999999, 10.362550000000113], [-67.62586, 10.362410000000125], [-67.62477, 10.362176], [-67.622647, 10.360844], [-67.615867, 10.363001000000168], [-67.60483499999987, 10.363157000000115], [-67.58621199999988, 10.360722], [-67.579692, 10.357454000000189], [-67.57376099999988, 10.356413], [-67.56806299999988, 10.359288], [-67.56379, 10.361505], [-67.55774, 10.362165], [-67.556466, 10.362448], [-67.55997899999988, 10.365383], [-67.56153, 10.367898000000139], [-67.563197, 10.371029], [-67.56511, 10.374563], [-67.567354, 10.379532000000154], [-67.5675629999999, 10.383334000000104], [-67.570122, 10.39249], [-67.5726489999999, 10.396347000000162], [-67.57261, 10.399675], [-67.57135099999988, 10.403276], [-67.57155199999988, 10.406229000000167], [-67.572616, 10.412478], [-67.573072, 10.417970000000139], [-67.572909, 10.421119], [-67.572402, 10.426231], [-67.5719739999999, 10.429114], [-67.571484, 10.434707000000117], [-67.570958, 10.438672], [-67.57008799999983, 10.445288000000176], [-67.568913, 10.448014000000114], [-67.567574, 10.450035], [-67.566961, 10.452902000000108], [-67.567289, 10.455553], [-67.568946, 10.464099], [-67.569854, 10.466751], [-67.569535, 10.470066], [-67.568505, 10.472306000000117], [-67.568273, 10.476719], [-67.568908, 10.479519], [-67.5681, 10.48276], [-67.568086, 10.48491700000011], [-67.568247, 10.487412000000177], [-67.568706, 10.489828], [-67.569709, 10.491904], [-67.5708, 10.494482000000176], [-67.57152541699992, 10.497643331000177], [-67.57159899999988, 10.497964000000138], [-67.57130699999988, 10.499466], [-67.57058699999982, 10.501969], [-67.569945, 10.504034], [-67.569375, 10.506211], [-67.56885166099994, 10.508525832999965], [-67.568737, 10.509033000000102], [-67.56855699999988, 10.510439], [-67.568126, 10.512611]]]}}, {"type": "Feature", "properties": {"Pais": "Venezuela", "Estado": "Aragua", "Municipio": "Girardot", "Parroquia": "las Delicias"}, "geometry": {"type": "Polygon", "coordinates": [[[-67.526936, 10.292041], [-67.529217, 10.296381], [-67.53131499999984, 10.29873], [-67.530877, 10.300842], [-67.529721, 10.303220000000124], [-67.530264, 10.305639], [-67.529386, 10.307898], [-67.529974, 10.309534], [-67.53066299999989, 10.312155], [-67.530607, 10.314686], [-67.53161699999987, 10.316446], [-67.531689, 10.318651], [-67.53105, 10.320419000000129], [-67.530314, 10.322742000000119], [-67.53097, 10.326491], [-67.530603, 10.32980300000014], [-67.530712, 10.334687], [-67.53094, 10.336491000000137], [-67.53061, 10.338866], [-67.53165599999988, 10.340871000000163], [-67.532966, 10.343142000000114], [-67.533289, 10.345012000000168], [-67.53504, 10.347527], [-67.535353, 10.347913000000176], [-67.53620199999989, 10.348959], [-67.53661499999987, 10.349233], [-67.53802699999989, 10.351208000000156], [-67.539125, 10.352561], [-67.54180999999983, 10.354394000000127], [-67.54656299999988, 10.357071000000133], [-67.5506539999999, 10.359358], [-67.5556059999999, 10.361729], [-67.556466, 10.362448], [-67.55774, 10.362165], [-67.56379, 10.361505], [-67.56806299999988, 10.359288], [-67.57376099999988, 10.356413], [-67.579692, 10.357454000000189], [-67.58621199999988, 10.360722], [-67.60483499999987, 10.363157000000115], [-67.615867, 10.363001000000168], [-67.622647, 10.360844], [-67.621275, 10.360095], [-67.618842, 10.359327000000121], [-67.617358, 10.359022], [-67.616086, 10.358099], [-67.613126, 10.355997], [-67.611136, 10.355002000000184], [-67.609263, 10.353547], [-67.607092, 10.351656000000105], [-67.605152, 10.349903], [-67.604229, 10.348866000000157], [-67.603445, 10.34783], [-67.601273, 10.3459390000001], [-67.599311, 10.343909], [-67.597812, 10.342181], [-67.59626, 10.339028], [-67.594957, 10.338015], [-67.5929, 10.336491000000137], [-67.59013, 10.33361], [-67.58746799999989, 10.328365000000133], [-67.587573, 10.326162000000124], [-67.587769, 10.324396], [-67.588853, 10.321532], [-67.587692, 10.317602], [-67.58776099999989, 10.313609], [-67.58768, 10.311543], [-67.58634099999989, 10.310183000000166], [-67.586358, 10.307339], [-67.58833699999985, 10.306129000000112], [-67.588048, 10.302137], [-67.5886359999999, 10.298463], [-67.58807999999982, 10.295067000000188], [-67.58742499999988, 10.29233], [-67.5880059999999, 10.290259000000106], [-67.5886809999999, 10.288188000000162], [-67.58783999999986, 10.283425], [-67.58783299999988, 10.283384], [-67.587769, 10.283384], [-67.586275, 10.277861000000144], [-67.585954, 10.274633], [-67.5858429999999, 10.272461], [-67.58672, 10.271502000000169], [-67.5867209999999, 10.271500000000174], [-67.585143, 10.270101], [-67.5863389999999, 10.268086], [-67.58788199999987, 10.265328000000181], [-67.586614, 10.263991], [-67.583864, 10.260974], [-67.581976, 10.25948], [-67.581543, 10.259076000000164], [-67.58108, 10.258454], [-67.581018, 10.258409], [-67.580739, 10.258205], [-67.579402, 10.258016], [-67.579185, 10.257892], [-67.577982, 10.256337], [-67.57742199999984, 10.256181], [-67.5771749999999, 10.255932], [-67.57727, 10.255746000000158], [-67.57755, 10.255716000000177], [-67.57767499999989, 10.255592], [-67.57758499999983, 10.255095], [-67.57767999999987, 10.254878], [-67.5778069999999, 10.25441300000017], [-67.577812, 10.253668000000175], [-67.576852, 10.253015000000119], [-67.57465, 10.251893], [-67.573568, 10.251569], [-67.57222499999989, 10.251132000000155], [-67.566611, 10.249511], [-67.56551499999989, 10.249255], [-67.565496, 10.249247000000139], [-67.565116, 10.249023], [-67.564954, 10.248782], [-67.564745, 10.248302], [-67.564626, 10.247557], [-67.5647259999999, 10.246471], [-67.564542, 10.246098000000188], [-67.564109, 10.245694000000128], [-67.563593, 10.245465], [-67.563333, 10.24535], [-67.561624, 10.245005000000162], [-67.560507, 10.24453700000015], [-67.5586459999999, 10.243509000000188], [-67.558533, 10.243395], [-67.558059, 10.242918000000145], [-67.55580699999985, 10.239996000000133], [-67.55518899999987, 10.239343], [-67.555143, 10.23932600000012], [-67.555129, 10.23931], [-67.554904, 10.239184], [-67.553719, 10.238393], [-67.553555, 10.239345], [-67.55322, 10.241281], [-67.55306899999988, 10.242151], [-67.553053, 10.242245], [-67.54924, 10.24576], [-67.546845, 10.244878000000142], [-67.542843, 10.245286000000135], [-67.542567, 10.245616], [-67.539321, 10.251072000000136], [-67.538373, 10.254664000000162], [-67.53815, 10.255511], [-67.539165, 10.259960000000149], [-67.539618, 10.260279], [-67.540922, 10.261053000000118], [-67.541052, 10.261223], [-67.54144699999989, 10.26174200000014], [-67.543174, 10.263853], [-67.543144, 10.263968], [-67.543178, 10.264013], [-67.542624, 10.265949], [-67.54165199999989, 10.269657], [-67.536557, 10.27658600000018], [-67.53389, 10.281132], [-67.531927, 10.282718], [-67.527759, 10.288283], [-67.526937, 10.291813], [-67.526937, 10.291895000000125], [-67.526936, 10.292041]]]}}, {"type": "Feature", "properties": {"Pais": "Venezuela", "Estado": "Aragua", "Municipio": "Girardot", "Parroquia": "Madre Mar\u00eda de San Jos\u00e9"}, "geometry": {"type": "Polygon", "coordinates": [[[-67.573966, 10.240798], [-67.55511, 10.235120000000109], [-67.553762, 10.238145], [-67.553719, 10.238393], [-67.554904, 10.239184], [-67.555129, 10.23931], [-67.555143, 10.23932600000012], [-67.55518899999987, 10.239343], [-67.55580699999985, 10.239996000000133], [-67.558059, 10.242918000000145], [-67.558533, 10.243395], [-67.5586459999999, 10.243509000000188], [-67.560507, 10.24453700000015], [-67.561624, 10.245005000000162], [-67.563333, 10.24535], [-67.563593, 10.245465], [-67.564109, 10.245694000000128], [-67.564542, 10.246098000000188], [-67.5647259999999, 10.246471], [-67.564626, 10.247557], [-67.564745, 10.248302], [-67.564954, 10.248782], [-67.565116, 10.249023], [-67.565496, 10.249247000000139], [-67.56551499999989, 10.249255], [-67.566611, 10.249511], [-67.57222499999989, 10.251132000000155], [-67.573568, 10.251569], [-67.57465, 10.251893], [-67.576852, 10.253015000000119], [-67.577812, 10.253668000000175], [-67.5778069999999, 10.25441300000017], [-67.57767999999987, 10.254878], [-67.57758499999983, 10.255095], [-67.57767499999989, 10.255592], [-67.57755, 10.255716000000177], [-67.57727, 10.255746000000158], [-67.5771749999999, 10.255932], [-67.57742199999984, 10.256181], [-67.577982, 10.256337], [-67.579185, 10.257892], [-67.579402, 10.258016], [-67.580739, 10.258205], [-67.581018, 10.258409], [-67.58108, 10.258454], [-67.581543, 10.259076000000164], [-67.581976, 10.25948], [-67.583864, 10.260974], [-67.586614, 10.263991], [-67.58788199999987, 10.265328000000181], [-67.5863389999999, 10.268086], [-67.585143, 10.270101], [-67.5867209999999, 10.271500000000174], [-67.58672, 10.271502000000169], [-67.5858429999999, 10.272461], [-67.585954, 10.274633], [-67.586275, 10.277861000000144], [-67.587769, 10.283384], [-67.58783299999988, 10.283384], [-67.58783999999986, 10.283425], [-67.59849999999989, 10.276687000000152], [-67.603356, 10.269979], [-67.601771, 10.265919], [-67.601771, 10.26591800000017], [-67.600968, 10.263861000000134], [-67.601072, 10.262673], [-67.601118, 10.262139000000104], [-67.601107, 10.261927000000185], [-67.601113, 10.26179000000019], [-67.60108999999989, 10.261639000000116], [-67.60108, 10.261461000000168], [-67.60101, 10.261102000000108], [-67.6008819999999, 10.260246000000166], [-67.600863, 10.259921], [-67.600857, 10.259825000000149], [-67.600878, 10.259341], [-67.60088, 10.259326], [-67.600947, 10.25889500000011], [-67.601031, 10.258616000000131], [-67.601072, 10.258528000000126], [-67.601079, 10.258456], [-67.601114, 10.258343], [-67.601362, 10.257853], [-67.601692, 10.257323], [-67.60167499999989, 10.257149], [-67.60168, 10.255924000000164], [-67.60153799999989, 10.255565000000104], [-67.600846, 10.253456], [-67.602103, 10.247232], [-67.600668, 10.247032], [-67.600438, 10.248158000000103], [-67.59820499999984, 10.247538000000134], [-67.593246, 10.246479], [-67.593624, 10.24439], [-67.588283, 10.243906], [-67.587405, 10.243819], [-67.583988, 10.243484], [-67.581937, 10.243380000000172], [-67.581015, 10.243226], [-67.580134, 10.243052], [-67.579376, 10.242818], [-67.573966, 10.240798]]]}}, {"type": "Feature", "properties": {"Pais": "Venezuela", "Estado": "Aragua", "Municipio": "Girardot", "Parroquia": "Joaqu\u00edn Crespo"}, "geometry": {"type": "Polygon", "coordinates": [[[-67.56207, 10.22034], [-67.562088, 10.220345000000123], [-67.562057, 10.220410000000129], [-67.562047, 10.220420000000104], [-67.562046, 10.220421000000158], [-67.561999, 10.220467], [-67.561975, 10.220518], [-67.56198099999989, 10.22057500000011], [-67.561992, 10.22071300000016], [-67.561962, 10.220821], [-67.561863, 10.220929000000126], [-67.56180499999988, 10.221009000000151], [-67.561718, 10.221122], [-67.561672, 10.221179000000177], [-67.56159599999984, 10.221259], [-67.561515, 10.221298000000104], [-67.561463, 10.221338], [-67.5613929999999, 10.221406000000115], [-67.56130599999989, 10.221474], [-67.561225, 10.221514000000184], [-67.561156, 10.221571], [-67.561034, 10.221679000000165], [-67.560907, 10.221798], [-67.560791, 10.221917000000133], [-67.560726, 10.222014000000172], [-67.560715, 10.22206], [-67.560656, 10.222139], [-67.56061, 10.222208], [-67.560598, 10.222322], [-67.560597, 10.222454], [-67.560585, 10.222516000000155], [-67.560544, 10.22259600000018], [-67.560376, 10.222789], [-67.56026, 10.222903], [-67.560167, 10.222994], [-67.560086, 10.223079], [-67.56001, 10.22321], [-67.55994, 10.223307], [-67.559824, 10.223421], [-67.559662, 10.223597], [-67.559557, 10.223722], [-67.559505, 10.223813000000177], [-67.559487, 10.2239110000001], [-67.559463, 10.224013000000184], [-67.559399, 10.224121], [-67.559358, 10.224196], [-67.55930599999988, 10.22431], [-67.559282, 10.224412], [-67.559241, 10.224561], [-67.559159, 10.22475500000013], [-67.559088, 10.22496], [-67.559018, 10.225143], [-67.558971, 10.225268], [-67.558947, 10.225382000000138], [-67.558947, 10.225491], [-67.558923, 10.225554000000159], [-67.558859, 10.22563300000013], [-67.558749, 10.225741], [-67.55864999999989, 10.225867000000108], [-67.558569, 10.225917000000152], [-67.5585, 10.22598], [-67.558441, 10.226042], [-67.55840099999989, 10.226162], [-67.558336, 10.226333000000125], [-67.55827199999987, 10.226447000000121], [-67.558167, 10.22655500000019], [-67.558075, 10.226646], [-67.557953, 10.226737000000128], [-67.557866, 10.226799000000142], [-67.55767, 10.226855000000171], [-67.557519, 10.226917000000128], [-67.557294, 10.227047], [-67.5571139999999, 10.227195], [-67.55689399999989, 10.227417000000116], [-67.55664399999989, 10.227712000000167], [-67.556405, 10.228025000000116], [-67.556254, 10.22823], [-67.55614999999989, 10.22839000000016], [-67.556021, 10.228606], [-67.555887, 10.228926], [-67.555799, 10.229171000000122], [-67.555751, 10.229497], [-67.555701, 10.230165000000113], [-67.5556509999999, 10.230788000000132], [-67.555628, 10.231177000000173], [-67.555587, 10.231700000000103], [-67.55556599999989, 10.231894000000182], [-67.555556, 10.232148], [-67.555554, 10.232414], [-67.555505, 10.232451], [-67.555496, 10.232474], [-67.555485, 10.232908], [-67.555392, 10.233699000000115], [-67.555738, 10.233710000000144], [-67.55511, 10.235120000000109], [-67.573966, 10.240798], [-67.579376, 10.242818], [-67.580134, 10.243052], [-67.581015, 10.243226], [-67.581937, 10.243380000000172], [-67.583988, 10.243484], [-67.587405, 10.243819], [-67.58629399999984, 10.237721], [-67.587576, 10.227271], [-67.562132, 10.220123], [-67.56207, 10.22034]]]}}, {"type": "Feature", "properties": {"Pais": "Venezuela", "Estado": "Aragua", "Municipio": "Girardot", "Parroquia": "Pedro Jos\u00e9 Ovalles"}, "geometry": {"type": "Polygon", "coordinates": [[[-67.585636, 10.204921], [-67.584781, 10.204732], [-67.58242599999988, 10.205011], [-67.58118, 10.20517800000016], [-67.580274, 10.205332000000112], [-67.57999, 10.20544400000017], [-67.579556, 10.205833], [-67.579422, 10.205907], [-67.57921699999986, 10.206123], [-67.579066, 10.206268000000136], [-67.5789759999999, 10.206335], [-67.578836, 10.20642], [-67.578746, 10.206466000000148], [-67.578583, 10.206531], [-67.57767899999988, 10.206941], [-67.576115, 10.208034], [-67.575191, 10.208491], [-67.57497199999989, 10.208786], [-67.574622, 10.209491000000185], [-67.574397, 10.209954], [-67.574246, 10.210411], [-67.57277, 10.211295], [-67.572452, 10.21136700000011], [-67.571853, 10.211753000000101], [-67.57031199999989, 10.212319], [-67.56967999999989, 10.212543], [-67.569632, 10.212751], [-67.569706, 10.212887000000137], [-67.569079, 10.213617000000113], [-67.568974, 10.213618], [-67.56872, 10.21362], [-67.567534, 10.213367], [-67.567249, 10.213466], [-67.567029, 10.214206], [-67.567133, 10.215238000000113], [-67.567017, 10.21546], [-67.56518599999987, 10.21694100000019], [-67.564718, 10.217132000000163], [-67.56393099999985, 10.217220000000168], [-67.563591, 10.21732500000013], [-67.563217, 10.217645000000175], [-67.562963, 10.218257000000165], [-67.562663, 10.21878], [-67.562613, 10.219265], [-67.562408, 10.219622000000129], [-67.562129, 10.21986900000013], [-67.56204, 10.22009700000018], [-67.562132, 10.220123], [-67.587576, 10.227271], [-67.587614, 10.226963], [-67.589871, 10.227537], [-67.590862, 10.223757000000148], [-67.591963, 10.224157], [-67.59263199999987, 10.220853], [-67.592661, 10.220417], [-67.592412, 10.219702], [-67.593277, 10.211983], [-67.59425399999986, 10.208675000000142], [-67.594654, 10.207294000000104], [-67.5947139999999, 10.205183], [-67.594858, 10.203913000000114], [-67.594558, 10.203945], [-67.593874, 10.203977000000123], [-67.59265, 10.204089000000124], [-67.5924, 10.204127], [-67.592234, 10.204154000000187], [-67.5905939999999, 10.204339], [-67.590077, 10.2044], [-67.589825, 10.20439000000016], [-67.589478, 10.204467000000136], [-67.589194, 10.204475000000116], [-67.588558, 10.204627], [-67.588219, 10.204678], [-67.588041, 10.204681000000107], [-67.587525, 10.204732], [-67.586989, 10.204793000000109], [-67.586527, 10.204846], [-67.586156, 10.204916], [-67.585636, 10.204921]]]}}, {"type": "Feature", "properties": {"Pais": "Venezuela", "Estado": "Aragua", "Municipio": "Girardot", "Parroquia": "Jos\u00e9 Casanova Godoy"}, "geometry": {"type": "Polygon", "coordinates": [[[-67.59820499999984, 10.247538000000134], [-67.600438, 10.248158000000103], [-67.600668, 10.247032], [-67.602103, 10.247232], [-67.602761, 10.244210000000123], [-67.605482, 10.231604000000175], [-67.606904, 10.225344000000177], [-67.608085, 10.225564], [-67.608174, 10.225534], [-67.608471, 10.224339000000157], [-67.60923899999983, 10.221185000000162], [-67.60946449899984, 10.219316052000067], [-67.60954778699988, 10.218625760000123], [-67.60997516099997, 10.215083663000087], [-67.610402, 10.211546], [-67.610348, 10.211508], [-67.610263, 10.211451000000125], [-67.61046587699991, 10.211571301000049], [-67.61049087399994, 10.211258297000086], [-67.61032587099999, 10.211068288000092], [-67.60972683499995, 10.210535278000066], [-67.60980383599991, 10.209504251999988], [-67.61061986599987, 10.209121238000137], [-67.61066687199991, 10.20905723900006], [-67.61071986999997, 10.208397221000155], [-67.61019484499997, 10.20712119000018], [-67.60951040499998, 10.206020282000054], [-67.60916278699983, 10.205461147000051], [-67.60910216399998, 10.205231872000184], [-67.60893776599994, 10.20461012800007], [-67.60894448599998, 10.203806378000024], [-67.6089577599999, 10.202065061000098], [-67.60898875299989, 10.201754055000094], [-67.6090337579999, 10.201308040000072], [-67.60919143399997, 10.200993869000115], [-67.60914, 10.200623], [-67.609098, 10.200421], [-67.608963, 10.200303], [-67.608769, 10.200269], [-67.60849799999988, 10.200301], [-67.607777, 10.20048300000019], [-67.60741499999989, 10.200566000000151], [-67.607253, 10.200680000000148], [-67.607132, 10.200758], [-67.606868, 10.200837], [-67.60658299999989, 10.200951], [-67.606344, 10.2009690000001], [-67.606066, 10.20105800000016], [-67.605716, 10.201222], [-67.605604, 10.201267], [-67.60491899999988, 10.201497], [-67.604732, 10.201593], [-67.604385, 10.201693000000148], [-67.603971, 10.201878], [-67.603857, 10.201903], [-67.603689, 10.201915], [-67.60354699999988, 10.201989], [-67.603403, 10.202094000000102], [-67.603233, 10.20219800000018], [-67.603057, 10.202256], [-67.602864, 10.20228], [-67.602447, 10.202383], [-67.60187, 10.20255600000013], [-67.6014679999999, 10.202834], [-67.601344, 10.202911], [-67.6012889999999, 10.202921000000117], [-67.601241, 10.202911], [-67.601169, 10.202889000000141], [-67.601072, 10.202888], [-67.600716, 10.203034], [-67.600544, 10.203087], [-67.60015, 10.203096], [-67.5999589999999, 10.203108000000157], [-67.59967299999988, 10.203170000000114], [-67.59941499999985, 10.203237000000172], [-67.59879199999989, 10.203323000000182], [-67.597927, 10.203498], [-67.596434, 10.203735000000165], [-67.596059, 10.203785], [-67.59591499999988, 10.203760000000102], [-67.595782, 10.203767000000141], [-67.595398, 10.203848000000107], [-67.594858, 10.203913000000114], [-67.5947139999999, 10.205183], [-67.594654, 10.207294000000104], [-67.59425399999986, 10.208675000000142], [-67.593277, 10.211983], [-67.592412, 10.219702], [-67.592661, 10.220417], [-67.59263199999987, 10.220853], [-67.591963, 10.224157], [-67.590862, 10.223757000000148], [-67.589871, 10.227537], [-67.587614, 10.226963], [-67.587576, 10.227271], [-67.58629399999984, 10.237721], [-67.587405, 10.243819], [-67.588283, 10.243906], [-67.593624, 10.24439], [-67.593246, 10.246479], [-67.59820499999984, 10.247538000000134]]]}}, {"type": "Feature", "properties": {"Pais": "Venezuela", "Estado": "Aragua", "Municipio": "Girardot", "Parroquia": "Andr\u00e9s Eloy Blanco"}, "geometry": {"type": "Polygon", "coordinates": [[[-67.58783999999986, 10.283425], [-67.5886809999999, 10.288188000000162], [-67.5880059999999, 10.290259000000106], [-67.58742499999988, 10.29233], [-67.58807999999982, 10.295067000000188], [-67.5886359999999, 10.298463], [-67.588048, 10.302137], [-67.58833699999985, 10.306129000000112], [-67.586358, 10.307339], [-67.58634099999989, 10.310183000000166], [-67.58768, 10.311543], [-67.58776099999989, 10.313609], [-67.587692, 10.317602], [-67.588853, 10.321532], [-67.587769, 10.324396], [-67.587573, 10.326162000000124], [-67.58746799999989, 10.328365000000133], [-67.59013, 10.33361], [-67.5929, 10.336491000000137], [-67.594957, 10.338015], [-67.59626, 10.339028], [-67.595113, 10.333362], [-67.59949199999983, 10.330336000000159], [-67.60031, 10.326138], [-67.602559, 10.318293], [-67.599137, 10.313346], [-67.59720799999985, 10.304569000000185], [-67.600745, 10.297377], [-67.601413, 10.290118000000177], [-67.6019179999999, 10.287416], [-67.602219, 10.285411], [-67.602678, 10.283222000000137], [-67.603182, 10.282108000000164], [-67.60367, 10.281881], [-67.60466999999989, 10.281849], [-67.60595099999983, 10.282007], [-67.606718, 10.282087], [-67.607644, 10.28131800000017], [-67.609179, 10.28012600000011], [-67.60919, 10.28004], [-67.60941899999989, 10.279892000000132], [-67.609862, 10.277617], [-67.609905, 10.276286], [-67.609768, 10.273151000000155], [-67.6096199999999, 10.270863], [-67.60957399999984, 10.27067], [-67.608668, 10.269102], [-67.60786699999989, 10.267789], [-67.60791499999988, 10.267673], [-67.60795499999989, 10.267628], [-67.607945, 10.267601000000127], [-67.608029, 10.267544], [-67.60812299999986, 10.267437], [-67.611031, 10.265504], [-67.61143, 10.264467], [-67.611469, 10.264335], [-67.611501, 10.26428200000015], [-67.611574, 10.264094], [-67.612191, 10.262418], [-67.613233, 10.258934000000124], [-67.613416, 10.258227], [-67.613346, 10.257624000000135], [-67.613277, 10.257383], [-67.613884, 10.255187], [-67.614015, 10.254756000000157], [-67.614147, 10.25423000000012], [-67.61415999999986, 10.2541030000001], [-67.61420299999986, 10.254018], [-67.614648, 10.252773], [-67.614876, 10.251800000000173], [-67.615178, 10.251069], [-67.615308, 10.250928000000101], [-67.615309, 10.250925], [-67.61570599999988, 10.25042400000018], [-67.6158339999999, 10.249870000000158], [-67.616113, 10.248329], [-67.61611899999986, 10.248248], [-67.615957, 10.247728], [-67.615925, 10.247651], [-67.615923, 10.247618000000159], [-67.6159, 10.247545000000173], [-67.615919, 10.24756200000013], [-67.615848, 10.246563], [-67.615474, 10.244928000000186], [-67.6155849999999, 10.244331000000159], [-67.615101, 10.243102], [-67.615267, 10.242397], [-67.615895, 10.241806000000167], [-67.616442, 10.240752000000157], [-67.617782, 10.239026], [-67.61904, 10.238539], [-67.619091, 10.238445], [-67.619142, 10.238330000000133], [-67.61919199999983, 10.238203000000112], [-67.61926, 10.238054], [-67.619337, 10.237864000000116], [-67.619411, 10.237704], [-67.619504, 10.237481], [-67.619559, 10.237348], [-67.61961799999989, 10.237203000000136], [-67.619676, 10.237061], [-67.619728, 10.236905], [-67.61977999999988, 10.236768], [-67.6198639999999, 10.236517], [-67.619895, 10.236447000000112], [-67.61991499999988, 10.236381000000165], [-67.620002, 10.236143], [-67.620065, 10.235959], [-67.620132, 10.235760000000141], [-67.620217, 10.23554], [-67.620282, 10.235357], [-67.62031799999983, 10.235242], [-67.620338, 10.235106], [-67.620355, 10.234991], [-67.620378, 10.234633000000144], [-67.620395, 10.234318], [-67.62041299999987, 10.233968000000175], [-67.620429, 10.233614], [-67.62044699999984, 10.23334], [-67.620458, 10.233195], [-67.620414, 10.233149], [-67.62036899999987, 10.233785000000125], [-67.620472, 10.232095], [-67.62058499999989, 10.231063000000177], [-67.62086099999988, 10.230169000000103], [-67.620837, 10.229407], [-67.620732, 10.228427000000181], [-67.62117, 10.227698], [-67.62199, 10.2263200000001], [-67.62243, 10.224993], [-67.62251727799998, 10.224799798999982], [-67.62265, 10.224506000000133], [-67.623904, 10.223487], [-67.62406999999985, 10.222754000000123], [-67.623801, 10.221881000000167], [-67.6235940489999, 10.220938689000093], [-67.623454, 10.220301000000177], [-67.623675, 10.219488], [-67.624004, 10.218648], [-67.62412199499988, 10.217312969000147], [-67.62369048199997, 10.217536384000084], [-67.62319746799994, 10.21824339800014], [-67.62265944599994, 10.218812424000134], [-67.62283044799995, 10.217643384000041], [-67.62284444599987, 10.217073369000047], [-67.62274344399987, 10.217094370999973], [-67.62255043999988, 10.217133372000092], [-67.6224304349999, 10.21715937700003], [-67.62227841799995, 10.217182378000075], [-67.62215841299997, 10.217203380000058], [-67.62212641299988, 10.21722137800009], [-67.6220474189999, 10.217238384000098], [-67.62190240299998, 10.217252385999984], [-67.62181640799997, 10.217279383], [-67.62173939999991, 10.21730738600013], [-67.62167340199989, 10.21731538000006], [-67.6215513979999, 10.217317391000165], [-67.62145538699997, 10.21734338400006], [-67.62141039099998, 10.217347393000125], [-67.62094636899997, 10.217345385000158], [-67.6207453589999, 10.217354398000111], [-67.62061435599992, 10.217373390000091], [-67.62053034799999, 10.217390395000166], [-67.62043733999991, 10.217405390000067], [-67.62038534399989, 10.217415395000103], [-67.62027833399992, 10.217414402000088], [-67.62019533099988, 10.217400401000077], [-67.62003032899992, 10.217358398999977], [-67.61989331899986, 10.217312399000093], [-67.61980932199992, 10.217266399000039], [-67.61972831699995, 10.217230391000044], [-67.61967031299997, 10.21720939], [-67.61964731199993, 10.217202389000022], [-67.6195173019999, 10.217122392000078], [-67.61944329699992, 10.217061398], [-67.61942429299995, 10.217045398000096], [-67.61909828699999, 10.217015399000047], [-67.61835825599996, 10.216570381000167], [-67.61835424699996, 10.21657338500006], [-67.61832024899991, 10.216623383000126], [-67.6182922459999, 10.216652390000093], [-67.61829624299997, 10.216653383999983], [-67.61828724399993, 10.216665386000102], [-67.6182332489999, 10.21669639300012], [-67.61818924599999, 10.21671338599998], [-67.6181442379999, 10.21671338599998], [-67.61809724399984, 10.216703394000035], [-67.61805223599993, 10.216685396000173], [-67.61802723699998, 10.216678396000134], [-67.6179842389999, 10.216678396000134], [-67.61791122799997, 10.216693391000035], [-67.61787022899989, 10.216719395000041], [-67.6178362309999, 10.216741389999981], [-67.61779822399996, 10.216759389000174], [-67.61774822599983, 10.21675839600016], [-67.61763522099989, 10.216737394], [-67.61750921999993, 10.216702392000172], [-67.61739121299996, 10.216663393000033], [-67.61716619599997, 10.216558397000028], [-67.61706519399996, 10.216514396000036], [-67.6169901849999, 10.216486394000071], [-67.61687318299988, 10.216445397000143], [-67.61686818099992, 10.216442393000023], [-67.61624715299996, 10.216624400000114], [-67.61590613499993, 10.215680375000034], [-67.61572313299996, 10.215289373000019], [-67.61568512499991, 10.215181361000134], [-67.6156711239999, 10.215186363000043], [-67.61563811899993, 10.215192370000068], [-67.61561612299988, 10.215182365999965], [-67.61557312499997, 10.215157368000064], [-67.61552811699988, 10.215114359000097], [-67.6154811109999, 10.215059360000112], [-67.61545112099992, 10.214994356000034], [-67.61541811499995, 10.214920366000172], [-67.61537611099993, 10.214869363000105], [-67.61533511099992, 10.214824356], [-67.61531110499988, 10.214773354000044], [-67.61529910199994, 10.21473435400003], [-67.6152911079999, 10.214653350999981], [-67.61528410499994, 10.214415343000042], [-67.61527609899991, 10.214362342000186], [-67.61527210199995, 10.214299348000111], [-67.61527910199999, 10.214238342000044], [-67.6153080979999, 10.214173337999966], [-67.61536610199988, 10.214084340000056], [-67.61544611199997, 10.213943335000067], [-67.61545810099994, 10.213583325000116], [-67.61544210099999, 10.21361332600003], [-67.61535909899993, 10.213732324000091], [-67.61522109599997, 10.213870338000106], [-67.61508109399995, 10.21397533600009], [-67.61498508299991, 10.214039335000166], [-67.61483507699995, 10.214109342000029], [-67.61478507899989, 10.214140348000114], [-67.61472608199989, 10.21419834000011], [-67.61465607499997, 10.214271350000104], [-67.61459007699989, 10.21433234500006], [-67.61456507799988, 10.21434634600007], [-67.61453606999999, 10.214350355000136], [-67.6145180719999, 10.214347352000175], [-67.61449107399989, 10.214345353000112], [-67.61447306399998, 10.214341357000137], [-67.61439905999998, 10.214306354000144], [-67.61423205899996, 10.214159343000176], [-67.61412405599998, 10.214071351000143], [-67.61403104799984, 10.214017346000048], [-67.61361702799996, 10.214560366], [-67.61236997499998, 10.21372334300014], [-67.61237497299993, 10.213127335000024], [-67.61199494599987, 10.212657317000037], [-67.61198495299993, 10.212666328000182], [-67.61170993899998, 10.212656325000125], [-67.61152793099996, 10.212456325000119], [-67.61088890199994, 10.212054315000046], [-67.61067738899999, 10.211812808000047], [-67.61046587699991, 10.211571301000049], [-67.610263, 10.211451000000125], [-67.610348, 10.211508], [-67.610402, 10.211546], [-67.60997516099997, 10.215083663000087], [-67.60954778699988, 10.218625760000123], [-67.60946449899984, 10.219316052000067], [-67.60923899999983, 10.221185000000162], [-67.608471, 10.224339000000157], [-67.608174, 10.225534], [-67.608085, 10.225564], [-67.606904, 10.225344000000177], [-67.605482, 10.231604000000175], [-67.602761, 10.244210000000123], [-67.602103, 10.247232], [-67.600846, 10.253456], [-67.60153799999989, 10.255565000000104], [-67.60168, 10.255924000000164], [-67.60167499999989, 10.257149], [-67.601692, 10.257323], [-67.601362, 10.257853], [-67.601114, 10.258343], [-67.601079, 10.258456], [-67.601072, 10.258528000000126], [-67.601031, 10.258616000000131], [-67.600947, 10.25889500000011], [-67.60088, 10.259326], [-67.600878, 10.259341], [-67.600857, 10.259825000000149], [-67.600863, 10.259921], [-67.6008819999999, 10.260246000000166], [-67.60101, 10.261102000000108], [-67.60108, 10.261461000000168], [-67.60108999999989, 10.261639000000116], [-67.601113, 10.26179000000019], [-67.601107, 10.261927000000185], [-67.601118, 10.262139000000104], [-67.601072, 10.262673], [-67.600968, 10.263861000000134], [-67.601771, 10.26591800000017], [-67.601771, 10.265919], [-67.603356, 10.269979], [-67.59849999999989, 10.276687000000152], [-67.58783999999986, 10.283425]]]}}, {"type": "Feature", "properties": {"Pais": "Venezuela", "Estado": "Aragua", "Municipio": "Girardot", "Parroquia": "los Tacariguas"}, "geometry": {"type": "Polygon", "coordinates": [[[-67.603182, 10.282108000000164], [-67.602678, 10.283222000000137], [-67.602219, 10.285411], [-67.6019179999999, 10.287416], [-67.601413, 10.290118000000177], [-67.600745, 10.297377], [-67.59720799999985, 10.304569000000185], [-67.599137, 10.313346], [-67.602559, 10.318293], [-67.60031, 10.326138], [-67.59949199999983, 10.330336000000159], [-67.595113, 10.333362], [-67.59626, 10.339028], [-67.606812, 10.329067000000123], [-67.608223, 10.32612300000011], [-67.612655, 10.311316], [-67.61441899999988, 10.300049000000115], [-67.61444499999988, 10.294283000000178], [-67.614135, 10.290904000000182], [-67.614012, 10.290488], [-67.61434, 10.290111000000138], [-67.614497, 10.289971], [-67.614557, 10.289916000000119], [-67.61457999999988, 10.289875000000109], [-67.61459, 10.289846], [-67.614594, 10.289806000000112], [-67.61459, 10.289778], [-67.614555, 10.289672], [-67.614478, 10.289434], [-67.614447, 10.289355000000114], [-67.614441, 10.289325], [-67.614437, 10.289272000000153], [-67.614439, 10.289236000000187], [-67.61444299999982, 10.289204], [-67.614451, 10.28917], [-67.614468, 10.289128000000119], [-67.61452999999983, 10.289002], [-67.614565, 10.288907000000165], [-67.61457799999988, 10.28886400000016], [-67.614595, 10.288780000000145], [-67.614608, 10.288738], [-67.61462499999988, 10.288691], [-67.614696, 10.288533], [-67.614727, 10.28845600000011], [-67.614741, 10.288392000000158], [-67.614746, 10.288313], [-67.614746, 10.288254000000109], [-67.614738, 10.288176], [-67.614724, 10.28811300000018], [-67.614686, 10.287998], [-67.614673, 10.287971000000141], [-67.614654, 10.28793700000017], [-67.614601, 10.287847], [-67.61457, 10.287797000000126], [-67.61453299999988, 10.287753], [-67.614517, 10.287718], [-67.614507, 10.287690000000168], [-67.61449599999986, 10.287636000000134], [-67.61448599999983, 10.287584], [-67.61446099999989, 10.287436000000127], [-67.61444399999982, 10.287381], [-67.61441799999989, 10.287308], [-67.614406, 10.287277000000131], [-67.61437299999989, 10.287233000000185], [-67.614334, 10.28719100000012], [-67.61408399999988, 10.286959], [-67.614067, 10.286935], [-67.614058, 10.286918], [-67.61405, 10.28689500000013], [-67.614047, 10.286867], [-67.614045, 10.286834], [-67.614053, 10.28679000000011], [-67.61407799999989, 10.286693000000128], [-67.614142, 10.286543000000108], [-67.614207, 10.28640600000017], [-67.61424699999986, 10.286343000000102], [-67.61428599999988, 10.286291], [-67.614321, 10.286256], [-67.6143689999999, 10.286221000000126], [-67.61446099999989, 10.286171], [-67.614523, 10.286145], [-67.614596, 10.286123], [-67.614757, 10.286087], [-67.614888, 10.286062000000129], [-67.614938, 10.28604700000011], [-67.614992, 10.286024000000168], [-67.615054, 10.285996000000182], [-67.615101, 10.285966], [-67.61515, 10.285932], [-67.61520399999989, 10.285893000000158], [-67.615263, 10.285842], [-67.61545499999988, 10.28565500000019], [-67.615628, 10.285482000000115], [-67.615673, 10.285451], [-67.615717, 10.28543], [-67.615753, 10.285417], [-67.615809, 10.285407], [-67.615855, 10.285403000000144], [-67.6158339999999, 10.285043], [-67.61583, 10.284843], [-67.615828, 10.284775], [-67.6158319999999, 10.284683], [-67.6158329999999, 10.28465000000017], [-67.6158339999999, 10.284619], [-67.61583599999989, 10.284588], [-67.615845, 10.284515], [-67.615858, 10.284388], [-67.61586199999988, 10.284279], [-67.61586299999988, 10.284178], [-67.61586299999988, 10.284115000000156], [-67.61585999999983, 10.284059000000127], [-67.615857, 10.284041], [-67.615851, 10.284019], [-67.615845, 10.284004], [-67.615813, 10.283950000000175], [-67.615798, 10.283927], [-67.615723, 10.283839], [-67.61561499999988, 10.283717], [-67.6155839999999, 10.28368600000016], [-67.615485, 10.283600000000149], [-67.615275, 10.283433], [-67.615059, 10.283277], [-67.61502899999988, 10.283257], [-67.614998, 10.283239000000151], [-67.614922, 10.28320100000019], [-67.61487399999987, 10.28318], [-67.614807, 10.283155000000136], [-67.614695, 10.28311500000018], [-67.614608, 10.28308], [-67.61448899999988, 10.283035000000154], [-67.614405, 10.283001000000183], [-67.614336, 10.282967], [-67.614295, 10.282946], [-67.614199, 10.282886], [-67.6141669999999, 10.282863000000134], [-67.614143, 10.28284600000012], [-67.61412299999989, 10.282829000000163], [-67.614094, 10.282803000000115], [-67.614063, 10.28277], [-67.614029, 10.282732000000124], [-67.614006, 10.282702], [-67.613996, 10.282686], [-67.613979, 10.282657000000142], [-67.613959, 10.282623000000171], [-67.61394599999983, 10.282596], [-67.613939, 10.282577], [-67.613934, 10.282559], [-67.613929, 10.28254], [-67.613924, 10.282512], [-67.6139199999999, 10.282485000000122], [-67.6139199999999, 10.282460000000185], [-67.613928, 10.282284000000175], [-67.613927, 10.282265], [-67.613923, 10.282249], [-67.6139189999999, 10.28223700000018], [-67.61391, 10.282221000000106], [-67.61390399999988, 10.28221], [-67.613892, 10.28219600000017], [-67.613881, 10.282187000000135], [-67.613841, 10.282165], [-67.613852, 10.282104], [-67.613906, 10.28181], [-67.613934, 10.281649], [-67.613958, 10.281652000000122], [-67.61398899999983, 10.281652000000122], [-67.614012, 10.281648000000132], [-67.61403199999984, 10.281638], [-67.614043, 10.281627000000185], [-67.61412, 10.281534], [-67.61414, 10.281512], [-67.61415, 10.281500000000108], [-67.614164, 10.281486], [-67.614183, 10.281475], [-67.614222, 10.28145300000017], [-67.61424699999986, 10.281440000000146], [-67.614271, 10.281431000000111], [-67.614296, 10.281425000000127], [-67.614344, 10.281417], [-67.61437099999989, 10.281415], [-67.614394, 10.281415], [-67.614454, 10.281415], [-67.614476, 10.281413], [-67.6146169999999, 10.281382000000121], [-67.614637, 10.281379], [-67.6146619999999, 10.281378000000188], [-67.614688, 10.281378000000188], [-67.61472, 10.281379], [-67.61475, 10.281381], [-67.614786, 10.281384000000116], [-67.61486399999984, 10.28139300000015], [-67.61491499999988, 10.281396], [-67.614934, 10.28139700000014], [-67.61495899999989, 10.281395000000146], [-67.614973, 10.281390000000101], [-67.614992, 10.281381], [-67.61511, 10.281316000000174], [-67.615145, 10.281297], [-67.615169, 10.281288000000188], [-67.61520699999988, 10.281276], [-67.615281, 10.281253000000106], [-67.615302, 10.281243000000188], [-67.615343, 10.281223000000125], [-67.615392, 10.281196], [-67.615462, 10.281153000000188], [-67.615474, 10.281146000000149], [-67.615555, 10.281110000000183], [-67.615592, 10.281092000000115], [-67.615605, 10.281085], [-67.615637, 10.281059], [-67.615722, 10.280987000000152], [-67.615803, 10.28092], [-67.615848, 10.280884000000128], [-67.6159, 10.280843000000118], [-67.61594, 10.280815000000132], [-67.615979, 10.280796000000123], [-67.61599799999988, 10.280787], [-67.616023, 10.280781000000161], [-67.61604199999988, 10.280778], [-67.616069, 10.280775000000176], [-67.616146, 10.280769], [-67.615606, 10.27560000000011], [-67.616345, 10.27558], [-67.618025, 10.275502000000188], [-67.618166, 10.275495000000149], [-67.618315, 10.275493000000154], [-67.614183, 10.269334000000185], [-67.61428399999988, 10.268294], [-67.61448, 10.267287], [-67.615229, 10.263634], [-67.617129, 10.2638970000001], [-67.619098, 10.26415100000014], [-67.619468, 10.264255], [-67.619559, 10.26421100000016], [-67.626092, 10.265053], [-67.62986099999989, 10.265343], [-67.63081, 10.264465], [-67.632282, 10.263091], [-67.633045, 10.262647], [-67.637348, 10.26009], [-67.637632, 10.260013], [-67.639994, 10.260221], [-67.640465, 10.260376], [-67.640875, 10.260332000000176], [-67.64118899999988, 10.260793000000149], [-67.643156, 10.263909000000183], [-67.643453, 10.264498], [-67.64368, 10.265127], [-67.645921, 10.271585], [-67.64916070099991, 10.275703578000162], [-67.65070067499988, 10.27766132100004], [-67.652217, 10.279589000000101], [-67.65209949399997, 10.280331500999978], [-67.65207609399982, 10.280922863000058], [-67.65701931299998, 10.280784833000041], [-67.66034944999996, 10.280922815000054], [-67.66131649099992, 10.280493799000112], [-67.66166250099997, 10.27975277600018], [-67.66327557199992, 10.27964176200004], [-67.66441360499994, 10.27649067699997], [-67.66501062099996, 10.27537864499999], [-67.6655736429999, 10.274824626000054], [-67.66576464399998, 10.274113604000036], [-67.66592765099989, 10.27269056900019], [-67.66587463799993, 10.270865522000065], [-67.6658763669999, 10.27055117100008], [-67.66588161899989, 10.269596488000047], [-67.66616562799993, 10.268855466], [-67.66562558799995, 10.266154401999984], [-67.66597060599997, 10.265568385000108], [-67.66597560199995, 10.264609352000036], [-67.66629161099996, 10.263868329000104], [-67.66657712799997, 10.26348182300012], [-67.66704363699995, 10.262850307000065], [-67.66807467599989, 10.262080273000151], [-67.67010376099984, 10.260820239000168], [-67.67135280299988, 10.260114213000179], [-67.6716978209999, 10.259558197], [-67.6726348599999, 10.259036175000176], [-67.67288196699991, 10.258885648000046], [-67.67328988499992, 10.258637161000024], [-67.67473193599994, 10.256693096], [-67.67598397899991, 10.255368062000173], [-67.67717002699999, 10.254754038000158], [-67.67832607199989, 10.253769006000027], [-67.67992212799999, 10.252042951000078], [-67.68005013499999, 10.251392925000118], [-67.67900007899988, 10.24987289400002], [-67.67393783299997, 10.245445811000138], [-67.67345581099988, 10.245023804000084], [-67.67251275199993, 10.24331576200018], [-67.67224874799996, 10.243580768000072], [-67.67224874799996, 10.243584777000137], [-67.67227274299995, 10.243748782000125], [-67.67233175399997, 10.243893784000022], [-67.67242175799987, 10.243986778000078], [-67.67249275899997, 10.244073788000037], [-67.67252675799995, 10.244125783000129], [-67.67256676399995, 10.244298787000048], [-67.67260376699983, 10.244412795000073], [-67.67273676999997, 10.24460779400016], [-67.67279877199996, 10.244734797000092], [-67.67284178199998, 10.244907801000181], [-67.67285477899998, 10.244985801000098], [-67.67307879099997, 10.245274810000069], [-67.67404283999997, 10.246681839000075], [-67.67457086499996, 10.247420859000101], [-67.6748428919999, 10.248248877000037], [-67.67506790199997, 10.249190904000102], [-67.67517290899997, 10.250636938000014], [-67.67523291899994, 10.251806969000086], [-67.67476191399987, 10.252697997000098], [-67.6737588659999, 10.253332017000162], [-67.67178378099993, 10.253636033000078], [-67.67115475999992, 10.253837044000136], [-67.66963168599995, 10.252701030000082], [-67.6690836599999, 10.251503], [-67.66881663099991, 10.250009961000103], [-67.66852261999992, 10.249043941000139], [-67.66797159299989, 10.248282915], [-67.66746756099985, 10.247383899000056], [-67.66682453199985, 10.246529879000093], [-67.66622250499995, 10.246340878000183], [-67.66539146299993, 10.245668862], [-67.66467542599992, 10.245295861000159], [-67.66421740599998, 10.244373844000165], [-67.66387838599996, 10.24320181600018], [-67.66374237799982, 10.242833801000188], [-67.6633053509999, 10.24230179500006], [-67.66259031799996, 10.241745785000035], [-67.66189628799992, 10.241372771000101], [-67.66106224499993, 10.241158773000166], [-67.66016120799998, 10.240623766], [-67.65949117299988, 10.240251757000067], [-67.65932916199989, 10.240157759000112], [-67.6585681279999, 10.239555749000033], [-67.65780309899992, 10.239388744000166], [-67.65734902499992, 10.23891947500016], [-67.65699705499992, 10.238555727000062], [-67.65670103399987, 10.237841716000048], [-67.65668403599994, 10.237038695000138], [-67.65690003499998, 10.23610067500016], [-67.65737504699996, 10.234773636000057], [-67.65745005199994, 10.234132609000028], [-67.65691602399988, 10.234127622000074], [-67.65619899299998, 10.233708608000029], [-67.65555396699989, 10.233152597000128], [-67.65523194399998, 10.232760590000112], [-67.65449191199997, 10.232341588000054], [-67.65345285899997, 10.231644575000018], [-67.65290883499989, 10.23105356100018], [-67.65090475299996, 10.231131572000152], [-67.65056372899994, 10.23116058200003], [-67.64998370899997, 10.230873573], [-67.64965169699997, 10.230969573000152], [-67.64862965299994, 10.231006580000098], [-67.64775061299997, 10.230678587000057], [-67.64701556899996, 10.229685560000064], [-67.6464735429999, 10.229132553000056], [-67.64577850799992, 10.22878754200002], [-67.64503247899995, 10.227976531000138], [-67.64497746599994, 10.227932529000043], [-67.6449064649999, 10.227862524000045], [-67.6448314669999, 10.227785518000019], [-67.64477945799996, 10.227733522], [-67.6447424559999, 10.22769551600004], [-67.64470446099989, 10.22766052500009], [-67.6446544499999, 10.227626516000043], [-67.64461845299996, 10.227590520000092], [-67.64454444899997, 10.227509517000044], [-67.64445944599987, 10.22740251000016], [-67.64433744099989, 10.22726650800007], [-67.64426543499997, 10.227186510000024], [-67.64421443199996, 10.227124510000067], [-67.64414742799988, 10.22705750800003], [-67.64406442399996, 10.226976505000152], [-67.64403342899988, 10.22693750600007], [-67.64311638199996, 10.22664750700011], [-67.64235834899995, 10.22560948600011], [-67.64069326399994, 10.224815473000035], [-67.63979122299997, 10.224417462000076], [-67.63815015599982, 10.223577449000118], [-67.63715910099995, 10.222720439000113], [-67.6368930839999, 10.222286428000132], [-67.63669307899994, 10.222309429000177], [-67.63666007399996, 10.222348429000021], [-67.63662507099991, 10.222388435000141], [-67.6365860709999, 10.222430427000063], [-67.63653506699995, 10.222465430000057], [-67.63649307499992, 10.222493432000022], [-67.63640206599996, 10.222518432000186], [-67.63631006399999, 10.222541432000128], [-67.63618705499994, 10.222544437000067], [-67.6360560519999, 10.222568443000114], [-67.63594405299989, 10.222593442000175], [-67.63583603799992, 10.222610436000139], [-67.63573404299984, 10.222626448000028], [-67.63568703699997, 10.222639444000038], [-67.63552203599988, 10.222666442000161], [-67.6354270299999, 10.22267444900018], [-67.63531602399996, 10.22269844300007], [-67.63514400999998, 10.222725453000123], [-67.63504800999993, 10.22274744800012], [-67.63494200699995, 10.22276145], [-67.63486499899994, 10.222780453999974], [-67.63479599699986, 10.222790447000023], [-67.63475899499997, 10.222792457000025], [-67.63473799299993, 10.222794456000088], [-67.63471499199989, 10.222778456000185], [-67.63468799399988, 10.222770451000144], [-67.63466099699997, 10.222762456999988], [-67.63459199499994, 10.222745453000016], [-67.63453698199999, 10.222725456000035], [-67.63449198599994, 10.222723446000089], [-67.63442897999994, 10.222707447000062], [-67.63437498399992, 10.222687451000013], [-67.63429297399989, 10.222656457000141], [-67.63419697399985, 10.222615447000123], [-67.63410497199988, 10.222584454000128], [-67.63400396999987, 10.222544449000111], [-67.63389795399996, 10.222503452000183], [-67.63380395299993, 10.222472446000097], [-67.63371095599996, 10.222427450999987], [-67.63365694899994, 10.222406450000108], [-67.63360894899995, 10.222392449000154], [-67.63355193799993, 10.222370443000102], [-67.63347094499989, 10.222337450000111], [-67.6334119359999, 10.222310454000024], [-67.63335493699998, 10.222279448000108], [-67.63327193299995, 10.222219447000043], [-67.63321092499996, 10.222178449000182], [-67.63318992299992, 10.222161444000108], [-67.63310592599998, 10.22210544000012], [-67.63300791499995, 10.222045439], [-67.63300991399996, 10.222042447000149], [-67.6329749219999, 10.222017437000034], [-67.63293891299992, 10.221995442000036], [-67.63288191399994, 10.221957447000023], [-67.63283190399994, 10.221914438999988], [-67.63278091199999, 10.221874433999972], [-67.63269290599999, 10.221797439999989], [-67.63264089699999, 10.221760439000036], [-67.63260090299997, 10.221723438000083], [-67.63254989899997, 10.221675439000137], [-67.6324448879999, 10.221569438000131], [-67.63238189299994, 10.221509437000066], [-67.6323328879999, 10.221461426000076], [-67.63228287699991, 10.221405434000076], [-67.6322718799999, 10.221391432000189], [-67.63176385299988, 10.221023420000108], [-67.63125182799996, 10.220380410000189], [-67.63124082999997, 10.22037641300011], [-67.63118282599993, 10.220354406000183], [-67.63114283199991, 10.220342404000064], [-67.6311018209999, 10.220338406999986], [-67.63102182199992, 10.22032041], [-67.63090681799991, 10.220289404000141], [-67.63076080799993, 10.220239408000054], [-67.63051980399996, 10.220157412000049], [-67.6303697969999, 10.220106411000188], [-67.63017978399989, 10.220032409000055], [-67.63004377799996, 10.21998340600004], [-67.62995976999991, 10.219953405000126], [-67.62986776699995, 10.219912408000027], [-67.62984076899994, 10.219899412000188], [-67.62979376299995, 10.21986040000013], [-67.62974975999992, 10.219824404000178], [-67.62963275699997, 10.219738399000107], [-67.62952574799988, 10.219661406], [-67.62946275299998, 10.219615405000013], [-67.62938074299996, 10.219551396000156], [-67.62929174399989, 10.21948439400012], [-67.62920573599996, 10.219433392000155], [-67.62912773499988, 10.21938139600013], [-67.62904073399989, 10.219323394000128], [-67.62893372499991, 10.21926139400017], [-67.62887672599999, 10.21922039600014], [-67.62875871799992, 10.219123394000121], [-67.62867670799989, 10.219050385000173], [-67.62857370699999, 10.218977388000098], [-67.62840769999991, 10.218836384000156], [-67.62835269899989, 10.21879238200006], [-67.62755765699995, 10.218647385000054], [-67.62699864299998, 10.218941401000052], [-67.62648461299995, 10.219326412000044], [-67.62573958399997, 10.219618419000085], [-67.62483455399996, 10.219633430000044], [-67.62441653299999, 10.219584429000122], [-67.62458753599992, 10.218622403000097], [-67.62494054699994, 10.217937385000084], [-67.62439251399996, 10.217259372000058], [-67.62421151299992, 10.21731737600004], [-67.62416950799991, 10.217288369000073], [-67.62412199499988, 10.217312969000147], [-67.624004, 10.218648], [-67.623675, 10.219488], [-67.623454, 10.220301000000177], [-67.6235940489999, 10.220938689000093], [-67.623801, 10.221881000000167], [-67.62406999999985, 10.222754000000123], [-67.623904, 10.223487], [-67.62265, 10.224506000000133], [-67.62251727799998, 10.224799798999982], [-67.62243, 10.224993], [-67.62199, 10.2263200000001], [-67.62117, 10.227698], [-67.620732, 10.228427000000181], [-67.620837, 10.229407], [-67.62086099999988, 10.230169000000103], [-67.62058499999989, 10.231063000000177], [-67.620472, 10.232095], [-67.62036899999987, 10.233785000000125], [-67.620414, 10.233149], [-67.620458, 10.233195], [-67.62044699999984, 10.23334], [-67.620429, 10.233614], [-67.62041299999987, 10.233968000000175], [-67.620395, 10.234318], [-67.620378, 10.234633000000144], [-67.620355, 10.234991], [-67.620338, 10.235106], [-67.62031799999983, 10.235242], [-67.620282, 10.235357], [-67.620217, 10.23554], [-67.620132, 10.235760000000141], [-67.620065, 10.235959], [-67.620002, 10.236143], [-67.61991499999988, 10.236381000000165], [-67.619895, 10.236447000000112], [-67.6198639999999, 10.236517], [-67.61977999999988, 10.236768], [-67.619728, 10.236905], [-67.619676, 10.237061], [-67.61961799999989, 10.237203000000136], [-67.619559, 10.237348], [-67.619504, 10.237481], [-67.619411, 10.237704], [-67.619337, 10.237864000000116], [-67.61926, 10.238054], [-67.61919199999983, 10.238203000000112], [-67.619142, 10.238330000000133], [-67.619091, 10.238445], [-67.61904, 10.238539], [-67.617782, 10.239026], [-67.616442, 10.240752000000157], [-67.615895, 10.241806000000167], [-67.615267, 10.242397], [-67.615101, 10.243102], [-67.6155849999999, 10.244331000000159], [-67.615474, 10.244928000000186], [-67.615848, 10.246563], [-67.615919, 10.24756200000013], [-67.6159, 10.247545000000173], [-67.615923, 10.247618000000159], [-67.615925, 10.247651], [-67.615957, 10.247728], [-67.61611899999986, 10.248248], [-67.616113, 10.248329], [-67.6158339999999, 10.249870000000158], [-67.61570599999988, 10.25042400000018], [-67.615309, 10.250925], [-67.615308, 10.250928000000101], [-67.615178, 10.251069], [-67.614876, 10.251800000000173], [-67.614648, 10.252773], [-67.61420299999986, 10.254018], [-67.61415999999986, 10.2541030000001], [-67.614147, 10.25423000000012], [-67.614015, 10.254756000000157], [-67.613884, 10.255187], [-67.613277, 10.257383], [-67.613346, 10.257624000000135], [-67.613416, 10.258227], [-67.613233, 10.258934000000124], [-67.612191, 10.262418], [-67.611574, 10.264094], [-67.611501, 10.26428200000015], [-67.611469, 10.264335], [-67.61143, 10.264467], [-67.611031, 10.265504], [-67.60812299999986, 10.267437], [-67.608029, 10.267544], [-67.607945, 10.267601000000127], [-67.60795499999989, 10.267628], [-67.60791499999988, 10.267673], [-67.60786699999989, 10.267789], [-67.608668, 10.269102], [-67.60957399999984, 10.27067], [-67.6096199999999, 10.270863], [-67.609768, 10.273151000000155], [-67.609905, 10.276286], [-67.609862, 10.277617], [-67.60941899999989, 10.279892000000132], [-67.60919, 10.28004], [-67.609179, 10.28012600000011], [-67.607644, 10.28131800000017], [-67.606718, 10.282087], [-67.60595099999983, 10.282007], [-67.60466999999989, 10.281849], [-67.60367, 10.281881], [-67.603182, 10.282108000000164]]]}}]}