{"type": "FeatureCollection", "features": [{"type": "Feature", "properties": {"Pais": "Venezuela", "Estado": "Portuguesa", "Municipio": "Guanarito"}, "geometry": {"type": "Polygon", "coordinates": [[[-69.073701, 8.794316], [-69.074487, 8.79425], [-69.075319, 8.794047], [-69.075644, 8.793474000000117], [-69.077603, 8.793988], [-69.077769, 8.79403200000013], [-69.054139, 8.70739], [-69.054788, 8.706543], [-69.055761, 8.705744], [-69.056663, 8.705173], [-69.057035, 8.704417], [-69.05779999999987, 8.703318], [-69.0582189999999, 8.702057], [-69.058777, 8.700591], [-69.059148, 8.699972000000116], [-69.059245, 8.698389], [-69.058601, 8.697124], [-69.058072, 8.696135], [-69.058238, 8.694598], [-69.059027, 8.693247], [-69.059908, 8.691896], [-69.060232, 8.691598], [-69.062615, 8.690276], [-69.063448, 8.689613000000122], [-69.06666199999984, 8.688638], [-69.070407, 8.687665], [-69.071585, 8.68783], [-69.074334, 8.687977000000103], [-69.076092, 8.687548000000163], [-69.076695, 8.686586000000148], [-69.07799299999988, 8.684524], [-69.07929, 8.683220000000176], [-69.07996, 8.683268], [-69.08144, 8.682585000000188], [-69.083964, 8.680483], [-69.08440399999984, 8.679887], [-69.085631, 8.679043], [-69.08740999999986, 8.67898], [-69.089005, 8.67832], [-69.090047, 8.677268], [-69.091988, 8.67739], [-69.093535, 8.677441], [-69.094666, 8.678019], [-69.09782499999989, 8.680509], [-69.098288, 8.680006000000162], [-69.099632, 8.678473000000167], [-69.100418, 8.677948], [-69.10264299999983, 8.675569], [-69.103985, 8.674449], [-69.10523399999988, 8.67387900000017], [-69.107267, 8.67388700000015], [-69.111378, 8.674475], [-69.112972, 8.674526], [-69.114613, 8.674257000000182], [-69.115977, 8.673596], [-69.118795, 8.67395], [-69.119765, 8.673908], [-69.121522, 8.67357], [-69.123256, 8.672635], [-69.123788, 8.672499], [-69.125199, 8.672022], [-69.127233, 8.671616], [-69.127579, 8.671800000000133], [-69.129057, 8.672173], [-69.130257, 8.672728000000177], [-69.131111, 8.673098], [-69.13268099999988, 8.673287], [-69.1332599999999, 8.672922], [-69.135526, 8.671782], [-69.137074, 8.671971], [-69.13816, 8.671722], [-69.138784, 8.671541000000161], [-69.139895, 8.670695], [-69.14012799999983, 8.669801], [-69.143963, 8.669814], [-69.146129, 8.671979], [-69.147372, 8.674026], [-69.148911, 8.678370000000143], [-69.1496, 8.680277], [-69.151814, 8.6818], [-69.155065, 8.684657], [-69.158203, 8.686228], [-69.161272, 8.687731], [-69.162401, 8.68918], [-69.162743, 8.691155000000151], [-69.166231, 8.691626], [-69.166807, 8.692271000000119], [-69.16742099999988, 8.696611], [-69.1689, 8.696387000000186], [-69.174514, 8.696933], [-69.17733099999987, 8.697654], [-69.179639, 8.698534000000166], [-69.181164, 8.698471], [-69.183891, 8.69786], [-69.186132, 8.698189], [-69.187305, 8.700694], [-69.187463, 8.702026000000103], [-69.189052, 8.704694], [-69.19046, 8.705341], [-69.192632, 8.70550900000012], [-69.195452, 8.704968000000122], [-69.197761, 8.705641], [-69.19773499999985, 8.706811], [-69.197775, 8.709566000000109], [-69.19952899999987, 8.71042100000011], [-69.200778, 8.709989000000121], [-69.203183, 8.70878], [-69.204732, 8.708510000000103], [-69.208916, 8.707169], [-69.211322, 8.705594], [-69.214396, 8.705168000000185], [-69.216499, 8.705404000000158], [-69.218693, 8.705893000000117], [-69.222315, 8.708384], [-69.222241, 8.7103800000001], [-69.221107, 8.711409000000174], [-69.2187689999999, 8.713582], [-69.2197359999999, 8.715077], [-69.221976, 8.715589], [-69.22409799999986, 8.717226], [-69.22550599999983, 8.71815000000015], [-69.226892, 8.718291], [-69.229155, 8.718596000000105], [-69.230956, 8.719453000000158], [-69.231598, 8.721612], [-69.23392599999988, 8.72446600000012], [-69.235934, 8.725229], [-69.237066, 8.725417000000107], [-69.23926299999988, 8.725125000000105], [-69.24409099999986, 8.725072000000182], [-69.247184, 8.726757], [-69.247993, 8.726622], [-69.24984199999989, 8.726123], [-69.25180099999989, 8.72876900000017], [-69.253531, 8.730197], [-69.255611, 8.729882], [-69.25723, 8.729107], [-69.258481, 8.727458], [-69.25996099999986, 8.726889], [-69.2620399999999, 8.72763], [-69.26337799999988, 8.728667], [-69.26458099999985, 8.727776], [-69.264399, 8.726236], [-69.263732, 8.724765], [-69.263479, 8.724214], [-69.2635509999999, 8.722516], [-69.264038, 8.721806000000129], [-69.266649, 8.721722000000113], [-69.267849, 8.722483000000182], [-69.269627, 8.722971], [-69.271815, 8.726466], [-69.272602, 8.725987], [-69.273712, 8.725485], [-69.275398, 8.725398000000155], [-69.27807699999988, 8.726026], [-69.27999499999987, 8.726009], [-69.281217, 8.727459000000124], [-69.282047, 8.72838000000013], [-69.28361599999988, 8.729280000000188], [-69.28465899999986, 8.728365000000167], [-69.28563, 8.727565], [-69.28648799999985, 8.726052], [-69.287552, 8.725321000000179], [-69.28986199999986, 8.725902000000133], [-69.291384, 8.727353000000107], [-69.292512, 8.72930700000012], [-69.293826, 8.730849000000148], [-69.29466, 8.730002], [-69.29556399999984, 8.728192], [-69.295961, 8.725852], [-69.297213, 8.72399600000017], [-69.300375, 8.72559], [-69.30102199999988, 8.725546000000122], [-69.303014, 8.722958], [-69.302603, 8.720249], [-69.30311399999988, 8.718988], [-69.303762, 8.717911], [-69.30639799999989, 8.71723], [-69.30586199999988, 8.71957], [-69.307615, 8.720952000000182], [-69.311723, 8.724086000000113], [-69.31227399999989, 8.725832], [-69.312527, 8.72659], [-69.313241, 8.727878], [-69.31605699999989, 8.729332], [-69.31645, 8.729241000000172], [-69.31791, 8.726469000000122], [-69.31766, 8.724678], [-69.317779, 8.722612], [-69.318174, 8.721122], [-69.31884599999984, 8.720527000000175], [-69.320089, 8.722711], [-69.320758, 8.723241], [-69.322949, 8.725313], [-69.326484, 8.725691], [-69.327641, 8.726076], [-69.32893, 8.726937000000135], [-69.329738, 8.727491000000157], [-69.330868, 8.728756], [-69.33292299999988, 8.729841], [-69.335486, 8.730881000000124], [-69.337241, 8.731208], [-69.33971299999985, 8.731353000000126], [-69.34188499999988, 8.73131300000017], [-69.34408, 8.731503], [-69.34521199999989, 8.73123100000015], [-69.346831, 8.730639], [-69.347733, 8.72977], [-69.3493069999999, 8.728213], [-69.351782, 8.726637], [-69.352824, 8.725584], [-69.35520799999989, 8.722952], [-69.355978, 8.718754], [-69.35741499999989, 8.716715], [-69.360577, 8.718124000000103], [-69.363692, 8.720727], [-69.366809, 8.72179100000011], [-69.369232, 8.723405], [-69.370434, 8.723362], [-69.375131, 8.719290000000171], [-69.3759199999999, 8.717387], [-69.3757849999999, 8.715092], [-69.375347, 8.71431], [-69.374425, 8.713252], [-69.375235, 8.71210600000012], [-69.377039, 8.711056], [-69.378566, 8.709958], [-69.37857, 8.707732], [-69.378317, 8.706789000000185], [-69.376192, 8.706531000000155], [-69.374967, 8.706689], [-69.372958, 8.706408000000124], [-69.371596, 8.70555400000012], [-69.3705819999999, 8.704013], [-69.370883, 8.703532000000166], [-69.37157999999988, 8.701514], [-69.372968, 8.700416], [-69.373408, 8.699706000000162], [-69.375216, 8.696429], [-69.376837, 8.693748000000141], [-69.37857199999985, 8.69233], [-69.380306, 8.691807], [-69.380906, 8.692268], [-69.38141, 8.694473], [-69.3824939999999, 8.695991000000106], [-69.383901, 8.69778500000018], [-69.38533199999989, 8.6985], [-69.386671, 8.698803], [-69.387804, 8.698301], [-69.388015, 8.6965110000001], [-69.38785499999983, 8.695593], [-69.387349, 8.693916000000172], [-69.38779, 8.69274600000017], [-69.388438, 8.692083], [-69.390889, 8.690850000000125], [-69.392714, 8.690832], [-69.394587, 8.690172000000189], [-69.396181, 8.69019900000012], [-69.397799, 8.689653], [-69.398377, 8.689379000000145], [-69.398954, 8.689174], [-69.401266, 8.688148], [-69.403254, 8.687419000000148], [-69.403254, 8.687441], [-69.40623299999987, 8.68852900000013], [-69.407572, 8.6890140000001], [-69.411174, 8.690608], [-69.41209799999984, 8.690909], [-69.414083, 8.691488], [-69.415494, 8.690597], [-69.416975, 8.689269], [-69.417738, 8.68853700000011], [-69.418735, 8.686635], [-69.41943, 8.685237], [-69.41943199999986, 8.684135], [-69.419341, 8.682689], [-69.419412, 8.682069000000126], [-69.42022299999985, 8.680534000000137], [-69.422162, 8.680998000000159], [-69.42317599999984, 8.682630000000188], [-69.42363299999988, 8.685845], [-69.424001, 8.68697], [-69.424693, 8.687753], [-69.42538499999989, 8.688305], [-69.42792499999985, 8.689047000000187], [-69.42921899999988, 8.689096000000177], [-69.43233899999984, 8.68862200000018], [-69.432918, 8.688165], [-69.43419, 8.687250000000176], [-69.435785, 8.686199000000101], [-69.43715, 8.684802000000161], [-69.437938, 8.683106000000123], [-69.43995, 8.682262], [-69.4408499999999, 8.682517], [-69.442256, 8.68467800000019], [-69.44364, 8.686289], [-69.444539, 8.687347], [-69.444538, 8.688081000000182], [-69.443937, 8.688607], [-69.443496, 8.689364000000126], [-69.443517, 8.691246], [-69.443978, 8.692050000000165], [-69.444646, 8.693292], [-69.445661, 8.693753000000186], [-69.447115, 8.694744000000128], [-69.448225, 8.694563], [-69.449566, 8.693809], [-69.451137, 8.693401], [-69.453679, 8.692856], [-69.455505, 8.693068], [-69.456683, 8.693186], [-69.45929499999988, 8.692022000000122], [-69.459573, 8.691334], [-69.46043, 8.6899820000001], [-69.461656, 8.689205000000129], [-69.463296, 8.689416000000165], [-69.463642, 8.689738000000148], [-69.464356, 8.69134600000018], [-69.4653, 8.693208], [-69.466223, 8.694083000000148], [-69.467399, 8.695210000000145], [-69.467837, 8.696175], [-69.468714, 8.69686600000017], [-69.4699609999999, 8.69726], [-69.470354, 8.696618000000115], [-69.47137099999986, 8.69639100000012], [-69.47322, 8.696074], [-69.475301, 8.69490900000011], [-69.478445, 8.693196000000114], [-69.47953199999989, 8.692900000000122], [-69.480202, 8.692948], [-69.480824, 8.694327], [-69.48153799999989, 8.695476], [-69.482208, 8.696029], [-69.484218, 8.695598], [-69.485329, 8.694086], [-69.485516, 8.692663], [-69.48581999999988, 8.69011600000016], [-69.486654, 8.688145000000134], [-69.487419, 8.686493], [-69.488875, 8.685716], [-69.491787, 8.684920000000147], [-69.49186045199997, 8.684874057000172], [-69.49518599999988, 8.682794], [-69.49673599999988, 8.681329], [-69.499071, 8.679912], [-69.500041, 8.68003], [-69.500247, 8.681178000000159], [-69.499345, 8.682553], [-69.49872, 8.683194000000128], [-69.497424, 8.684843000000171], [-69.497123, 8.685416000000146], [-69.49693699999989, 8.68612700000017], [-69.497167, 8.687114000000122], [-69.4977439999999, 8.687414], [-69.498206, 8.687392], [-69.498992, 8.687027], [-69.499431, 8.686592], [-69.499871, 8.686318], [-69.500288, 8.685539000000176], [-69.500543, 8.684713], [-69.50126, 8.683636], [-69.501955, 8.682651], [-69.5027419999999, 8.682178], [-69.503578, 8.681286], [-69.505477, 8.680605000000128], [-69.507539, 8.67957900000016], [-69.508094, 8.679421], [-69.50885599999987, 8.679584], [-69.50880699999988, 8.680318], [-69.508499, 8.682061], [-69.508518, 8.68295600000016], [-69.508583, 8.683943000000113], [-69.5084389999999, 8.68520500000011], [-69.507763, 8.686671], [-69.506901, 8.68809], [-69.506507, 8.68836400000015], [-69.5066839999999, 8.690178000000174], [-69.50698299999988, 8.690546], [-69.508464, 8.690253000000155], [-69.51006299999989, 8.689226], [-69.510969, 8.688036], [-69.5121079999999, 8.686686], [-69.513289, 8.686048], [-69.515118, 8.685297], [-69.515746, 8.684496], [-69.516832, 8.684385], [-69.518289, 8.684321000000125], [-69.51951199999985, 8.684647], [-69.5197639999999, 8.685382000000175], [-69.519667, 8.686437], [-69.517207, 8.6887], [-69.517067, 8.689067], [-69.517202, 8.689779], [-69.519278, 8.690865000000144], [-69.52106692399997, 8.69049843300013], [-69.521152, 8.690481], [-69.52265212299994, 8.69007563700012], [-69.52265513399993, 8.690038365000078], [-69.52269214799998, 8.689580191000175], [-69.52279511899997, 8.688305594000099], [-69.52357314899996, 8.687195575000032], [-69.52410015999993, 8.686455547000094], [-69.52460018299996, 8.68525652000011], [-69.52476817699988, 8.683072474000028], [-69.52440116299988, 8.683420482000031], [-69.52284409299995, 8.682331465000118], [-69.52209705999996, 8.68141845100007], [-69.52137902599998, 8.681264441999986], [-69.51951994499996, 8.680062424000027], [-69.51895816099994, 8.679669512000032], [-69.51812587899991, 8.67908741399998], [-69.51645680099995, 8.678550413000039], [-69.51419769299997, 8.676341369000056], [-69.51183458799994, 8.675718366000126], [-69.51161332999999, 8.675620197000114], [-69.50914347599985, 8.674524359000031], [-69.50789210099987, 8.673911488000044], [-69.50591732999999, 8.672944329000188], [-69.50448226799989, 8.672750331000145], [-69.50270018799989, 8.672490338000046], [-69.50267718699996, 8.672490338000046], [-69.50141012699999, 8.671534330000156], [-69.49914604299988, 8.672135350000133], [-69.49750497399992, 8.672643372000095], [-69.49583889899992, 8.671935366000127], [-69.49442683599995, 8.67118135800007], [-69.49273676299993, 8.66978533400004], [-69.49093067099989, 8.66838931000018], [-69.48771453099988, 8.667386295000028], [-69.48586445399991, 8.667229300000088], [-69.48429339199998, 8.667668322], [-69.48253632499996, 8.668038344000081], [-69.48043323199994, 8.668248359000131], [-69.47869815599995, 8.667839356000115], [-69.47645505899987, 8.667774364000081], [-69.47377295299998, 8.66773337899997], [-69.47111383399988, 8.667532387000051], [-69.46713867399995, 8.668663436000088], [-69.4650585949999, 8.66921746000014], [-69.46316351299987, 8.669725484000082], [-69.46064340499998, 8.66991349500006], [-69.45705925999982, 8.669553505000124], [-69.45493217099994, 8.669442512000103], [-69.45268907299999, 8.669331520000128], [-69.45095499499996, 8.669586540000125], [-69.45007696399995, 8.66981755200004], [-69.44764885499995, 8.669363556000121], [-69.44470972699997, 8.668107538000129], [-69.44283764499994, 8.668293547000133], [-69.44040955099996, 8.668550570000036], [-69.43830546199996, 8.668210569000053], [-69.43617736499982, 8.667709567000145], [-69.43407127199998, 8.666428557000017], [-69.43034610299998, 8.665311548999966], [-69.42775599699996, 8.664948550000076], [-69.42620573299996, 8.663650341], [-69.42608892499999, 8.663552525000114], [-69.42513659499997, 8.66289948200017], [-69.4230889289999, 8.661495334000165], [-69.42222874899988, 8.6609054810001], [-69.42158451499995, 8.660619689999976], [-69.41977163999996, 8.65981547500013], [-69.41736352799995, 8.659253468000088], [-69.41630522199995, 8.658321393000165], [-69.41534243399997, 8.657473443000185], [-69.41528748599995, 8.657375972000182], [-69.41363934499992, 8.654452377000155], [-69.41321306999998, 8.653649896000104], [-69.4124722869999, 8.65225534200016], [-69.41109921899988, 8.650518311000042], [-69.40944913899995, 8.648874275000082], [-69.40814807899994, 8.647687260000055], [-69.40636199799997, 8.646778248000146], [-69.40443891899992, 8.64596023300004], [-69.40362387599998, 8.644909219000112], [-69.40303784299994, 8.643237174999967], [-69.40257082599999, 8.642390156000147], [-69.40106274999994, 8.641457150000065], [-69.39824062799994, 8.641217159000178], [-69.3965735619999, 8.640880159000176], [-69.39541551199994, 8.64054115700003], [-69.39448546699998, 8.639582132000157], [-69.39394844199995, 8.638529118000065], [-69.39286139399991, 8.638488125000151], [-69.39172733999993, 8.638355120000085], [-69.39077629399998, 8.637672109000164], [-69.3905622819999, 8.636548094000148], [-69.39057928099999, 8.635310059000119], [-69.39053127899984, 8.634874049000075], [-69.39089528499994, 8.63361102500005], [-69.38982723699996, 8.632813001999978], [-69.38965922599988, 8.631666980000034], [-69.3888211819999, 8.630408952000039], [-69.38727311899999, 8.630736969999987], [-69.38618907799992, 8.63124599400004], [-69.38487301999993, 8.631734006000045], [-69.38445992999993, 8.631370547000131], [-69.38287492699999, 8.629975976000082], [-69.3816428689999, 8.628673949000074], [-69.38045580399995, 8.62702792400006], [-69.37857872599994, 8.626186908000136], [-69.37704966299992, 8.625688906000107], [-69.37529258299992, 8.625765920999982], [-69.37398370499989, 8.627445316000149], [-69.37366053199997, 8.627859973000056], [-69.37360698899982, 8.62800317700004], [-69.37286150599994, 8.629997029000151], [-69.37115944699991, 8.631909077999978], [-69.36891835099993, 8.632217103000187], [-69.3658492269999, 8.633790152000188], [-69.36354514299995, 8.63545120100008], [-69.36158706099997, 8.637112248999983], [-69.35955998899993, 8.638703291000184], [-69.35742285799995, 8.639119889000028], [-69.35727189899995, 8.639149316000044], [-69.35627765099997, 8.638907535000044], [-69.35514180399986, 8.638631321000105], [-69.35363673499995, 8.638247314000012], [-69.35311572299997, 8.63822514200018], [-69.35210308099994, 8.63818204900008], [-69.35069960999994, 8.638122324000165], [-69.34843051799993, 8.637582323000174], [-69.34609841499997, 8.638349358000141], [-69.34539837399996, 8.638000473000147], [-69.34454534399998, 8.637575342000048], [-69.34441267399995, 8.637033451000036], [-69.34421432999994, 8.636223313000187], [-69.34261826499989, 8.636139326000034], [-69.34182219999991, 8.636130040000182], [-69.34116119699996, 8.636122329000159], [-69.34003315699994, 8.637228364000123], [-69.33991728299998, 8.63722213800014], [-69.33765106199996, 8.637100368000176], [-69.33494794399985, 8.637617395000063], [-69.33309686199988, 8.637441397000032], [-69.33045274299997, 8.635916375000022], [-69.32942544799988, 8.635469786999977], [-69.32862166599989, 8.635120366000137], [-69.32679358299998, 8.634738372000129], [-69.32429848799995, 8.635414400000116], [-69.32207738599993, 8.635125401000096], [-69.31983630199989, 8.635685434000152], [-69.31900126499988, 8.635161425000035], [-69.31772419999999, 8.63404339900012], [-69.31723533099995, 8.634146467000107], [-69.31716918199999, 8.634160413000188], [-69.31607912699997, 8.633453397000153], [-69.31393103999994, 8.634082418000048], [-69.31385523899996, 8.634128199000031], [-69.31236298299996, 8.63502945300013], [-69.31146795299998, 8.636340491000112], [-69.30364565999997, 8.644192702999987], [-69.30102854199998, 8.643469707000065], [-69.29970748899984, 8.642855698000119], [-69.29856542999994, 8.64079665200012], [-69.29758938399993, 8.639790633000075], [-69.29741935999988, 8.638185600999975], [-69.29743736399996, 8.637061573000096], [-69.29602329099998, 8.636425569000039], [-69.29440622599998, 8.636753587000157], [-69.29420463899999, 8.636815341000101], [-69.29281316799995, 8.637241601000028], [-69.29143010899992, 8.63816563500012], [-69.29033906099988, 8.637366617999987], [-69.29014806999999, 8.63731917399997], [-69.28919230499997, 8.637081753000132], [-69.28560085999999, 8.636189614000159], [-69.2834037479999, 8.633051551000108], [-69.2820296669999, 8.629912492000187], [-69.28339871799994, 8.62759042600004], [-69.28554379299999, 8.62537036200007], [-69.28553607999993, 8.62534383700006], [-69.28509077399997, 8.623812336000128], [-69.28692283099986, 8.619858227000066], [-69.2871898279999, 8.617632175999972], [-69.28553837299995, 8.617457799000022], [-69.28524251199991, 8.617426559000137], [-69.28483172699993, 8.617383184000175], [-69.28483971599996, 8.617365784000128], [-69.28508473099998, 8.616832172000045], [-69.28540076199994, 8.616522086000145], [-69.28646778699994, 8.615475132000029], [-69.2865198049999, 8.614788272000055], [-69.28658078399997, 8.613983100000041], [-69.28674367899993, 8.613748633000114], [-69.28757081999998, 8.61255806700018], [-69.2882858459999, 8.612029048000181], [-69.28835980999997, 8.61189484700003], [-69.28929887999988, 8.61019099300006], [-69.28897285699992, 8.609089978000043], [-69.28825482199994, 8.60863196500003], [-69.28735178599999, 8.607599943000082], [-69.28632517799997, 8.60599756400012], [-69.28628314299993, 8.605931954000027], [-69.2862054499999, 8.605810688000133], [-69.28591339699989, 8.605354839000142], [-69.28575070699986, 8.605100903999983], [-69.28572881399998, 8.605129491000127], [-69.28572361699992, 8.605136276999986], [-69.28561789499997, 8.605274325000039], [-69.28561614699998, 8.605270854000025], [-69.28561597599997, 8.605276831000083], [-69.28558250999998, 8.605320530000085], [-69.28551133199994, 8.60541347100019], [-69.28478266599996, 8.606364936000148], [-69.28462366499997, 8.60744395800009], [-69.28358261699998, 8.60705595200011], [-69.28258757999998, 8.606230943000185], [-69.28043747799995, 8.60618895000016], [-69.27798637799992, 8.60532094000007], [-69.27532525499993, 8.603947921000099], [-69.27504724799996, 8.603741926], [-69.27328816399995, 8.602688906000083], [-69.27317115899996, 8.602068896000162], [-69.27277413199988, 8.600256852000143], [-69.27233411499998, 8.599912845000176], [-69.27140806599994, 8.598881827000127], [-69.27112705099995, 8.597619800000075], [-69.27070801699989, 8.595921762999978], [-69.2706350119999, 8.594681741999977], [-69.26929394899997, 8.594041729000082], [-69.26899093999987, 8.593192711000142], [-69.26875691899994, 8.591953684000032], [-69.26787587699988, 8.590692653000076], [-69.26699683699997, 8.590165652000053], [-69.26558477299994, 8.589227630999972], [-69.26304065199992, 8.588106619000143], [-69.26181359899994, 8.587488613000176], [-69.26086355599995, 8.586319595000077], [-69.25848245299983, 8.585795593000057], [-69.25769842599988, 8.586577615000124], [-69.25686739099996, 8.58706063400001], [-69.25605935699997, 8.587567647000128], [-69.25506832599996, 8.588532677000046], [-69.25419329399995, 8.59000371000019], [-69.25320024799993, 8.590211722000163], [-69.2526662279999, 8.589408706000143], [-69.25157616699994, 8.587413669], [-69.25025610299997, 8.586176644999966], [-69.24941806499999, 8.583744592000073], [-69.24827999899998, 8.580900537000048], [-69.2483919899999, 8.579338500000063], [-69.2488040049999, 8.577455453000141], [-69.24877900199994, 8.576606434000098], [-69.24847497299993, 8.575229406000062], [-69.24782795099998, 8.575070394000022], [-69.24567685299996, 8.574408391000077], [-69.24419378199991, 8.57218335400006], [-69.24398376999994, 8.571541338000088], [-69.24312572799994, 8.57021131800019], [-69.24249969199997, 8.569064293000054], [-69.24175665299998, 8.567619260000129], [-69.24182365099983, 8.566540239000062], [-69.24059358499994, 8.564155181000103], [-69.2385385049999, 8.56468620600009], [-69.23738245499999, 8.564527209000175], [-69.23652540799986, 8.563588192000168], [-69.23696042499995, 8.562003153000035], [-69.23758043799995, 8.560097105000068], [-69.2371144089999, 8.558261068000093], [-69.23575034699996, 8.557804063000049], [-69.23538033899996, 8.557759070000145], [-69.23442928799989, 8.556062029000145], [-69.23308822599995, 8.55567402500003], [-69.2304781169999, 8.556367058999967], [-69.22971508699999, 8.55609205400009], [-69.22710497699995, 8.55685408800008], [-69.22516188799995, 8.55570906800017], [-69.22368383199995, 8.556079088000047], [-69.22132673699997, 8.556036092000056], [-69.21746857499994, 8.556731130000173], [-69.21661253499991, 8.555998121000187], [-69.21586548999994, 8.552785044000188], [-69.21512244899998, 8.551088014000072], [-69.21428840199991, 8.549757982000187], [-69.21310734899998, 8.548909974000026], [-69.21407537899995, 8.547760942000139], [-69.21349234499996, 8.545144887000163], [-69.21344233699989, 8.543308848000038], [-69.21327931799982, 8.542482829000164], [-69.21357732699994, 8.541379802000108], [-69.21350431899998, 8.539566763000096], [-69.21241526599994, 8.538213732000145], [-69.21137120699996, 8.5363106960001], [-69.21058417999996, 8.535485674000029], [-69.20882709799986, 8.535212683999987], [-69.20639698399998, 8.533517650000078], [-69.20498893599989, 8.53420867900013], [-69.20221581899995, 8.53389068700011], [-69.1999737139999, 8.533549693000168], [-69.19863566299995, 8.534538719000125], [-69.19734060299999, 8.534127714000135], [-69.1971775959999, 8.53343969700012], [-69.19650355699991, 8.531603659999973], [-69.19592252699988, 8.530043626000065], [-69.19554850099996, 8.528253588000098], [-69.19452844599994, 8.526235551000184], [-69.19316300899999, 8.525216034000152], [-69.1930243779999, 8.525112524000065], [-69.19263835399994, 8.524180505000174], [-69.19242445299994, 8.523663959000032], [-69.19239734699988, 8.523598502000027], [-69.19214133199995, 8.522749484000144], [-69.19255233899992, 8.520293420000144], [-69.19139428499994, 8.519147401999987], [-69.19023522299989, 8.517358362000152], [-69.19025164099997, 8.51730418699998], [-69.19026288499987, 8.51726708300015], [-69.19177325799996, 8.512283242000137], [-69.19387134099998, 8.510397183000123], [-69.19396334099997, 8.509892173000082], [-69.1926422819999, 8.508149145000118], [-69.1914132099999, 8.505879101000062], [-69.19071948399989, 8.503735974000108], [-69.19052916899994, 8.503148034000105], [-69.19013513999994, 8.502552031000107], [-69.19029413899995, 8.501082988000178], [-69.19091515999992, 8.499819963], [-69.19061214899989, 8.498488935000182], [-69.19088514099991, 8.496192879000091], [-69.19021110199992, 8.494379843000047], [-69.19071511799996, 8.492313788000047], [-69.19179816099995, 8.490934753999966], [-69.19052509199997, 8.4897197250001], [-69.19058808399996, 8.486735664000037], [-69.19021506399997, 8.485083628000098], [-69.19044506599994, 8.484394604000101], [-69.19044205499995, 8.482971574000146], [-69.19037105099994, 8.48221356200014], [-69.1901400399999, 8.482259564], [-69.19030004599983, 8.481203530000073], [-69.19066705699998, 8.480193508000127], [-69.19068904899996, 8.47950449700005], [-69.18992601899998, 8.479230497000117], [-69.18923098199991, 8.478290474000062], [-69.18754390599997, 8.477833471], [-69.18650386399997, 8.477674474000082], [-69.18594684199996, 8.476665449000166], [-69.18467577699988, 8.476391452000144], [-69.18111562199994, 8.475547453000047], [-69.18026058899994, 8.475273454000046], [-69.1796115539999, 8.474493438000138], [-69.17884651899993, 8.472933404], [-69.17838249399989, 8.47213038800004], [-69.17791947599989, 8.471534373000168], [-69.17597838799986, 8.471147377000136], [-69.17736043799988, 8.469492328000058], [-69.17673540799996, 8.468529316000115], [-69.17608436899991, 8.466464272000167], [-69.17774242299998, 8.464143210000145], [-69.17838844599987, 8.463385183000014], [-69.17697538499993, 8.461757158000069], [-69.17653435899996, 8.460679132000053], [-69.17759539799988, 8.459805109000115], [-69.17757140099997, 8.459277099000133], [-69.17708336899989, 8.45817607400005], [-69.17645833999995, 8.457465059000128], [-69.17393822499997, 8.456252046000031], [-69.17299018599988, 8.456162049000113], [-69.17243516599996, 8.45586404300019], [-69.1719021379999, 8.454809018], [-69.17213013899993, 8.45354599500007], [-69.17199112899982, 8.453247987000054], [-69.17125109899996, 8.45285898700007], [-69.17044105899998, 8.451895964000016], [-69.17013803699996, 8.450839945000155], [-69.17069106499997, 8.45015091900018], [-69.17043503799994, 8.449186900000086], [-69.16925398199999, 8.447673874000088], [-69.16867395899999, 8.44650384900001], [-69.16781791899996, 8.445746833999976], [-69.16770090199992, 8.44508181700013], [-69.16712288199989, 8.444829823000077], [-69.16682086599997, 8.443912798000156], [-69.1664038479999, 8.443200789000116], [-69.16543280599996, 8.442766781999978], [-69.16420774199992, 8.442607786000167], [-69.16353571699995, 8.441552762000072], [-69.1623816689999, 8.441989771000067], [-69.16067460299996, 8.443048803000124], [-69.15981856499985, 8.442682804000128], [-69.15829649799997, 8.443809843000054], [-69.1573954669999, 8.443947848], [-69.15661143999995, 8.444821870000055], [-69.15441734999996, 8.445260894000114], [-69.15390831799994, 8.444549878000089], [-69.15284428099994, 8.444183879000093], [-69.1517792219999, 8.442830849000075], [-69.15087818899997, 8.442763851], [-69.15011514799988, 8.442580847000158], [-69.14914410599994, 8.442122847000064], [-69.14743503799991, 8.442216855000026], [-69.14642099399987, 8.44334389100004], [-69.14589097899989, 8.444101906000128], [-69.14515396099995, 8.445433944000058], [-69.14430092099997, 8.446261965000076], [-69.14245385199996, 8.446929984], [-69.14252386099992, 8.447388994000164], [-69.14129980399997, 8.447620007000182], [-69.14058376899999, 8.447414014000117], [-69.13905870499991, 8.447485020000101], [-69.13818368299997, 8.448634051000056], [-69.13688761399993, 8.447580035000044], [-69.13621558899996, 8.446571012000163], [-69.13505953799995, 8.446136001000127], [-69.13459650699991, 8.44556299800007], [-69.13350846099996, 8.444530976000124], [-69.13193538999991, 8.443155953000144], [-69.13084833999994, 8.442560946000185], [-69.13054731999989, 8.442216938000172], [-69.13026730899992, 8.440885911000066], [-69.13079631599999, 8.439507873000082], [-69.13107232999994, 8.438542859000165], [-69.1310003189999, 8.437510832000157], [-69.13069929999995, 8.437235825000016], [-69.13014528799994, 8.437442829000133], [-69.12857622399997, 8.438018858000078], [-69.12751316999993, 8.438042856000095], [-69.12730315399989, 8.43666582800006], [-69.12755516299995, 8.435678806000055], [-69.12723014699998, 8.435035797000069], [-69.12700014299998, 8.435288800000137], [-69.12494505099994, 8.43593482500006], [-69.12441303099996, 8.435498818000099], [-69.12348898699997, 8.435729829000138], [-69.12228794299989, 8.435960842000156], [-69.12099488299992, 8.435962847000042], [-69.12030085299995, 8.435366832], [-69.11974482599999, 8.434517816000096], [-69.1195358189999, 8.434012807000158], [-69.11768774299992, 8.434267816000045], [-69.11681170099985, 8.434888837000187], [-69.11609467299985, 8.434843844999989], [-69.11401458699987, 8.43418083600011], [-69.11366657099995, 8.43356182000008], [-69.11281253399989, 8.433676837000064], [-69.11057244199998, 8.434024854000029], [-69.11013141799992, 8.433175837000022], [-69.11019841399997, 8.431866802000172], [-69.11017340799992, 8.430420772000048], [-69.11021639699993, 8.428744729000016], [-69.11019139299998, 8.427780709000046], [-69.11166944899998, 8.427434694000056], [-69.11238447599999, 8.426974676000043], [-69.11372153099995, 8.425503639999988], [-69.11441254899995, 8.424378616000183], [-69.1149855669999, 8.422311567000122], [-69.11528157099997, 8.419946510000102], [-69.11431051699992, 8.419351491000157], [-69.11267044899995, 8.419215497000096], [-69.11276044599992, 8.417815467000082], [-69.1136114709999, 8.415954424], [-69.11434951099994, 8.41556340600016], [-69.11476351599993, 8.414530384000159], [-69.11471551199998, 8.413657359000126], [-69.11439148999995, 8.412923354000043], [-69.11468949999994, 8.412028322000083], [-69.1159365549999, 8.41142930600006], [-69.11861666499988, 8.411678298000083], [-69.12007273099994, 8.41231930300006], [-69.12009573199998, 8.41245731600003], [-69.12099877899988, 8.41325932500007], [-69.12240583099998, 8.41222529300012], [-69.12390488599993, 8.411213266000118], [-69.12568396299997, 8.411348255], [-69.12679300499997, 8.411209243000087], [-69.12787604999994, 8.409991210999976], [-69.12829206999999, 8.409807208000132], [-69.13032314299994, 8.408886175000077], [-69.13228522899993, 8.408608164000043], [-69.13307125799992, 8.408584155000085], [-69.13484733699988, 8.40750312700004], [-69.13620738099996, 8.406055080000044], [-69.13782444699984, 8.405846072000145], [-69.13865548399986, 8.405776063000133], [-69.13990254099991, 8.405637062000096], [-69.14040955599995, 8.40478703499997], [-69.14066055499995, 8.402995990000022], [-69.14054354899991, 8.402123971000094], [-69.13945549099998, 8.400999948999981], [-69.13765442099998, 8.401369971000065], [-69.13594835199996, 8.403002021000077], [-69.13498032399997, 8.404518061000147], [-69.13341025299991, 8.40472706899999], [-69.13303622499996, 8.402593022000076], [-69.1336582539999, 8.401650994000136], [-69.13388825599992, 8.40082398100003], [-69.13423126999999, 8.399193936000074], [-69.13492127999996, 8.397677897000108], [-69.13526128199993, 8.394325821000052], [-69.13597531299996, 8.393268790999969], [-69.13692034199988, 8.392096760000072], [-69.13728735199999, 8.390787736000163], [-69.13723834099994, 8.38947969600008], [-69.1372843399999, 8.38918169800013], [-69.13832037499992, 8.387343644000111], [-69.13854938399987, 8.38647063000019], [-69.13986544099987, 8.38594160800011], [-69.14157250699998, 8.385043577000147], [-69.14228652399999, 8.383550538000122], [-69.14288555399997, 8.382975531000056], [-69.14279254299993, 8.382425514000147], [-69.14219051599997, 8.381760499000109], [-69.14126647099988, 8.381738509000058], [-69.14075745299994, 8.381647504000057], [-69.14070944899998, 8.380660484000089], [-69.13960039299997, 8.380524487000116], [-69.13819133699991, 8.380434492000063], [-69.13869634699995, 8.378413443999989], [-69.14042240599986, 8.375518372000101], [-69.14136844299998, 8.374874351000187], [-69.14185045499988, 8.37324430600006], [-69.14173444399995, 8.372831297000062], [-69.14201046099998, 8.37225728499999], [-69.14207845399994, 8.371522273000096], [-69.14152242699993, 8.370926258000111], [-69.14156743199999, 8.370260247000147], [-69.14246746999987, 8.369984228000135], [-69.14313748999996, 8.369776219000073], [-69.1437605139999, 8.369293212000173], [-69.14364251399991, 8.368214180000052], [-69.14363950299992, 8.366768150000155], [-69.14342948699988, 8.365300115000082], [-69.14277945599991, 8.36401508900019], [-69.14166940199993, 8.362960079000118], [-69.14090536499992, 8.36225005800003], [-69.14178039899997, 8.360986027000024], [-69.14200939199998, 8.359539996000024], [-69.14161437999996, 8.358575977999976], [-69.14064232899995, 8.35722294600015], [-69.14082532499998, 8.35653393400014], [-69.13992328399996, 8.355800925000153], [-69.13936826399993, 8.355342912000026], [-69.13804920699994, 8.354402892000053], [-69.13751717299982, 8.353531880000105], [-69.13774618099995, 8.352612854000085], [-69.13793018499996, 8.352290850999964], [-69.13732815599997, 8.35146582900012], [-69.13670413499995, 8.35123683500018], [-69.13543308199996, 8.35107783899997], [-69.13316898099993, 8.350713833000043], [-69.13289095899995, 8.349910815000044], [-69.13254194799993, 8.348854796000182], [-69.13240293599995, 8.348327792000077], [-69.13143088899994, 8.347662779000018], [-69.12939779899995, 8.347389779000025], [-69.12803474199995, 8.34679477300017], [-69.12680868199993, 8.346061766], [-69.1261836519999, 8.345213743000102], [-69.12521060499995, 8.343332714000155], [-69.12622364299995, 8.342114670000115], [-69.12684666699994, 8.341562663000161], [-69.12670665999991, 8.34071364500005], [-69.12605863299996, 8.340324632000147], [-69.12483457299993, 8.340073635000067], [-69.12418754099997, 8.34000463700005], [-69.12335651499995, 8.339891639000086], [-69.1225704719999, 8.339524634000043], [-69.12217645499999, 8.338882618000184], [-69.12108940299993, 8.338011609000148], [-69.12067339199996, 8.337805603000163], [-69.12014136199991, 8.337599598000054], [-69.11954033999984, 8.337095596000097], [-69.11801426799997, 8.336569591000057], [-69.11632718999988, 8.335722579000105], [-69.11505613599996, 8.335356581000042], [-69.1136930799999, 8.335060578000139], [-69.11256203199986, 8.335635599], [-69.11152298499997, 8.335728598000173], [-69.11055294999989, 8.335592600000098], [-69.10912089299995, 8.335570612000083], [-69.10842685099993, 8.33488360300015], [-69.10883985999982, 8.333115557000042], [-69.10779882199984, 8.33254254500008], [-69.10682776899995, 8.332130545000098], [-69.10588073499991, 8.332062543000177], [-69.10502669699997, 8.332040552000024], [-69.10440166899997, 8.33153653800008], [-69.10391664399998, 8.33103253500019], [-69.10382263999998, 8.330343513], [-69.1032966119999, 8.32927049000017], [-69.10262758099998, 8.328674488000047], [-69.10214255599988, 8.328146480000044], [-69.10082648899999, 8.32681645100007], [-69.10020346099986, 8.32651844500009], [-69.09916441999997, 8.325555435000183], [-69.09881840299994, 8.324913419000154], [-69.09971743399996, 8.324477405000152], [-69.09999444599998, 8.32431739600014], [-69.10004044499988, 8.3238123860001], [-69.09983243099998, 8.323193369000137], [-69.10059345599996, 8.322047343000179], [-69.10119347899996, 8.321474323000189], [-69.10160849099992, 8.320557306000069], [-69.10165349399995, 8.319594279000057], [-69.10059244899998, 8.319410283000082], [-69.09969240899994, 8.319066279000083], [-69.0992303829999, 8.318447263], [-69.09899937099988, 8.318286263000175], [-69.09876835799997, 8.317828260000056], [-69.09867535899997, 8.317300250000073], [-69.09830634099984, 8.316544227000122], [-69.09766031299995, 8.316452229000163], [-69.09699027599993, 8.315649214000018], [-69.0968282629999, 8.314984197000172], [-69.09662024799997, 8.313929182000038], [-69.09627423199998, 8.31356217500013], [-69.0960432139999, 8.312370141000088], [-69.09588121399997, 8.311705136], [-69.09511917599991, 8.31136113100007], [-69.09465816199997, 8.311865138000144], [-69.09435814999983, 8.312163148000081], [-69.09454316299997, 8.312806158000171], [-69.09426615499996, 8.313631185000133], [-69.09327411299995, 8.313608190000082], [-69.09299710199991, 8.313837199000147], [-69.0930890979999, 8.312553163000132], [-69.09334209899998, 8.31147513500008], [-69.09364210699994, 8.310375111000042], [-69.09403411899996, 8.309687091000114], [-69.09437913499988, 8.308655074000058], [-69.09442612899994, 8.30851806600009], [-69.09440212899983, 8.307279038000104], [-69.0939630979999, 8.305491000000131], [-69.09329306299998, 8.30496299300006], [-69.09336206899991, 8.303518961000123], [-69.09290004499996, 8.303266955000026], [-69.09204600599992, 8.302921945000094], [-69.09183799299996, 8.302371941000047], [-69.09091494799998, 8.301293918000113], [-69.09095994899997, 8.300055895000128], [-69.09181397099991, 8.299253865000026], [-69.09236799599984, 8.299276862000056], [-69.09345204999983, 8.29881784700018], [-69.09391306799995, 8.298909846000072], [-69.09513612099988, 8.298955840000133], [-69.09592114399993, 8.298864841000125], [-69.09702819599994, 8.297992816000033], [-69.09712019399984, 8.297029789000021], [-69.09730419599998, 8.296456783000053], [-69.09767320699996, 8.295608755000046], [-69.09815722399992, 8.295402745000047], [-69.09901126199998, 8.295402741000032], [-69.10055732699993, 8.295241732000136], [-69.10207938399998, 8.29443971100011], [-69.10235639299992, 8.293797692], [-69.10221737999996, 8.292880678000188], [-69.10164036099991, 8.291917655000134], [-69.10101632299995, 8.290679622000141], [-69.09926224299988, 8.289945625000087], [-69.09813219799997, 8.290082626000128], [-69.09718615999998, 8.290472640000075], [-69.09630912599988, 8.291412670000057], [-69.09536409399993, 8.292099688], [-69.09414104299998, 8.292260695000095], [-69.0938180249999, 8.291503678000083], [-69.09231796099994, 8.291640693000147], [-69.09132592299994, 8.292397715999982], [-69.09107291999999, 8.293085734999977], [-69.0905878989999, 8.293612743000097], [-69.08971085999997, 8.293451746000187], [-69.08938784399999, 8.292970743000069], [-69.08906482499998, 8.291892717000053], [-69.08860280099998, 8.291525710000144], [-69.08807177599988, 8.291410712000072], [-69.08696473099997, 8.29138771700002], [-69.0863417079999, 8.291983726000012], [-69.08574269099995, 8.292786748000026], [-69.08530467899993, 8.29386377200018], [-69.08493567099993, 8.29514780900007], [-69.08468265799996, 8.296362833000046], [-69.08493667399995, 8.297096850000116], [-69.08519068999982, 8.297990875000153], [-69.0847066799999, 8.299595910000164], [-69.08422266299993, 8.299733913000125], [-69.08323062199992, 8.299893926000095], [-69.08186856099991, 8.300099941000042], [-69.08145354399994, 8.29980193400013], [-69.0805074989999, 8.298769912000182], [-69.07953744799994, 8.297783890000119], [-69.0787984189999, 8.296659877000138], [-69.07702133799995, 8.295948868000039], [-69.07637531299997, 8.29631588000018], [-69.07589129799999, 8.296911888000125], [-69.07372320599984, 8.298539943000094], [-69.07100008999993, 8.29890596000007], [-69.07023806199993, 8.298102945000153], [-69.06982304199988, 8.297231933000035], [-69.06929201299994, 8.296245909000163], [-69.06922199899998, 8.294823873000098], [-69.0692219959999, 8.294227867000188], [-69.06926699899998, 8.293172840000182], [-69.0697050099999, 8.292026815000156], [-69.07005102099993, 8.291407796000158], [-69.07044303099997, 8.29021476600002], [-69.0703740269999, 8.28991675800006], [-69.06942697999989, 8.289618754000116], [-69.06873495099995, 8.289366760000064], [-69.06783490899988, 8.288838743000156], [-69.06730388299991, 8.28854074800006], [-69.06621983699995, 8.288104744000066], [-69.06566581099992, 8.287943734000066], [-69.0651577999999, 8.288012737000031], [-69.06471977199988, 8.288149747000148], [-69.06381973299995, 8.288080750000063], [-69.06305870199992, 8.288011754000024], [-69.06250367899992, 8.286911734000114], [-69.0619496509999, 8.286360715000114], [-69.06054259499996, 8.286727731000099], [-69.06008157999997, 8.287208749000115], [-69.0593195429999, 8.28679574400013], [-69.05842051199994, 8.287437766000153], [-69.05795948699983, 8.288262782000174], [-69.05701344999989, 8.289019805], [-69.05609041199989, 8.289294818000144], [-69.05507536999994, 8.289385818000028], [-69.05424434199995, 8.288789817000179], [-69.05408232699995, 8.287642790000064], [-69.05484335399984, 8.2869787730001], [-69.05585838699989, 8.285075715000175], [-69.05588138399992, 8.28447870499997], [-69.05537335899999, 8.284180698000114], [-69.05500434499993, 8.284249701000022], [-69.05378129199988, 8.284157705999974], [-69.05311226599997, 8.284615726000027], [-69.05191221799998, 8.285418750000076], [-69.05064316499994, 8.285578752000163], [-69.04923610499998, 8.285073749], [-69.04893509199991, 8.283880722000163], [-69.04840406299996, 8.282757703000073], [-69.04699700299989, 8.282344700000067], [-69.04671999699997, 8.28367473700007], [-69.0463519789999, 8.284476752000103], [-69.04572895499996, 8.285026773000027], [-69.04492092099997, 8.285416786000042], [-69.04381387299986, 8.284704768000154], [-69.04344386399998, 8.284704770000133], [-69.04284383399988, 8.283810758000072], [-69.04212880199998, 8.283191744000021], [-69.04164377299998, 8.282067719000167], [-69.04111274499991, 8.28121870200016], [-69.04090472999985, 8.280393690000096], [-69.03958967099993, 8.279521677], [-69.03901264199999, 8.278902662], [-69.03795059399994, 8.278970674000163], [-69.03711956499984, 8.278145653000024], [-69.03550449599999, 8.278098655], [-69.03446644999997, 8.27729565300001], [-69.0334503979999, 8.276355632000161], [-69.03321938199997, 8.275552614000162], [-69.03296536699992, 8.274841597000034], [-69.03287336199998, 8.274245580000184], [-69.03345038599991, 8.273993581000184], [-69.0339804059999, 8.274131579000084], [-69.03506545499988, 8.274177574000078], [-69.03603449599996, 8.274155563000079], [-69.03686452499994, 8.273467552000113], [-69.03695652399995, 8.272848534000047], [-69.03621848999995, 8.271953518999965], [-69.03462542599988, 8.271334509000098], [-69.03407239499995, 8.271334511000077], [-69.0332643569999, 8.271242515000097], [-69.03107227099997, 8.270370506000177], [-69.03033323299991, 8.269704499000056], [-69.02966420199982, 8.269085484000072], [-69.02823414299996, 8.268924490000074], [-69.02749510799993, 8.268832493000048], [-69.02650306499999, 8.26846548900005], [-69.02588003399995, 8.26766247300003], [-69.02493398799993, 8.266515450000043], [-69.02407595099999, 8.266021441000134], [-69.02377993399995, 8.26585043700004], [-69.02336391099988, 8.265506430000073], [-69.02218686599991, 8.264474421000045], [-69.02156383599998, 8.263648405000083], [-69.01974174899993, 8.263533401000132], [-69.01888771299997, 8.263808414000096], [-69.01752665399988, 8.263326411000094], [-69.01720363699991, 8.262638394000078], [-69.01632659799998, 8.26250039700011], [-69.01574957899993, 8.261445373000072], [-69.01561056399999, 8.260230351000075], [-69.01484852499993, 8.259473336000042], [-69.01438750399996, 8.25857831900015], [-69.01316444899993, 8.258119314999988], [-69.01046432899989, 8.257568318000153], [-69.00972629599994, 8.256994311000028], [-69.00896425599996, 8.256077288000085], [-69.00661115999992, 8.25648930400007], [-69.00644914699996, 8.255824298000107], [-69.00693416399992, 8.2545632610001], [-69.0071871799999, 8.254012249000027], [-69.00672614799993, 8.253416234000156], [-69.00603411999998, 8.253508250000152], [-69.0048340699999, 8.253874260000032], [-69.00501807999996, 8.252521223000088], [-69.00499507799998, 8.25231522700011], [-69.00504107299997, 8.250962191000042], [-69.00619411199989, 8.249656155000025], [-69.00635510999996, 8.24841712600005], [-69.00575508499998, 8.248532129000068], [-69.00506406499994, 8.249311158000125], [-69.00469505199993, 8.249655169000107], [-69.0037950119999, 8.249517160000153], [-69.0023179499999, 8.24997518400005], [-69.00189093199992, 8.250084191000099], [-69.00124389899992, 8.25008718600003], [-69.00034086499994, 8.249518182000031], [-69.00033886499995, 8.249219168000025], [-68.99839878499989, 8.249115186000097], [-68.99745274499998, 8.24925819400005], [-68.99716971999999, 8.24824916800003], [-68.99674769799998, 8.247058140999968], [-68.99529363399995, 8.247134149000033], [-68.99437059499996, 8.24732315700004], [-68.99328455099999, 8.247076156000162], [-68.99334955299992, 8.246410144000095], [-68.99334454599995, 8.245377124000072], [-68.99225349599993, 8.244418099000029], [-68.99133045699995, 8.24453810700004], [-68.99029241499994, 8.244635114000118], [-68.98989539399986, 8.243926109000029], [-68.99060642099988, 8.242912076000039], [-68.99011239099997, 8.241353046000029], [-68.98953336599993, 8.241081044000055], [-68.98861032599984, 8.241086051000025], [-68.98717726299992, 8.240841050000085], [-68.98615622099999, 8.2398590250001], [-68.98499816899994, 8.239199015000054], [-68.98451114699998, 8.238972019000073], [-68.98382011299998, 8.239297028000067], [-68.9828080769999, 8.239877051000178], [-68.98199903499994, 8.239812052000048], [-68.98107399499997, 8.239496049000081], [-68.98132501299995, 8.23896602800005], [-68.98205902999985, 8.23811300799997], [-68.98223303299994, 8.236183962000041], [-68.98172401399984, 8.235864966000122], [-68.98051794999998, 8.235021948], [-68.97873987899993, 8.23496195500013], [-68.97574376199992, 8.235872989000029], [-68.97518572499985, 8.235324985000148], [-68.97430268599999, 8.234158958000023], [-68.97340165299994, 8.234186965000106], [-68.97289863599997, 8.234992978000093], [-68.97242061999992, 8.236396013000103], [-68.97240662699994, 8.23802605600008], [-68.97097956399989, 8.23876807500011], [-68.96989051499992, 8.238177065000059], [-68.96946949799991, 8.237077045000149], [-68.96895246699995, 8.235381007000171], [-68.96822942599988, 8.234167986000045], [-68.96806141499997, 8.232997959000159], [-68.96751938399996, 8.231003913], [-68.96642532699991, 8.229263889000094], [-68.9660033049999, 8.22818786199997], [-68.96618330799998, 8.227290843000105], [-68.96629130399992, 8.225912808000032], [-68.96565627599989, 8.223781767], [-68.96456521399995, 8.222638742000015], [-68.96428520699988, 8.222112731000095], [-68.96321314499988, 8.220281700000044], [-68.96348415699993, 8.219154667000169], [-68.9642791739999, 8.216832617000023], [-68.96433916699988, 8.214949572000137], [-68.96362013899983, 8.214447558000131], [-68.96209807899999, 8.214685572000121], [-68.96128604199998, 8.213955566000095], [-68.9612370349999, 8.213542557000153], [-68.96037999099997, 8.213041547999978], [-68.95922494599995, 8.21281754800009], [-68.95893992099991, 8.21146451300018], [-68.96070899699998, 8.209848475], [-68.96118701299986, 8.208560440000099], [-68.96046997199994, 8.208242438000127], [-68.9599789479999, 8.207235412000102], [-68.95985093799999, 8.20489436400004], [-68.95995693299994, 8.20303431900004], [-68.95992991999992, 8.202391308000017], [-68.95945688899997, 8.200212256000043], [-68.95928587199995, 8.198491218000129], [-68.95902785999982, 8.197804207], [-68.95895285799992, 8.196794187000137], [-68.95920085699993, 8.195599158999983], [-68.95907684699995, 8.19401612200005], [-68.95897583699997, 8.192409080000118], [-68.95883482799991, 8.191974077000111], [-68.95804278499992, 8.190601048000076], [-68.95720574699988, 8.18957202900009], [-68.95565167999996, 8.188248008000073], [-68.9552536519999, 8.187170988000162], [-68.95531964699995, 8.186642965000033], [-68.95519464299991, 8.184875927000064], [-68.95436059899998, 8.184213916999965], [-68.95258052799988, 8.183901916000025], [-68.95128746799992, 8.183862922000174], [-68.94912037599994, 8.184378952000031], [-68.94697629599983, 8.184895975000131], [-68.9469611159999, 8.184858915000063], [-68.94678827999991, 8.184436966000078], [-68.94681028599996, 8.184184958000174], [-68.94679636799987, 8.184138154000038], [-68.94655126799984, 8.183313933000136], [-68.94585423299998, 8.182421921000014], [-68.94592222799992, 8.182099906000133], [-68.94649325299991, 8.181040878999966], [-68.94703827099988, 8.17936284700005], [-68.94627023399994, 8.178241827000022], [-68.94472253499987, 8.177997560000165], [-68.94359011199998, 8.177818826000134], [-68.94257407599991, 8.177732826000124], [-68.94089500199988, 8.179026861000125], [-68.94020497399998, 8.179443883000033], [-68.93849390399998, 8.17887888000007], [-68.93873690899994, 8.176971829000138], [-68.93829287899996, 8.175917809000111], [-68.93671781199987, 8.174984791000043], [-68.93496373599993, 8.175085810000098], [-68.93293165299997, 8.175026812000056], [-68.93200760699995, 8.17487181100006], [-68.93121856999994, 8.17416380000003], [-68.92911748499995, 8.174128807000045], [-68.92795743299996, 8.172940787000186], [-68.92744840299986, 8.172690791000093], [-68.92631135199991, 8.1716867720001], [-68.92556130999986, 8.169623726999987], [-68.92532429699997, 8.168385705000048], [-68.92499227699994, 8.166802669000162], [-68.92484725399993, 8.165472633999968], [-68.9244722389999, 8.164509609000163], [-68.92356218599991, 8.162586576000137], [-68.92314316999989, 8.16203756599998], [-68.92208012699996, 8.161790565000047], [-68.92078706699988, 8.161682571000028], [-68.9189399949999, 8.161783580000133], [-68.91870498199995, 8.160912567000082], [-68.91895398799994, 8.160061536000114], [-68.91881097699991, 8.15909751700002], [-68.91901297599992, 8.158086491], [-68.91944098999988, 8.156064450000144], [-68.91998800799996, 8.154706410000017], [-68.92002900199998, 8.15369638900006], [-68.91898395399994, 8.152668376000179], [-68.91649184699997, 8.152796384999988], [-68.91571281199998, 8.153994419000185], [-68.9141907529999, 8.154162427000074], [-68.91317070499997, 8.153456415999983], [-68.91180964899996, 8.153509424000106], [-68.91060759699991, 8.153239423000059], [-68.90850550499988, 8.152951428000108], [-68.90781147699994, 8.152771428000165], [-68.90697443899995, 8.151720412999964], [-68.9072454389999, 8.150524380000036], [-68.90698742599994, 8.149653366999985], [-68.90649339599992, 8.148049331000152], [-68.90547735899997, 8.147870325000099], [-68.90434430899995, 8.147555328000067], [-68.90325925999997, 8.147629336000136], [-68.90305625599996, 8.148479350000116], [-68.90368428799997, 8.149280367000074], [-68.9049193439999, 8.151638415000093], [-68.90492434999987, 8.152419437999981], [-68.90404932399997, 8.152974450000102], [-68.90326628799988, 8.153208464000102], [-68.90185422499997, 8.152641449000157], [-68.90067416699992, 8.152119452000022], [-68.8999321369999, 8.151319428000079], [-68.89868408399985, 8.15111943300019], [-68.89743903699997, 8.151424448000114], [-68.89499293199998, 8.151711471000112], [-68.89312284699997, 8.151606472000026], [-68.89145377699998, 8.150260444000082], [-68.89063372599998, 8.14796840300005], [-68.89090173099993, 8.146291366000128], [-68.89158775799996, 8.144956325000066], [-68.89284679799994, 8.14292927800011], [-68.89240476999998, 8.142404262000184], [-68.89129473099996, 8.142019260000097], [-68.89147472299993, 8.14105424600001], [-68.89204875399992, 8.140523229000053], [-68.89271277399996, 8.139418202], [-68.89178672899982, 8.13898619300005], [-68.89178472799989, 8.138550184000167], [-68.89201373899994, 8.13811217500006], [-68.89106369799993, 8.137429163000036], [-68.88944362399991, 8.136725153000043], [-68.88803356099987, 8.136365152], [-68.88616347499993, 8.136260152000034], [-68.88556445599994, 8.136561166999968], [-68.88459040899983, 8.135716150000121], [-68.8843293889999, 8.134340127000087], [-68.88446439799998, 8.133674103000033], [-68.8848844119999, 8.13282708100013], [-68.88743949899992, 8.129682007000099], [-68.88697048199992, 8.12864798400011], [-68.88551242099999, 8.128571990000012], [-68.88307131199997, 8.127402967000023], [-68.88303129799988, 8.125726935999978], [-68.88491536699996, 8.124466897000104], [-68.88560739099995, 8.123612873000127], [-68.88162020199991, 8.116992738000135], [-68.88135417999985, 8.11552471500005], [-68.8792190819999, 8.114858702000106], [-68.87694698599995, 8.114353703000177], [-68.87507290299999, 8.114304708000134], [-68.87383185599998, 8.115167734000124], [-68.87314983199991, 8.115224747000127], [-68.87286481599989, 8.11559875800009], [-68.87117975099989, 8.115267753000126], [-68.87053771899997, 8.11489675000007], [-68.86915265499988, 8.114573749000101], [-68.86907364399991, 8.113734723000107], [-68.86837660899988, 8.112748711000052], [-68.86886562299992, 8.111510674000044], [-68.86876362299995, 8.110420656000088], [-68.87216773999995, 8.106205546000012], [-68.87321977199997, 8.103656485000045], [-68.87310976999999, 8.10330047399998], [-68.87199372299995, 8.10269346500013], [-68.87129870099989, 8.104928515000154], [-68.87084767899995, 8.105478534000099], [-68.86972164499997, 8.10843960000011], [-68.86844959999996, 8.108569613000157], [-68.8678125639999, 8.107004576000065], [-68.8677575609999, 8.106370565000077], [-68.86744053999996, 8.10584455500009], [-68.8666905049999, 8.105391555999972], [-68.86507243299997, 8.105381559000136], [-68.86105726699992, 8.104394558000081], [-68.86168828299998, 8.103318526000066], [-68.86312234699989, 8.102652509000109], [-68.86375336599997, 8.102228499000034], [-68.86096723999992, 8.09951944900007], [-68.8603282119999, 8.099131441000111], [-68.85885814199997, 8.097814420000134], [-68.85830711599993, 8.096851396000034], [-68.85749207499998, 8.096139388999973], [-68.85664303099998, 8.094494355000108], [-68.85445892199994, 8.092608318000146], [-68.85318187499996, 8.092844333000016], [-68.85155880499997, 8.093547353000133], [-68.85112778299992, 8.092396329999985], [-68.85061975699989, 8.09195432700011], [-68.8501057389999, 8.092095323000024], [-68.84869368499994, 8.093369360000054], [-68.84683161499999, 8.095379417000174], [-68.84524756299993, 8.097368471000095], [-68.84263045199992, 8.098202496000056], [-68.84124838899999, 8.097173479000105], [-68.8381272439999, 8.094043427000145], [-68.83771421699993, 8.091902381000068], [-68.83719618599997, 8.091316370000186], [-68.8366351599999, 8.09123637500005], [-68.8357481299999, 8.09144838300017], [-68.83455508299994, 8.092392411000105], [-68.83256200399995, 8.09320743000012], [-68.8299268909999, 8.093237444000124], [-68.82768879399998, 8.09269644800014], [-68.82664074599995, 8.092666452000117], [-68.82417164499986, 8.093741486999988], [-68.82318061399991, 8.094820513000116], [-68.82239758099996, 8.095839547000026], [-68.81932246499991, 8.098328616], [-68.81881245299991, 8.100538667000023], [-68.82033152899999, 8.102107696000076], [-68.82242561899989, 8.103257717000076], [-68.82291465199995, 8.10589376900009], [-68.82797686499993, 8.105542736000075], [-68.83116800099992, 8.105439723000188], [-68.83199604299995, 8.107268757000156], [-68.8473459519999, 8.161765923000189], [-68.82567631199993, 8.219777350000072], [-68.79480723099994, 8.264992521000067], [-68.7947542309999, 8.265412531000038], [-68.79466221799993, 8.265548534000175], [-68.79460221999994, 8.266625569000041], [-68.78831020799998, 8.316755740000133], [-68.74165429599987, 8.331622312000036], [-68.60529184199999, 8.469432935000043], [-68.54404993699995, 8.531325229000117], [-68.51793188699997, 8.557720653000104], [-68.51793489099992, 8.557722652000166], [-68.51792853699993, 8.557729089000077], [-68.51357172599995, 8.562142774000108], [-68.51202966799991, 8.564449835000119], [-68.51148765399995, 8.566074879000155], [-68.51194068399985, 8.567408910000097], [-68.51235970299996, 8.568549930000188], [-68.51236070799996, 8.56855093500019], [-68.5123717059999, 8.56858192900006], [-68.51303573699994, 8.569595955000125], [-68.53020244699997, 8.59538141000013], [-68.53202069199995, 8.59811252500009], [-68.53470480999988, 8.59802951000006], [-68.53685190399989, 8.599403538000047], [-68.53931901999994, 8.600990561000174], [-68.54211913999995, 8.60207957200015], [-68.54488427799998, 8.60507362500016], [-68.54651235299986, 8.606987657000047], [-68.54794342399987, 8.608393687000046], [-68.54803643699984, 8.609589719000041], [-68.54742742699989, 8.612468788000172], [-68.54968952299993, 8.613891807000016], [-68.55366170699995, 8.615348828000094], [-68.55688083999996, 8.616330830000152], [-68.55887393899991, 8.61731184600012], [-68.56021200299995, 8.618692866000174], [-68.56181306899992, 8.618426848000183], [-68.56331412199995, 8.61728582000012], [-68.56726327399986, 8.615046742000118], [-68.56842133399994, 8.614932741000189], [-68.57171183699995, 8.61422885200011], [-68.5718574679999, 8.614197699000101], [-68.57464860299996, 8.615813727999978], [-68.57686669699996, 8.617120754000155], [-68.57839877299989, 8.619239789000062], [-68.58021885699986, 8.620859820000078], [-68.58049464199996, 8.621409813000184], [-68.58075389499999, 8.621926836000057], [-68.58136892499988, 8.623660879999989], [-68.5819219519999, 8.6249569040001], [-68.58316201899993, 8.626679936000073], [-68.58322603199997, 8.629413007000153], [-68.58193098599986, 8.631889073000025], [-68.58090395499988, 8.632419087000187], [-68.57968589699982, 8.633244108000156], [-68.57998591599994, 8.63451313600018], [-68.58149798799991, 8.635254148000172], [-68.58295305299998, 8.636615172000177], [-68.58594318399992, 8.637432177], [-68.5881672889999, 8.637246166000182], [-68.59143842299994, 8.63666913500009], [-68.59388152099984, 8.635823095000092], [-68.59568359199989, 8.634688060000087], [-68.59593059299993, 8.632627019000154], [-68.59544754899991, 8.628783923000128], [-68.59645158499995, 8.627013887000032], [-68.5984756769999, 8.627581880000093], [-68.60121578599995, 8.626924854000038], [-68.60353888599997, 8.627590854000118], [-68.60615799799996, 8.627252839000107], [-68.60846909299988, 8.62732182800005], [-68.61089621399998, 8.6286098490001], [-68.61362132699992, 8.630063871000175], [-68.61617543899996, 8.630733867000174], [-68.61886556799988, 8.631521879], [-68.6226787459999, 8.635407942000143], [-68.62461882799994, 8.635515945000066], [-68.62714793499993, 8.635060919000068], [-68.62932302999997, 8.636228937999988], [-68.63190114699995, 8.636853939000105], [-68.63451225499989, 8.63695092800009], [-68.63661934699996, 8.636763913000152], [-68.63836841799991, 8.635994882000034], [-68.64043949899997, 8.635300858000164], [-68.64121452699993, 8.634627830000056], [-68.64368463999995, 8.634860823000054], [-68.64494769599992, 8.636583867000184], [-68.64613075499994, 8.63883390400008], [-68.64748882799995, 8.640421938000031], [-68.64689680599997, 8.642452992000017], [-68.64452271599993, 8.644495052000082], [-68.64163660599996, 8.646801115000187], [-68.64005536099995, 8.647712507999984], [-68.63967253699991, 8.647933159000047], [-68.63750144999995, 8.649038195000173], [-68.63635839899996, 8.649566211000149], [-68.63442831999998, 8.651387267000189], [-68.63502435699996, 8.652914298000155], [-68.63613241399992, 8.654290317000061], [-68.63612941799994, 8.655690360000165], [-68.63602842499995, 8.657409390000112], [-68.63504039099996, 8.659547453000187], [-68.63448137099982, 8.660982489000105], [-68.63541742199993, 8.6616204930001], [-68.63791853399982, 8.662680511000076], [-68.63871057499989, 8.663516531000141], [-68.63956561199996, 8.664550541000096], [-68.6406516589999, 8.665308559000096], [-68.6418077109999, 8.665813564000018], [-68.64312476899988, 8.666480574000161], [-68.64430381799986, 8.666204554000046], [-68.6455978709999, 8.666204548000053], [-68.64758597499997, 8.668502592000152], [-68.64804800299993, 8.669467615000144], [-68.64777099499992, 8.67052363800019], [-68.64668595699993, 8.67261469600004], [-68.64529991099994, 8.674704750000103], [-68.64495390299999, 8.675944787000105], [-68.64601694999993, 8.676840795000032], [-68.64585594999994, 8.677644820000182], [-68.64562493999989, 8.67789782300008], [-68.64645698099991, 8.67987286500005], [-68.64664300299995, 8.681274905000066], [-68.64736004199995, 8.683525950000046], [-68.6474530459999, 8.684949986000106], [-68.64763806799994, 8.687293034], [-68.64609101999991, 8.689682104000156], [-68.6467390549999, 8.691451139000037], [-68.64807911399993, 8.692416158000071], [-68.64884114099993, 8.690601103000063], [-68.64983416999985, 8.689522077000163], [-68.65145224899999, 8.690809097000056], [-68.65055221499995, 8.691842134000183], [-68.65018320999997, 8.693726175], [-68.65094625599994, 8.694851193000034], [-68.65226331399992, 8.695564204000107], [-68.65258732799998, 8.69689623700009], [-68.65177830199985, 8.697838267000066], [-68.64995322999994, 8.698963297999967], [-68.64933021299998, 8.700801351999985], [-68.64903020899993, 8.702547392000042], [-68.65000226799998, 8.705418447], [-68.65164333299998, 8.706130462000033], [-68.6535384199999, 8.706590456000072], [-68.65446246799996, 8.707096467000156], [-68.65548050899991, 8.708359497000174], [-68.65645155399989, 8.709554519000108], [-68.65744561299988, 8.710817536999969], [-68.65880966499998, 8.71139254600007], [-68.65975670699999, 8.710817524999982], [-68.66192879999994, 8.709853494000072], [-68.66400888399983, 8.710152497000024], [-68.66650499199994, 8.710703495000132], [-68.66766003899994, 8.708958445000178], [-68.66911609799996, 8.708223425000142], [-68.67114917599997, 8.708430416000112], [-68.67332126999992, 8.707810394000148], [-68.67586336899996, 8.706500341000037], [-68.67743443199998, 8.705857321999986], [-68.6784744659999, 8.70452528100003], [-68.67900448299997, 8.701700219000031], [-68.68092155499994, 8.700046172000043], [-68.6842496839999, 8.69882812700007], [-68.68702180199995, 8.697864081000091], [-68.69071895899987, 8.69685304799998], [-68.69310006799998, 8.698300072000166], [-68.69654421199994, 8.698369055000114], [-68.69957233999992, 8.69967906800008], [-68.70089041099982, 8.701907110000036], [-68.70172245899982, 8.70296413200009], [-68.70486659699998, 8.704480152000087], [-68.70750171499998, 8.705376163999972], [-68.71066785199992, 8.70537614799997], [-68.71339497299988, 8.70640915500013], [-68.71475902099996, 8.70631714800004], [-68.71619310299997, 8.709051205000037], [-68.71758116999996, 8.711486247999972], [-68.71832120699997, 8.713186282000152], [-68.71728217999998, 8.715115333000142], [-68.7192702609999, 8.715230336000161], [-68.71980229199988, 8.715368334], [-68.72132835799994, 8.717045364000057], [-68.72223039899995, 8.717688371000065], [-68.72227741499995, 8.719503421000127], [-68.72109936699991, 8.721225460000085], [-68.7189962839999, 8.721340472000179], [-68.7164771809999, 8.721777500000087], [-68.71546114199998, 8.723408542000016], [-68.71571616399984, 8.724419567000098], [-68.71742723999995, 8.725935595000124], [-68.71839728299989, 8.725246566000067], [-68.71976033399994, 8.724464542000021], [-68.72031535399998, 8.724740553], [-68.7217714169999, 8.724878546000184], [-68.72472954199998, 8.724533517000111], [-68.72669362399995, 8.723545493000074], [-68.72789567799992, 8.724188498000103], [-68.72805868699993, 8.725268524000114], [-68.72590960499991, 8.725911547000123], [-68.72503156899984, 8.72754258800012], [-68.72514858199992, 8.729702641000074], [-68.72833771599994, 8.728897607000079], [-68.7294937669999, 8.729104603000167], [-68.73078883399995, 8.73082763400015], [-68.73139086999993, 8.733032691000062], [-68.73261693899997, 8.735421735000045], [-68.73520705699997, 8.737810782999986], [-68.73613311299994, 8.74024582900006], [-68.73627312399998, 8.741899865000107], [-68.73554210199995, 8.743379909], [-68.732951, 8.745048967000116], [-68.72919384399995, 8.746583020000116], [-68.72812979499986, 8.74624301300014], [-68.72680773199988, 8.745006994000107], [-68.72594769199998, 8.74379296799998], [-68.72603169099989, 8.741953924000086], [-68.72819476799998, 8.740219877000015], [-68.72731272199991, 8.73918884699998], [-68.7257636619999, 8.738942854000129], [-68.72271352999996, 8.738381854000124], [-68.7192003699999, 8.737753855000108], [-68.71784432199996, 8.739000897000096], [-68.7161442609999, 8.740893944000106], [-68.71361116299994, 8.742421996000076], [-68.71278513399989, 8.74373603700019], [-68.71126406999997, 8.744386057000156], [-68.70994400799998, 8.743610042000114], [-68.7078679249999, 8.74407906600004], [-68.70602085099995, 8.744041069], [-68.70511580499993, 8.743126057000154], [-68.70314870999988, 8.742169047], [-68.70097862299991, 8.742201058000092], [-68.6982315119999, 8.742512076000082], [-68.69671244799997, 8.743530110999984], [-68.69459636599987, 8.74540116500009], [-68.69233627799991, 8.745939191000048], [-68.69173825399992, 8.746654210000145], [-68.69135023899997, 8.747484228000076], [-68.69068421999992, 8.748498262000112], [-68.68918815699993, 8.749493284000039], [-68.68889315199988, 8.750690323000015], [-68.68994621799987, 8.753857388000142], [-68.69074125799995, 8.756014434000122], [-68.68984522099987, 8.757053467], [-68.68823516199996, 8.758508505000123], [-68.68856918499989, 8.760828553000067], [-68.68765315499996, 8.762625609999986], [-68.68594808699999, 8.763483638000139], [-68.68485504099988, 8.762919625000052], [-68.684789, 8.762929148000069], [-68.684789, 8.76379], [-68.68525199999988, 8.764502000000164], [-68.68682399999989, 8.765582], [-68.689044, 8.765973], [-68.69000803099993, 8.76558562300005], [-68.69024599999989, 8.76549], [-68.69035058899993, 8.764824384], [-68.69085521799997, 8.763702986000169], [-68.69123899999988, 8.763147000000174], [-68.692926, 8.762275000000102], [-68.69461299999989, 8.761884000000123], [-68.69486599999988, 8.75940300000019], [-68.695674, 8.758117], [-68.69743, 8.757359000000179], [-68.699557, 8.75660100000016], [-68.700158, 8.757106], [-68.69994999999989, 8.758002], [-68.700713, 8.758048000000144], [-68.70260899999988, 8.759105], [-68.703025, 8.76069], [-68.704575, 8.761700000000133], [-68.70686299999988, 8.762619], [-68.707047, 8.760001000000102], [-68.709265, 8.758714000000168], [-68.711207, 8.759311], [-68.71298899999988, 8.761103000000162], [-68.715069, 8.76108], [-68.716917, 8.760138], [-68.71814199999983, 8.758829000000105], [-68.71918099999982, 8.757404000000122], [-68.720359, 8.755957000000137], [-68.720867, 8.754602000000148], [-68.721514, 8.754763000000139], [-68.722878, 8.756302000000119], [-68.72354216399998, 8.756808612999976], [-68.724775, 8.757749000000103], [-68.725792, 8.758553000000177], [-68.726371, 8.759977], [-68.72639499999985, 8.761723], [-68.72764299999989, 8.761493], [-68.729121, 8.760229], [-68.72955999999988, 8.760298000000148], [-68.72979942599989, 8.759674694000068], [-68.72986, 8.759517000000187], [-68.73056322299993, 8.75921514900017], [-68.730715, 8.75915], [-68.731571, 8.760206], [-68.732565, 8.760757000000126], [-68.73392799999988, 8.75983900000017], [-68.736148, 8.761079000000109], [-68.736912, 8.761837000000128], [-68.7379289999999, 8.762066], [-68.737768, 8.763031000000126], [-68.737167, 8.763238], [-68.736844, 8.76445600000011], [-68.735526, 8.764616], [-68.734879, 8.765237], [-68.733631, 8.765237], [-68.732383, 8.765559], [-68.73289199999988, 8.766983], [-68.734118, 8.76843], [-68.735646, 8.771140000000173], [-68.736387, 8.772794], [-68.737151, 8.774724], [-68.7385149999999, 8.7759870000001], [-68.740665, 8.776239], [-68.740896, 8.77520600000014], [-68.740294, 8.773873000000151], [-68.739461, 8.773207000000127], [-68.739299, 8.77199000000013], [-68.740199, 8.770589], [-68.741169, 8.768958000000111], [-68.740822, 8.767717], [-68.74047399999989, 8.766247000000135], [-68.73948, 8.76542000000012], [-68.73941, 8.764363], [-68.74063499999988, 8.764111000000128], [-68.742161, 8.765535], [-68.742601, 8.767189], [-68.74355, 8.768682000000183], [-68.74489099999988, 8.770037], [-68.745031, 8.771852], [-68.746117, 8.771943], [-68.74725, 8.771805], [-68.748868, 8.772196000000122], [-68.749908, 8.77217300000018], [-68.750393, 8.771139], [-68.750784, 8.768612], [-68.752171, 8.768244], [-68.75267999999988, 8.76914], [-68.75268099999988, 8.770151], [-68.752774, 8.771874000000139], [-68.7533069999999, 8.773321000000124], [-68.75481, 8.774285000000134], [-68.757307, 8.775617], [-68.759273, 8.776008], [-68.761608, 8.776742], [-68.763018, 8.776949000000116], [-68.764451, 8.777109], [-68.765653, 8.776581], [-68.76650699999988, 8.775478], [-68.76583699999986, 8.774812], [-68.764889, 8.774330000000134], [-68.763964, 8.77366400000011], [-68.763547, 8.77288300000015], [-68.76333799999986, 8.772056], [-68.763407, 8.770838], [-68.764261, 8.76946], [-68.76583199999988, 8.767989], [-68.76742599999989, 8.766588000000127], [-68.76696299999986, 8.765899000000104], [-68.766015, 8.764888000000155], [-68.765136, 8.763556], [-68.765574, 8.762063000000182], [-68.76649799999984, 8.761488], [-68.768047, 8.760845000000131], [-68.768902, 8.761396], [-68.76940999999982, 8.760914000000128], [-68.770427, 8.760845000000131], [-68.770403, 8.759995000000117], [-68.770403, 8.759512000000143], [-68.77111999999988, 8.759489], [-68.77111899999983, 8.758846], [-68.770541, 8.758455], [-68.771026, 8.757720000000177], [-68.770194, 8.757192], [-68.770008, 8.756158], [-68.771439, 8.753746], [-68.771647, 8.752758000000142], [-68.771115, 8.75246], [-68.771877, 8.751034000000118], [-68.77217599999989, 8.749794], [-68.773679, 8.749794], [-68.774648, 8.748254000000145], [-68.775041, 8.747221000000138], [-68.7764269999999, 8.746692], [-68.77779, 8.74531300000018], [-68.77783499999987, 8.743889000000138], [-68.778135, 8.742465], [-68.77788, 8.742006000000117], [-68.778249, 8.741224], [-68.779127, 8.740742000000182], [-68.780051, 8.739731000000177], [-68.781692, 8.739110000000153], [-68.78199199999989, 8.739616], [-68.78257, 8.739409], [-68.783379, 8.739776000000177], [-68.782802, 8.740971000000116], [-68.782179, 8.741568], [-68.782087, 8.74228], [-68.7835429999999, 8.742027], [-68.784906, 8.741614], [-68.786709, 8.741085000000112], [-68.789968, 8.741337], [-68.79160899999982, 8.74096900000012], [-68.792672, 8.740463], [-68.792232, 8.740004], [-68.790984, 8.739591000000132], [-68.7923, 8.73812], [-68.794011, 8.738074], [-68.794889, 8.739015000000109], [-68.797132, 8.739934000000119], [-68.798102, 8.739267000000154], [-68.8001589999999, 8.739336], [-68.801062, 8.740806000000134], [-68.803096, 8.740874], [-68.805547, 8.742481000000168], [-68.80640099999988, 8.741815000000145], [-68.80727799999988, 8.739518000000146], [-68.808802, 8.738162], [-68.80997999999988, 8.737128], [-68.8098629999999, 8.734991], [-68.810603, 8.733958], [-68.810508, 8.732648000000154], [-68.809838, 8.732419], [-68.80914399999983, 8.731684000000143], [-68.809929, 8.730512000000147], [-68.810876, 8.729156], [-68.81122, 8.726836000000105], [-68.812259, 8.724125000000186], [-68.814223, 8.72316], [-68.815864, 8.723573000000158], [-68.81783, 8.725134], [-68.818616, 8.725341], [-68.819215, 8.723664], [-68.820093, 8.722377000000108], [-68.820346, 8.720953], [-68.821709, 8.720769000000132], [-68.823604, 8.720814000000132], [-68.82536, 8.720446], [-68.826262, 8.72127200000017], [-68.826495, 8.7226280000001], [-68.82735099999985, 8.724121], [-68.828415, 8.72543000000013], [-68.830426, 8.725865], [-68.831212, 8.725819000000172], [-68.832114, 8.726485], [-68.83280699999989, 8.726209], [-68.834241, 8.727150000000165], [-68.835791, 8.728643], [-68.83847199999985, 8.728252], [-68.839072, 8.727172], [-68.839627, 8.727263000000107], [-68.84113, 8.728274], [-68.84496699999988, 8.729375], [-68.84538399999985, 8.729788], [-68.84755699999988, 8.730431], [-68.848813, 8.7302150000001], [-68.849938, 8.731463000000133], [-68.85100299999988, 8.733507], [-68.852182, 8.734311], [-68.852253, 8.735460000000103], [-68.85354799999988, 8.736332000000118], [-68.855583, 8.737824000000103], [-68.858451, 8.738558000000126], [-68.860691, 8.737363000000187], [-68.864114, 8.74009500000011], [-68.865871, 8.740646], [-68.86792799999989, 8.740346000000102], [-68.869986, 8.74108], [-68.87276, 8.741975], [-68.873015, 8.742733], [-68.873617, 8.744157], [-68.875143, 8.743995], [-68.87687599999987, 8.743719000000112], [-68.878146, 8.742409], [-68.87941699999988, 8.742845000000102], [-68.879349, 8.743580000000122], [-68.878889, 8.746474000000148], [-68.877759, 8.748772], [-68.878339, 8.75061], [-68.879428, 8.752631000000122], [-68.880677, 8.753894000000173], [-68.881693, 8.75325], [-68.882895, 8.753020000000163], [-68.8847449999999, 8.753593000000137], [-68.88703399999986, 8.754625], [-68.888053, 8.757106], [-68.888403, 8.759954000000107], [-68.88993, 8.762136000000169], [-68.891803, 8.762663], [-68.891481, 8.764547000000164], [-68.890187, 8.765007], [-68.889796, 8.76643200000018], [-68.890838, 8.76817700000015], [-68.891671, 8.769371000000149], [-68.89298899999989, 8.769531], [-68.89329, 8.770726], [-68.893338, 8.772402000000113], [-68.893016, 8.77362], [-68.8925789999999, 8.775596], [-68.893897, 8.776284000000146], [-68.89532999999989, 8.776605], [-68.897294, 8.776030000000105], [-68.898565, 8.775478], [-68.899003, 8.774283000000139], [-68.900507, 8.775041000000158], [-68.901432, 8.77527], [-68.902308, 8.772857000000101], [-68.902676, 8.771203], [-68.9039939999999, 8.771225], [-68.905082, 8.773384], [-68.905755, 8.775612], [-68.905895, 8.777312000000109], [-68.90592, 8.779173], [-68.90703, 8.779448000000116], [-68.908464, 8.779883], [-68.9089039999999, 8.78077900000011], [-68.91098499999987, 8.781422], [-68.91031499999985, 8.782249], [-68.910432, 8.783765], [-68.912465, 8.782708000000184], [-68.913412, 8.781397], [-68.91519199999988, 8.782200000000103], [-68.917136, 8.783555], [-68.917712, 8.782474], [-68.92034599999982, 8.780979000000116], [-68.920298, 8.779946000000109], [-68.92122199999983, 8.779072], [-68.92313999999988, 8.778336000000138], [-68.924852, 8.778680000000179], [-68.925221, 8.777692000000116], [-68.927046, 8.777507], [-68.928944, 8.779228], [-68.930147, 8.780124000000114], [-68.93155699999988, 8.780123000000174], [-68.933614, 8.78019], [-68.934724, 8.780305000000169], [-68.936087, 8.780074], [-68.93680399999988, 8.780303000000174], [-68.938169, 8.78113000000019], [-68.93862899999982, 8.779682], [-68.93959899999987, 8.778556], [-68.93950499999983, 8.776971000000174], [-68.940151, 8.775891000000172], [-68.94047299999988, 8.775018], [-68.940334, 8.77448900000013], [-68.942045, 8.774626000000126], [-68.9428539999999, 8.7751540000001], [-68.943199, 8.773592000000178], [-68.944655, 8.772948], [-68.946366, 8.773521000000187], [-68.948239, 8.773841000000175], [-68.94733899999989, 8.774692], [-68.947109, 8.776139], [-68.948681, 8.775587], [-68.949443, 8.774897000000124], [-68.949626, 8.774070000000108], [-68.95075899999989, 8.774345000000153], [-68.951686, 8.775929], [-68.95496899999989, 8.776892], [-68.954647, 8.77792600000015], [-68.95587199999983, 8.778476000000182], [-68.957489, 8.777533000000119], [-68.95767599999988, 8.778659], [-68.957145, 8.779762000000176], [-68.95887899999985, 8.780266], [-68.960241, 8.778588000000184], [-68.96225399999986, 8.780034000000114], [-68.96345699999989, 8.78109], [-68.963898, 8.782399], [-68.966371, 8.782466], [-68.96873, 8.783544], [-68.971066, 8.783864000000108], [-68.9727089999999, 8.785402], [-68.974028, 8.786067000000116], [-68.977634, 8.78657], [-68.98013, 8.786201], [-68.981724, 8.785281000000111], [-68.983735, 8.785302], [-68.986069, 8.785025], [-68.98688, 8.786334000000181], [-68.989469, 8.786309], [-68.991596, 8.786675000000173], [-68.992038, 8.789201000000105], [-68.993219, 8.790188], [-68.995438, 8.789589], [-68.996755, 8.789335000000165], [-68.997517, 8.788301], [-68.998025, 8.788576], [-68.999414, 8.789954], [-69.000685, 8.789723], [-69.002165, 8.790112000000136], [-69.002629, 8.789048], [-69.003184, 8.788752], [-69.0035319999999, 8.788226], [-69.004741, 8.785636000000181], [-69.007305, 8.786105], [-69.008368, 8.786018000000126], [-69.0101499999999, 8.784991000000105], [-69.010545, 8.784213], [-69.010756, 8.782859], [-69.011362, 8.781163000000106], [-69.013027, 8.78045800000018], [-69.015057, 8.781797000000154], [-69.015449, 8.782165], [-69.016536, 8.782032], [-69.01634799999988, 8.783179], [-69.01710899999989, 8.784054], [-69.017386, 8.784192], [-69.018309, 8.784655], [-69.01922799999988, 8.786632000000168], [-69.021077, 8.786777], [-69.022093, 8.786919], [-69.024012, 8.786536], [-69.02466, 8.786309], [-69.02526099999983, 8.78603500000014], [-69.02514699999989, 8.785415000000171], [-69.025863, 8.78551], [-69.026373, 8.784869000000128], [-69.029098, 8.785751], [-69.029817, 8.784698], [-69.03009599999984, 8.78414800000013], [-69.030372, 8.784746], [-69.03076499999986, 8.784587], [-69.031115, 8.783211], [-69.031716, 8.783282], [-69.032245, 8.783950000000118], [-69.03236, 8.784180000000106], [-69.032984, 8.784366], [-69.033448, 8.783564000000126], [-69.03377099999989, 8.78358800000018], [-69.035203, 8.78419], [-69.03559499999989, 8.784559], [-69.037211, 8.784887], [-69.0382259999999, 8.785579], [-69.038551, 8.785167], [-69.03936, 8.784963], [-69.03926499999989, 8.786111], [-69.040026, 8.786618], [-69.040025, 8.787146], [-69.040232, 8.787744000000146], [-69.040949, 8.787678], [-69.041272, 8.787541], [-69.042129, 8.786833], [-69.042635, 8.787867], [-69.043513, 8.787894000000108], [-69.04388099999989, 8.788469], [-69.045268, 8.788405000000125], [-69.045566, 8.78937], [-69.04595599999982, 8.790565000000129], [-69.047779, 8.791605], [-69.048218, 8.791423], [-69.049143, 8.791265000000124], [-69.049239, 8.789774], [-69.049355, 8.789637], [-69.049957, 8.789249000000154], [-69.050281, 8.789112], [-69.051786, 8.788016], [-69.052317, 8.788087], [-69.05245999999988, 8.786549], [-69.053683, 8.787013], [-69.054745, 8.787407000000144], [-69.055553, 8.787938], [-69.056477, 8.787827000000107], [-69.056778, 8.787575], [-69.056895, 8.786979], [-69.057198, 8.78597], [-69.058008, 8.785652], [-69.05846899999989, 8.785906000000125], [-69.0583759999999, 8.786365000000103], [-69.057979, 8.787809], [-69.058858, 8.78749100000016], [-69.05909, 8.787171000000171], [-69.06029399999989, 8.786188], [-69.060827, 8.785639], [-69.062305, 8.786058], [-69.062696, 8.786931], [-69.062946, 8.788654000000122], [-69.063568, 8.789207], [-69.063775, 8.789827000000173], [-69.06458299999986, 8.79045], [-69.065184, 8.790108], [-69.0656259999999, 8.789077000000134], [-69.066736, 8.788805], [-69.067104, 8.789311000000112], [-69.068444, 8.789615], [-69.069135, 8.790421000000151], [-69.07024299999983, 8.790838000000178], [-69.07131, 8.789304], [-69.07325, 8.790022], [-69.073453, 8.79179], [-69.072872, 8.793166], [-69.073701, 8.794316]]]}}]}