{
  "type": "FeatureCollection",
  "features": [
    {
      "type": "Feature",
      "properties": {
        "Pais": "Venezuela",
        "Estado": "Táchira",
        "Municipio": "Independencia",
        "Parroquia": "Independencia"
      },
      "geometry": {
        "type": "Polygon",
        "coordinates": [
          [
            [
              -72.306132,
              7.798723000000166
            ],
            [
              -72.305506,
              7.797040000000152
            ],
            [
              -72.30295799999988,
              7.794835000000148
            ],
            [
              -72.298962,
              7.794177
            ],
            [
              -72.295197,
              7.792137
            ],
            [
              -72.29263,
              7.790777000000105
            ],
            [
              -72.290576,
              7.789757000000122
            ],
            [
              -72.28820399999984,
              7.790198
            ],
            [
              -72.286029,
              7.790442
            ],
            [
              -72.28296299999988,
              7.79063
            ],
            [
              -72.280483,
              7.791831000000116
            ],
            [
              -72.278602,
              7.792946
            ],
            [
              -72.27629299999984,
              7.794318
            ],
            [
              -72.2732989999999,
              7.794582000000162
            ],
            [
              -72.270562,
              7.795101000000102
            ],
            [
              -72.268424,
              7.795533
            ],
            [
              -72.26723,
              7.796125000000131
            ],
            [
              -72.26555699999989,
              7.796759000000179
            ],
            [
              -72.264455,
              7.799852000000101
            ],
            [
              -72.262577,
              7.801952000000142
            ],
            [
              -72.26058499999982,
              7.801733000000127
            ],
            [
              -72.261804,
              7.803277
            ],
            [
              -72.262803,
              7.805263
            ],
            [
              -72.263581,
              7.807250000000124
            ],
            [
              -72.264247,
              7.809346000000176
            ],
            [
              -72.264913,
              7.81067
            ],
            [
              -72.266243,
              7.811773
            ],
            [
              -72.26650499999988,
              7.812426
            ],
            [
              -72.266173,
              7.81397
            ],
            [
              -72.267058,
              7.814633
            ],
            [
              -72.268386,
              7.815737000000126
            ],
            [
              -72.26971399999985,
              7.817172
            ],
            [
              -72.27082,
              7.817945
            ],
            [
              -72.272037,
              7.817506
            ],
            [
              -72.27325499999989,
              7.816295
            ],
            [
              -72.274915,
              7.815966
            ],
            [
              -72.275689,
              7.817181
            ],
            [
              -72.27712799999989,
              7.818947000000151
            ],
            [
              -72.2771269999999,
              7.822143
            ],
            [
              -72.276684,
              7.825890000000129
            ],
            [
              -72.276684,
              7.828646000000106
            ],
            [
              -72.276122,
              7.829556
            ],
            [
              -72.27800099999985,
              7.830086
            ],
            [
              -72.28095999999988,
              7.830823000000123
            ],
            [
              -72.28345399999984,
              7.830565
            ],
            [
              -72.284769,
              7.830278000000135
            ],
            [
              -72.286518,
              7.83059
            ],
            [
              -72.288903,
              7.831368
            ],
            [
              -72.291462,
              7.831437000000108
            ],
            [
              -72.29264,
              7.831501
            ],
            [
              -72.293721,
              7.831094000000121
            ],
            [
              -72.296224,
              7.831696
            ],
            [
              -72.296689,
              7.832584000000168
            ],
            [
              -72.296904,
              7.835469000000103
            ],
            [
              -72.29662599999989,
              7.836675
            ],
            [
              -72.297633,
              7.837197
            ],
            [
              -72.29799899999989,
              7.837792
            ],
            [
              -72.29832899999985,
              7.838780000000156
            ],
            [
              -72.29844999999989,
              7.840690000000109
            ],
            [
              -72.299009,
              7.8425170000001
            ],
            [
              -72.301219,
              7.844326
            ],
            [
              -72.302782,
              7.847178
            ],
            [
              -72.30345599999987,
              7.847071000000142
            ],
            [
              -72.304017,
              7.848826
            ],
            [
              -72.304684,
              7.849689000000183
            ],
            [
              -72.307478,
              7.854584
            ],
            [
              -72.308208,
              7.856132
            ],
            [
              -72.30815699999988,
              7.858572
            ],
            [
              -72.308417,
              7.859843000000126
            ],
            [
              -72.30781,
              7.860025
            ],
            [
              -72.308455,
              7.864084
            ],
            [
              -72.308712,
              7.865714
            ],
            [
              -72.31006899999988,
              7.867926000000125
            ],
            [
              -72.31060899999983,
              7.868466
            ],
            [
              -72.310879,
              7.867731000000163
            ],
            [
              -72.312971,
              7.865173
            ],
            [
              -72.314159,
              7.862259
            ],
            [
              -72.315517,
              7.858831
            ],
            [
              -72.316312,
              7.854212000000132
            ],
            [
              -72.316426,
              7.852311
            ],
            [
              -72.317124,
              7.840664
            ],
            [
              -72.315973,
              7.824623000000145
            ],
            [
              -72.308443,
              7.804931
            ],
            [
              -72.306132,
              7.798723000000166
            ]
          ]
        ]
      }
    },
    {
      "type": "Feature",
      "properties": {
        "Pais": "Venezuela",
        "Estado": "Táchira",
        "Municipio": "Independencia",
        "Parroquia": "Juan German Roscio"
      },
      "geometry": {
        "type": "Polygon",
        "coordinates": [
          [
            [
              -72.265886,
              7.794993
            ],
            [
              -72.26723,
              7.796125000000131
            ],
            [
              -72.268424,
              7.795533
            ],
            [
              -72.270562,
              7.795101000000102
            ],
            [
              -72.2732989999999,
              7.794582000000162
            ],
            [
              -72.27629299999984,
              7.794318
            ],
            [
              -72.278602,
              7.792946
            ],
            [
              -72.280483,
              7.791831000000116
            ],
            [
              -72.28296299999988,
              7.79063
            ],
            [
              -72.286029,
              7.790442
            ],
            [
              -72.28820399999984,
              7.790198
            ],
            [
              -72.290576,
              7.789757000000122
            ],
            [
              -72.29263,
              7.790777000000105
            ],
            [
              -72.295197,
              7.792137
            ],
            [
              -72.298962,
              7.794177
            ],
            [
              -72.30295799999988,
              7.794835000000148
            ],
            [
              -72.299744,
              7.791969000000165
            ],
            [
              -72.295093,
              7.789988
            ],
            [
              -72.291326,
              7.786460000000147
            ],
            [
              -72.286893,
              7.78216
            ],
            [
              -72.287886,
              7.780392
            ],
            [
              -72.288437,
              7.778956000000107
            ],
            [
              -72.287769,
              7.776197
            ],
            [
              -72.28666,
              7.775094000000138
            ],
            [
              -72.284006,
              7.775981000000172
            ],
            [
              -72.281682,
              7.775874
            ],
            [
              -72.280906,
              7.775323
            ],
            [
              -72.279466,
              7.774220000000128
            ],
            [
              -72.27780399999989,
              7.772898000000168
            ],
            [
              -72.276475,
              7.771795
            ],
            [
              -72.274701,
              7.769259000000147
            ],
            [
              -72.273369,
              7.766942
            ],
            [
              -72.27159599999987,
              7.764956
            ],
            [
              -72.27026499999988,
              7.762970000000109
            ],
            [
              -72.269265,
              7.75966000000011
            ],
            [
              -72.26737999999989,
              7.757344
            ],
            [
              -72.266492,
              7.755689000000189
            ],
            [
              -72.264937,
              7.752048
            ],
            [
              -72.266516,
              7.771698000000185
            ],
            [
              -72.26155599999987,
              7.784952
            ],
            [
              -72.26201,
              7.792458000000124
            ],
            [
              -72.262125,
              7.795328
            ],
            [
              -72.26400599999988,
              7.795326000000102
            ],
            [
              -72.265886,
              7.794993
            ]
          ]
        ]
      }
    },
    {
      "type": "Feature",
      "properties": {
        "Pais": "Venezuela",
        "Estado": "Táchira",
        "Municipio": "Independencia",
        "Parroquia": "Roman Cardenas"
      },
      "geometry": {
        "type": "Polygon",
        "coordinates": [
          [
            [
              -72.276122,
              7.829556
            ],
            [
              -72.27321599999988,
              7.829383000000121
            ],
            [
              -72.27199,
              7.831026
            ],
            [
              -72.271703,
              7.831284
            ],
            [
              -72.270818,
              7.832715000000121
            ],
            [
              -72.269932,
              7.833155000000147
            ],
            [
              -72.26794,
              7.833372000000168
            ],
            [
              -72.266834,
              7.834252000000106
            ],
            [
              -72.265837,
              7.835684000000128
            ],
            [
              -72.265948,
              7.837668000000178
            ],
            [
              -72.265726,
              7.840754
            ],
            [
              -72.265283,
              7.842186
            ],
            [
              -72.264729,
              7.843949
            ],
            [
              -72.264729,
              7.846263
            ],
            [
              -72.263954,
              7.848687
            ],
            [
              -72.263621,
              7.851001
            ],
            [
              -72.262072,
              7.852652
            ],
            [
              -72.261297,
              7.854194
            ],
            [
              -72.26096399999983,
              7.85628800000012
            ],
            [
              -72.259746,
              7.858931000000155
            ],
            [
              -72.259525,
              7.859923
            ],
            [
              -72.26063099999988,
              7.86224
            ],
            [
              -72.26052,
              7.863232
            ],
            [
              -72.259856,
              7.864774
            ],
            [
              -72.25963399999989,
              7.866758000000118
            ],
            [
              -72.258638,
              7.868079
            ],
            [
              -72.258858,
              7.871276
            ],
            [
              -72.259079,
              7.874363000000187
            ],
            [
              -72.262067,
              7.875139
            ],
            [
              -72.265166,
              7.876136000000145
            ],
            [
              -72.267158,
              7.875257
            ],
            [
              -72.267934,
              7.872723000000178
            ],
            [
              -72.270148,
              7.86931
            ],
            [
              -72.272251,
              7.867549
            ],
            [
              -72.276236,
              7.868217
            ],
            [
              -72.28066299999983,
              7.870979000000148
            ],
            [
              -72.283319,
              7.871975000000134
            ],
            [
              -72.2886309999999,
              7.871212
            ],
            [
              -72.294387,
              7.872212
            ],
            [
              -72.301028,
              7.875639
            ],
            [
              -72.306551,
              7.879506000000106
            ],
            [
              -72.306802,
              7.878820000000189
            ],
            [
              -72.31060899999983,
              7.868466
            ],
            [
              -72.31006899999988,
              7.867926000000125
            ],
            [
              -72.308712,
              7.865714
            ],
            [
              -72.308455,
              7.864084
            ],
            [
              -72.30781,
              7.860025
            ],
            [
              -72.308417,
              7.859843000000126
            ],
            [
              -72.30815699999988,
              7.858572
            ],
            [
              -72.308208,
              7.856132
            ],
            [
              -72.307478,
              7.854584
            ],
            [
              -72.304684,
              7.849689000000183
            ],
            [
              -72.304017,
              7.848826
            ],
            [
              -72.30345599999987,
              7.847071000000142
            ],
            [
              -72.302782,
              7.847178
            ],
            [
              -72.301219,
              7.844326
            ],
            [
              -72.299009,
              7.8425170000001
            ],
            [
              -72.29844999999989,
              7.840690000000109
            ],
            [
              -72.29832899999985,
              7.838780000000156
            ],
            [
              -72.29799899999989,
              7.837792
            ],
            [
              -72.297633,
              7.837197
            ],
            [
              -72.29662599999989,
              7.836675
            ],
            [
              -72.296904,
              7.835469000000103
            ],
            [
              -72.296689,
              7.832584000000168
            ],
            [
              -72.296224,
              7.831696
            ],
            [
              -72.293721,
              7.831094000000121
            ],
            [
              -72.29264,
              7.831501
            ],
            [
              -72.291462,
              7.831437000000108
            ],
            [
              -72.288903,
              7.831368
            ],
            [
              -72.286518,
              7.83059
            ],
            [
              -72.284769,
              7.830278000000135
            ],
            [
              -72.28345399999984,
              7.830565
            ],
            [
              -72.28095999999988,
              7.830823000000123
            ],
            [
              -72.27800099999985,
              7.830086
            ],
            [
              -72.276122,
              7.829556
            ]
          ]
        ]
      }
    }
  ]
}