{
  "type": "FeatureCollection",
  "features": [
    {
      "type": "Feature",
      "properties": {
        "Pais": "Venezuela",
        "Estado": "Miranda",
        "Municipio": "Independencia"
      },
      "geometry": {
        "type": "Polygon",
        "coordinates": [
          [
            [
              -66.714988,
              10.273705000000177
            ],
            [
              -66.715834,
              10.274146
            ],
            [
              -66.717188,
              10.275471
            ],
            [
              -66.718173,
              10.275932
            ],
            [
              -66.719345,
              10.276435000000106
            ],
            [
              -66.720352,
              10.276804
            ],
            [
              -66.72133099999985,
              10.276989000000128
            ],
            [
              -66.72512499999988,
              10.278622
            ],
            [
              -66.725784,
              10.268035000000168
            ],
            [
              -66.72566599999988,
              10.265294
            ],
            [
              -66.725976,
              10.261277
            ],
            [
              -66.72604399999989,
              10.261274000000128
            ],
            [
              -66.7261299999999,
              10.260976
            ],
            [
              -66.728021,
              10.261098000000118
            ],
            [
              -66.729943,
              10.261319000000128
            ],
            [
              -66.731836,
              10.261792000000185
            ],
            [
              -66.737609,
              10.262133000000176
            ],
            [
              -66.740633,
              10.262949000000162
            ],
            [
              -66.742437,
              10.263305000000116
            ],
            [
              -66.74392,
              10.263402000000156
            ],
            [
              -66.746432,
              10.263221000000101
            ],
            [
              -66.747251,
              10.262892
            ],
            [
              -66.749306,
              10.262380000000178
            ],
            [
              -66.750754,
              10.261972000000128
            ],
            [
              -66.751993,
              10.261559
            ],
            [
              -66.75340699999987,
              10.260599
            ],
            [
              -66.755469,
              10.259743000000128
            ],
            [
              -66.756538,
              10.259694000000138
            ],
            [
              -66.758615,
              10.259206
            ],
            [
              -66.75994999999989,
              10.259001000000183
            ],
            [
              -66.75869499999988,
              10.257761
            ],
            [
              -66.75969,
              10.254257
            ],
            [
              -66.759077,
              10.251753000000178
            ],
            [
              -66.758455,
              10.250499000000161
            ],
            [
              -66.758467,
              10.24878
            ],
            [
              -66.759112,
              10.246753000000183
            ],
            [
              -66.75785999999988,
              10.245338000000174
            ],
            [
              -66.757512,
              10.241832000000159
            ],
            [
              -66.7563679999999,
              10.241248000000155
            ],
            [
              -66.756262,
              10.240194
            ],
            [
              -66.756063,
              10.239142000000186
            ],
            [
              -66.755823,
              10.238457000000153
            ],
            [
              -66.754561,
              10.23776
            ],
            [
              -66.753676,
              10.237541
            ],
            [
              -66.752532,
              10.236935000000187
            ],
            [
              -66.750758,
              10.236130000000173
            ],
            [
              -66.74370299999987,
              10.232543
            ],
            [
              -66.741381,
              10.23059700000016
            ],
            [
              -66.73803499999985,
              10.230246
            ],
            [
              -66.728214,
              10.230084000000147
            ],
            [
              -66.727312,
              10.23032400000011
            ],
            [
              -66.725279,
              10.23115
            ],
            [
              -66.72333199999986,
              10.231356
            ],
            [
              -66.722073,
              10.230889000000161
            ],
            [
              -66.719119,
              10.228606
            ],
            [
              -66.706236,
              10.228525000000104
            ],
            [
              -66.70396699999986,
              10.223304000000155
            ],
            [
              -66.703286,
              10.22155000000015
            ],
            [
              -66.702775,
              10.220561
            ],
            [
              -66.6993839999999,
              10.214614
            ],
            [
              -66.697578,
              10.21110300000015
            ],
            [
              -66.69738299999989,
              10.210372
            ],
            [
              -66.696044,
              10.209034
            ],
            [
              -66.695163,
              10.207164
            ],
            [
              -66.695079,
              10.205972000000145
            ],
            [
              -66.695066,
              10.204895
            ],
            [
              -66.693975,
              10.203392000000179
            ],
            [
              -66.693745,
              10.203075
            ],
            [
              -66.692891,
              10.201548
            ],
            [
              -66.692655,
              10.199281
            ],
            [
              -66.69257,
              10.197997
            ],
            [
              -66.69192799999985,
              10.19672
            ],
            [
              -66.690748,
              10.197032
            ],
            [
              -66.69009099999988,
              10.198347
            ],
            [
              -66.689666,
              10.199682000000166
            ],
            [
              -66.689448,
              10.200877000000105
            ],
            [
              -66.689317,
              10.201543000000129
            ],
            [
              -66.688565,
              10.202744
            ],
            [
              -66.68811,
              10.203529000000174
            ],
            [
              -66.686834,
              10.205470000000162
            ],
            [
              -66.685944,
              10.206765
            ],
            [
              -66.6849299999999,
              10.207327
            ],
            [
              -66.683652,
              10.207272
            ],
            [
              -66.68010299999986,
              10.20738200000011
            ],
            [
              -66.678453,
              10.207286000000124
            ],
            [
              -66.67698499999989,
              10.206798000000106
            ],
            [
              -66.675922,
              10.205296
            ],
            [
              -66.67667,
              10.20372900000018
            ],
            [
              -66.677378,
              10.20280300000013
            ],
            [
              -66.67806599999989,
              10.20213
            ],
            [
              -66.678571,
              10.201597000000163
            ],
            [
              -66.67943899999989,
              10.200463000000127
            ],
            [
              -66.67993899999988,
              10.19960900000018
            ],
            [
              -66.679737,
              10.198213000000123
            ],
            [
              -66.679051,
              10.197143
            ],
            [
              -66.67862,
              10.196001
            ],
            [
              -66.677247,
              10.195124
            ],
            [
              -66.671955,
              10.191743
            ],
            [
              -66.67131799999987,
              10.190856000000167
            ],
            [
              -66.67118899999986,
              10.189802
            ],
            [
              -66.671244,
              10.188609
            ],
            [
              -66.671183,
              10.187325
            ],
            [
              -66.671215,
              10.18611
            ],
            [
              -66.671057,
              10.184899
            ],
            [
              -66.671036,
              10.18473500000016
            ],
            [
              -66.670371,
              10.183435
            ],
            [
              -66.669784,
              10.18312
            ],
            [
              -66.668782,
              10.182582
            ],
            [
              -66.66865399999989,
              10.181597
            ],
            [
              -66.66838799999982,
              10.180637
            ],
            [
              -66.667751,
              10.179750000000183
            ],
            [
              -66.667182,
              10.178747000000158
            ],
            [
              -66.666681,
              10.177607000000137
            ],
            [
              -66.66552499999989,
              10.176083000000176
            ],
            [
              -66.66370099999989,
              10.172916000000157
            ],
            [
              -66.663595,
              10.172165000000177
            ],
            [
              -66.66352299999988,
              10.171657
            ],
            [
              -66.663335,
              10.169481000000133
            ],
            [
              -66.663161,
              10.168497
            ],
            [
              -66.662873,
              10.167674
            ],
            [
              -66.662682,
              10.167449
            ],
            [
              -66.66223699999989,
              10.166925
            ],
            [
              -66.661645,
              10.165877
            ],
            [
              -66.661434,
              10.165564
            ],
            [
              -66.661171,
              10.165171
            ],
            [
              -66.66115899999988,
              10.164162
            ],
            [
              -66.661516,
              10.162943
            ],
            [
              -66.662086,
              10.162042000000156
            ],
            [
              -66.66314,
              10.16086
            ],
            [
              -66.663873,
              10.160072
            ],
            [
              -66.664468,
              10.159355
            ],
            [
              -66.665661,
              10.158217
            ],
            [
              -66.666511,
              10.15752
            ],
            [
              -66.667382,
              10.15657
            ],
            [
              -66.667905,
              10.155692
            ],
            [
              -66.668378,
              10.154517000000112
            ],
            [
              -66.668505,
              10.153461000000163
            ],
            [
              -66.668469,
              10.152406
            ],
            [
              -66.668506,
              10.151603
            ],
            [
              -66.667912,
              10.150418
            ],
            [
              -66.66640499999988,
              10.148623
            ],
            [
              -66.6639899999999,
              10.146541000000127
            ],
            [
              -66.653537,
              10.141797000000167
            ],
            [
              -66.651835,
              10.141129000000149
            ],
            [
              -66.65127,
              10.140447
            ],
            [
              -66.65132599999987,
              10.139789000000121
            ],
            [
              -66.651392,
              10.139001000000121
            ],
            [
              -66.651502,
              10.138472
            ],
            [
              -66.651186,
              10.137237
            ],
            [
              -66.65098499999988,
              10.136001
            ],
            [
              -66.651129,
              10.13444
            ],
            [
              -66.65111699999989,
              10.133386
            ],
            [
              -66.650162,
              10.133098000000189
            ],
            [
              -66.649375,
              10.133245000000102
            ],
            [
              -66.648421,
              10.133391
            ],
            [
              -66.648402,
              10.13339400000018
            ],
            [
              -66.646684,
              10.133275
            ],
            [
              -66.645459,
              10.131799000000171
            ],
            [
              -66.64499399999988,
              10.129763000000139
            ],
            [
              -66.645493,
              10.126845
            ],
            [
              -66.64523799999989,
              10.124876
            ],
            [
              -66.64424799999989,
              10.123557000000176
            ],
            [
              -66.64411499999989,
              10.122114000000124
            ],
            [
              -66.644209,
              10.120393
            ],
            [
              -66.644668,
              10.117888
            ],
            [
              -66.645625,
              10.116432
            ],
            [
              -66.647369,
              10.1147840000001
            ],
            [
              -66.649306,
              10.113799000000142
            ],
            [
              -66.650593,
              10.112799
            ],
            [
              -66.650857,
              10.11153400000012
            ],
            [
              -66.649915,
              10.110375
            ],
            [
              -66.64818999999983,
              10.107735
            ],
            [
              -66.647684,
              10.106181000000106
            ],
            [
              -66.648102,
              10.10425
            ],
            [
              -66.648816,
              10.101902
            ],
            [
              -66.65003599999989,
              10.101086
            ],
            [
              -66.65118,
              10.099697
            ],
            [
              -66.65224399999988,
              10.099386
            ],
            [
              -66.6529129999999,
              10.099104000000182
            ],
            [
              -66.653507,
              10.09834
            ],
            [
              -66.6537019999999,
              10.097145000000125
            ],
            [
              -66.652555,
              10.096287000000189
            ],
            [
              -66.6512489999999,
              10.095751
            ],
            [
              -66.648897,
              10.095021
            ],
            [
              -66.646851,
              10.094747
            ],
            [
              -66.644711,
              10.094244
            ],
            [
              -66.641942,
              10.093633000000125
            ],
            [
              -66.640019,
              10.09381500000012
            ],
            [
              -66.637168,
              10.096026
            ],
            [
              -66.634934,
              10.09543200000013
            ],
            [
              -66.63408099999987,
              10.095878
            ],
            [
              -66.631855,
              10.095949
            ],
            [
              -66.627596,
              10.094828
            ],
            [
              -66.625738,
              10.094711000000132
            ],
            [
              -66.624148,
              10.095692000000156
            ],
            [
              -66.622763,
              10.096258
            ],
            [
              -66.621115,
              10.096208
            ],
            [
              -66.61958599999986,
              10.096409000000165
            ],
            [
              -66.617897,
              10.0967950000001
            ],
            [
              -66.616445,
              10.097615
            ],
            [
              -66.615016,
              10.098456
            ],
            [
              -66.613372,
              10.098658
            ],
            [
              -66.611393,
              10.098107000000141
            ],
            [
              -66.609814,
              10.098010000000102
            ],
            [
              -66.608451,
              10.0984610000001
            ],
            [
              -66.60818199999989,
              10.099313
            ],
            [
              -66.60755199999988,
              10.100902
            ],
            [
              -66.606837,
              10.1013
            ],
            [
              -66.606836,
              10.101301
            ],
            [
              -66.606014,
              10.102295
            ],
            [
              -66.605379,
              10.103564
            ],
            [
              -66.604528,
              10.104170000000124
            ],
            [
              -66.603876,
              10.103572
            ],
            [
              -66.60358899999989,
              10.103309000000138
            ],
            [
              -66.602651,
              10.102425
            ],
            [
              -66.600865,
              10.102583
            ],
            [
              -66.5993509999999,
              10.102003
            ],
            [
              -66.597827,
              10.100691
            ],
            [
              -66.597485,
              10.099227
            ],
            [
              -66.596263,
              10.097865000000183
            ],
            [
              -66.594839,
              10.097124000000122
            ],
            [
              -66.593986,
              10.09562
            ],
            [
              -66.592698,
              10.094580000000178
            ],
            [
              -66.588825,
              10.092697000000157
            ],
            [
              -66.58735,
              10.091567
            ],
            [
              -66.586105,
              10.09025
            ],
            [
              -66.58314399999989,
              10.088999
            ],
            [
              -66.582043,
              10.088071000000184
            ],
            [
              -66.577097,
              10.085435
            ],
            [
              -66.5768589999999,
              10.085308
            ],
            [
              -66.5766119999999,
              10.084004000000107
            ],
            [
              -66.57649,
              10.083286
            ],
            [
              -66.576263,
              10.081944
            ],
            [
              -66.575495,
              10.079751000000101
            ],
            [
              -66.572733,
              10.077672
            ],
            [
              -66.570426,
              10.076735000000156
            ],
            [
              -66.567007,
              10.075971
            ],
            [
              -66.56432399999989,
              10.076688
            ],
            [
              -66.562532,
              10.076158
            ],
            [
              -66.56051899999983,
              10.074621
            ],
            [
              -66.55991099999989,
              10.07621
            ],
            [
              -66.55756599999984,
              10.07814
            ],
            [
              -66.555215,
              10.079381
            ],
            [
              -66.553017,
              10.079933
            ],
            [
              -66.550706,
              10.080715000000112
            ],
            [
              -66.54928399999989,
              10.082038000000182
            ],
            [
              -66.547548,
              10.08442
            ],
            [
              -66.54615799999988,
              10.086591000000112
            ],
            [
              -66.54594699999984,
              10.088382
            ],
            [
              -66.545417,
              10.09065800000019
            ],
            [
              -66.544225,
              10.091932
            ],
            [
              -66.542295,
              10.093513000000144
            ],
            [
              -66.541767,
              10.095995000000187
            ],
            [
              -66.542316,
              10.097342
            ],
            [
              -66.542149,
              10.098949000000175
            ],
            [
              -66.541686,
              10.101018000000124
            ],
            [
              -66.539981,
              10.102068000000145
            ],
            [
              -66.53815699999984,
              10.102845000000116
            ],
            [
              -66.536968,
              10.104326
            ],
            [
              -66.53491899999989,
              10.105701000000181
            ],
            [
              -66.533041,
              10.105768000000182
            ],
            [
              -66.531624,
              10.105738
            ],
            [
              -66.52929199999988,
              10.104686000000186
            ],
            [
              -66.527574,
              10.10459
            ],
            [
              -66.526531,
              10.104670000000112
            ],
            [
              -66.52568,
              10.105276000000174
            ],
            [
              -66.52557899999988,
              10.106561
            ],
            [
              -66.525759,
              10.108164
            ],
            [
              -66.525866,
              10.109401
            ],
            [
              -66.525602,
              10.110596000000157
            ],
            [
              -66.524659,
              10.111318
            ],
            [
              -66.523601,
              10.112155
            ],
            [
              -66.523059,
              10.113399
            ],
            [
              -66.523141,
              10.114499
            ],
            [
              -66.523368,
              10.116032000000189
            ],
            [
              -66.523446,
              10.116812
            ],
            [
              -66.523136,
              10.118123
            ],
            [
              -66.52275099999986,
              10.118883000000153
            ],
            [
              -66.522485,
              10.119941
            ],
            [
              -66.52267199999989,
              10.122140000000172
            ],
            [
              -66.522812,
              10.124203
            ],
            [
              -66.522026,
              10.126481000000183
            ],
            [
              -66.521115,
              10.127959
            ],
            [
              -66.5198759999999,
              10.12918800000017
            ],
            [
              -66.519255,
              10.133689
            ],
            [
              -66.517972,
              10.13510100000019
            ],
            [
              -66.51666199999983,
              10.136216
            ],
            [
              -66.514941,
              10.137886
            ],
            [
              -66.514246,
              10.140003
            ],
            [
              -66.514494,
              10.141399
            ],
            [
              -66.515281,
              10.143202
            ],
            [
              -66.515112,
              10.144649
            ],
            [
              -66.51466,
              10.145685000000185
            ],
            [
              -66.513773,
              10.147277
            ],
            [
              -66.51284099999987,
              10.148938
            ],
            [
              -66.510824,
              10.151139
            ],
            [
              -66.509809,
              10.151631
            ],
            [
              -66.50921799999986,
              10.15269400000011
            ],
            [
              -66.508838,
              10.154028
            ],
            [
              -66.508808,
              10.155404000000146
            ],
            [
              -66.50855299999989,
              10.15747
            ],
            [
              -66.508395,
              10.157862000000137
            ],
            [
              -66.507479,
              10.158904
            ],
            [
              -66.506404,
              10.160268
            ],
            [
              -66.50572099999988,
              10.161422000000186
            ],
            [
              -66.505643,
              10.162707
            ],
            [
              -66.50579999999985,
              10.164287
            ],
            [
              -66.50634999999988,
              10.16572600000012
            ],
            [
              -66.506965,
              10.166728
            ],
            [
              -66.50758599999983,
              10.16828100000015
            ],
            [
              -66.508345,
              10.169763
            ],
            [
              -66.508456,
              10.171367
            ],
            [
              -66.508035,
              10.173091
            ],
            [
              -66.507489,
              10.174037000000169
            ],
            [
              -66.506395,
              10.175769000000116
            ],
            [
              -66.506227,
              10.177330000000154
            ],
            [
              -66.507102,
              10.178719000000115
            ],
            [
              -66.507651,
              10.180089000000123
            ],
            [
              -66.508274,
              10.181847000000118
            ],
            [
              -66.508709,
              10.183379
            ],
            [
              -66.508823,
              10.185189
            ],
            [
              -66.50896099999989,
              10.187091
            ],
            [
              -66.50851199999988,
              10.188449000000162
            ],
            [
              -66.5083029999999,
              10.190493000000174
            ],
            [
              -66.507996,
              10.192032000000154
            ],
            [
              -66.50755,
              10.193642000000125
            ],
            [
              -66.508198,
              10.195492
            ],
            [
              -66.50844,
              10.196361
            ],
            [
              -66.509036,
              10.197753
            ],
            [
              -66.509465,
              10.19878000000017
            ],
            [
              -66.510733,
              10.200028
            ],
            [
              -66.511835,
              10.201071000000184
            ],
            [
              -66.511981,
              10.201619
            ],
            [
              -66.511829,
              10.202561000000173
            ],
            [
              -66.511375,
              10.20346000000012
            ],
            [
              -66.510976,
              10.20507
            ],
            [
              -66.511658,
              10.20588800000013
            ],
            [
              -66.511118,
              10.207361000000162
            ],
            [
              -66.51079699999985,
              10.207686
            ],
            [
              -66.511065,
              10.208852
            ],
            [
              -66.51234199999988,
              10.208861
            ],
            [
              -66.51308999999986,
              10.209335
            ],
            [
              -66.512914,
              10.210254
            ],
            [
              -66.512069,
              10.211386000000118
            ],
            [
              -66.512036,
              10.21255600000012
            ],
            [
              -66.512082,
              10.214573
            ],
            [
              -66.511891,
              10.216181000000176
            ],
            [
              -66.511512,
              10.217515
            ],
            [
              -66.511897,
              10.218726
            ],
            [
              -66.512815,
              10.219885
            ],
            [
              -66.513366,
              10.221347
            ],
            [
              -66.513474,
              10.222698
            ],
            [
              -66.513697,
              10.223934
            ],
            [
              -66.51379499999985,
              10.22431
            ],
            [
              -66.513271,
              10.224404
            ],
            [
              -66.512643,
              10.225496000000135
            ],
            [
              -66.513003,
              10.22711900000013
            ],
            [
              -66.5128079999999,
              10.227835
            ],
            [
              -66.512817,
              10.229374
            ],
            [
              -66.513721,
              10.230388
            ],
            [
              -66.513919,
              10.230981
            ],
            [
              -66.513955,
              10.231554
            ],
            [
              -66.51441299999982,
              10.232371
            ],
            [
              -66.515056,
              10.232013
            ],
            [
              -66.515654,
              10.231838000000153
            ],
            [
              -66.519871,
              10.230429
            ],
            [
              -66.522281,
              10.230102
            ],
            [
              -66.523195,
              10.229417
            ],
            [
              -66.524394,
              10.22904700000015
            ],
            [
              -66.526214,
              10.228366000000108
            ],
            [
              -66.526775,
              10.227435000000185
            ],
            [
              -66.527014,
              10.226673000000176
            ],
            [
              -66.527177,
              10.225613
            ],
            [
              -66.527906,
              10.224932
            ],
            [
              -66.528681,
              10.224273
            ],
            [
              -66.5293329999999,
              10.223249
            ],
            [
              -66.529614,
              10.222302000000184
            ],
            [
              -66.52983699999987,
              10.221295
            ],
            [
              -66.530017,
              10.220479000000182
            ],
            [
              -66.5301659999999,
              10.219856000000163
            ],
            [
              -66.531803,
              10.219316
            ],
            [
              -66.532897,
              10.219454
            ],
            [
              -66.53339,
              10.21957
            ],
            [
              -66.534694,
              10.219875000000116
            ],
            [
              -66.536344,
              10.219978
            ],
            [
              -66.53778099999988,
              10.219879000000105
            ],
            [
              -66.539008,
              10.219692
            ],
            [
              -66.540423,
              10.219617
            ],
            [
              -66.54203799999988,
              10.220203
            ],
            [
              -66.542351,
              10.22184900000019
            ],
            [
              -66.543426,
              10.223296
            ],
            [
              -66.544669,
              10.2238660000001
            ],
            [
              -66.54633399999989,
              10.224635000000148
            ],
            [
              -66.547454,
              10.22491
            ],
            [
              -66.548707,
              10.228167000000155
            ],
            [
              -66.550006,
              10.229218
            ],
            [
              -66.551523,
              10.229599000000178
            ],
            [
              -66.55281699999983,
              10.230399
            ],
            [
              -66.55401,
              10.23081000000019
            ],
            [
              -66.554928,
              10.23141
            ],
            [
              -66.55556499999983,
              10.231879000000163
            ],
            [
              -66.555431,
              10.233213
            ],
            [
              -66.554588,
              10.233989000000122
            ],
            [
              -66.55419099999983,
              10.234962000000166
            ],
            [
              -66.553848,
              10.23630100000014
            ],
            [
              -66.554605,
              10.23695
            ],
            [
              -66.555218,
              10.237397
            ],
            [
              -66.555234,
              10.238178000000175
            ],
            [
              -66.55498099999983,
              10.239377
            ],
            [
              -66.555717,
              10.240119
            ],
            [
              -66.55781599999989,
              10.241682
            ],
            [
              -66.558796,
              10.241891
            ],
            [
              -66.56173399999989,
              10.243551
            ],
            [
              -66.563721,
              10.244198
            ],
            [
              -66.56611099999986,
              10.245226000000116
            ],
            [
              -66.568214,
              10.245848
            ],
            [
              -66.571297,
              10.245599
            ],
            [
              -66.572773,
              10.245154
            ],
            [
              -66.574627,
              10.24497700000012
            ],
            [
              -66.577258,
              10.246414
            ],
            [
              -66.578999,
              10.247502000000168
            ],
            [
              -66.580519,
              10.249077000000113
            ],
            [
              -66.582232,
              10.250142
            ],
            [
              -66.5845149999999,
              10.251540000000148
            ],
            [
              -66.587202,
              10.253343
            ],
            [
              -66.58951899999988,
              10.25524600000017
            ],
            [
              -66.592242,
              10.256566000000134
            ],
            [
              -66.59451399999989,
              10.257436
            ],
            [
              -66.597749,
              10.257713
            ],
            [
              -66.600199,
              10.25818900000013
            ],
            [
              -66.60230299999989,
              10.25881
            ],
            [
              -66.605917,
              10.259400000000142
            ],
            [
              -66.60843099999988,
              10.259599
            ],
            [
              -66.609869,
              10.260556
            ],
            [
              -66.61004499999984,
              10.261123
            ],
            [
              -66.613025,
              10.260333
            ],
            [
              -66.61553999999984,
              10.256938
            ],
            [
              -66.616896,
              10.257514
            ],
            [
              -66.61745,
              10.258876000000157
            ],
            [
              -66.618344,
              10.259619000000157
            ],
            [
              -66.62145799999985,
              10.26275800000019
            ],
            [
              -66.62169,
              10.263483000000122
            ],
            [
              -66.62144,
              10.265633
            ],
            [
              -66.620671,
              10.26836
            ],
            [
              -66.622428,
              10.270923
            ],
            [
              -66.62387899999987,
              10.271502000000169
            ],
            [
              -66.625578,
              10.271458
            ],
            [
              -66.627721,
              10.270977
            ],
            [
              -66.628942,
              10.271688
            ],
            [
              -66.63295599999987,
              10.270899000000156
            ],
            [
              -66.634441,
              10.269191
            ],
            [
              -66.634818,
              10.269028000000105
            ],
            [
              -66.636235,
              10.267919000000177
            ],
            [
              -66.636262,
              10.267696000000171
            ],
            [
              -66.638967,
              10.265582
            ],
            [
              -66.643525,
              10.262831000000176
            ],
            [
              -66.644792,
              10.263495
            ],
            [
              -66.6458,
              10.262983000000133
            ],
            [
              -66.645852,
              10.262266000000125
            ],
            [
              -66.668934,
              10.263316000000145
            ],
            [
              -66.669226,
              10.263393000000121
            ],
            [
              -66.669899,
              10.263379
            ],
            [
              -66.67052599999988,
              10.263388
            ],
            [
              -66.67091,
              10.263954000000183
            ],
            [
              -66.671219,
              10.264292
            ],
            [
              -66.67234,
              10.264544000000171
            ],
            [
              -66.673063,
              10.264666000000148
            ],
            [
              -66.674403,
              10.265441000000123
            ],
            [
              -66.676504,
              10.265969
            ],
            [
              -66.677943,
              10.265916000000175
            ],
            [
              -66.678888,
              10.266676000000189
            ],
            [
              -66.679864,
              10.26778
            ],
            [
              -66.680534,
              10.268684
            ],
            [
              -66.680641,
              10.269371
            ],
            [
              -66.681632,
              10.270061000000112
            ],
            [
              -66.682655,
              10.270131
            ],
            [
              -66.684318,
              10.270784
            ],
            [
              -66.685948,
              10.270979
            ],
            [
              -66.686993,
              10.27100200000018
            ],
            [
              -66.68788699999988,
              10.271534000000145
            ],
            [
              -66.688822,
              10.271812
            ],
            [
              -66.68997899999988,
              10.270548
            ],
            [
              -66.691213,
              10.269648
            ],
            [
              -66.691995,
              10.26928700000019
            ],
            [
              -66.692999,
              10.269564
            ],
            [
              -66.694613,
              10.270057000000122
            ],
            [
              -66.695811,
              10.2706510000001
            ],
            [
              -66.697107,
              10.271542
            ],
            [
              -66.699374,
              10.27328400000016
            ],
            [
              -66.701202,
              10.274026000000106
            ],
            [
              -66.713896,
              10.273425
            ],
            [
              -66.714988,
              10.273705000000177
            ]
          ]
        ]
      }
    }
  ]
}