{"type": "FeatureCollection", "features": [{"type": "Feature", "properties": {"Pais": "Venezuela", "Estado": "Zulia", "Municipio": "Ind\u00edgena Bolivariano Guajira", "Parroquia": "Guajira"}, "geometry": {"type": "Polygon", "coordinates": [[[-71.96025691699992, 11.420178707000161], [-71.96179936399994, 11.421165032000147], [-71.96463781599994, 11.422934961000124], [-71.97181610799993, 11.42741101700011], [-71.983714, 11.434830000000147], [-71.98685505899994, 11.43682040300007], [-72.015063, 11.454695000000129], [-72.03474432999997, 11.46776799000014], [-72.03677540399997, 11.46911709700015], [-72.04950401799994, 11.47757186500013], [-72.05311391799995, 11.47996968000001], [-72.05415274299992, 11.480637796000053], [-72.06000247599997, 11.484400028000152], [-72.06260127899998, 11.479682764000074], [-72.06315745399996, 11.478673214000082], [-72.06682361499998, 11.472018517000038], [-72.08403693899993, 11.440773442000022], [-72.08546934599997, 11.438173383000105], [-72.08818707299997, 11.433240252000019], [-72.09090480099997, 11.428307120000056], [-72.09810904199998, 11.415230212999973], [-72.10673725499993, 11.399568558000055], [-72.11747982799989, 11.380068984000161], [-72.11855179699995, 11.378123180999978], [-72.12079615399995, 11.374049295000077], [-72.12514610599999, 11.366153403000112], [-72.12581192999988, 11.36494482], [-72.12764980499992, 11.361608769000156], [-72.12853219599998, 11.360007081000106], [-72.12860175899988, 11.359880813000132], [-72.12884261299985, 11.359443624000107], [-72.12894021199992, 11.359266463000154], [-72.12988310399987, 11.357554955000069], [-72.1378077299999, 11.343170430000157], [-72.14397902299999, 11.331968497000105], [-72.15092552099992, 11.319228517000113], [-72.15238520499997, 11.316561302000139], [-72.15816907099997, 11.305992704000175], [-72.16202609399994, 11.298944939000137], [-72.16248466599995, 11.298107012000173], [-72.16278443499994, 11.297559258000149], [-72.16544634399992, 11.292695273000106], [-72.16795371599994, 11.288094944000079], [-72.1687577749999, 11.286619720000033], [-72.16956183399992, 11.285144496000044], [-72.17201643199996, 11.280640994000066], [-72.17315643899997, 11.278549398000052], [-72.17630869599992, 11.27274040300017], [-72.17642666299992, 11.272523013000125], [-72.18707605799989, 11.25289825900012], [-72.18895111199998, 11.249442900000133], [-72.18950941499997, 11.248414059000027], [-72.19164975699988, 11.244469826000056], [-72.19520446899992, 11.237919186000056], [-72.19530055699988, 11.237742816000036], [-72.19674955699998, 11.23508317700015], [-72.19695740499992, 11.234701672000085], [-72.19697743699999, 11.23466490300018], [-72.19704715299997, 11.234536939000066], [-72.2000646599999, 11.228998304000186], [-72.20051118199996, 11.228178712000044], [-72.20433989499998, 11.221151108000186], [-72.2094283859999, 11.211811180999973], [-72.21055202999997, 11.209748731000047], [-72.21140170799993, 11.208189146000052], [-72.2120843219999, 11.206936208000116], [-72.21341568599985, 11.204492489000188], [-72.21341908099993, 11.204486257000042], [-72.21533126399999, 11.200976443000059], [-72.21553895699992, 11.200595223000107], [-72.21610561599994, 11.199555120000127], [-72.21755959899997, 11.196886335000045], [-72.21783878499997, 11.196373791999974], [-72.21814337699993, 11.195814606999988], [-72.21925174599983, 11.193779809000034], [-72.21957729399992, 11.193182152000077], [-72.22692684399982, 11.179689495000048], [-72.22938870399992, 11.175203925000119], [-72.23072785299996, 11.17276396300008], [-72.23074975299994, 11.17272406100011], [-72.23626517299994, 11.16267483200005], [-72.23757180399997, 11.160256325999967], [-72.23953225399998, 11.156627635000063], [-72.24292802699995, 11.15034223900011], [-72.23610825499992, 11.149481787000127], [-72.23380265799995, 11.14935629100006], [-72.22808287999999, 11.149044959000037], [-72.225879, 11.14892500000019], [-72.20511477299993, 11.146701579000137], [-72.202233, 11.146393000000103], [-72.1920956429999, 11.145412076000127], [-72.15792899999985, 11.142106000000126], [-72.14993523599998, 11.141352023000024], [-72.079452, 11.13470400000017], [-72.03926599999983, 11.131196], [-72.033472, 11.129832000000135], [-72.028595, 11.129248000000132], [-72.02589, 11.131391000000121], [-72.025446, 11.139378], [-72.024752, 11.149314], [-72.021419, 11.153406000000189], [-72.013726, 11.158471], [-72.004776, 11.161587000000111], [-71.995724, 11.161976000000152], [-71.974754, 11.164119], [-71.97088199999985, 11.167431000000136], [-71.963854, 11.175224000000128], [-71.95097, 11.183601000000124], [-71.940394, 11.190419], [-71.92833, 11.190809000000172], [-71.928417, 11.183768], [-71.918875, 11.187957], [-71.909507, 11.192995], [-71.89963879999982, 11.207208588000128], [-71.88681687099995, 11.225676558000146], [-71.8846525269999, 11.228793954000139], [-71.88399382199998, 11.229742716000146], [-71.8832450669999, 11.230763940000088], [-71.88329873399982, 11.230865899000094], [-71.89114415599994, 11.244581177000157], [-71.89418532699995, 11.250903313000094], [-71.90074866399988, 11.261117521000017], [-71.90286079599997, 11.266843645000051], [-71.9047569039999, 11.271362740000143], [-71.91742559599999, 11.296035269000072], [-71.91900669199998, 11.299952351000172], [-71.92478601799996, 11.31269662200009], [-71.93033031799996, 11.323023839000086], [-71.93278949199993, 11.33177304000003], [-71.9376667919999, 11.34604336000018], [-71.94488123799988, 11.36714484200013], [-71.94761939299997, 11.373569980000127], [-71.95095556599995, 11.378776079000033], [-71.95456973999984, 11.381659132000095], [-71.95376170999987, 11.382476159000078], [-71.95265768299998, 11.384103198000162], [-71.95270571099996, 11.388039295000112], [-71.95834313099994, 11.413698897000131], [-71.95907116199999, 11.416150998000035], [-71.96025691699992, 11.420178707000161]]]}}, {"type": "Feature", "properties": {"Pais": "Venezuela", "Estado": "Zulia", "Municipio": "Ind\u00edgena Bolivariano Guajira", "Parroquia": "Sinamaica"}, "geometry": {"type": "Polygon", "coordinates": [[[-71.81540928399988, 11.136321030000033], [-71.82183760999993, 11.145013204000179], [-71.82738887799997, 11.150861306000138], [-71.84168258499994, 11.167910633000133], [-71.84328552699998, 11.170404423000036], [-71.84608180899988, 11.174754764], [-71.84969698499987, 11.178847840000117], [-71.85419122899992, 11.185879981000085], [-71.85810642599995, 11.191304099000035], [-71.86182460599991, 11.195968182000172], [-71.86520068799996, 11.200851044000046], [-71.86751990199997, 11.20420534800013], [-71.8696970179999, 11.208633445000146], [-71.87230414899989, 11.212089511000102], [-71.87576332999993, 11.217337612000108], [-71.87914251599994, 11.222969729000113], [-71.88206243399992, 11.228517108000176], [-71.8832450669999, 11.230763940000088], [-71.88399382199998, 11.229742716000146], [-71.8846525269999, 11.228793954000139], [-71.88681687099995, 11.225676558000146], [-71.89963879999982, 11.207208588000128], [-71.909507, 11.192995], [-71.918875, 11.187957], [-71.928417, 11.183768], [-71.932241, 11.182089], [-71.92964499999982, 11.084686], [-71.929962, 11.082478000000151], [-71.929425, 11.082393], [-71.928558, 11.082256], [-71.927339, 11.08055800000011], [-71.927079, 11.078536], [-71.926555, 11.076898000000142], [-71.92598699999985, 11.075145], [-71.92466499999989, 11.073904], [-71.923577, 11.072621], [-71.922708, 11.071917], [-71.92207099999985, 11.071262000000104], [-71.921905, 11.070296], [-71.921973, 11.069289], [-71.922162, 11.067998], [-71.922244, 11.067437000000155], [-71.920837, 11.066928000000132], [-71.918383, 11.066490000000158], [-71.916164, 11.065874000000179], [-71.914143, 11.06581100000011], [-71.9121679999999, 11.065772], [-71.911416, 11.066170000000113], [-71.909643, 11.066479000000129], [-71.90881999999982, 11.065821], [-71.90861599999988, 11.065565000000163], [-71.90768, 11.064767], [-71.90637199999986, 11.063985000000173], [-71.905141, 11.062837], [-71.90295499999985, 11.061762000000101], [-71.90091699999988, 11.060347], [-71.899119, 11.0585], [-71.898069, 11.05760800000013], [-71.897612, 11.057232000000113], [-71.896824, 11.056025], [-71.896239, 11.053996], [-71.89586899999983, 11.051696000000163], [-71.895382, 11.049462], [-71.894786, 11.049061000000108], [-71.893263, 11.05075], [-71.891741, 11.051225000000102], [-71.890006, 11.050847], [-71.888722, 11.051142], [-71.88704299999989, 11.052507000000105], [-71.885162, 11.054625], [-71.883239, 11.055436], [-71.881819, 11.055568000000108], [-71.88007, 11.053631], [-71.879478, 11.051968000000102], [-71.877163, 11.051533000000177], [-71.87467499999985, 11.051598], [-71.872611, 11.05137400000018], [-71.87172199999986, 11.04943], [-71.872032, 11.047946], [-71.871404, 11.047032000000115], [-71.87077, 11.04611], [-71.868858, 11.045293], [-71.866777, 11.044724], [-71.864194, 11.043779], [-71.86214499999988, 11.04289], [-71.860914, 11.041742000000113], [-71.859947, 11.04131], [-71.857692, 11.040257000000167], [-71.85634999999985, 11.038877000000184], [-71.855733, 11.038384], [-71.854667, 11.037147], [-71.853424, 11.035472], [-71.852299, 11.033730000000105], [-71.850623, 11.032734000000119], [-71.84852299999989, 11.03097200000019], [-71.848898, 11.028618000000108], [-71.850661, 11.024389], [-71.852063, 11.021848], [-71.852158, 11.019558], [-71.85176399999983, 11.017303], [-71.851641, 11.015421000000117], [-71.851367, 11.014085], [-71.852275, 11.011811], [-71.852384, 11.009956], [-71.85164399999985, 11.008703], [-71.849723, 11.008275], [-71.847474, 11.00807], [-71.846223, 11.006784], [-71.846307, 11.004997], [-71.84639, 11.00328], [-71.846033, 11.001484000000175], [-71.843803, 10.9992850000001], [-71.84136199999989, 10.999305000000163], [-71.838263, 10.999724000000185], [-71.834192, 10.999918], [-71.83102, 10.999373000000105], [-71.828696, 10.998272000000156], [-71.82565099999988, 10.998303], [-71.823164, 10.997221], [-71.820514, 10.995082], [-71.817759, 10.994591], [-71.81437299999988, 10.99319300000019], [-71.8124519999999, 10.99609], [-71.811274, 10.99902400000019], [-71.806815, 11.002167], [-71.804108, 11.004841000000113], [-71.80112899999989, 11.00501], [-71.796885, 11.005705], [-71.79369, 11.005136000000164], [-71.792017, 11.004048], [-71.78875276299993, 11.003442750000033], [-71.788684, 11.00343], [-71.78679179799997, 11.003200935], [-71.784372, 11.002908], [-71.78120799999982, 11.003096000000141], [-71.78092131999989, 11.00301068300007], [-71.78057544799998, 11.00290775000019], [-71.77741003299997, 11.001965711000139], [-71.77638249899996, 11.001629956000158], [-71.77529727599995, 11.00128311800006], [-71.77269058099995, 11.001299017], [-71.77263258599993, 11.001019007000139], [-71.77039049099994, 11.001763046000121], [-71.76835042899984, 11.003457092000133], [-71.76435130999988, 11.010482301000138], [-71.76381631599992, 11.014295394000044], [-71.76377069499989, 11.014253101000179], [-71.76384738099995, 11.014484693000156], [-71.76390939099991, 11.014986846000056], [-71.76403586499998, 11.014900238000166], [-71.76447799999988, 11.015875000000165], [-71.76511393099992, 11.017897933000143], [-71.765196, 11.01815900000014], [-71.764236, 11.020685], [-71.764071, 11.024029], [-71.764426, 11.025871000000166], [-71.766354, 11.029165], [-71.768367, 11.031751000000156], [-71.76967999999988, 11.035538000000145], [-71.771113, 11.038112000000126], [-71.772292, 11.039534000000174], [-71.773485, 11.039145000000133], [-71.776202, 11.037113], [-71.777829, 11.034945000000107], [-71.778762, 11.032602], [-71.781988, 11.032828000000109], [-71.78597, 11.033573000000104], [-71.789308, 11.033984], [-71.792772, 11.033939], [-71.794017, 11.034399], [-71.79387399999985, 11.037836], [-71.792811, 11.040772000000118], [-71.79235, 11.042780000000164], [-71.7918059999999, 11.045383], [-71.79162499999984, 11.047328], [-71.792816, 11.048178], [-71.794676, 11.048146], [-71.79674, 11.04949500000015], [-71.799291, 11.050854000000129], [-71.80120099999988, 11.05174], [-71.80087, 11.054164], [-71.80020899999988, 11.055756], [-71.798232, 11.055808], [-71.796989, 11.056333000000166], [-71.79595499999988, 11.057963], [-71.795265, 11.05976], [-71.792571, 11.059638], [-71.790517, 11.058932], [-71.7884739999999, 11.058845000000133], [-71.786563, 11.060136], [-71.784655, 11.062413000000163], [-71.78383699999989, 11.064782], [-71.783393, 11.066011000000117], [-71.782237, 11.067868], [-71.78159399999987, 11.069666], [-71.7792209999999, 11.069756], [-71.7748529999999, 11.068613000000141], [-71.772505, 11.067534], [-71.77093599999989, 11.069177], [-71.770338, 11.071022000000141], [-71.77050799999984, 11.072859], [-71.769756, 11.074335000000133], [-71.769233, 11.077052], [-71.769418, 11.079234000000156], [-71.771959, 11.081074000000172], [-71.776078, 11.08411400000017], [-71.779745, 11.086550000000102], [-71.78316, 11.090998], [-71.785001, 11.094062], [-71.78862, 11.097734000000173], [-71.789654, 11.09938300000016], [-71.792848, 11.10112], [-71.795652, 11.103721], [-71.798215, 11.107808], [-71.800915, 11.110957000000155], [-71.803644, 11.114863], [-71.8062589999999, 11.117621000000156], [-71.808861, 11.12102], [-71.8109209999999, 11.123652], [-71.813016, 11.12461100000013], [-71.815352, 11.125162000000103], [-71.817925, 11.127735], [-71.8198, 11.130295], [-71.82053599999989, 11.131754000000171], [-71.820215, 11.132664000000148], [-71.81886999999989, 11.133578000000114], [-71.81856863699994, 11.133600794000188], [-71.81623899999988, 11.133777], [-71.814678, 11.13393], [-71.81257899999986, 11.132031000000154], [-71.81195999999989, 11.129451], [-71.810429, 11.129283000000157], [-71.80893697299996, 11.130442045000052], [-71.80897897999995, 11.13048593000002], [-71.80850995999998, 11.13085094400003], [-71.80708390499996, 11.131464971000128], [-71.81540928399988, 11.136321030000033]]]}}, {"type": "Feature", "properties": {"Pais": "Venezuela", "Estado": "Zulia", "Municipio": "Ind\u00edgena Bolivariano Guajira", "Parroquia": "Alta Guajira"}, "geometry": {"type": "Polygon", "coordinates": [[[-71.34126781399993, 11.830444872000157], [-71.34110381099993, 11.83104089200009], [-71.34061080299995, 11.83223392800005], [-71.33935176099993, 11.834675], [-71.3384177289999, 11.835219018000146], [-71.33765170799995, 11.836683068000127], [-71.33682968199997, 11.838148111000066], [-71.33589564799996, 11.838584129000083], [-71.33446759299994, 11.839021143000025], [-71.33358855999995, 11.839402161000123], [-71.33298454099997, 11.839891178000187], [-71.33210550599989, 11.840110189000086], [-71.33161148799996, 11.840545210000073], [-71.33152148999989, 11.84127022000007], [-71.33150509999996, 11.84131496100008], [-71.33133648299997, 11.841775245000179], [-71.33129248599994, 11.84244025300012], [-71.33159650999988, 11.842806268000118], [-71.33211053099996, 11.84305726800011], [-71.33262354399994, 11.842986266000082], [-71.33378859899989, 11.842410235000159], [-71.33472063199991, 11.841788216999987], [-71.33595566999998, 11.841188191000072], [-71.33732872099995, 11.840244155000164], [-71.3383757549999, 11.839232126000184], [-71.33928478999997, 11.838977107000119], [-71.34006867099993, 11.838670279000155], [-71.34040383299993, 11.838539089000108], [-71.34154587799992, 11.83821407400012], [-71.34278193599988, 11.837981059000128], [-71.34341095499997, 11.837704047000102], [-71.34401497199997, 11.836900028000116], [-71.34422198199991, 11.83602800400007], [-71.34459198199988, 11.834948966000184], [-71.34463597899997, 11.834123949], [-71.34470398199994, 11.833458929000074], [-71.34523598999988, 11.83217288700007], [-71.34653903099996, 11.83093085400003], [-71.34737506299996, 11.829941814000108], [-71.34840310199985, 11.830168817000128], [-71.34952315199996, 11.830050805000155], [-71.35078320599996, 11.830000798000185], [-71.3518562509999, 11.829997787000025], [-71.35288128199983, 11.829627765000168], [-71.3538613309999, 11.829625760000056], [-71.35418733399996, 11.829257754000025], [-71.35437234099999, 11.828866737000055], [-71.35462634699996, 11.82810971400005], [-71.35499836099984, 11.82762670700015], [-71.35574237999992, 11.826845675000186], [-71.35704743699984, 11.826267656000027], [-71.35765345699997, 11.82619764600014], [-71.35807247799983, 11.82569162599998], [-71.35760345199992, 11.825257629000077], [-71.3571354309999, 11.824823620000132], [-71.35652840299997, 11.82459560899997], [-71.35594437599997, 11.824413610000136], [-71.35598936799994, 11.823863603000177], [-71.3566413989999, 11.823471589000064], [-71.35736241799998, 11.822758565000072], [-71.35726641399992, 11.822070546000077], [-71.35631037199994, 11.822303558000158], [-71.35444630199999, 11.823179591000041], [-71.35328125799998, 11.823641614], [-71.35141518399985, 11.823692630000153], [-71.35108716499997, 11.823327621000033], [-71.35113116299988, 11.822661607000043], [-71.35168818499994, 11.821880577000059], [-71.35248020599994, 11.821396561000142], [-71.35203619199996, 11.82109956], [-71.35173117399995, 11.820733545], [-71.35215018399998, 11.820274531000052], [-71.35268520199992, 11.819905519000088], [-71.35329123299988, 11.819720507000056], [-71.35424626799994, 11.819236490000037], [-71.35490028899989, 11.819211487000189], [-71.35692636699991, 11.81828844800009], [-71.3579514079999, 11.81768942900004], [-71.35960647699983, 11.817248404000054], [-71.36114352399989, 11.816349374000083], [-71.36296159399996, 11.815679339000155], [-71.36426364199997, 11.81436829300003], [-71.36605570199998, 11.81291824900012], [-71.36793977499991, 11.811354197000071], [-71.3691978249999, 11.810639158000129], [-71.37001184999997, 11.809788132000051], [-71.37133989599994, 11.809303108000051], [-71.37243393799997, 11.808566088000191], [-71.37322597099995, 11.808105072000046], [-71.3743460099999, 11.80810105500018], [-71.37584107499998, 11.808579059000124], [-71.37670611599998, 11.809356082000022], [-71.3775331619999, 11.810256088000074], [-71.37771417599998, 11.810453096000174], [-71.37832420199999, 11.811506124000118], [-71.37795319499992, 11.812218140000027], [-71.37852450399998, 11.811970240000107], [-71.37840944399994, 11.812129723000112], [-71.37983306499996, 11.8116780040001], [-71.38369638199998, 11.810452161], [-71.38541169999996, 11.809885979000057], [-71.41519404699989, 11.800055607000104], [-71.42841177799994, 11.795783653000115], [-71.45713524699994, 11.78650026400004], [-71.46702970199988, 11.783689347000063], [-71.47532053299994, 11.781334004000144], [-71.47748198899995, 11.780719956000155], [-71.4796860379999, 11.780093807000128], [-71.48161142799995, 11.779546823000146], [-71.4822848089999, 11.77935552200006], [-71.4830758249999, 11.779130802000111], [-71.48848906199999, 11.777864911000052], [-71.49347073699994, 11.776699941000118], [-71.50885583299998, 11.773102120999965], [-71.51131802999987, 11.77252633400002], [-71.51136872299998, 11.772514479000051], [-71.51611941999994, 11.771403523000117], [-71.51784514499991, 11.770999961000143], [-71.51930830299983, 11.770657800000151], [-71.54130027099984, 11.76481627200019], [-71.54198681999998, 11.76463391100009], [-71.56972155499989, 11.757266985], [-71.57535719899988, 11.755770040000073], [-71.57653795899995, 11.755456405000132], [-71.59962279399997, 11.749324590000015], [-71.60419724599996, 11.748109520000014], [-71.61100662099989, 11.746300808000115], [-71.61718575399993, 11.744056451000176], [-71.61866450699995, 11.743519344000049], [-71.61869675899999, 11.743507630000124], [-71.64211391099997, 11.735002156000178], [-71.6421788159999, 11.734978581000064], [-71.64433515299999, 11.734195366000051], [-71.64776342699997, 11.732622091000167], [-71.64949368899994, 11.732046371000138], [-71.65922470399994, 11.728808512], [-71.66425492299987, 11.727134777000174], [-71.6643003509999, 11.727119557000151], [-71.69981176099992, 11.715222350000147], [-71.69997949099997, 11.71516615500019], [-71.70246315199995, 11.714334068000028], [-71.71469694399991, 11.710235443000101], [-71.7320812459999, 11.70425303899998], [-71.75111527999996, 11.697702919000164], [-71.77572167299991, 11.689235201000145], [-71.78270421599996, 11.68683232100011], [-71.79985954999995, 11.680859418000182], [-71.80219021099992, 11.680047962000174], [-71.80578071299993, 11.679500497000106], [-71.82737164499997, 11.676208407000047], [-71.84144390299991, 11.67406273000006], [-71.84247577399992, 11.67380903500009], [-71.84914557199988, 11.672169206000035], [-71.84928160899995, 11.672135760000117], [-71.8608741839999, 11.669285622000189], [-71.86319278899998, 11.66871557200011], [-71.87718485199997, 11.665400254000076], [-71.87718753199982, 11.665399620000187], [-71.90067350899989, 11.659834789000115], [-71.90834886499994, 11.658321077999972], [-71.91215216799992, 11.657571002000111], [-71.91348508699997, 11.65724527600014], [-71.92155007799988, 11.655274427000052], [-71.92631319199984, 11.654110461000016], [-71.92886650999998, 11.653486505000103], [-71.93131819999996, 11.652887384000167], [-71.94573852399992, 11.65050332300018], [-71.97136323599995, 11.646266879000109], [-71.97148872599996, 11.645979792000105], [-71.97158713999994, 11.645754651], [-71.97235805899993, 11.643960279000055], [-71.97684345999988, 11.635718731000111], [-71.97913220599997, 11.631511919], [-71.97916050699996, 11.6314594050001], [-71.97944523699994, 11.630931050000186], [-71.98074598999995, 11.628517317000046], [-71.98156441199995, 11.626998618000073], [-71.98226941899998, 11.625690376000023], [-71.9825585459999, 11.625153860000182], [-71.98272422999992, 11.624846410000146], [-71.98317903999998, 11.624002444000155], [-71.98356931399996, 11.62328093900004], [-71.98723071299992, 11.61651206200014], [-71.98726248899999, 11.61645331699998], [-71.98770108299993, 11.615639885], [-71.99963246799996, 11.593511268000043], [-72.0034535339999, 11.586424507000174], [-72.00511136599994, 11.583349801000168], [-72.00571830199988, 11.58222718900015], [-72.00624154699995, 11.581259374000126], [-72.00883321399988, 11.57646572800013], [-72.01095871199988, 11.572534327000028], [-72.01358075899992, 11.567684488000111], [-72.02435729699994, 11.547772867999981], [-72.02547323099998, 11.545707403000108], [-72.02708877899983, 11.54296759500005], [-72.02920949599996, 11.539371071], [-72.03530835799984, 11.529028014000176], [-72.04624292399996, 11.50937592400004], [-72.04633090099998, 11.509216232000142], [-72.05050292099992, 11.501643315000024], [-72.06000247599997, 11.484400028000152], [-72.05415274299992, 11.480637796000053], [-72.05311391799995, 11.47996968000001], [-72.04950401799994, 11.47757186500013], [-72.03677540399997, 11.46911709700015], [-72.03474432999997, 11.46776799000014], [-72.015063, 11.454695000000129], [-71.98685505899994, 11.43682040300007], [-71.983714, 11.434830000000147], [-71.97181610799993, 11.42741101700011], [-71.96463781599994, 11.422934961000124], [-71.96179936399994, 11.421165032000147], [-71.96025691699992, 11.420178707000161], [-71.96026025599986, 11.420190050000087], [-71.96421151499993, 11.434491372000025], [-71.96360363899998, 11.454057869000053], [-71.96469469399995, 11.455610901000114], [-71.96792904499995, 11.485987634000026], [-71.96829515999997, 11.498660947000133], [-71.96924324299988, 11.504818089000139], [-71.96894529899998, 11.514409331000024], [-71.9686221419999, 11.518984980000027], [-71.96826833699993, 11.523994581000181], [-71.96635635499996, 11.536629903000062], [-71.96572739299995, 11.544680111000162], [-71.96435038299995, 11.552334318000135], [-71.96211837799996, 11.56304460300015], [-71.96147741599992, 11.571478813000056], [-71.95815534899987, 11.58063707100007], [-71.9557822679999, 11.583668161], [-71.95572328499998, 11.585586213000113], [-71.94434689799988, 11.597298581000189], [-71.94012374299996, 11.59876465300016], [-71.92604517499996, 11.59968378100018], [-71.91997192299988, 11.599583818000156], [-71.91500271899997, 11.60065387800006], [-71.90387629799994, 11.604309053000065], [-71.89852708199993, 11.60537211500008], [-71.89376993599996, 11.611819315000105], [-71.8883127439999, 11.616335472000117], [-71.88411458199982, 11.617034520000061], [-71.88135049399983, 11.62044362], [-71.87600028399999, 11.621506682000074], [-71.85845757999988, 11.623904873000129], [-71.85491146599992, 11.628069002000188], [-71.85036827499988, 11.627610023000102], [-71.84467503499991, 11.627517070000124], [-71.83994188999998, 11.633196241000121], [-71.8319115679999, 11.634983350000084], [-71.82881545599997, 11.636851416000127], [-71.8212251469999, 11.636726464999981], [-71.81340787799996, 11.643890703000181], [-71.81231682299983, 11.64233767100012], [-71.79976731099993, 11.64289877699997], [-71.79517712499995, 11.643974842000091], [-71.78833384699993, 11.644245891000082], [-71.78367168499983, 11.647624012000051], [-71.77833446799991, 11.648303071000043], [-71.77560537499988, 11.650562149000052], [-71.76133584499996, 11.6576194270001], [-71.74653322799998, 11.657376523999972], [-71.7430820969999, 11.658470578000106], [-71.72295427399996, 11.658523724000077], [-71.7148879639999, 11.66146085700018], [-71.70724965399995, 11.662870949000137], [-71.70220847299998, 11.666242072000102], [-71.70035838699994, 11.664677042000108], [-71.69685826299991, 11.667306139000118], [-71.69075002599999, 11.668357205], [-71.68763090699991, 11.670992295000076], [-71.67726351599998, 11.67466046100003], [-71.67187830999995, 11.67687456300007], [-71.66419201199989, 11.67981869300013], [-71.6467322879999, 11.679531807000046], [-71.64479921899994, 11.680650850000177], [-71.64013705699989, 11.684028970000043], [-71.63784796299996, 11.684374994999985], [-71.63402880799998, 11.685080036000159], [-71.6316567319999, 11.688112132000015], [-71.62748156499993, 11.68804316100011], [-71.62440944099995, 11.68914421400018], [-71.62257135499993, 11.687194175], [-71.61842017599992, 11.68635818000007], [-71.61466001499991, 11.68514517900013], [-71.60890678599998, 11.686969274000148], [-71.60467263499993, 11.688819349000028], [-71.60122049899985, 11.689913404000038], [-71.59208812599996, 11.690530479000017], [-71.59092508299995, 11.6912795020001], [-71.58671492099995, 11.692361559000176], [-71.57985863599993, 11.693016636000095], [-71.57649048799993, 11.691425613000035], [-71.57532844999997, 11.692174648000105], [-71.57340637499993, 11.692910680000068], [-71.56806915799996, 11.69358972800012], [-71.5612488729999, 11.693093765000185], [-71.55625567999994, 11.694930850000048], [-71.55097745699993, 11.693692861000045], [-71.55055044999995, 11.695220895000148], [-71.5471343019999, 11.695164926000075], [-71.54478523199998, 11.697428993000074], [-71.53636388999996, 11.699593108000158], [-71.53170172699993, 11.702971229000184], [-71.52904561499992, 11.702927246000172], [-71.52559348999995, 11.704022306000184], [-71.51879719399989, 11.702759318000119], [-71.51305696899993, 11.704199398000071], [-71.50508564099988, 11.704068454000094], [-71.49664031099991, 11.707000588000028], [-71.48447081999996, 11.707567687000164], [-71.47332138899998, 11.71198988700013], [-71.46418800999993, 11.71260796700011], [-71.46037788399991, 11.715808076000087], [-71.45957485799988, 11.716851109000174], [-71.45886183199997, 11.717395126000156], [-71.45814779699998, 11.717397130000165], [-71.4575427829999, 11.71756113900011], [-71.45666374699994, 11.717563144], [-71.4549076799999, 11.718544184], [-71.45397363299998, 11.718709189000094], [-71.45342461099995, 11.718710198000053], [-71.4528755899999, 11.718874207000056], [-71.45227156899995, 11.719093216000147], [-71.45139253499997, 11.719366234000177], [-71.45100852699989, 11.719475230000114], [-71.45051450699998, 11.719748245000062], [-71.44991148099996, 11.720183255], [-71.44930645199992, 11.720022256999982], [-71.44897544399998, 11.719806259000052], [-71.44853642199996, 11.719753261000108], [-71.44809740199997, 11.719917269], [-71.44743838099998, 11.720190273000071], [-71.44699836599989, 11.720191281000155], [-71.44644934399997, 11.72019328400006], [-71.44579031199999, 11.720574300000123], [-71.44524128999984, 11.72057530900014], [-71.44463526699997, 11.720252305000031], [-71.44458026499996, 11.72008929400016], [-71.4438102229999, 11.719875297000101], [-71.44243717899991, 11.720204310000042], [-71.44183215099991, 11.720097319], [-71.44100710799995, 11.719774317000088], [-71.44062309799989, 11.719776318000186], [-71.4401830729999, 11.719885327000043], [-71.43903304299988, 11.721351366000135], [-71.43810200899986, 11.722870416000035], [-71.43733398299997, 11.723414433000187], [-71.43716997799993, 11.72379444000012], [-71.4371709859999, 11.724119447000078], [-71.43728199499998, 11.724606459000029], [-71.437229, 11.725527486000146], [-71.43657198299991, 11.726450515000067], [-71.43547493799991, 11.727319552000097], [-71.4348169129999, 11.72791756300012], [-71.43426689899997, 11.72802757800008], [-71.43404688199996, 11.727648566000141], [-71.43410088799999, 11.72748655900017], [-71.43404587499998, 11.727323560000059], [-71.43393487899993, 11.72705355300019], [-71.43344085699994, 11.727108556000019], [-71.43300283399992, 11.72776057100009], [-71.43262183999991, 11.729332619000104], [-71.43240283599994, 11.729874633], [-71.43218482499992, 11.7303626530001], [-71.43207782499996, 11.731608686000072], [-71.43185882299997, 11.732313701000066], [-71.4313668179999, 11.733235724000053], [-71.43109480499999, 11.734428757000046], [-71.43071179599997, 11.735296785000116], [-71.43038278999995, 11.735676793000152], [-71.42989077399983, 11.736652822000167], [-71.42956276199993, 11.737195843000052], [-71.42912475199995, 11.738009864000162], [-71.42912576199996, 11.738659878000135], [-71.42857874499998, 11.739581913000109], [-71.42693368999994, 11.741265966000128], [-71.4257816459999, 11.742243999000095], [-71.42441060599998, 11.74322303700012], [-71.42364256999986, 11.744146067000088], [-71.4233135639999, 11.744418075000056], [-71.42281954399988, 11.744744079000043], [-71.42183150299991, 11.745018102000074], [-71.42095147299995, 11.744966101000102], [-71.42018243799998, 11.745076117000167], [-71.41919540599997, 11.745837142000141], [-71.41793235199998, 11.746328161000179], [-71.41760134299994, 11.746058156000117], [-71.41683230699994, 11.746060161], [-71.4165572949999, 11.746170162000169], [-71.41562325799998, 11.746118172000138], [-71.4140281839999, 11.745635167000046], [-71.41336815599993, 11.74552817700004], [-71.41276313699996, 11.745096167000042], [-71.41265212699989, 11.744663161000062], [-71.41188108899996, 11.744015140000045], [-71.41177007899995, 11.743528127000161], [-71.41138506299995, 11.743313134], [-71.41067003399996, 11.743206132000068], [-71.40852694799992, 11.743320155000163], [-71.40792191899993, 11.743051145000095], [-71.40770090899997, 11.74267313900009], [-71.40758989999983, 11.742239128000165], [-71.40786289699997, 11.741372106000028], [-71.40632785299994, 11.742947153000046], [-71.40407977199993, 11.745120223000072], [-71.40369475899996, 11.7452292320001], [-71.40320073699985, 11.7452852400001], [-71.40265171699997, 11.74550324400002], [-71.40194069799998, 11.74718429900014], [-71.40117368199998, 11.748378329000161], [-71.40029464799983, 11.748705353000048], [-71.39991163699995, 11.749302368000144], [-71.39941761699998, 11.74952037100013], [-71.39875758699992, 11.749360379000052], [-71.39848257199998, 11.749089369000046], [-71.39809654999993, 11.748765370000115], [-71.39727151899996, 11.748551362000171], [-71.39551344799992, 11.748772389000067], [-71.39419539399984, 11.749155408999968], [-71.39331635799994, 11.749157413000148], [-71.39287733999993, 11.749646428], [-71.3912282739999, 11.749542437], [-71.38968920999991, 11.749600451000049], [-71.3889761829999, 11.749981468000044], [-71.38771213399997, 11.750147480000066], [-71.38694210499995, 11.750149484000076], [-71.38606206099996, 11.749772476000146], [-71.38545703099999, 11.749503479000168], [-71.38501701699988, 11.749504475000094], [-71.3843589899999, 11.749885491000157], [-71.38375597999993, 11.750916520000146], [-71.38348296899989, 11.751458535000097], [-71.38271494299994, 11.752056558000106], [-71.3828809559999, 11.752868577000072], [-71.38288295899997, 11.753464597000175], [-71.3824989549999, 11.75417061700017], [-71.38228094599998, 11.755037639000136], [-71.38217394699996, 11.756337678000136], [-71.38206695799988, 11.757367698999985], [-71.38129993099983, 11.758777742000063], [-71.38119394199992, 11.760728788], [-71.38075592999985, 11.76132581600001], [-71.38053793499995, 11.762300838000044], [-71.38006891699996, 11.76296485600011], [-71.37938189599993, 11.763644887000169], [-71.37918589099996, 11.76398389600007], [-71.37864586999996, 11.764227903000062], [-71.3780578389999, 11.764616913000111], [-71.3777638389999, 11.765343935000033], [-71.37776584199997, 11.766021951000027], [-71.37776685099988, 11.766554965000068], [-71.37767084699993, 11.76752399000003], [-71.37664181399998, 11.768834041000162], [-71.37630081399993, 11.770384080999975], [-71.37654882499999, 11.77130410000018], [-71.37684385099982, 11.771690111000055], [-71.37748387199991, 11.771979105000128], [-71.37807289799997, 11.771736103000137], [-71.37939795099993, 11.771054068000069], [-71.38023298299993, 11.770858058000044], [-71.38072400099998, 11.770857061000015], [-71.38121501799998, 11.770662046000155], [-71.38160803699992, 11.770516048000161], [-71.38195205399995, 11.770660043000078], [-71.38239406599996, 11.770514032000165], [-71.38263907699996, 11.7703190310001], [-71.38293408799996, 11.77041502700007], [-71.38298408899993, 11.770803038999986], [-71.3829850969999, 11.77114204600008], [-71.38342911299998, 11.771770061999973], [-71.38362612899994, 11.772254070000088], [-71.38387514899983, 11.773658110999975], [-71.38379833799996, 11.774118194000152], [-71.38368114899993, 11.77482013800011], [-71.38348615199999, 11.775499159999981], [-71.38338814399992, 11.775838169000053], [-71.38284712299986, 11.775161150000088], [-71.38269810699995, 11.774726145000045], [-71.38269747399983, 11.774449264000168], [-71.38269710999998, 11.774290135000058], [-71.38289311599993, 11.774096127000178], [-71.38259709599987, 11.773419107000109], [-71.3817110519999, 11.772501090999981], [-71.3813170379999, 11.772405096000114], [-71.38087401599995, 11.77197008100012], [-71.3804809959999, 11.771972083000094], [-71.37974397199997, 11.771973092999986], [-71.37910594299984, 11.772459106000156], [-71.37886093299988, 11.772847120000108], [-71.37841891899984, 11.772752119000188], [-71.37669884199988, 11.77270812900008], [-71.37596281299994, 11.772903146000147], [-71.37517879199999, 11.774165183000036], [-71.37478677999997, 11.774505199000089], [-71.37370473399994, 11.774362204000056], [-71.37326272099989, 11.774363200000153], [-71.37262569899997, 11.775043219], [-71.37233068899997, 11.77509222500015], [-71.37115263499999, 11.775434245000042], [-71.3700725949999, 11.776163272000076], [-71.3690935759999, 11.777909321000038], [-71.36884856399996, 11.778055330000086], [-71.36747450799999, 11.779027368000072], [-71.36624546099989, 11.779030369000054], [-71.36531342699993, 11.779469390000031], [-71.36418438199996, 11.780246415000136], [-71.36379236799996, 11.780441429000064], [-71.36212130799998, 11.78054244100008], [-71.3615332789999, 11.781173455999976], [-71.35927218399996, 11.780937475000087], [-71.35819114599997, 11.781182491000095], [-71.35775012799996, 11.78142549200004], [-71.35706209899996, 11.781669501000067], [-71.35583505499989, 11.782253526000034], [-71.3546920199999, 11.783008557000016], [-71.35392298499994, 11.783118561000094], [-71.35277093999991, 11.783933593000029], [-71.35254993099994, 11.783555587000023], [-71.35150488799997, 11.783557593000182], [-71.3506808539999, 11.783722609000165], [-71.35007782799994, 11.784157619999974], [-71.35002383699992, 11.784699633000173], [-71.3490907989999, 11.785459664000086], [-71.34832277599986, 11.786382694000054], [-71.3475557459999, 11.787414718000036], [-71.34722673999994, 11.787794738], [-71.3464567119999, 11.787850737000099], [-71.3461816979999, 11.787850739000135], [-71.3455226779999, 11.78817776000011], [-71.34409662799993, 11.789535801000113], [-71.3436046139999, 11.790728836000142], [-71.34338460099991, 11.79083784300019], [-71.34294559399984, 11.791109852000034], [-71.34261657699989, 11.791597862000117], [-71.34206856399993, 11.792194890000133], [-71.34091451599994, 11.792360902000155], [-71.34047549799993, 11.792903911000053], [-71.33943146499996, 11.79339393600003], [-71.33915744699993, 11.793719949999968], [-71.33866443499988, 11.794370960000037], [-71.33850042999984, 11.794804974000044], [-71.33861044499997, 11.795020986000168], [-71.33943446699993, 11.794856975000187], [-71.3398204909999, 11.795450981000158], [-71.34042651699997, 11.796045990999971], [-71.3412525569999, 11.796802012000114], [-71.3423036289999, 11.799779073000138], [-71.34341170799996, 11.80383917800009], [-71.34385674399982, 11.806384241000046], [-71.3438597469999, 11.807901275000177], [-71.34424777599992, 11.809417312000107], [-71.34452680099992, 11.811312363000127], [-71.34463882099988, 11.812504388000093], [-71.34458782999991, 11.814237435000052], [-71.3447038619999, 11.817325519000121], [-71.34454085299996, 11.81808453900004], [-71.34421184999997, 11.818951561000176], [-71.34404985099997, 11.82030658900004], [-71.34405096099988, 11.820666570000071], [-71.34405185499998, 11.820956614000067], [-71.34377785099997, 11.821553629], [-71.3436688459999, 11.821932643000082], [-71.34356185899992, 11.823287670000013], [-71.34306883799991, 11.824209705000044], [-71.34252182399996, 11.82561974700019], [-71.34252384099995, 11.826432760000046], [-71.34186581999995, 11.827625797000053], [-71.34148280999995, 11.828330824000034], [-71.34148380599993, 11.828764837000165], [-71.34148581099993, 11.829576857], [-71.34126781399993, 11.830444872000157]]]}}, {"type": "Feature", "properties": {"Pais": "Venezuela", "Estado": "Zulia", "Municipio": "Ind\u00edgena Bolivariano Guajira", "Parroquia": "El\u00edas S\u00e1nchez Rubio"}, "geometry": {"type": "Polygon", "coordinates": [[[-71.928417, 11.183768], [-71.92833, 11.190809000000172], [-71.940394, 11.190419], [-71.95097, 11.183601000000124], [-71.963854, 11.175224000000128], [-71.97088199999985, 11.167431000000136], [-71.974754, 11.164119], [-71.995724, 11.161976000000152], [-72.004776, 11.161587000000111], [-72.013726, 11.158471], [-72.021419, 11.153406000000189], [-72.024752, 11.149314], [-72.025446, 11.139378], [-72.02589, 11.131391000000121], [-72.028595, 11.129248000000132], [-72.033472, 11.129832000000135], [-72.03926599999983, 11.131196], [-72.079452, 11.13470400000017], [-72.14993523599998, 11.141352023000024], [-72.15792899999985, 11.142106000000126], [-72.1920956429999, 11.145412076000127], [-72.202233, 11.146393000000103], [-72.20511477299993, 11.146701579000137], [-72.225879, 11.14892500000019], [-72.22808287999999, 11.149044959000037], [-72.23380265799995, 11.14935629100006], [-72.23610825499992, 11.149481787000127], [-72.24292802699995, 11.15034223900011], [-72.24569387399998, 11.145222800999989], [-72.24608991799988, 11.144935070000088], [-72.24652817599991, 11.144616671000108], [-72.24739630599998, 11.143694971000059], [-72.24797429099993, 11.14288919300003], [-72.24862185499995, 11.141847003000123], [-72.24862344799982, 11.141844441000046], [-72.24866545999998, 11.141776827000172], [-72.24872502199997, 11.14168096900005], [-72.24872996699992, 11.141667784000106], [-72.24907006399991, 11.140761308000094], [-72.24932296799994, 11.140341308000131], [-72.24941648299995, 11.14018600900016], [-72.24982170399994, 11.139782659], [-72.25086761999995, 11.13972117500009], [-72.25214831399995, 11.140232729000104], [-72.25273111499996, 11.14063221400005], [-72.25371960299992, 11.1407431290001], [-72.25464973399988, 11.140796879999982], [-72.25546225299996, 11.140506716000118], [-72.25673832799987, 11.139870369000164], [-72.25766545299985, 11.139177981000046], [-72.25911563699992, 11.13848354900017], [-72.26091684999994, 11.138361665000048], [-72.26306653699999, 11.138181004999979], [-72.26428702399988, 11.138176182000052], [-72.26574045299998, 11.138285221000103], [-72.2674272829999, 11.138622913000177], [-72.26911295099995, 11.13867362200017], [-72.27039038399994, 11.13838158100009], [-72.27213369999993, 11.138317251000103], [-72.27457654199992, 11.138766681000163], [-72.27597232599993, 11.138990694000142], [-72.27690291899995, 11.13915915500013], [-72.27818364799992, 11.139670584000044], [-72.27934907499991, 11.140412052000102], [-72.28010532299999, 11.14058120499999], [-72.28062106499993, 11.140701255000181], [-72.28155970299997, 11.14091974400003], [-72.28295644099995, 11.141373294000061], [-72.28400470199995, 11.141885629000114], [-72.2852861479999, 11.142569203000164], [-72.28662549399996, 11.14319515], [-72.28790481999994, 11.14336217500005], [-72.28912365399998, 11.142955497000173], [-72.29081029499991, 11.143235656000172], [-72.29232327999995, 11.143688693000058], [-72.29447583499996, 11.144196510000086], [-72.29593071699992, 11.144649767000033], [-72.29744252999996, 11.14481580100005], [-72.29912869299994, 11.144981126000175], [-72.3002908339999, 11.144918997000104], [-72.30162757399984, 11.144913557000166], [-72.30213023499994, 11.144883922000133], [-72.30267347099993, 11.144851894000112], [-72.30430007799998, 11.144673066000053], [-72.30610056199998, 11.144378733000167], [-72.30819211199997, 11.14419798300014], [-72.30976034399993, 11.143961969000145], [-72.3107765769999, 11.14398730500011], [-72.31173661899993, 11.144011240000054], [-72.31322647299993, 11.144051082000146], [-72.31359665499991, 11.144060981000166], [-72.31389125399988, 11.144078532000094], [-72.31539880999992, 11.14416834800005], [-72.31696995399989, 11.144621008000058], [-72.31784368099989, 11.145076545000165], [-72.31895061199998, 11.14570329900016], [-72.32087219099998, 11.146556241000042], [-72.32221014199996, 11.146837667000057], [-72.32337275899994, 11.146890236000047], [-72.3247656609999, 11.146425304000104], [-72.32609919999993, 11.145673644999988], [-72.32696804099999, 11.144981304000169], [-72.32830182499993, 11.144287035000048], [-72.32963854499997, 11.144281455999987], [-72.33144020599997, 11.144273935000172], [-72.33289389299989, 11.144440036000162], [-72.33300514999996, 11.144465703000037], [-72.33411561299994, 11.144721889000095], [-72.33423428799989, 11.144806362999987], [-72.33475688499988, 11.145178351000027], [-72.33423677799993, 11.145869245000029], [-72.33354230799983, 11.146560878000116], [-72.33308031299998, 11.14725152699998], [-72.33325713799996, 11.147824717000162], [-72.33413063999984, 11.148222816000157], [-72.33525637399998, 11.148423798000067], [-72.3356032399999, 11.148485726000047], [-72.33570108599991, 11.14850319500016], [-72.33692282199985, 11.148785037000039], [-72.33820483399995, 11.148942917000113], [-72.33872549399996, 11.149007036], [-72.34085842399998, 11.149375821000092], [-72.3409938669999, 11.149399239000047], [-72.34110655899997, 11.149472744000036], [-72.34197360399997, 11.150038285000164], [-72.34221783999999, 11.150197591000051], [-72.34243617899995, 11.15041136300016], [-72.34280151199988, 11.150769052000157], [-72.34314943399988, 11.150911986999972], [-72.34390776199996, 11.151223528000116], [-72.34443612999996, 11.151407358000029], [-72.34472267399997, 11.151507053000046], [-72.34588531099996, 11.151559534], [-72.34675635499991, 11.151383671000133], [-72.34809309399992, 11.151378014000102], [-72.34931359599994, 11.15137283700011], [-72.3500671509999, 11.150910502000158], [-72.35080585799994, 11.150400833000162], [-72.35157373799996, 11.149871035], [-72.35290646899995, 11.148947089000103], [-72.3533892719999, 11.148706135000111], [-72.35453028299997, 11.148136685000054], [-72.35592186699995, 11.147384650000106], [-72.35602950299995, 11.147316875000058], [-72.35702310199991, 11.14669124000011], [-72.3573105129999, 11.14660643000019], [-72.35800985499986, 11.146400067000059], [-72.35864663599995, 11.14582342100016], [-72.35898881099996, 11.144329756000104], [-72.35925735199987, 11.143793603000063], [-72.35950734799997, 11.143294477000154], [-72.35975239099997, 11.142805228999975], [-72.35996826399997, 11.142374225000026], [-72.36033815599995, 11.142135618999987], [-72.36073577199988, 11.141879130000177], [-72.36095348299995, 11.141738692000104], [-72.36111091199996, 11.141691895000065], [-72.36252062999995, 11.141272845], [-72.36385478799997, 11.140693206000094], [-72.36507196199994, 11.139941891000035], [-72.36522341999995, 11.13982579900005], [-72.36582494499999, 11.139364731000057], [-72.36687104099991, 11.139360244000159], [-72.36758840099998, 11.139435835000086], [-72.36791764499992, 11.139470529000107], [-72.36861479199996, 11.139410145000113], [-72.36899087099994, 11.13916020900001], [-72.36948400199987, 11.138832483000101], [-72.37017962099986, 11.138427736000097], [-72.37087261199991, 11.138348676000135], [-72.37122520499997, 11.138308451000057], [-72.37152065099997, 11.138219532999983], [-72.37212051199998, 11.13803899800007], [-72.3723860099999, 11.13795909300012], [-72.37244128899994, 11.137890241000093], [-72.3729044719999, 11.137313326000083], [-72.37307958899999, 11.137095210000155], [-72.37371581199989, 11.136403761000054], [-72.37447055499996, 11.136228329000062], [-72.37451019799988, 11.136228158000165], [-72.37489603599994, 11.136226491000116], [-72.37557474999994, 11.136223558000154], [-72.37679593799999, 11.136390457000175], [-72.37745904799988, 11.136190869000188], [-72.37795672299995, 11.136041075000037], [-72.37952405799996, 11.135632538000095], [-72.37956398899996, 11.135623255000098], [-72.38027878699995, 11.135457090000159], [-72.38058297099991, 11.13529014900007], [-72.38143828299997, 11.13482074100017], [-72.38259879099996, 11.13441395700005], [-72.38368068099999, 11.134290484000076], [-72.38405857599997, 11.13424735600006], [-72.38416713499998, 11.134234967000168], [-72.38556112299995, 11.134056725000164], [-72.38683887799988, 11.133878972000105], [-72.38759411899986, 11.13381829300016], [-72.38840618699999, 11.133470402000057], [-72.3900292809999, 11.132545038000046], [-72.39035421899996, 11.132451816000184], [-72.39206071299992, 11.131962237000096], [-72.39214984899996, 11.131924049000133], [-72.39215170699998, 11.131923253000025], [-72.39327879299998, 11.131440381000061], [-72.39420862099985, 11.131436302000168], [-72.39460966499996, 11.131398527000158], [-72.39484761999995, 11.131376113000044], [-72.3948835949999, 11.131366470000046], [-72.3965193439999, 11.130927998], [-72.39658897699996, 11.130909332000101], [-72.39716882099998, 11.130619830000114], [-72.39798138399988, 11.130386692000172], [-72.39914210299992, 11.13003723900016], [-72.39995492599996, 11.12986148400006], [-72.40134732399997, 11.129338836000159], [-72.40256484799988, 11.128702154000052], [-72.40306415999999, 11.128511778000131], [-72.40378315299995, 11.128237641999988], [-72.40433018199991, 11.128009711000061], [-72.40517528099997, 11.127657583000087], [-72.40559472399991, 11.127385689000107], [-72.4063341619999, 11.126906366000185], [-72.40661645599994, 11.1268003940001], [-72.40726239999998, 11.126557909000041], [-72.40790085899994, 11.126382909000085], [-72.40865711099991, 11.126551739000035], [-72.40918169499997, 11.126893763999988], [-72.4102845299999, 11.126601919000109], [-72.41092220799993, 11.126254738000057], [-72.41179337499989, 11.126136096000039], [-72.41245449299998, 11.12599700800007], [-72.41318677099997, 11.125842950000106], [-72.41405819799996, 11.125781684], [-72.4155688699999, 11.125717570000063], [-72.41611762699984, 11.125715127000092], [-72.4165608969999, 11.125713154000039], [-72.41684734199998, 11.125711879], [-72.41700993499995, 11.125785111000027], [-72.41748217699995, 11.125997810000115], [-72.41760437999994, 11.126052851000168], [-72.41853444199995, 11.126106093000146], [-72.42015975499999, 11.125697102000117], [-72.42091520999986, 11.125693721000118], [-72.42225232599998, 11.125802524000164], [-72.42329834099996, 11.125797848000104], [-72.42336730099998, 11.125768295000057], [-72.42451633199994, 11.125275870999985], [-72.42503538699998, 11.124412678000056], [-72.42502958299991, 11.12315008700017], [-72.42502510199989, 11.12217445500005], [-72.42541645799997, 11.121895727000094], [-72.42542116899989, 11.121892372000104], [-72.42543056299996, 11.121885681000151], [-72.42543469599997, 11.121885348000035], [-72.42544373399983, 11.12188462100005], [-72.42618575199992, 11.12182491100009], [-72.42700010199991, 11.12199342800011], [-72.42828093799994, 11.122504199000161], [-72.42932641199991, 11.122384717000045], [-72.43106552599994, 11.121458630000063], [-72.43216671399989, 11.120822375000103], [-72.43291871499997, 11.120072902000175], [-72.43459756799996, 11.118687939000097], [-72.43483404799997, 11.11847704500002], [-72.4356971499999, 11.117707329000098], [-72.43679618999988, 11.116611934000161], [-72.43718215499985, 11.115986128000088], [-72.43725762299994, 11.115863763000164], [-72.43789416899995, 11.115286981000054], [-72.4382307699999, 11.115285456000038], [-72.43876341199996, 11.115283042000158], [-72.43881447799998, 11.115282811000043], [-72.43882393399997, 11.115282768000156], [-72.43883256999999, 11.115291219000028], [-72.43888593999986, 11.115343448000033], [-72.43934931299992, 11.115796909000153], [-72.43958841799997, 11.11723060300011], [-72.44035105099994, 11.118776713000159], [-72.44105824199994, 11.120896969000057], [-72.44199309099992, 11.121983162000163], [-72.44246386299994, 11.123243621000086], [-72.44241135599998, 11.124449072000061], [-72.44259103699983, 11.1255960740001], [-72.44230528399999, 11.126630412000054], [-72.44230848899997, 11.127319088000036], [-72.44251391099993, 11.127368814000079], [-72.44277392299995, 11.127431755000032], [-72.44314846199995, 11.127535598000179], [-72.44358856199995, 11.127657618000171], [-72.44439945899995, 11.127080019000061], [-72.4445417089999, 11.126968591000093], [-72.44521008499999, 11.126445037999986], [-72.44660182599995, 11.125807394], [-72.44816762599999, 11.125111576000165], [-72.44892199499998, 11.124878572000057], [-72.45002235999988, 11.124070078000159], [-72.45088511199998, 11.123260694000123], [-72.45180017699982, 11.122402234000162], [-72.45198953499994, 11.122224589000155], [-72.45343854499993, 11.121414491000053], [-72.45396220099991, 11.121060048000118], [-72.45429640199995, 11.120833840000103], [-72.45506051599995, 11.120316640000112], [-72.45564898999993, 11.11991502899997], [-72.45578981699998, 11.119818920000114], [-72.45616111399994, 11.119565524000109], [-72.45686163199991, 11.118587393000098], [-72.45731576299994, 11.117953290000116], [-72.45800875899988, 11.117031860000111], [-72.45854478299992, 11.116330313000049], [-72.45856959999992, 11.116297830000121], [-72.45884995599994, 11.115930898000101], [-72.45893284699997, 11.115822412000057], [-72.45909636599998, 11.115454452000165], [-72.45926265799989, 11.115080250000062], [-72.45939285699984, 11.11478726700011], [-72.45949398699986, 11.114627486000131], [-72.45958542199998, 11.114483022000059], [-72.45975365899994, 11.114217216999975], [-72.45982729299999, 11.114100878000045], [-72.46048599699998, 11.113907251000114], [-72.4608667089999, 11.113764484000114], [-72.46131880699994, 11.113550332000159], [-72.46181849499999, 11.113526539000077], [-72.46244905299994, 11.113526539000077], [-72.46298443099982, 11.113740691000032], [-72.46341273399997, 11.113716894999982], [-72.46393621499988, 11.113645513000108], [-72.46457866999992, 11.113383771000144], [-72.46486420499991, 11.113074439000115], [-72.46517353199994, 11.112788906000048], [-72.46582995099999, 11.112002894], [-72.46586923599995, 11.111976766000168], [-72.46687264299999, 11.111309404], [-72.46756831599993, 11.110961846], [-72.46884234099991, 11.110037713000054], [-72.46907423499994, 11.109877568], [-72.46920322599993, 11.109788486000127], [-72.46992281799999, 11.10929153100011], [-72.46995221399999, 11.109271230000104], [-72.46995503799997, 11.109269279000046], [-72.47105755299998, 11.108507876000033], [-72.47110120999986, 11.108477725000114], [-72.47277951299998, 11.107035193000115], [-72.47338814499989, 11.106428415000039], [-72.47376270099988, 11.106054998000104], [-72.4739692469999, 11.105893800000104], [-72.47457800299992, 11.105418704000044], [-72.47509425699991, 11.105015799], [-72.47535348199995, 11.104786057000183], [-72.47561502899993, 11.104554262000136], [-72.47698263499996, 11.103121356000031], [-72.47767618699993, 11.102404487000115], [-72.47791766399996, 11.10221918700006], [-72.47795154499988, 11.102193188000172], [-72.47803836799989, 11.10212656300007], [-72.4781739519999, 11.102022520000048], [-72.47834547399998, 11.101942492000035], [-72.47849256199999, 11.10187386500013], [-72.47925587399999, 11.101517723000143], [-72.48073468099994, 11.100868268000113], [-72.48075154199995, 11.100861038000062], [-72.48224962699999, 11.10021864100014], [-72.48309461499991, 11.09989502100018], [-72.48347627699997, 11.09974884900015], [-72.48470206299987, 11.099100562000046], [-72.48560187899989, 11.098311005000028], [-72.4857502449999, 11.098103783999989], [-72.48614042599996, 11.097558828000047], [-72.48644374999992, 11.097198736999985], [-72.48689514699998, 11.096662859000048], [-72.48761303699996, 11.095624262], [-72.48840354399988, 11.09465671400011], [-72.48879613499997, 11.09361964500016], [-72.48879947599994, 11.093611280000118], [-72.48900384799998, 11.093099623000114], [-72.48908184999988, 11.092904342000054], [-72.48909080499999, 11.09286085399998], [-72.48925843799992, 11.092046767000056], [-72.48928136699993, 11.091758534000121], [-72.48932661699996, 11.091189703], [-72.48971886699991, 11.090081235000127], [-72.48973559899997, 11.090060194999978], [-72.49054515599988, 11.089042118000066], [-72.49270747199995, 11.08774685200018], [-72.49433125699989, 11.087203768000165], [-72.4955218579999, 11.08676980100006], [-72.49621899399995, 11.086572043000047], [-72.49692947299985, 11.086370499000054], [-72.49764988599986, 11.0858673460001], [-72.49812561099998, 11.085253238000064], [-72.49826049499995, 11.08507911900017], [-72.4982525509999, 11.084986596000022], [-72.49823989599992, 11.084839194000097], [-72.49822877699995, 11.084709705000137], [-72.49818390299998, 11.084187029000077], [-72.49797106799997, 11.083566241000028], [-72.49778067199992, 11.0830108990001], [-72.49761237699994, 11.08284624900017], [-72.49698177699992, 11.082229311000106], [-72.49681157499987, 11.082071333000158], [-72.49617273799993, 11.08147837200005], [-72.49596119799992, 11.081282025000064], [-72.49595088299998, 11.08127244800005], [-72.49593093199991, 11.081253931000049], [-72.49586640799998, 11.081194039000025], [-72.49556593799991, 11.080915148000145], [-72.49550570899999, 11.080881272], [-72.49439136399997, 11.080254508], [-72.49437002899998, 11.080242508000083], [-72.49408265699992, 11.080139959000064], [-72.49408261799994, 11.080139946000145], [-72.49333099899991, 11.079871728000171], [-72.4932839299999, 11.079854931000114], [-72.49291264399994, 11.079765098000053], [-72.49256424999999, 11.079680804000134], [-72.49243972299996, 11.079650675000039], [-72.49237452499989, 11.07963490100019], [-72.49212605199995, 11.079574784000101], [-72.49137472299998, 11.079288436000013], [-72.49129328099997, 11.079257397000049], [-72.49126405699997, 11.079218099000173], [-72.49057813699994, 11.078295754000123], [-72.49042026199993, 11.078083462000166], [-72.49031633999988, 11.077792790000103], [-72.49012720499996, 11.077263776], [-72.4900860059999, 11.07601274800004], [-72.49008488999993, 11.075978851], [-72.49007381599989, 11.075938304000147], [-72.48981353299985, 11.074985303000062], [-72.48975382099997, 11.07476667400016], [-72.48960617699998, 11.074484388000087], [-72.48887842099992, 11.073092961000157], [-72.48858537299992, 11.072273284000119], [-72.48846290099993, 11.071863847000088], [-72.48825481599994, 11.071168193000062], [-72.4882534489999, 11.071165818000111], [-72.48814841799992, 11.070983407000028], [-72.48761497899994, 11.070056963000127], [-72.48759883399993, 11.070028923000109], [-72.48704957699994, 11.068532169000093], [-72.48650761099998, 11.067334099000107], [-72.48650364699989, 11.06732533600018], [-72.4865016849999, 11.06732099900006], [-72.48649817399996, 11.067296435000173], [-72.48649517099989, 11.067275423000012], [-72.48627734899992, 11.065751326000111], [-72.48612204399996, 11.064259131000028], [-72.48608795699988, 11.063931617000094], [-72.48579527499999, 11.06309782600016], [-72.48572479999996, 11.062897058000033], [-72.48557502799997, 11.062470390000101], [-72.48528825999995, 11.062105718000112], [-72.48517559199996, 11.061962443000084], [-72.48484782199995, 11.061545631000058], [-72.48405283899996, 11.061144993000141], [-72.48372480899991, 11.06097968], [-72.48271225999997, 11.060841600000174], [-72.48202443699984, 11.060594918000163], [-72.48165468799988, 11.06017283400007], [-72.48164867899999, 11.060165975000132], [-72.48158840399998, 11.060097168000027], [-72.48152860899995, 11.059560295000097], [-72.48151289999998, 11.059419253000158], [-72.48187019599993, 11.058560844999988], [-72.48196182099997, 11.058478849000153], [-72.48327363399989, 11.057304891000172], [-72.48334264199991, 11.05725540800006], [-72.479951, 11.056889000000126], [-72.478985, 11.057264], [-72.47769545599994, 11.057640509000066], [-72.4771002739999, 11.057814285000063], [-72.46909698799993, 11.060151010000027], [-72.46444468199985, 11.061509347000083], [-72.4509714319999, 11.06544314200005], [-72.44922292299992, 11.065953655999976], [-72.36388099999988, 11.090871], [-72.364721, 11.088145], [-72.362899, 11.086969000000124], [-72.360543, 11.087850000000174], [-72.356781, 11.088447], [-72.354534, 11.088737], [-72.354189, 11.08901800000018], [-72.352314, 11.0895900000001], [-72.349858, 11.08942900000011], [-72.348631, 11.089428000000169], [-72.345899, 11.089082000000133], [-72.343352, 11.088921000000141], [-72.34226399999989, 11.08892], [-72.340319, 11.088873], [-72.338096, 11.087817], [-72.33564199999984, 11.087104], [-72.334045, 11.086484000000155], [-72.331961, 11.08577200000019], [-72.329553, 11.085633], [-72.326241, 11.085104000000172], [-72.32388, 11.084391000000153], [-72.322491, 11.083771000000183], [-72.32198199999988, 11.083633000000134], [-72.31864699999983, 11.08379200000013], [-72.317142, 11.084204000000113], [-72.31415499999986, 11.085005000000137], [-72.312882, 11.084912], [-72.31202499999984, 11.083719000000144], [-72.310382, 11.08208900000011], [-72.308091, 11.080757], [-72.305637, 11.080045], [-72.302928, 11.07908], [-72.300358, 11.077954], [-72.29809, 11.077150000000188], [-72.295775, 11.076506], [-72.292927, 11.076711000000103], [-72.291445, 11.077375000000131], [-72.290565, 11.077627], [-72.289431, 11.076181000000133], [-72.288829, 11.075469], [-72.287765, 11.074964], [-72.286283, 11.07537600000012], [-72.284384, 11.075443000000178], [-72.282695, 11.07402], [-72.280564, 11.073560000000157], [-72.2799619999999, 11.073146000000179], [-72.27792499999987, 11.073443], [-72.275725, 11.073946000000149], [-72.274567, 11.075092], [-72.273386, 11.075252], [-72.27144, 11.076443000000154], [-72.270652, 11.077498], [-72.26891499999982, 11.079217000000142], [-72.26683, 11.081050000000118], [-72.265649, 11.080797000000132], [-72.265534, 11.079260000000147], [-72.265211, 11.077448000000174], [-72.26458799999983, 11.075406000000157], [-72.264126, 11.07380000000012], [-72.263571, 11.072423], [-72.262276, 11.070862], [-72.260378, 11.070219000000122], [-72.25801699999988, 11.069598], [-72.25630199999989, 11.070628], [-72.255374, 11.07338], [-72.253706, 11.074801], [-72.252293, 11.075052000000142], [-72.251414, 11.073698], [-72.250489, 11.072459], [-72.249518, 11.070829000000174], [-72.24972799999989, 11.068926], [-72.250169, 11.067229000000168], [-72.250332, 11.065440000000137], [-72.250171, 11.064545000000123], [-72.247694, 11.064429000000132], [-72.245842, 11.063968], [-72.24524, 11.063372], [-72.243598, 11.062269000000128], [-72.242464, 11.061213000000123], [-72.241145, 11.060318000000166], [-72.239873, 11.059193000000164], [-72.238947, 11.058091000000104], [-72.236841, 11.057745], [-72.23651499999983, 11.060016], [-72.23655999999988, 11.061575], [-72.23642, 11.063616], [-72.236534, 11.065222], [-72.2365329999999, 11.066552000000115], [-72.236786, 11.068319000000145], [-72.236392, 11.070107000000121], [-72.235788, 11.07185], [-72.234607, 11.072835], [-72.231597, 11.072076], [-72.229259, 11.071431], [-72.2278, 11.072095000000104], [-72.225784, 11.073516], [-72.223931, 11.074707], [-72.222312, 11.073696], [-72.2209, 11.07264], [-72.219373, 11.071583], [-72.218356, 11.069954], [-72.218358, 11.067614], [-72.218429, 11.065940000000126], [-72.219611, 11.064381], [-72.22049099999987, 11.06344200000018], [-72.220446, 11.061745], [-72.220587, 11.059795], [-72.220634, 11.058236], [-72.220381, 11.0565840000001], [-72.21910899999989, 11.055597], [-72.21843799999982, 11.054656000000136], [-72.217003, 11.053920000000176], [-72.215476, 11.053621], [-72.214341, 11.054308000000105], [-72.21436299999988, 11.055569000000162], [-72.214593, 11.057106000000147], [-72.215309, 11.058873000000176], [-72.214475, 11.05979], [-72.213848, 11.061624], [-72.21273599999984, 11.063114], [-72.21074399999986, 11.064052], [-72.207179, 11.06352100000015], [-72.20382199999983, 11.063403000000164], [-72.20282499999985, 11.064733], [-72.20219899999984, 11.066498], [-72.201781, 11.067117000000167], [-72.200994, 11.067575], [-72.1997439999999, 11.067482000000155], [-72.198656, 11.067412], [-72.19759, 11.06848900000017], [-72.197265, 11.069658], [-72.197749, 11.071173], [-72.198234, 11.072916], [-72.199436, 11.07528], [-72.199803, 11.07830900000016], [-72.199963, 11.080648], [-72.200194, 11.081933000000163], [-72.200193, 11.082002], [-72.201397, 11.082095], [-72.202301, 11.081752000000108], [-72.203412, 11.080996], [-72.204617, 11.080355000000168], [-72.20524199999988, 11.080172000000118], [-72.205658, 11.081755], [-72.205819, 11.083888000000115], [-72.20584, 11.085677000000146], [-72.20544499999983, 11.087718000000109], [-72.203683, 11.088542], [-72.202039, 11.089068], [-72.20074199999988, 11.089617], [-72.199237, 11.090326], [-72.19833299999988, 11.091243], [-72.19724399999984, 11.091471000000126], [-72.1956239999999, 11.09147], [-72.194328, 11.091078], [-72.192754, 11.090618], [-72.191759, 11.089723], [-72.191135, 11.08869], [-72.19014, 11.087450000000104], [-72.189424, 11.086280000000102], [-72.188383, 11.08485700000017], [-72.18769, 11.083939], [-72.18650899999989, 11.083502000000124], [-72.18521299999986, 11.083523], [-72.183614, 11.084531], [-72.183404, 11.086663], [-72.18296199999986, 11.088911], [-72.18289, 11.091135], [-72.18200899999988, 11.092969], [-72.18166, 11.093955000000108], [-72.179136, 11.093907], [-72.177446, 11.093996000000118], [-72.17533999999989, 11.093031], [-72.17378999999983, 11.091332], [-72.173328, 11.090460000000121], [-72.17450999999988, 11.089567000000159], [-72.176687, 11.088583], [-72.17773, 11.087254], [-72.17801, 11.085832], [-72.17766299999982, 11.085190000000182], [-72.175856, 11.085899], [-72.17486, 11.086242], [-72.1725, 11.08539], [-72.170163, 11.083989], [-72.16847399999989, 11.082634], [-72.166854, 11.082036000000187], [-72.166068, 11.081163], [-72.166023, 11.079764000000125], [-72.166256, 11.078526000000181], [-72.167855, 11.07706], [-72.169199, 11.07621300000011], [-72.170311, 11.074700000000178], [-72.171031, 11.072499000000107], [-72.171704, 11.071445000000153], [-72.170918, 11.06997600000011], [-72.166777, 11.067632000000117], [-72.164417, 11.066046], [-72.16282, 11.065632], [-72.16142999999988, 11.066915000000108], [-72.16138299999989, 11.067535], [-72.163118, 11.068821], [-72.164435, 11.070956], [-72.16480299999989, 11.073272000000145], [-72.16496199999983, 11.075795], [-72.16433599999982, 11.077056], [-72.16343299999988, 11.077262], [-72.161744, 11.076113], [-72.159708, 11.074849], [-72.15827399999989, 11.073793], [-72.157372, 11.071957], [-72.155916, 11.069868], [-72.153833, 11.069568], [-72.1523509999999, 11.069451000000186], [-72.150542, 11.072431], [-72.14892, 11.074585], [-72.14864099999988, 11.075639], [-72.14947199999989, 11.077154000000178], [-72.150443, 11.07910500000014], [-72.15021, 11.07976900000017], [-72.148451, 11.079974000000107], [-72.14609, 11.07965], [-72.144632, 11.079350000000147], [-72.1444479999999, 11.077538000000118], [-72.144775, 11.075635], [-72.144847, 11.073342], [-72.144617, 11.071713000000102], [-72.143274, 11.071528], [-72.141396, 11.074278], [-72.139796, 11.076707000000113], [-72.138915, 11.07799], [-72.137686, 11.079342], [-72.137152, 11.081199], [-72.1372429999999, 11.08269], [-72.139302, 11.083495], [-72.142451, 11.083682000000124], [-72.143514, 11.08483], [-72.144091, 11.086826], [-72.143834, 11.088317], [-72.142214, 11.088521], [-72.13867, 11.089641], [-72.13686499999989, 11.089386000000104], [-72.13452799999988, 11.088351], [-72.133048, 11.086630000000127], [-72.13172999999989, 11.085504], [-72.133074, 11.083877], [-72.13402599999989, 11.081608], [-72.132871, 11.079703], [-72.13169099999988, 11.077936], [-72.13007199999987, 11.076695], [-72.127342, 11.075316000000157], [-72.125839, 11.073869000000172], [-72.125331, 11.073066000000154], [-72.12440299999986, 11.07423400000016], [-72.123592, 11.075334], [-72.121786, 11.075745], [-72.120675, 11.075399], [-72.119565, 11.074228000000176], [-72.11827, 11.07305700000012], [-72.117159, 11.07262], [-72.11664799999983, 11.073973], [-72.116413, 11.076977000000113], [-72.115417, 11.077549], [-72.114075, 11.07704200000012], [-72.11169399999983, 11.074654], [-72.110538, 11.072772000000157], [-72.108964, 11.071784], [-72.105932, 11.07159700000011], [-72.10431, 11.073223000000155], [-72.1025, 11.076202], [-72.101527, 11.076889000000108], [-72.09956, 11.076244], [-72.097942, 11.074315000000126], [-72.097272, 11.073351000000116], [-72.095231, 11.076376], [-72.09587599999986, 11.079152], [-72.095572, 11.081582], [-72.09499199999988, 11.082361], [-72.092632, 11.081716000000142], [-72.091662, 11.079972000000112], [-72.09041299999984, 11.07919], [-72.088977, 11.079188], [-72.087099, 11.081617000000108], [-72.085315, 11.08310500000016], [-72.08397, 11.084456], [-72.08362199999988, 11.085488000000169], [-72.08375799999988, 11.087346], [-72.082785, 11.087597], [-72.08130299999988, 11.087251], [-72.079846, 11.086424000000136], [-72.07859699999989, 11.085894000000167], [-72.07704399999989, 11.086718000000133], [-72.07482, 11.088022], [-72.07312999999988, 11.088639000000114], [-72.071835, 11.08749], [-72.07197599999989, 11.086], [-72.073622, 11.084350000000143], [-72.075546, 11.081899], [-72.076497, 11.080547], [-72.076107, 11.07807], [-72.075276, 11.076142000000118], [-72.074908, 11.074284], [-72.076023, 11.071396000000163], [-72.076326, 11.070204000000103], [-72.074426, 11.071027000000186], [-72.073895, 11.070636], [-72.07470699999982, 11.069284], [-72.076423, 11.066626], [-72.07684099999989, 11.065366], [-72.076449, 11.064585], [-72.074619, 11.065523], [-72.07283399999983, 11.067310000000134], [-72.071745, 11.068569], [-72.069801, 11.06778700000018], [-72.068576, 11.066799000000117], [-72.06829999999985, 11.06523900000019], [-72.068372, 11.063473000000101], [-72.06872199999987, 11.06111200000015], [-72.06773, 11.058932], [-72.066064, 11.058517], [-72.064536, 11.05840000000012], [-72.06284699999986, 11.058099], [-72.061571, 11.059428], [-72.060668, 11.059816], [-72.05909499999984, 11.058507], [-72.058797, 11.057084], [-72.058567, 11.055892], [-72.059263, 11.054838], [-72.059334, 11.05343900000014], [-72.056927, 11.052931], [-72.054613, 11.052538], [-72.053341, 11.05171], [-72.052927, 11.050402], [-72.053253, 11.048522000000105], [-72.0527699999999, 11.046595], [-72.05166, 11.045493000000135], [-72.049415, 11.045926], [-72.047655, 11.046542], [-72.046405, 11.046311000000117], [-72.045503, 11.046126], [-72.044483, 11.0468130000001], [-72.04313799999983, 11.048462], [-72.041239, 11.049445000000105], [-72.040106, 11.048893], [-72.03839099999988, 11.049601], [-72.035844, 11.0504], [-72.034522, 11.051866000000189], [-72.03269499999988, 11.050831000000187], [-72.03156299999984, 11.0491320000001], [-72.031635, 11.047734000000105], [-72.03077999999988, 11.047044], [-72.029483, 11.047639], [-72.027884, 11.048485], [-72.02765499999987, 11.046673], [-72.027795, 11.045893], [-72.027636, 11.044196000000113], [-72.027555, 11.044047], [-72.026165, 11.043994], [-72.024419, 11.04532], [-72.022809, 11.046323], [-72.0217889999999, 11.04619700000012], [-72.019808, 11.044869000000176], [-72.018935, 11.040984], [-72.02045099999987, 11.037646000000109], [-72.019217, 11.036904], [-72.016991, 11.036700000000167], [-72.013235, 11.036125], [-72.011143, 11.035232], [-72.009858, 11.034101], [-72.00858299999987, 11.033910000000105], [-72.008425, 11.034370000000138], [-72.008299, 11.03558500000014], [-72.00778299999985, 11.037149], [-72.00653899999986, 11.037827000000163], [-72.005395, 11.039054], [-72.00536, 11.0402], [-72.007841, 11.042829000000154], [-72.00786999999985, 11.043447000000128], [-72.00736499999988, 11.043865], [-72.005885, 11.043950000000166], [-72.004009, 11.043926000000113], [-72.002568, 11.043324], [-72.001602, 11.04324], [-72.001045, 11.044353000000115], [-72.0010079999999, 11.04614], [-72.000394, 11.046610000000157], [-71.999143, 11.046425000000113], [-71.997563, 11.046394], [-71.99721099999988, 11.047671], [-71.997139, 11.048908], [-71.997365, 11.050356000000136], [-71.99716999999987, 11.051911000000189], [-71.99617199999989, 11.052969000000132], [-71.995805, 11.053856], [-71.996548, 11.05504], [-71.997899, 11.05598300000014], [-71.999159, 11.056855000000155], [-71.9998379999999, 11.05774], [-71.99931, 11.058555000000126], [-71.99837199999985, 11.058949], [-71.99765799999983, 11.059783000000152], [-71.998073, 11.061075], [-71.998906, 11.062375], [-71.998959, 11.063201000000163], [-71.997946, 11.063847000000123], [-71.996655, 11.065564000000109], [-71.995423, 11.06673300000017], [-71.99359, 11.067706], [-71.992234, 11.068115000000148], [-71.991143, 11.069171], [-71.990639, 11.069941], [-71.99025199999988, 11.070690000000184], [-71.991247, 11.071993000000191], [-71.992803, 11.07316900000012], [-71.994103, 11.074363000000176], [-71.99468, 11.075704], [-71.993765, 11.07722200000012], [-71.992771, 11.078097], [-71.991694, 11.079589], [-71.99204999999989, 11.081499000000122], [-71.992195, 11.083496], [-71.990911, 11.084869], [-71.988576, 11.085397], [-71.9876799999999, 11.086022], [-71.987359, 11.088078], [-71.986941, 11.089148], [-71.98496099999988, 11.08938400000011], [-71.98271199999988, 11.090212], [-71.98103, 11.090615000000184], [-71.97950399999985, 11.091342000000111], [-71.978599, 11.092402], [-71.977356, 11.091804000000138], [-71.977206, 11.090082000000109], [-71.976856, 11.089021], [-71.975827, 11.089345], [-71.97449, 11.091061000000138], [-71.97338999999988, 11.092507], [-71.972364, 11.093793], [-71.970946, 11.093812000000185], [-71.969291, 11.095178], [-71.967253, 11.095918], [-71.96634799999987, 11.097001], [-71.96530999999987, 11.097715000000164], [-71.964203, 11.097303000000181], [-71.962988, 11.096477], [-71.96101599999986, 11.096324], [-71.959502, 11.096478000000161], [-71.958718, 11.096165], [-71.958917, 11.09445], [-71.95893199999989, 11.092569], [-71.958402, 11.091206], [-71.95751299999989, 11.090387000000135], [-71.956878, 11.089618], [-71.956374, 11.088141000000121], [-71.95609799999988, 11.086875000000134], [-71.955346, 11.086172], [-71.953795, 11.08699], [-71.95224, 11.086845000000153], [-71.951513, 11.086075], [-71.951207, 11.085152], [-71.95035499999989, 11.084768], [-71.949364, 11.084359000000177], [-71.94864899999988, 11.08407], [-71.94835299999988, 11.082689000000187], [-71.9478529999999, 11.081029000000171], [-71.94639999999987, 11.079373], [-71.945321, 11.078687000000173], [-71.944094, 11.079603000000134], [-71.943052, 11.080545], [-71.941704, 11.080519], [-71.94038, 11.080493], [-71.9393189999999, 11.080105], [-71.938415, 11.079973000000166], [-71.937289, 11.080455], [-71.93594699999989, 11.081254000000115], [-71.934965, 11.081533], [-71.933298, 11.081202], [-71.93261299999989, 11.080639], [-71.932022, 11.081132000000139], [-71.93164799999988, 11.082339], [-71.930713, 11.082596000000137], [-71.929962, 11.082478000000151], [-71.92964499999982, 11.084686], [-71.932241, 11.182089], [-71.928417, 11.183768]]]}}]}