{"type": "FeatureCollection", "features": [{"type": "Feature", "properties": {"Pais": "Venezuela", "Estado": "Lara", "Municipio": "Iribarren"}, "geometry": {"type": "Polygon", "coordinates": [[[-69.268902, 10.482779000000164], [-69.268336, 10.484087], [-69.26970699999987, 10.484669], [-69.27068, 10.485593000000108], [-69.44336, 10.523588], [-69.448746, 10.519424000000129], [-69.456088, 10.507281], [-69.469309, 10.496031], [-69.475425, 10.483178000000123], [-69.475552, 10.482713], [-69.476709, 10.483242], [-69.47807499999988, 10.482354000000157], [-69.480424, 10.483180000000118], [-69.480758, 10.485772000000168], [-69.481106, 10.487904000000185], [-69.4823679999999, 10.488061], [-69.48502, 10.486787000000106], [-69.485845, 10.485045], [-69.48660699999988, 10.48254500000013], [-69.488007, 10.480423], [-69.48899099999988, 10.47962], [-69.490507, 10.479658], [-69.491547, 10.480372000000102], [-69.492936, 10.481056], [-69.493371, 10.479598], [-69.493708, 10.477912000000174], [-69.49394599999988, 10.475952000000177], [-69.494557, 10.474957], [-69.49477199999984, 10.474988000000167], [-69.495263, 10.474934000000133], [-69.496349, 10.476109000000179], [-69.497055, 10.477543], [-69.497908, 10.478215], [-69.49952799999988, 10.477699000000143], [-69.50189899999987, 10.475077], [-69.504677, 10.475683000000117], [-69.504993, 10.474776], [-69.506759, 10.474741000000165], [-69.507789, 10.473918], [-69.507791, 10.471785000000182], [-69.50848599999989, 10.47053300000016], [-69.50976999999989, 10.469682], [-69.510405, 10.467789000000153], [-69.511195, 10.466627], [-69.51298, 10.465283], [-69.514125, 10.464412000000152], [-69.515127, 10.463429000000133], [-69.516355, 10.464345], [-69.517377, 10.465403], [-69.519039, 10.465966], [-69.520134, 10.466059], [-69.520293, 10.463648000000148], [-69.521287, 10.463353], [-69.522186, 10.464138], [-69.522992, 10.464855], [-69.524244, 10.464716], [-69.524408, 10.463658000000123], [-69.52429599999982, 10.462743], [-69.52514699999989, 10.46229], [-69.525761, 10.462737000000118], [-69.52684699999986, 10.463541], [-69.528528, 10.463805], [-69.530317, 10.462646], [-69.530666, 10.46153800000019], [-69.530699, 10.459795], [-69.530821, 10.458944000000145], [-69.531733, 10.459201000000121], [-69.5331359999999, 10.46071], [-69.53409499999987, 10.462112000000104], [-69.537372, 10.462047], [-69.539354, 10.46122800000012], [-69.540556, 10.459782], [-69.541658, 10.459072000000106], [-69.54205, 10.45895000000013], [-69.542035, 10.458193], [-69.541253, 10.457521], [-69.541445, 10.456692000000146], [-69.542603, 10.4564850000001], [-69.544025, 10.455539000000158], [-69.545312, 10.453702], [-69.544993, 10.451759], [-69.545202, 10.449530000000152], [-69.545952, 10.448713], [-69.547145, 10.447932], [-69.5481, 10.446904000000131], [-69.549156, 10.446287], [-69.550817, 10.446804], [-69.551935, 10.44575], [-69.55324399999984, 10.445013000000188], [-69.554452, 10.444943], [-69.555625, 10.444300000000169], [-69.557232, 10.442204000000118], [-69.558425, 10.440323], [-69.559639, 10.437271000000123], [-69.560659, 10.436011000000178], [-69.561353, 10.434713], [-69.562146, 10.43371100000013], [-69.563362, 10.432976], [-69.564588, 10.43380000000019], [-69.565802, 10.43515200000013], [-69.566807, 10.436531], [-69.567473, 10.437228000000118], [-69.56840199999982, 10.438311], [-69.56916699999988, 10.440369000000146], [-69.571469, 10.441856], [-69.57460999999984, 10.442019], [-69.57715599999989, 10.441224], [-69.579664, 10.440889], [-69.58191099999988, 10.441825], [-69.584214, 10.441862], [-69.586924, 10.442721], [-69.590599, 10.442716000000189], [-69.59305, 10.441929], [-69.594384, 10.440892], [-69.593555, 10.438395], [-69.59311, 10.436698], [-69.591616, 10.434786], [-69.591299, 10.432328], [-69.593982, 10.431347], [-69.597169, 10.431418000000122], [-69.60027899999989, 10.432594], [-69.6026159999999, 10.433321], [-69.604717, 10.432256000000166], [-69.606044, 10.430834000000118], [-69.6072779999999, 10.430955000000154], [-69.60975899999983, 10.430483], [-69.611459, 10.430620000000147], [-69.6143, 10.429384], [-69.615123, 10.428498000000104], [-69.6158999999999, 10.426117], [-69.616694, 10.423321], [-69.616275, 10.421785000000114], [-69.616701, 10.419225], [-69.6156519999999, 10.417606], [-69.615788, 10.415832000000137], [-69.617568, 10.413644000000147], [-69.619999, 10.411470000000179], [-69.622203, 10.40966600000013], [-69.624927, 10.408362], [-69.626672, 10.406934], [-69.62775099999982, 10.404549], [-69.622912, 10.397704], [-69.61898, 10.391520000000128], [-69.619425, 10.39277200000015], [-69.618458, 10.393205], [-69.617089, 10.3922], [-69.614953, 10.391234], [-69.612652, 10.391221], [-69.612549, 10.390861000000143], [-69.612762, 10.39068], [-69.613573, 10.389725000000112], [-69.614279, 10.389046], [-69.613902, 10.388778], [-69.612554, 10.38878300000016], [-69.611611, 10.388159], [-69.611486, 10.386625], [-69.611916, 10.383865000000185], [-69.61222, 10.382849000000135], [-69.612285, 10.381518000000142], [-69.612045, 10.380055], [-69.61133, 10.378166], [-69.610081, 10.377342000000112], [-69.609243, 10.376167], [-69.608576, 10.3754], [-69.607676, 10.374616000000174], [-69.606628, 10.373398000000122], [-69.606645, 10.371999000000187], [-69.607286, 10.371550000000127], [-69.607254, 10.370015], [-69.60723, 10.367745], [-69.6084019999999, 10.367101000000105], [-69.60955799999988, 10.366848000000118], [-69.610944, 10.366431], [-69.611638, 10.365178000000128], [-69.612093, 10.363587000000166], [-69.612509, 10.36236300000013], [-69.613708, 10.360802], [-69.614735, 10.358809], [-69.615574, 10.35665900000015], [-69.6144809999999, 10.35448], [-69.614215, 10.352857], [-69.614543, 10.351910000000146], [-69.61475, 10.350713], [-69.615077, 10.348551], [-69.614587, 10.346267], [-69.61395, 10.344675000000166], [-69.613218, 10.344162000000154], [-69.613062, 10.342262000000176], [-69.613932, 10.340547000000186], [-69.61522999999988, 10.340383000000145], [-69.616824, 10.339915000000133], [-69.617297, 10.339172000000133], [-69.617406, 10.336624000000143], [-69.61730199999988, 10.335021], [-69.61711, 10.333603], [-69.61739399999988, 10.332772], [-69.619603, 10.331672], [-69.620748, 10.32866700000011], [-69.62088999999986, 10.326941], [-69.623186, 10.324344000000167], [-69.627197, 10.319313], [-69.62842399999988, 10.316351000000168], [-69.63000099999982, 10.314903], [-69.63067099999984, 10.312699000000123], [-69.63207, 10.308908], [-69.634128, 10.30955], [-69.636474, 10.308606], [-69.636935, 10.306655], [-69.638953, 10.30438], [-69.641065, 10.302793000000122], [-69.64406, 10.301618], [-69.6471719999999, 10.300007], [-69.649679, 10.298075], [-69.652185, 10.296465], [-69.653762, 10.294373000000121], [-69.65366399999988, 10.29201], [-69.652184, 10.28363800000011], [-69.651971, 10.28155], [-69.651875, 10.279898000000117], [-69.652731, 10.277694000000167], [-69.654285, 10.276314], [-69.655722, 10.274018000000126], [-69.660494, 10.266483], [-69.660653, 10.264349], [-69.660719, 10.262422], [-69.660251, 10.260885], [-69.659412, 10.259785], [-69.65820199999985, 10.258571000000131], [-69.65849899999989, 10.255793000000153], [-69.659817, 10.252808], [-69.659606, 10.251546], [-69.65953, 10.251315], [-69.659162, 10.250193], [-69.659135, 10.248266000000115], [-69.65976, 10.246911000000125], [-69.662847, 10.245231], [-69.669351, 10.244463], [-69.67120499999987, 10.244617], [-69.6722529999999, 10.243334000000118], [-69.67452699999984, 10.241517], [-69.675917, 10.239312], [-69.67633099999989, 10.237246000000141], [-69.675374, 10.234884000000136], [-69.673419, 10.233144], [-69.665093, 10.229142], [-69.663768, 10.228823], [-69.66274499999986, 10.228619], [-69.662021, 10.226211000000148], [-69.661645, 10.224376], [-69.659594, 10.220822000000112], [-69.658103, 10.219035], [-69.657401, 10.216604000000189], [-69.657143, 10.215433000000132], [-69.65753399999988, 10.212909], [-69.658272, 10.210269], [-69.6600069999999, 10.20654900000011], [-69.661189, 10.20425200000011], [-69.66178899999989, 10.202255], [-69.6610409999999, 10.20003], [-69.659063, 10.1982900000001], [-69.65597, 10.19698700000015], [-69.654738, 10.196622000000104], [-69.65346099999988, 10.196945], [-69.651673, 10.197269000000176], [-69.650046, 10.196813000000134], [-69.648766, 10.195484000000135], [-69.647274, 10.19303100000019], [-69.644716, 10.191315000000145], [-69.641832, 10.18992], [-69.640065, 10.188959], [-69.637737, 10.186989000000153], [-69.63562, 10.184904000000131], [-69.634942, 10.182657000000177], [-69.634937, 10.180041], [-69.64074, 10.165047], [-69.641642, 10.162728], [-69.641057, 10.160503000000176], [-69.639707, 10.159060000000125], [-69.637614, 10.157641000000126], [-69.6358469999999, 10.156817], [-69.634452, 10.155764], [-69.63337899999988, 10.153517], [-69.63267999999988, 10.152141], [-69.63377, 10.151107], [-69.635602, 10.149705], [-69.638876, 10.148782], [-69.56503499999985, 10.101921], [-69.577711, 10.044921], [-69.522006, 10.019689], [-69.505954, 9.965447], [-69.509777, 9.919091], [-69.508787, 9.918096000000162], [-69.510878, 9.90574700000019], [-69.4907879999999, 9.890402], [-69.49203199999988, 9.890592], [-69.493666, 9.889908], [-69.495008, 9.888392], [-69.49565399999989, 9.886843000000113], [-69.497062, 9.886405000000138], [-69.49835599999989, 9.886084], [-69.49939499999988, 9.885791], [-69.501081, 9.88404], [-69.50231799999989, 9.883355], [-69.503098, 9.882385], [-69.503946, 9.881115000000136], [-69.505239, 9.880278000000146], [-69.505538, 9.87997700000011], [-69.506867, 9.878062000000114], [-69.507626, 9.877321000000109], [-69.508663, 9.87644], [-69.510118, 9.875578000000132], [-69.510147, 9.873651], [-69.510457, 9.87202], [-69.511005, 9.870983], [-69.51159799999988, 9.869854], [-69.511522, 9.869166000000178], [-69.511442, 9.867951000000176], [-69.511619, 9.867055000000107], [-69.51202399999988, 9.865583000000186], [-69.512339, 9.86447900000013], [-69.51338999999984, 9.862681], [-69.513291, 9.861948000000154], [-69.513023, 9.860597], [-69.51252299999987, 9.859202000000153], [-69.512458, 9.857161], [-69.512567, 9.856449000000111], [-69.512122, 9.855971000000181], [-69.511327, 9.855405], [-69.510369, 9.854702000000145], [-69.509386, 9.853770000000111], [-69.508905, 9.849461000000133], [-69.508479, 9.848525000000109], [-69.5081009999999, 9.847794], [-69.507301, 9.84667700000017], [-69.506993, 9.845923000000141], [-69.506452, 9.845216], [-69.50593499999985, 9.84451], [-69.50555899999989, 9.843963000000144], [-69.505161, 9.843622000000153], [-69.5042739999999, 9.8431250000001], [-69.50352199999986, 9.842100000000187], [-69.502959, 9.841394], [-69.502373, 9.840802], [-69.50188, 9.840188], [-69.501872, 9.839316], [-69.50209699999982, 9.838511], [-69.502552, 9.837567], [-69.502748, 9.836827], [-69.501589, 9.835036000000116], [-69.500186, 9.833161], [-69.499587, 9.832197], [-69.498337, 9.831212000000107], [-69.497226, 9.82964800000019], [-69.496328, 9.828718000000151], [-69.494546, 9.828262], [-69.492738, 9.827209], [-69.48973399999988, 9.826917], [-69.488308, 9.827183000000161], [-69.486809, 9.82683], [-69.48457799999989, 9.826714], [-69.482847, 9.825842], [-69.481896, 9.825305000000185], [-69.481336, 9.825213], [-69.48036999999988, 9.825391], [-69.479922, 9.826283000000103], [-69.478509, 9.826318000000185], [-69.476506, 9.825571], [-69.47448699999984, 9.824504], [-69.472876, 9.823695], [-69.472048, 9.822257], [-69.471309, 9.821252], [-69.470208, 9.820469000000116], [-69.4693769999999, 9.81949], [-69.46886499999988, 9.817832], [-69.468449, 9.815733], [-69.469707, 9.814278000000172], [-69.470833, 9.812967], [-69.47089, 9.811608], [-69.471759, 9.81079], [-69.47272, 9.810498], [-69.473725, 9.809629], [-69.474727, 9.808668000000125], [-69.475585, 9.808149000000185], [-69.47674599999988, 9.807642000000158], [-69.477757, 9.806382], [-69.479144, 9.80572700000016], [-69.480287, 9.804806000000156], [-69.481262, 9.804306], [-69.482994, 9.803085], [-69.484731, 9.802507], [-69.487108, 9.801720000000103], [-69.489429, 9.799647000000164], [-69.489993, 9.79875], [-69.49002899999988, 9.796908], [-69.490014, 9.796035], [-69.49003099999987, 9.79428600000017], [-69.48973899999987, 9.792917], [-69.489097, 9.789884], [-69.488287, 9.788836], [-69.48694799999987, 9.787902], [-69.485388, 9.787229000000139], [-69.484469, 9.786347], [-69.48324799999989, 9.785454000000186], [-69.482054, 9.784122], [-69.47603, 9.775558000000103], [-69.472428, 9.77542], [-69.46974699999987, 9.777187], [-69.466605, 9.777071], [-69.464227, 9.777405000000158], [-69.461767, 9.77696], [-69.457732, 9.776630000000182], [-69.45499599999988, 9.776243000000136], [-69.45258899999988, 9.77593400000012], [-69.450571, 9.774964000000182], [-69.445243, 9.774651], [-69.44353799999982, 9.774881], [-69.44235, 9.774745000000166], [-69.441351, 9.774165000000153], [-69.439666, 9.773796000000175], [-69.4383069999999, 9.773461000000168], [-69.436402, 9.772296], [-69.434942, 9.771803], [-69.432268, 9.771084000000144], [-69.431933, 9.771926000000178], [-69.43102, 9.77171], [-69.429423, 9.771775000000105], [-69.42759499999988, 9.771849], [-69.425169, 9.771511], [-69.422667, 9.769404], [-69.42176599999988, 9.767854], [-69.421095, 9.767904000000101], [-69.421048, 9.767883], [-69.419813, 9.767197], [-69.417916, 9.766745000000128], [-69.416249, 9.766790000000128], [-69.414728, 9.765931], [-69.412737, 9.765483000000131], [-69.412208, 9.765574], [-69.410132, 9.764209], [-69.40888799999988, 9.763316], [-69.408177, 9.762425], [-69.406871, 9.759557], [-69.406117, 9.758759000000168], [-69.405287, 9.758310000000108], [-69.405309, 9.757228000000111], [-69.405288, 9.756722], [-69.404733, 9.754077], [-69.403902, 9.752546000000166], [-69.403576, 9.751455000000135], [-69.40341, 9.750289000000123], [-69.403632, 9.7489920000001], [-69.40318799999989, 9.746755000000121], [-69.403047, 9.745634], [-69.40318799999989, 9.74408700000015], [-69.402166, 9.742426], [-69.400845, 9.740823], [-69.400055, 9.738623000000132], [-69.400374, 9.737966000000142], [-69.40093999999988, 9.736586000000159], [-69.400915, 9.735989000000131], [-69.400054, 9.734299000000135], [-69.399384, 9.733291], [-69.39897599999983, 9.7318810000001], [-69.397931, 9.730244], [-69.395906, 9.728969000000177], [-69.39448499999986, 9.728268], [-69.393812, 9.728801000000146], [-69.392363, 9.728009000000156], [-69.39143, 9.727863000000184], [-69.390389, 9.727376], [-69.388765, 9.726798000000144], [-69.388258, 9.726335], [-69.387102, 9.725876], [-69.385971, 9.725439000000165], [-69.385304, 9.7245], [-69.383907, 9.724349000000188], [-69.382177, 9.725616], [-69.381306, 9.72530600000016], [-69.38034, 9.725483], [-69.379093, 9.72558], [-69.3786219999999, 9.725944], [-69.377403, 9.726706], [-69.375933, 9.727019000000155], [-69.374899, 9.727245], [-69.373821, 9.727495], [-69.37215799999984, 9.728184], [-69.371315, 9.727988], [-69.369887, 9.728207], [-69.367968, 9.727778], [-69.36681792599995, 9.727415822000125], [-69.366158, 9.727208000000132], [-69.364902, 9.7265680000001], [-69.362966, 9.726279], [-69.36196499999988, 9.725652], [-69.359159, 9.725628000000142], [-69.357967, 9.724848000000122], [-69.35707, 9.725022], [-69.355835, 9.725394000000165], [-69.354948, 9.725798], [-69.35365899999982, 9.725459], [-69.352647, 9.725661], [-69.351444, 9.72571], [-69.350569, 9.725837], [-69.349807, 9.726443], [-69.348444, 9.727096000000131], [-69.34781642899992, 9.727378571000145], [-69.347489, 9.727526000000182], [-69.347264, 9.727602], [-69.346254, 9.727944], [-69.345335, 9.728119], [-69.34454156799995, 9.727988792000076], [-69.344098, 9.727916000000107], [-69.34347790799995, 9.727629456000045], [-69.34338428299992, 9.728687179000076], [-69.34357130099994, 9.730335221000189], [-69.34411833299993, 9.731739247000178], [-69.34488836599996, 9.732398266000075], [-69.34576241799988, 9.733306278000043], [-69.34596743399999, 9.734839319000173], [-69.34544541699995, 9.736171347000038], [-69.34540243199996, 9.738405405000151], [-69.34566144099995, 9.739567427000054], [-69.34632847299991, 9.740000442000053], [-69.34737351999996, 9.740579449000109], [-69.34749082899998, 9.740835226000058], [-69.34824356899992, 9.74247648100004], [-69.34768355399996, 9.743465516000072], [-69.34833358499998, 9.74456654200003], [-69.34893060999991, 9.744979549], [-69.34977765499991, 9.746348570000066], [-69.35000867599996, 9.74794960600019], [-69.34946766699994, 9.749374652000142], [-69.34911565099998, 9.750354675000153], [-69.34875465299984, 9.75218672200009], [-69.34867264799988, 9.75299474500008], [-69.34712958999995, 9.753747765000014], [-69.34678458399998, 9.754359784000144], [-69.34648057099997, 9.75591282500011], [-69.34617156699989, 9.757351859000153], [-69.34511552799984, 9.757601875000091], [-69.34408147699997, 9.756723853000096], [-69.3423974079999, 9.756929871000068], [-69.34145337699994, 9.75869292100009], [-69.3400883299999, 9.759828961000153], [-69.33618918999997, 9.764036080000153], [-69.33559217199996, 9.764704106000181], [-69.33542816699998, 9.765216118000069], [-69.33564618099996, 9.767048162000151], [-69.33560318999997, 9.7682001820001], [-69.33548319399989, 9.769723222000152], [-69.33551719599996, 9.770504246000087], [-69.33545620499996, 9.771242263000147], [-69.33538420499997, 9.772257288000048], [-69.33489519099999, 9.773289319000071], [-69.33521420799985, 9.775323362000051], [-69.33404916799998, 9.776797403000046], [-69.33343715599989, 9.777673425000103], [-69.33184708199997, 9.776817413000117], [-69.33047101099999, 9.775538397000162], [-69.32813492199995, 9.776207426000042], [-69.32763890399985, 9.776527433000126], [-69.32690786399996, 9.776786447000063], [-69.32507679099996, 9.776791460000027], [-69.32342272199998, 9.776605457000187], [-69.32238667499996, 9.776233463000153], [-69.32274668899998, 9.775988453000082], [-69.3218536519999, 9.776254456000174], [-69.32067160799988, 9.777866509999967], [-69.31986758099998, 9.778036515999986], [-69.31904554499982, 9.778346532000057], [-69.31826651799992, 9.778561544000127], [-69.31823051699996, 9.779874566000046], [-69.31794852299998, 9.78140361300018], [-69.3172484939999, 9.782375632000026], [-69.31581644399989, 9.783583677000081], [-69.31539442999997, 9.784014688000127], [-69.31423636699998, 9.783508677999976], [-69.31253829499991, 9.783370687], [-69.31261030999991, 9.785046733000172], [-69.31279833099995, 9.786189752000155], [-69.31109425699998, 9.786994781000033], [-69.31084125699994, 9.788108820000105], [-69.31007422499994, 9.789151850000053], [-69.30966821599992, 9.790502880000133], [-69.30963523099996, 9.791883909000092], [-69.30951623199996, 9.793981965000114], [-69.30918323399987, 9.795399004000046], [-69.30866920799997, 9.796386028000029], [-69.30726816299995, 9.797247060000188], [-69.3067051409999, 9.797615066000105], [-69.30571510199997, 9.798322094000127], [-69.30471306799996, 9.80036415100011], [-69.30519810399994, 9.802483193000114], [-69.30558012299991, 9.803825231000133], [-69.30528711799991, 9.805102257999977], [-69.30462510199993, 9.806946310000171], [-69.30349906099985, 9.808280352000054], [-69.30215501599992, 9.809369386000071], [-69.30118697299997, 9.810052409000036], [-69.30038593799992, 9.810291414000176], [-69.29949291299994, 9.810557429000085], [-69.29819585999991, 9.811116454000057], [-69.29655579299992, 9.811274461000039], [-69.2950697419999, 9.813381524000079], [-69.29407671799999, 9.817262627000105], [-69.29426674299998, 9.819509680000124], [-69.2940907499999, 9.822438747000092], [-69.29407776099998, 9.823772782000049], [-69.29337573399988, 9.824698813000055], [-69.29267471799994, 9.826727859000073], [-69.29254371999997, 9.829631939000024], [-69.29219071099988, 9.830588962000036], [-69.28998261999988, 9.830999987000041], [-69.28792053899997, 9.831566005000184], [-69.28575845199998, 9.832527047000099], [-69.28538845999998, 9.835257119], [-69.28539546799993, 9.836499142000036], [-69.28559047499994, 9.837273165000056], [-69.28550247699991, 9.838450196000167], [-69.28570049099994, 9.839822225000091], [-69.28584551099988, 9.840506246000132], [-69.28558850199994, 9.84155127200006], [-69.28492347499997, 9.84224529100004], [-69.28379143199993, 9.842360298000017], [-69.28310840099988, 9.842111297000145], [-69.28253936799996, 9.84181229799998], [-69.28268037899994, 9.842405300000053], [-69.2829764039999, 9.843888344000163], [-69.28387345099998, 9.845876383000075], [-69.28379650199997, 9.845823699000164], [-69.28379529399996, 9.845822871999985], [-69.283808, 9.845851], [-69.28381090299996, 9.845862813000053], [-69.28419999999988, 9.847446], [-69.284412, 9.848587000000123], [-69.28442131199989, 9.848660091], [-69.284657, 9.85051], [-69.284541, 9.852147000000116], [-69.28543, 9.854481], [-69.285512, 9.85641], [-69.28499299999987, 9.857282000000112], [-69.28490041199996, 9.857442452000043], [-69.284626, 9.857918000000154], [-69.284261, 9.8586], [-69.284189, 9.860696000000132], [-69.283355, 9.86234], [-69.283299, 9.864274], [-69.283137, 9.866443000000118], [-69.283602, 9.868632], [-69.284145, 9.871026], [-69.28415, 9.873303], [-69.28415999999987, 9.87516600000015], [-69.284132, 9.87774300000018], [-69.285087, 9.878924], [-69.285044, 9.880099], [-69.284884, 9.881763], [-69.284732, 9.88310300000012], [-69.28466, 9.885751], [-69.28452999999985, 9.888126], [-69.28424399999989, 9.889563000000123], [-69.284313, 9.891171], [-69.283349, 9.892475], [-69.282115, 9.893997000000184], [-69.28111, 9.895440000000178], [-69.280448, 9.896755], [-69.2812899999999, 9.899091000000112], [-69.28135266699985, 9.899108389000048], [-69.28302699999983, 9.899573], [-69.285399, 9.901341000000116], [-69.287163, 9.902466000000118], [-69.288985, 9.903842000000111], [-69.289893, 9.904472], [-69.291294, 9.904692], [-69.29277999999988, 9.905805000000157], [-69.293705, 9.906826], [-69.295442, 9.908389000000113], [-69.29665399999988, 9.911239], [-69.297632, 9.914029], [-69.298326, 9.915588000000128], [-69.299756, 9.918107000000191], [-69.300195, 9.92022800000018], [-69.30052399999988, 9.922492], [-69.30058, 9.923778], [-69.30053, 9.925321], [-69.300558, 9.927070000000185], [-69.300585, 9.928771], [-69.300755, 9.930029], [-69.301145, 9.931555000000174], [-69.30227699999989, 9.932521000000179], [-69.303162, 9.93315200000012], [-69.303926, 9.934203], [-69.304755, 9.934583], [-69.305085, 9.935789], [-69.305865, 9.936678], [-69.306843, 9.937835], [-69.30826899999988, 9.938651], [-69.309094, 9.939492], [-69.31002299999989, 9.941134000000147], [-69.31094, 9.941971], [-69.312733, 9.942681], [-69.314339, 9.943881], [-69.315369, 9.945726], [-69.31551, 9.947377000000131], [-69.31529, 9.94874300000015], [-69.315423, 9.950209000000143], [-69.315286, 9.952952], [-69.315774, 9.95406], [-69.316276, 9.955466], [-69.316535, 9.957158000000106], [-69.316666, 9.959683], [-69.317172, 9.961203000000125], [-69.317731, 9.962331000000177], [-69.317848, 9.963959], [-69.317963, 9.965013], [-69.318771, 9.967097], [-69.318431, 9.969434], [-69.31841, 9.97111400000017], [-69.31768599999987, 9.973145], [-69.316602, 9.974362000000156], [-69.315787, 9.97538400000019], [-69.31569, 9.977435], [-69.315946, 9.979081000000178], [-69.31639699999988, 9.980397000000153], [-69.316379, 9.983204], [-69.3168179999999, 9.985326000000157], [-69.317031, 9.987042], [-69.31713699999983, 9.988418], [-69.317966, 9.990432], [-69.318666, 9.991623000000175], [-69.31893099999985, 9.993453], [-69.319092, 9.995585], [-69.318785, 9.997070000000178], [-69.31713799999989, 9.997947], [-69.31635599999987, 9.999701], [-69.315571, 10.001638000000128], [-69.315014, 10.003579000000116], [-69.314959, 10.004828], [-69.315205, 10.006154], [-69.315448, 10.0077], [-69.315441, 10.008251], [-69.315014, 10.008944000000156], [-69.313877, 10.010435], [-69.31354, 10.011461], [-69.31351499999988, 10.013261000000114], [-69.313145, 10.01531400000016], [-69.313118, 10.017262], [-69.313158, 10.018794000000128], [-69.312853, 10.0192550000001], [-69.312499, 10.019491], [-69.312256, 10.019848000000138], [-69.312108, 10.020126], [-69.312039, 10.020656], [-69.311962, 10.021015], [-69.3117309999999, 10.021282], [-69.31126199999983, 10.021637000000169], [-69.31069699999989, 10.022180000000162], [-69.309998, 10.022801], [-69.309427, 10.023044], [-69.30885499999988, 10.023407], [-69.308595, 10.023544], [-69.30827399999987, 10.02364000000017], [-69.308013, 10.023877], [-69.307692, 10.023993], [-69.307308, 10.024108000000183], [-69.306271, 10.024555], [-69.305959, 10.024721], [-69.305357, 10.024984000000188], [-69.30369599999989, 10.025773], [-69.3029039999999, 10.026404], [-69.302711, 10.02694200000019], [-69.302384, 10.027458], [-69.302119, 10.027905], [-69.30198599999989, 10.028584000000137], [-69.301844, 10.029132000000175], [-69.301748, 10.02935100000019], [-69.3012379999999, 10.030436], [-69.300961, 10.031053000000156], [-69.301008, 10.032094000000143], [-69.300852, 10.032923000000153], [-69.300738, 10.034433], [-69.30043, 10.035080000000107], [-69.299814, 10.035642], [-69.299307, 10.036446000000126], [-69.29838, 10.037095], [-69.297932, 10.037440000000117], [-69.29653, 10.038102], [-69.2952039999999, 10.039276], [-69.294083, 10.040543], [-69.293584, 10.04151700000017], [-69.292631, 10.042586000000142], [-69.291911, 10.043197], [-69.29144999999988, 10.043652], [-69.290627, 10.044252000000142], [-69.289795, 10.04475200000013], [-69.289147, 10.045394000000101], [-69.288372, 10.046159], [-69.28765, 10.046785000000114], [-69.28688, 10.047133000000144], [-69.285856, 10.048244], [-69.285602, 10.049194000000114], [-69.285395, 10.050166], [-69.285185, 10.050537], [-69.284882, 10.050629000000185], [-69.284227, 10.050468], [-69.2833629999999, 10.050537], [-69.28286899999989, 10.050632], [-69.279878, 10.052419000000157], [-69.278673, 10.053162000000157], [-69.27809, 10.05370900000014], [-69.27578199999988, 10.05439600000011], [-69.27470099999988, 10.054772000000128], [-69.27312299999988, 10.054967], [-69.272116, 10.055422], [-69.270429, 10.056052], [-69.268785, 10.057011000000102], [-69.266694, 10.058036], [-69.2660499999999, 10.058388], [-69.265182, 10.059114], [-69.264716, 10.059653], [-69.263862, 10.060392], [-69.26254399999988, 10.061148000000117], [-69.261601, 10.061694], [-69.261088, 10.061921000000154], [-69.260267, 10.062306], [-69.25729699999988, 10.063895], [-69.255944, 10.065173], [-69.252521, 10.06607600000018], [-69.250785, 10.068100000000129], [-69.249386, 10.068637], [-69.247915, 10.069517000000133], [-69.24625399999985, 10.0709], [-69.24255199999988, 10.071805], [-69.2402249999999, 10.072334000000183], [-69.23861, 10.07274000000018], [-69.237989, 10.072932], [-69.236386, 10.072986000000128], [-69.234561, 10.074527000000103], [-69.23392699999988, 10.075297], [-69.23159599999985, 10.076256000000114], [-69.230037, 10.07643400000012], [-69.22775899999988, 10.076550000000111], [-69.225425, 10.077766], [-69.2248, 10.08019], [-69.2240149999999, 10.081392], [-69.22138399999983, 10.081321000000173], [-69.22085741199987, 10.081255422000083], [-69.21924, 10.081054000000108], [-69.218741, 10.082379000000117], [-69.216578, 10.08268], [-69.214688, 10.083602], [-69.21316166799994, 10.08356872800016], [-69.21285299999988, 10.083562000000143], [-69.211402, 10.084763], [-69.211153, 10.086663], [-69.2103584109999, 10.087444545000153], [-69.21029696199997, 10.087504986000056], [-69.20963, 10.088161000000184], [-69.20832934899988, 10.087903158000131], [-69.20822247599995, 10.087881971000115], [-69.20820958099983, 10.087930645000029], [-69.19696156799989, 10.130386939000118], [-69.19683546399995, 10.130862944000171], [-69.1967911889999, 10.130866341], [-69.14343722799998, 10.134960361000026], [-69.13506287099995, 10.135794425000086], [-69.13499740499998, 10.13579918500011], [-69.135413, 10.137044000000174], [-69.1367, 10.138205000000141], [-69.138412, 10.138658000000135], [-69.140054, 10.139134], [-69.14121199999988, 10.141442], [-69.14122984699998, 10.143229920000067], [-69.141234, 10.143646], [-69.141498, 10.144888], [-69.14149933599998, 10.145118174000174], [-69.14150599999988, 10.146266], [-69.14109099999985, 10.148052], [-69.14183799999984, 10.151824], [-69.142456, 10.152611], [-69.143696, 10.153726], [-69.14625199999983, 10.155588], [-69.148765, 10.155109], [-69.150654, 10.154325], [-69.152401, 10.153769], [-69.154109, 10.154567], [-69.15604899999988, 10.155436000000122], [-69.158112, 10.155686], [-69.159862, 10.156898000000126], [-69.16050010999993, 10.158225372000175], [-69.161359, 10.160012], [-69.16158699999988, 10.162517], [-69.161736, 10.163712], [-69.1627529999999, 10.164090000000101], [-69.164708, 10.165624], [-69.165991, 10.167176], [-69.167628, 10.168133000000182], [-69.169503, 10.168726], [-69.170898, 10.168488], [-69.17232599999988, 10.169467], [-69.173377, 10.170992000000126], [-69.17362999999989, 10.17329000000018], [-69.174246, 10.174215000000117], [-69.174741, 10.175597], [-69.173098, 10.17727900000017], [-69.174471, 10.178992000000164], [-69.175401, 10.180976], [-69.17619799999989, 10.182361000000185], [-69.17703899999987, 10.183885], [-69.177461, 10.185635], [-69.177259, 10.187079], [-69.17724, 10.18877700000013], [-69.177802, 10.190459], [-69.17776, 10.192134], [-69.177221, 10.192611], [-69.17556, 10.195808000000113], [-69.173997, 10.196527], [-69.174381, 10.197449000000177], [-69.17393, 10.198316000000148], [-69.173978, 10.200268000000165], [-69.172969, 10.201268000000141], [-69.17179199999987, 10.20267900000016], [-69.171938, 10.20417300000014], [-69.172065, 10.205322], [-69.173311, 10.205977000000189], [-69.173152, 10.207743000000107], [-69.175327, 10.208339], [-69.17590899999988, 10.210319], [-69.174846, 10.211939], [-69.173794, 10.214683], [-69.174262, 10.216409], [-69.175928, 10.216862], [-69.176542, 10.220128000000102], [-69.176166, 10.222626], [-69.175383, 10.224111000000107], [-69.175039, 10.225807000000145], [-69.17536899999988, 10.227486000000113], [-69.17520899999988, 10.229275], [-69.175756, 10.230222], [-69.176968, 10.22979800000013], [-69.17845599999987, 10.231695], [-69.179642, 10.231524], [-69.1810339999999, 10.23156100000017], [-69.182264, 10.234771], [-69.182138, 10.23664500000018], [-69.182264, 10.237109], [-69.184507, 10.237118], [-69.189434, 10.234229], [-69.193561, 10.230938], [-69.198289, 10.226612000000102], [-69.202717, 10.223183], [-69.20603099999988, 10.22000800000012], [-69.211154, 10.215108], [-69.212845, 10.213108], [-69.21514, 10.210853], [-69.216462, 10.210873000000106], [-69.216116, 10.212389000000144], [-69.2158629999999, 10.213905000000182], [-69.216537, 10.214776], [-69.218696, 10.215896], [-69.222388, 10.218208], [-69.223803, 10.218021], [-69.22500899999983, 10.218133], [-69.225869, 10.218981], [-69.22688999999986, 10.219392000000141], [-69.228259, 10.219527], [-69.230046, 10.219707], [-69.23025599999983, 10.220877], [-69.230305, 10.222783], [-69.230701, 10.224251000000152], [-69.231028, 10.225398], [-69.23221299999983, 10.225809], [-69.234232, 10.226608000000112], [-69.23525399999983, 10.227662000000123], [-69.235789, 10.228786], [-69.23667299999988, 10.229978], [-69.237439, 10.230183000000181], [-69.237834, 10.23128400000013], [-69.238254, 10.232316], [-69.23876499999989, 10.233532], [-69.239717, 10.234012], [-69.24101699999989, 10.2344], [-69.241645, 10.235317], [-69.242573, 10.235544000000175], [-69.243062, 10.23630100000014], [-69.243666, 10.237080000000105], [-69.24448, 10.238479], [-69.24548, 10.240037000000143], [-69.247105, 10.240975000000105], [-69.24785, 10.242582], [-69.248593, 10.243452000000104], [-69.250125, 10.243289000000118], [-69.25121499999989, 10.243516], [-69.253097, 10.243971], [-69.25442, 10.244289], [-69.25562699999989, 10.245274], [-69.271259, 10.243388], [-69.297099, 10.248350000000187], [-69.297745, 10.249243000000149], [-69.297763, 10.26823700000017], [-69.305282, 10.271838], [-69.308929, 10.27740800000015], [-69.31291, 10.286257], [-69.314246, 10.297732], [-69.313594, 10.308552], [-69.310952, 10.314784], [-69.303291, 10.319333000000142], [-69.300867, 10.32137200000011], [-69.299465, 10.322981], [-69.297327, 10.325688000000184], [-69.294562, 10.329986000000133], [-69.294539, 10.329986000000133], [-69.29322999999988, 10.33199100000013], [-69.29161499999987, 10.332761], [-69.291337, 10.33278], [-69.288938, 10.332976], [-69.28652999999986, 10.334598], [-69.284569, 10.335624000000166], [-69.28174499999989, 10.33689900000013], [-69.280763, 10.337585], [-69.275856, 10.340874], [-69.273891, 10.342544], [-69.273351, 10.343393000000106], [-69.27348499999982, 10.34445200000016], [-69.273484, 10.344682], [-69.273686, 10.346155], [-69.271729, 10.346261], [-69.271555, 10.348376000000144], [-69.2706639999999, 10.34949900000015], [-69.270185, 10.351982], [-69.27013, 10.353546000000165], [-69.26974499999989, 10.355959000000155], [-69.2673329999999, 10.35850100000016], [-69.268346, 10.360530000000153], [-69.268243, 10.362485000000106], [-69.267461, 10.364897], [-69.267684, 10.366784000000166], [-69.26762799999989, 10.36841800000019], [-69.268551, 10.370056], [-69.2700799999999, 10.371489], [-69.270587, 10.372596], [-69.270409, 10.375402000000179], [-69.27007699999984, 10.376481000000126], [-69.270064, 10.378897000000165], [-69.268741, 10.382479000000103], [-69.268541, 10.384985000000142], [-69.267533, 10.386131], [-69.266475, 10.387966], [-69.265675, 10.389573000000155], [-69.265967, 10.391645000000153], [-69.265323, 10.394425000000126], [-69.266086, 10.395487], [-69.266784, 10.395490000000166], [-69.267173, 10.396918], [-69.266302, 10.398547000000121], [-69.26591999999988, 10.400271000000146], [-69.264819, 10.401508000000149], [-69.261491, 10.401147000000151], [-69.26192, 10.403633000000127], [-69.26128199999982, 10.405287], [-69.262276, 10.406627], [-69.2623349999999, 10.408766000000128], [-69.262135, 10.411296], [-69.26385, 10.412753000000123], [-69.264957, 10.41480600000017], [-69.264387, 10.416804000000127], [-69.265727, 10.418835000000115], [-69.26674899999989, 10.419346000000132], [-69.2688409999999, 10.420069], [-69.26999499999988, 10.422099000000173], [-69.270366, 10.422468000000151], [-69.27057, 10.423436], [-69.271519, 10.424613], [-69.270934, 10.425117000000114], [-69.27141399999988, 10.426752], [-69.270687, 10.427715000000148], [-69.269222, 10.427179], [-69.267852, 10.426505], [-69.26783499999988, 10.429611], [-69.26740599999982, 10.431564], [-69.26637199999988, 10.433146], [-69.264774, 10.431575000000123], [-69.262824, 10.430369], [-69.26091699999989, 10.429831], [-69.26204499999989, 10.43216], [-69.262037, 10.433747], [-69.261428, 10.434388000000183], [-69.26199899999989, 10.436415], [-69.262156, 10.437658], [-69.26098, 10.439677], [-69.259811, 10.440569], [-69.257347, 10.439591], [-69.256089, 10.439723000000185], [-69.256332, 10.442025], [-69.253736, 10.444152], [-69.251936, 10.44529400000016], [-69.251185, 10.44630300000017], [-69.25092199999989, 10.447636000000102], [-69.25054099999988, 10.449198], [-69.249833, 10.450828000000115], [-69.248435, 10.45086700000013], [-69.246897, 10.451113], [-69.2468429999999, 10.452378], [-69.247541, 10.452612000000101], [-69.248516, 10.45314500000012], [-69.249863, 10.453911000000119], [-69.25063099999988, 10.45407500000016], [-69.25071799999989, 10.455042], [-69.249367, 10.455105000000117], [-69.24829199999988, 10.455813], [-69.249142, 10.457956000000138], [-69.249438, 10.45920000000018], [-69.249363, 10.460165], [-69.248359, 10.460529], [-69.247169, 10.461075], [-69.247231, 10.462525000000142], [-69.247316, 10.463882000000183], [-69.246937, 10.465054000000123], [-69.245867, 10.46477300000015], [-69.244394, 10.465824], [-69.243363, 10.466739000000132], [-69.24189299999989, 10.467307], [-69.240978, 10.468407000000127], [-69.240784, 10.469924], [-69.24096399999985, 10.471029000000158], [-69.241283, 10.472365], [-69.24129999999985, 10.473469], [-69.24183099999982, 10.474323], [-69.242805, 10.475179], [-69.241842, 10.476554], [-69.242606, 10.477478000000133], [-69.242857, 10.478653000000179], [-69.24432, 10.479373], [-69.24637699999988, 10.478117], [-69.247287, 10.477869000000169], [-69.24816899999985, 10.478494000000182], [-69.249523, 10.477925], [-69.250486, 10.476435000000151], [-69.252232, 10.476696], [-69.25362799999988, 10.476864000000148], [-69.25474699999984, 10.476777], [-69.255558, 10.477494], [-69.257143, 10.477294], [-69.257512, 10.478009], [-69.258321, 10.479186], [-69.259784, 10.480021], [-69.26058299999988, 10.478783], [-69.261404, 10.477614000000187], [-69.26254199999988, 10.478332], [-69.262258, 10.479205], [-69.263646, 10.481006], [-69.264242, 10.48268800000011], [-69.26582999999988, 10.482235], [-69.266489, 10.480927], [-69.268697, 10.481927], [-69.268902, 10.482779000000164]]]}}]}