{
  "type": "FeatureCollection",
  "features": [
    {
      "type": "Feature",
      "properties": {
        "Pais": "Venezuela",
        "Estado": "Trujillo",
        "Municipio": "José Felipe Márquez Cañizal",
        "Parroquia": "El Socorro"
      },
      "geometry": {
        "type": "Polygon",
        "coordinates": [
          [
            [
              -70.5099901619999,
              9.884474105000152
            ],
            [
              -70.51426034399998,
              9.885747107000157
            ],
            [
              -70.51720846799992,
              9.886527108999985
            ],
            [
              -70.51765258699999,
              9.88785599400012
            ],
            [
              -70.5182475339999,
              9.88963618300005
            ],
            [
              -70.51978961799995,
              9.892138227000089
            ],
            [
              -70.52316377099999,
              9.895429290000038
            ],
            [
              -70.5274489709999,
              9.898512329000084
            ],
            [
              -70.53193917899989,
              9.901794387000052
            ],
            [
              -70.53490531499983,
              9.904786438000087
            ],
            [
              -70.53675542099995,
              9.907788501000084
            ],
            [
              -70.53741836599994,
              9.909157782000136
            ],
            [
              -70.53753660899991,
              9.909402002000093
            ],
            [
              -70.537859,
              9.909396000000129
            ],
            [
              -70.54838529899996,
              9.906176936
            ],
            [
              -70.593403,
              9.892410000000154
            ],
            [
              -70.592584,
              9.890314000000103
            ],
            [
              -70.592621,
              9.888198000000159
            ],
            [
              -70.593569,
              9.886178
            ],
            [
              -70.594916,
              9.884737000000143
            ],
            [
              -70.594697,
              9.883092
            ],
            [
              -70.594959,
              9.881793
            ],
            [
              -70.596321,
              9.880190000000141
            ],
            [
              -70.598147,
              9.879531000000156
            ],
            [
              -70.59926499999989,
              9.87863
            ],
            [
              -70.60013,
              9.87778500000013
            ],
            [
              -70.600986,
              9.876275
            ],
            [
              -70.603168,
              9.874819
            ],
            [
              -70.60345799999982,
              9.872668
            ],
            [
              -70.603352,
              9.870948000000169
            ],
            [
              -70.602569,
              9.869169
            ],
            [
              -70.601713,
              9.86681700000014
            ],
            [
              -70.6016029999999,
              9.865030000000104
            ],
            [
              -70.602048,
              9.863193000000138
            ],
            [
              -70.601957,
              9.861772
            ],
            [
              -70.602066,
              9.860664000000156
            ],
            [
              -70.601868,
              9.859455000000139
            ],
            [
              -70.601322,
              9.858262
            ],
            [
              -70.601113,
              9.856799
            ],
            [
              -70.60014299999989,
              9.856430000000103
            ],
            [
              -70.59967499999988,
              9.855394
            ],
            [
              -70.59892899999988,
              9.854371000000128
            ],
            [
              -70.597411,
              9.853246000000127
            ],
            [
              -70.596155,
              9.852729000000124
            ],
            [
              -70.5959289999999,
              9.852371
            ],
            [
              -70.595204,
              9.849876000000165
            ],
            [
              -70.594362,
              9.847823000000119
            ],
            [
              -70.594552,
              9.845976
            ],
            [
              -70.594195,
              9.843877000000134
            ],
            [
              -70.593234,
              9.842244
            ],
            [
              -70.59254,
              9.840391000000182
            ],
            [
              -70.59372699999989,
              9.839003000000105
            ],
            [
              -70.595626,
              9.837927
            ],
            [
              -70.59672099999989,
              9.836084000000142
            ],
            [
              -70.597236,
              9.834245
            ],
            [
              -70.598515,
              9.83285300000017
            ],
            [
              -70.598422,
              9.830926
            ],
            [
              -70.597656,
              9.829973
            ],
            [
              -70.597631,
              9.828963000000158
            ],
            [
              -70.597578,
              9.828345000000184
            ],
            [
              -70.597207,
              9.827879
            ],
            [
              -70.597044,
              9.82692100000014
            ],
            [
              -70.59683699999982,
              9.824540000000127
            ],
            [
              -70.595668,
              9.823422
            ],
            [
              -70.595085,
              9.822414
            ],
            [
              -70.595129,
              9.821401
            ],
            [
              -70.594942,
              9.820398
            ],
            [
              -70.59421899999984,
              9.818891000000121
            ],
            [
              -70.593439,
              9.817640000000154
            ],
            [
              -70.59244199999989,
              9.81672
            ],
            [
              -70.59108,
              9.815909
            ],
            [
              -70.59060399999987,
              9.814713
            ],
            [
              -70.590815,
              9.813784000000112
            ],
            [
              -70.591649,
              9.813263
            ],
            [
              -70.592191,
              9.811894
            ],
            [
              -70.593581,
              9.81231
            ],
            [
              -70.594946,
              9.813367
            ],
            [
              -70.596404,
              9.814449
            ],
            [
              -70.59737799999982,
              9.814427
            ],
            [
              -70.59921,
              9.81376500000016
            ],
            [
              -70.6010169999999,
              9.813883000000146
            ],
            [
              -70.602199,
              9.81455000000011
            ],
            [
              -70.603867,
              9.814713
            ],
            [
              -70.605466,
              9.814716000000146
            ],
            [
              -70.606624,
              9.815154000000177
            ],
            [
              -70.607573,
              9.815936
            ],
            [
              -70.608197,
              9.817038
            ],
            [
              -70.608451,
              9.817383
            ],
            [
              -70.60921599999989,
              9.817361000000176
            ],
            [
              -70.61095499999982,
              9.816813000000138
            ],
            [
              -70.611858,
              9.817617
            ],
            [
              -70.612319,
              9.818743
            ],
            [
              -70.61312799999985,
              9.820349000000135
            ],
            [
              -70.6140999999999,
              9.821016
            ],
            [
              -70.614885,
              9.822439
            ],
            [
              -70.615162,
              9.82315
            ],
            [
              -70.6150449999999,
              9.82390700000019
            ],
            [
              -70.614558,
              9.824204
            ],
            [
              -70.613443,
              9.825716000000114
            ],
            [
              -70.613023,
              9.827251000000103
            ],
            [
              -70.613714,
              9.829706
            ],
            [
              -70.614989,
              9.829754
            ],
            [
              -70.614939,
              9.831611
            ],
            [
              -70.61375499999986,
              9.833054
            ],
            [
              -70.612362,
              9.83429
            ],
            [
              -70.61112999999989,
              9.836489
            ],
            [
              -70.60975899999988,
              9.838825
            ],
            [
              -70.610266,
              9.840271
            ],
            [
              -70.611796,
              9.840365000000133
            ],
            [
              -70.612163,
              9.842613
            ],
            [
              -70.611882,
              9.843805
            ],
            [
              -70.612228,
              9.845067
            ],
            [
              -70.61275899999987,
              9.846306
            ],
            [
              -70.613846,
              9.847890000000177
            ],
            [
              -70.61412,
              9.850253000000123
            ],
            [
              -70.615831,
              9.852755000000172
            ],
            [
              -70.615318,
              9.854451000000154
            ],
            [
              -70.61617299999989,
              9.855783
            ],
            [
              -70.618791,
              9.856636
            ],
            [
              -70.620414,
              9.856524
            ],
            [
              -70.621042,
              9.855195
            ],
            [
              -70.621809,
              9.854164
            ],
            [
              -70.624475,
              9.853825
            ],
            [
              -70.625843,
              9.853805
            ],
            [
              -70.6270449999999,
              9.855504
            ],
            [
              -70.627576,
              9.856857000000105
            ],
            [
              -70.627897,
              9.85873800000013
            ],
            [
              -70.629356,
              9.859681
            ],
            [
              -70.6304669999999,
              9.860508
            ],
            [
              -70.631741,
              9.86106100000012
            ],
            [
              -70.6328769999999,
              9.861017
            ],
            [
              -70.634012,
              9.861294
            ],
            [
              -70.63475199999988,
              9.862235000000112
            ],
            [
              -70.6354,
              9.86313100000018
            ],
            [
              -70.636396,
              9.863201000000117
            ],
            [
              -70.638154,
              9.861692000000119
            ],
            [
              -70.638843,
              9.861523
            ],
            [
              -70.6402839999999,
              9.860606000000132
            ],
            [
              -70.641154,
              9.859876000000156
            ],
            [
              -70.641849,
              9.858879
            ],
            [
              -70.642419,
              9.85722
            ],
            [
              -70.644188,
              9.856334000000174
            ],
            [
              -70.64444699999984,
              9.85593200000011
            ],
            [
              -70.644507,
              9.854757
            ],
            [
              -70.644174,
              9.853669000000139
            ],
            [
              -70.64390699999984,
              9.852946
            ],
            [
              -70.64341499999989,
              9.850946
            ],
            [
              -70.643358,
              9.848811000000183
            ],
            [
              -70.643378,
              9.847775
            ],
            [
              -70.642835,
              9.846145
            ],
            [
              -70.643219,
              9.845461000000114
            ],
            [
              -70.64456,
              9.844388000000151
            ],
            [
              -70.645018,
              9.843287000000146
            ],
            [
              -70.64587199999988,
              9.841753
            ],
            [
              -70.646933,
              9.841107
            ],
            [
              -70.649167,
              9.841211000000158
            ],
            [
              -70.650967,
              9.840967
            ],
            [
              -70.65137184999992,
              9.840929324000115
            ],
            [
              -70.653417,
              9.840739
            ],
            [
              -70.65448699999985,
              9.841264
            ],
            [
              -70.656056,
              9.840571000000125
            ],
            [
              -70.656371,
              9.83989
            ],
            [
              -70.65699099999989,
              9.838804000000152
            ],
            [
              -70.657773,
              9.838171000000159
            ],
            [
              -70.65927899999986,
              9.837619000000132
            ],
            [
              -70.659773,
              9.836791
            ],
            [
              -70.661327,
              9.836283
            ],
            [
              -70.663005,
              9.83593000000019
            ],
            [
              -70.663938,
              9.835059
            ],
            [
              -70.66435599999988,
              9.834098000000154
            ],
            [
              -70.664875,
              9.832832
            ],
            [
              -70.6657459999999,
              9.831643
            ],
            [
              -70.6666919999999,
              9.830564
            ],
            [
              -70.667089,
              9.829649
            ],
            [
              -70.66774,
              9.828723
            ],
            [
              -70.66786805399988,
              9.828664848000187
            ],
            [
              -70.66946462999982,
              9.827939809000156
            ],
            [
              -70.669669,
              9.82784700000019
            ],
            [
              -70.66971342699998,
              9.827829708000024
            ],
            [
              -70.66913242899994,
              9.826692793000177
            ],
            [
              -70.66852939299997,
              9.825512764000166
            ],
            [
              -70.66764283299989,
              9.822161161000054
            ],
            [
              -70.66756499999985,
              9.822092000000112
            ],
            [
              -70.66752540099986,
              9.822037548000026
            ],
            [
              -70.66745543399992,
              9.821941337000169
            ],
            [
              -70.662209,
              9.814727000000175
            ],
            [
              -70.66157199999986,
              9.814044
            ],
            [
              -70.660789,
              9.813689
            ],
            [
              -70.660293,
              9.81208
            ],
            [
              -70.66007499999989,
              9.810941
            ],
            [
              -70.66011,
              9.810227000000168
            ],
            [
              -70.660205,
              9.808338
            ],
            [
              -70.6601629999999,
              9.807007
            ],
            [
              -70.65940699999987,
              9.805777
            ],
            [
              -70.658763,
              9.804934000000117
            ],
            [
              -70.658047,
              9.804047
            ],
            [
              -70.65740699999986,
              9.802836
            ],
            [
              -70.656578,
              9.802
            ],
            [
              -70.655848,
              9.801069
            ],
            [
              -70.65557199999989,
              9.79994500000015
            ],
            [
              -70.655274,
              9.798224
            ],
            [
              -70.655139,
              9.795358
            ],
            [
              -70.654748,
              9.793477
            ],
            [
              -70.654588,
              9.792055000000119
            ],
            [
              -70.654335,
              9.790862000000175
            ],
            [
              -70.653713,
              9.788958
            ],
            [
              -70.65274099999988,
              9.787213
            ],
            [
              -70.65213844799996,
              9.786771624000153
            ],
            [
              -70.651769,
              9.7865010000001
            ],
            [
              -70.649267,
              9.786359000000118
            ],
            [
              -70.647459,
              9.786379000000181
            ],
            [
              -70.646348,
              9.785529000000167
            ],
            [
              -70.645655,
              9.784702000000152
            ],
            [
              -70.644777,
              9.782934
            ],
            [
              -70.643737,
              9.780960000000164
            ],
            [
              -70.643091,
              9.779698000000167
            ],
            [
              -70.643162,
              9.778299
            ],
            [
              -70.643072,
              9.776923
            ],
            [
              -70.64177599999982,
              9.77607200000017
            ],
            [
              -70.639759,
              9.7765500000001
            ],
            [
              -70.638021,
              9.776364000000171
            ],
            [
              -70.636771,
              9.775651000000153
            ],
            [
              -70.635522,
              9.774342
            ],
            [
              -70.63429599999989,
              9.772941000000117
            ],
            [
              -70.632698,
              9.772594
            ],
            [
              -70.632166,
              9.772341
            ],
            [
              -70.630659,
              9.771971000000121
            ],
            [
              -70.629687,
              9.77103000000011
            ],
            [
              -70.627394,
              9.770636
            ],
            [
              -70.61049999999983,
              9.751283000000114
            ],
            [
              -70.598822,
              9.757972
            ],
            [
              -70.597107,
              9.757808000000182
            ],
            [
              -70.595254,
              9.757507000000146
            ],
            [
              -70.593748,
              9.757504
            ],
            [
              -70.592704,
              9.75825900000018
            ],
            [
              -70.591569,
              9.758119000000136
            ],
            [
              -70.591293,
              9.756765
            ],
            [
              -70.58995,
              9.756350000000111
            ],
            [
              -70.588588,
              9.753298
            ],
            [
              -70.587754,
              9.753388
            ],
            [
              -70.586641,
              9.75395900000018
            ],
            [
              -70.586248,
              9.753110000000106
            ],
            [
              -70.585737,
              9.753269000000103
            ],
            [
              -70.585088,
              9.753773
            ],
            [
              -70.584117,
              9.752555
            ],
            [
              -70.582634,
              9.752323
            ],
            [
              -70.582079,
              9.75202400000012
            ],
            [
              -70.58252,
              9.751383
            ],
            [
              -70.583749,
              9.750697000000116
            ],
            [
              -70.584168,
              9.749896
            ],
            [
              -70.5838,
              9.748634000000152
            ],
            [
              -70.582782,
              9.74755400000015
            ],
            [
              -70.58139299999988,
              9.746772
            ],
            [
              -70.579933,
              9.747159000000124
            ],
            [
              -70.58014399999985,
              9.74592100000018
            ],
            [
              -70.580701,
              9.745073
            ],
            [
              -70.58046999999982,
              9.744614
            ],
            [
              -70.579845,
              9.744682000000182
            ],
            [
              -70.579219,
              9.744681
            ],
            [
              -70.579128,
              9.743671000000177
            ],
            [
              -70.57864299999989,
              9.742914
            ],
            [
              -70.57785699999988,
              9.742179
            ],
            [
              -70.57656,
              9.741465000000119
            ],
            [
              -70.576329,
              9.741465000000119
            ],
            [
              -70.57452199999989,
              9.74095700000015
            ],
            [
              -70.57310799999988,
              9.741481
            ],
            [
              -70.571556,
              9.741134
            ],
            [
              -70.570144,
              9.740513
            ],
            [
              -70.56840499999987,
              9.741151
            ],
            [
              -70.566804,
              9.740813000000173
            ],
            [
              -70.566761,
              9.740712000000144
            ],
            [
              -70.56606799999986,
              9.739335
            ],
            [
              -70.56496,
              9.737269
            ],
            [
              -70.564916,
              9.735939
            ],
            [
              -70.565912,
              9.73610100000019
            ],
            [
              -70.567139,
              9.736929000000146
            ],
            [
              -70.567881,
              9.736701
            ],
            [
              -70.568554,
              9.735923
            ],
            [
              -70.569042,
              9.734892000000173
            ],
            [
              -70.568954,
              9.732576
            ],
            [
              -70.568725,
              9.7312
            ],
            [
              -70.567847,
              9.729822
            ],
            [
              -70.566549,
              9.730324
            ],
            [
              -70.566017,
              9.729429
            ],
            [
              -70.566391,
              9.728191
            ],
            [
              -70.56574299999988,
              9.727066
            ],
            [
              -70.56502499999988,
              9.726675000000114
            ],
            [
              -70.56428199999988,
              9.72784300000012
            ],
            [
              -70.5631,
              9.72784
            ],
            [
              -70.562537,
              9.727094000000136
            ],
            [
              -70.535724,
              9.750198
            ],
            [
              -70.537246,
              9.752404000000126
            ],
            [
              -70.53799599999985,
              9.753496
            ],
            [
              -70.538639,
              9.753834000000154
            ],
            [
              -70.539796,
              9.754724
            ],
            [
              -70.54038,
              9.75478900000013
            ],
            [
              -70.541267,
              9.754887
            ],
            [
              -70.54186,
              9.755158000000108
            ],
            [
              -70.542384,
              9.755916000000127
            ],
            [
              -70.542404,
              9.756811
            ],
            [
              -70.542952,
              9.75855700000011
            ],
            [
              -70.543082,
              9.759333
            ],
            [
              -70.543557,
              9.760529
            ],
            [
              -70.54392,
              9.762283
            ],
            [
              -70.543616,
              9.763193
            ],
            [
              -70.543883,
              9.763916000000165
            ],
            [
              -70.404274,
              9.804187000000127
            ],
            [
              -70.35284368499993,
              9.817160595000189
            ],
            [
              -70.33844140799994,
              9.820793653000067
            ],
            [
              -70.33652388399992,
              9.821277360000181
            ],
            [
              -70.333235,
              9.822107
            ],
            [
              -70.33202596399991,
              9.822437326000056
            ],
            [
              -70.32827123999994,
              9.823463170000025
            ],
            [
              -70.32826121799997,
              9.823509735000073
            ],
            [
              -70.32780021299993,
              9.82565678400016
            ],
            [
              -70.32683918399994,
              9.826489810000169
            ],
            [
              -70.32601415299996,
              9.82828086100011
            ],
            [
              -70.32566015699996,
              9.830131898000047
            ],
            [
              -70.32578315799992,
              9.830910924000023
            ],
            [
              -70.32529561099994,
              9.832108892000065
            ],
            [
              -70.32482713999997,
              9.83325998700019
            ],
            [
              -70.32430014599998,
              9.838800113000104
            ],
            [
              -70.32285811899993,
              9.84425225299998
            ],
            [
              -70.32345715499997,
              9.846794319000026
            ],
            [
              -70.32336115899983,
              9.847304332000022
            ],
            [
              -70.32376018899998,
              9.849672379000083
            ],
            [
              -70.32469024199992,
              9.85183543100004
            ],
            [
              -70.32574929799989,
              9.853798470000186
            ],
            [
              -70.32720137199993,
              9.855361491999986
            ],
            [
              -70.32917945299994,
              9.856520512000145
            ],
            [
              -70.32996949399995,
              9.856993519000127
            ],
            [
              -70.33127555499982,
              9.858010533000083
            ],
            [
              -70.33621379299996,
              9.862767616000099
            ],
            [
              -70.33746180299988,
              9.864832565000029
            ],
            [
              -70.3403719989999,
              9.869647756000063
            ],
            [
              -70.34401419499989,
              9.875930887000095
            ],
            [
              -70.34671433699992,
              9.880216970000049
            ],
            [
              -70.35158058099995,
              9.886885102000065
            ],
            [
              -70.35522776999994,
              9.89347023900018
            ],
            [
              -70.35789689199999,
              9.895644279000123
            ],
            [
              -70.3605660149999,
              9.897818318000134
            ],
            [
              -70.36186108199996,
              9.89941634400003
            ],
            [
              -70.36208207099997,
              9.901946520000138
            ],
            [
              -70.36208310899997,
              9.901958401000115
            ],
            [
              -70.36279313699998,
              9.902207402000045
            ],
            [
              -70.3643701989999,
              9.90251240200007
            ],
            [
              -70.36531924999991,
              9.903683431000047
            ],
            [
              -70.36979744099989,
              9.904724420000093
            ],
            [
              -70.37354158799997,
              9.903653381000026
            ],
            [
              -70.37648071699988,
              9.902970347
            ],
            [
              -70.37718773699987,
              9.902610333999974
            ],
            [
              -70.3775757549999,
              9.9024993270001
            ],
            [
              -70.38466404699994,
              9.901692268000033
            ],
            [
              -70.39508446299988,
              9.899829156000067
            ],
            [
              -70.39524647199994,
              9.899852155000133
            ],
            [
              -70.39751457199986,
              9.900715163000143
            ],
            [
              -70.39977866799995,
              9.900494147000131
            ],
            [
              -70.40280979399995,
              9.900923138
            ],
            [
              -70.40891205299994,
              9.90204112300006
            ],
            [
              -70.41067512999996,
              9.902450126000076
            ],
            [
              -70.41229820999996,
              9.903506138000012
            ],
            [
              -70.41689739999998,
              9.904547138
            ],
            [
              -70.41723039699991,
              9.901162053000121
            ],
            [
              -70.42084752999989,
              9.898810975000117
            ],
            [
              -70.42216557199998,
              9.896107908000033
            ],
            [
              -70.42480064999995,
              9.890702767
            ],
            [
              -70.42480264099993,
              9.889495736000072
            ],
            [
              -70.42904479799995,
              9.88494859300016
            ],
            [
              -70.43404897699997,
              9.880449455000019
            ],
            [
              -70.43986918999997,
              9.876340323000022
            ],
            [
              -70.44534742199994,
              9.87635929400011
            ],
            [
              -70.44901757899993,
              9.877613308000093
            ],
            [
              -70.4507066519999,
              9.877936305000105
            ],
            [
              -70.45209071199992,
              9.878657308000186
            ],
            [
              -70.45255373699996,
              9.878289302999974
            ],
            [
              -70.45389978799994,
              9.878546294000046
            ],
            [
              -70.45758291699997,
              9.873966161000055
            ],
            [
              -70.45958996799993,
              9.868718028000046
            ],
            [
              -70.4599009769999,
              9.86852801800012
            ],
            [
              -70.46952835699994,
              9.865742905
            ],
            [
              -70.47146443799994,
              9.86563588600012
            ],
            [
              -70.47412156599995,
              9.867262911000182
            ],
            [
              -70.48024183299998,
              9.870066934000135
            ],
            [
              -70.48497105099995,
              9.874163007
            ],
            [
              -70.48649611599996,
              9.87444200400006
            ],
            [
              -70.48623712999989,
              9.877125068000055
            ],
            [
              -70.48363006599993,
              9.88425025600003
            ],
            [
              -70.48691420299997,
              9.88562327000011
            ],
            [
              -70.48888031299992,
              9.890037366000115
            ],
            [
              -70.49247646199996,
              9.888709305000077
            ],
            [
              -70.49300747699994,
              9.889129313000012
            ],
            [
              -70.49566260399996,
              9.890296323000143
            ],
            [
              -70.49896471299996,
              9.887330237000015
            ],
            [
              -70.50032275199999,
              9.883287129000166
            ],
            [
              -70.50185880699996,
              9.88222609600001
            ],
            [
              -70.50620898499994,
              9.88098404800013
            ],
            [
              -70.5099901619999,
              9.884474105000152
            ]
          ]
        ]
      }
    },
    {
      "type": "Feature",
      "properties": {
        "Pais": "Venezuela",
        "Estado": "Trujillo",
        "Municipio": "José Felipe Márquez Cañizal",
        "Parroquia": "Antonio José de Sucre"
      },
      "geometry": {
        "type": "Polygon",
        "coordinates": [
          [
            [
              -70.651769,
              9.7865010000001
            ],
            [
              -70.65213844799996,
              9.786771624000153
            ],
            [
              -70.65274099999988,
              9.787213
            ],
            [
              -70.653713,
              9.788958
            ],
            [
              -70.654335,
              9.790862000000175
            ],
            [
              -70.654588,
              9.792055000000119
            ],
            [
              -70.654748,
              9.793477
            ],
            [
              -70.655139,
              9.795358
            ],
            [
              -70.655274,
              9.798224
            ],
            [
              -70.65557199999989,
              9.79994500000015
            ],
            [
              -70.655848,
              9.801069
            ],
            [
              -70.656578,
              9.802
            ],
            [
              -70.65740699999986,
              9.802836
            ],
            [
              -70.658047,
              9.804047
            ],
            [
              -70.658763,
              9.804934000000117
            ],
            [
              -70.65940699999987,
              9.805777
            ],
            [
              -70.6601629999999,
              9.807007
            ],
            [
              -70.660205,
              9.808338
            ],
            [
              -70.66011,
              9.810227000000168
            ],
            [
              -70.66007499999989,
              9.810941
            ],
            [
              -70.660293,
              9.81208
            ],
            [
              -70.660789,
              9.813689
            ],
            [
              -70.66157199999986,
              9.814044
            ],
            [
              -70.662209,
              9.814727000000175
            ],
            [
              -70.66745543399992,
              9.821941337000169
            ],
            [
              -70.66752540099986,
              9.822037548000026
            ],
            [
              -70.66756499999985,
              9.822092000000112
            ],
            [
              -70.66764283299989,
              9.822161161000054
            ],
            [
              -70.66763133199993,
              9.822117682999988
            ],
            [
              -70.6679573429999,
              9.82108665800007
            ],
            [
              -70.66868036099993,
              9.818312584000012
            ],
            [
              -70.66938035999993,
              9.814645499999983
            ],
            [
              -70.6705443969999,
              9.811666421000155
            ],
            [
              -70.6723544539999,
              9.809605358000056
            ],
            [
              -70.67386350899989,
              9.808254322000039
            ],
            [
              -70.67608959499995,
              9.807616287000087
            ],
            [
              -70.67731864999996,
              9.806999272000098
            ],
            [
              -70.67891870399984,
              9.80592423800016
            ],
            [
              -70.68288485799991,
              9.804095162000124
            ],
            [
              -70.68411490299997,
              9.802928130000055
            ],
            [
              -70.68427989099996,
              9.80084207800013
            ],
            [
              -70.68460227299988,
              9.800026953999975
            ],
            [
              -70.68514091599997,
              9.798665026000094
            ],
            [
              -70.68625495099997,
              9.797106980000137
            ],
            [
              -70.68713698499994,
              9.796122957000023
            ],
            [
              -70.68823101499993,
              9.793211873000189
            ],
            [
              -70.68818800399993,
              9.791033822000031
            ],
            [
              -70.68797206599999,
              9.790235472
            ],
            [
              -70.68753672099996,
              9.788625946000082
            ],
            [
              -70.68721993599996,
              9.787454751999974
            ],
            [
              -70.68764293299995,
              9.783442644000047
            ],
            [
              -70.68892096999991,
              9.78094558600003
            ],
            [
              -70.68975998199994,
              9.77785150799997
            ],
            [
              -70.68979409899993,
              9.777445869000076
            ],
            [
              -70.68994897599998,
              9.77560445500012
            ],
            [
              -70.68920893999996,
              9.77420442800019
            ],
            [
              -70.69159257899997,
              9.771634777000145
            ],
            [
              -70.69155199999989,
              9.771582000000137
            ],
            [
              -70.69108462499997,
              9.771380247000025
            ],
            [
              -70.68733201999999,
              9.769760354000027
            ],
            [
              -70.685654,
              9.769036000000142
            ],
            [
              -70.6855996569999,
              9.767075957000031
            ],
            [
              -70.68544082799991,
              9.761347323000166
            ],
            [
              -70.685389,
              9.759478000000115
            ],
            [
              -70.682919,
              9.755118000000152
            ],
            [
              -70.677856,
              9.749724
            ],
            [
              -70.675051,
              9.748689
            ],
            [
              -70.67177627899997,
              9.74512105499997
            ],
            [
              -70.668004,
              9.741011000000185
            ],
            [
              -70.663837,
              9.73707
            ],
            [
              -70.661684,
              9.736450000000104
            ],
            [
              -70.658693,
              9.736454
            ],
            [
              -70.65691,
              9.733756000000142
            ],
            [
              -70.655478,
              9.728356
            ],
            [
              -70.656892,
              9.725444
            ],
            [
              -70.6589469999999,
              9.722532000000115
            ],
            [
              -70.658878,
              9.720039
            ],
            [
              -70.655548,
              9.715473000000145
            ],
            [
              -70.650977,
              9.712363
            ],
            [
              -70.642071,
              9.706975000000114
            ],
            [
              -70.63676,
              9.700334
            ],
            [
              -70.634105,
              9.697013
            ],
            [
              -70.63346399999989,
              9.694213
            ],
            [
              -70.562537,
              9.727094000000136
            ],
            [
              -70.5631,
              9.72784
            ],
            [
              -70.56428199999988,
              9.72784300000012
            ],
            [
              -70.56502499999988,
              9.726675000000114
            ],
            [
              -70.56574299999988,
              9.727066
            ],
            [
              -70.566391,
              9.728191
            ],
            [
              -70.566017,
              9.729429
            ],
            [
              -70.566549,
              9.730324
            ],
            [
              -70.567847,
              9.729822
            ],
            [
              -70.568725,
              9.7312
            ],
            [
              -70.568954,
              9.732576
            ],
            [
              -70.569042,
              9.734892000000173
            ],
            [
              -70.568554,
              9.735923
            ],
            [
              -70.567881,
              9.736701
            ],
            [
              -70.567139,
              9.736929000000146
            ],
            [
              -70.565912,
              9.73610100000019
            ],
            [
              -70.564916,
              9.735939
            ],
            [
              -70.56496,
              9.737269
            ],
            [
              -70.56606799999986,
              9.739335
            ],
            [
              -70.566761,
              9.740712000000144
            ],
            [
              -70.566804,
              9.740813000000173
            ],
            [
              -70.56840499999987,
              9.741151
            ],
            [
              -70.570144,
              9.740513
            ],
            [
              -70.571556,
              9.741134
            ],
            [
              -70.57310799999988,
              9.741481
            ],
            [
              -70.57452199999989,
              9.74095700000015
            ],
            [
              -70.576329,
              9.741465000000119
            ],
            [
              -70.57656,
              9.741465000000119
            ],
            [
              -70.57785699999988,
              9.742179
            ],
            [
              -70.57864299999989,
              9.742914
            ],
            [
              -70.579128,
              9.743671000000177
            ],
            [
              -70.579219,
              9.744681
            ],
            [
              -70.579845,
              9.744682000000182
            ],
            [
              -70.58046999999982,
              9.744614
            ],
            [
              -70.580701,
              9.745073
            ],
            [
              -70.58014399999985,
              9.74592100000018
            ],
            [
              -70.579933,
              9.747159000000124
            ],
            [
              -70.58139299999988,
              9.746772
            ],
            [
              -70.582782,
              9.74755400000015
            ],
            [
              -70.5838,
              9.748634000000152
            ],
            [
              -70.584168,
              9.749896
            ],
            [
              -70.583749,
              9.750697000000116
            ],
            [
              -70.58252,
              9.751383
            ],
            [
              -70.582079,
              9.75202400000012
            ],
            [
              -70.582634,
              9.752323
            ],
            [
              -70.584117,
              9.752555
            ],
            [
              -70.585088,
              9.753773
            ],
            [
              -70.585737,
              9.753269000000103
            ],
            [
              -70.586248,
              9.753110000000106
            ],
            [
              -70.586641,
              9.75395900000018
            ],
            [
              -70.587754,
              9.753388
            ],
            [
              -70.588588,
              9.753298
            ],
            [
              -70.58995,
              9.756350000000111
            ],
            [
              -70.591293,
              9.756765
            ],
            [
              -70.591569,
              9.758119000000136
            ],
            [
              -70.592704,
              9.75825900000018
            ],
            [
              -70.593748,
              9.757504
            ],
            [
              -70.595254,
              9.757507000000146
            ],
            [
              -70.597107,
              9.757808000000182
            ],
            [
              -70.598822,
              9.757972
            ],
            [
              -70.61049999999983,
              9.751283000000114
            ],
            [
              -70.627394,
              9.770636
            ],
            [
              -70.629687,
              9.77103000000011
            ],
            [
              -70.630659,
              9.771971000000121
            ],
            [
              -70.632166,
              9.772341
            ],
            [
              -70.632698,
              9.772594
            ],
            [
              -70.63429599999989,
              9.772941000000117
            ],
            [
              -70.635522,
              9.774342
            ],
            [
              -70.636771,
              9.775651000000153
            ],
            [
              -70.638021,
              9.776364000000171
            ],
            [
              -70.639759,
              9.7765500000001
            ],
            [
              -70.64177599999982,
              9.77607200000017
            ],
            [
              -70.643072,
              9.776923
            ],
            [
              -70.643162,
              9.778299
            ],
            [
              -70.643091,
              9.779698000000167
            ],
            [
              -70.643737,
              9.780960000000164
            ],
            [
              -70.644777,
              9.782934
            ],
            [
              -70.645655,
              9.784702000000152
            ],
            [
              -70.646348,
              9.785529000000167
            ],
            [
              -70.647459,
              9.786379000000181
            ],
            [
              -70.649267,
              9.786359000000118
            ],
            [
              -70.651769,
              9.7865010000001
            ]
          ]
        ]
      }
    },
    {
      "type": "Feature",
      "properties": {
        "Pais": "Venezuela",
        "Estado": "Trujillo",
        "Municipio": "José Felipe Márquez Cañizal",
        "Parroquia": "Los Caprichos"
      },
      "geometry": {
        "type": "Polygon",
        "coordinates": [
          [
            [
              -70.63215007699989,
              10.035073560000114
            ],
            [
              -70.63217916299988,
              10.035109966999983
            ],
            [
              -70.63412926299998,
              10.037708018000103
            ],
            [
              -70.64012751799993,
              10.039165022000077
            ],
            [
              -70.64245661599989,
              10.03854199300008
            ],
            [
              -70.64568173299995,
              10.036100915000077
            ],
            [
              -70.64676375299996,
              10.03216980500008
            ],
            [
              -70.6486538069999,
              10.02793070000007
            ],
            [
              -70.65188592899995,
              10.026192635000086
            ],
            [
              -70.65782814999989,
              10.02121448400004
            ],
            [
              -70.66550043299992,
              10.016824324000027
            ],
            [
              -70.66921255699992,
              10.012066195999978
            ],
            [
              -70.67313269499994,
              10.008010076000119
            ],
            [
              -70.68209400199993,
              9.997466762000158
            ],
            [
              -70.68241901099998,
              9.996985755000026
            ],
            [
              -70.68342004699997,
              9.994396685000027
            ],
            [
              -70.68328501399998,
              9.991025604000129
            ],
            [
              -70.68382102999993,
              9.989421560000096
            ],
            [
              -70.68387002299988,
              9.987495516000081
            ],
            [
              -70.68308397099986,
              9.985613479000051
            ],
            [
              -70.68208893099995,
              9.984373451000124
            ],
            [
              -70.68093485599996,
              9.980405365000081
            ],
            [
              -70.68063683099996,
              9.97866231900008
            ],
            [
              -70.68026879699988,
              9.976483276000181
            ],
            [
              -70.68061979899989,
              9.974259222000171
            ],
            [
              -70.67997375699991,
              9.971805159000098
            ],
            [
              -70.6815538059999,
              9.969376094000097
            ],
            [
              -70.68366588699996,
              9.96754504300003
            ],
            [
              -70.68387788099989,
              9.965412990000118
            ],
            [
              -70.68353485099993,
              9.96215691100008
            ],
            [
              -70.6827977939999,
              9.958669840000141
            ],
            [
              -70.68382082999989,
              9.956905785000117
            ],
            [
              -70.68530587999993,
              9.955600749000098
            ],
            [
              -70.68811398499992,
              9.953564678000134
            ],
            [
              -70.69034306599997,
              9.951503624000111
            ],
            [
              -70.69308216899987,
              9.949398553000151
            ],
            [
              -70.69468421399989,
              9.94726849
            ],
            [
              -70.69494321199994,
              9.944677427000101
            ],
            [
              -70.69452918599995,
              9.94220037499997
            ],
            [
              -70.69337312499994,
              9.940066332000072
            ],
            [
              -70.6938621359999,
              9.938599296
            ],
            [
              -70.69460614899992,
              9.936743242000091
            ],
            [
              -70.69465514299998,
              9.934932199000116
            ],
            [
              -70.69505114499998,
              9.933419164000043
            ],
            [
              -70.6943581139999,
              9.931813128000044
            ],
            [
              -70.69436309599996,
              9.928488048000077
            ],
            [
              -70.69425106499995,
              9.925208968
            ],
            [
              -70.69555310799996,
              9.922825905000082
            ],
            [
              -70.69525508099997,
              9.920738862000178
            ],
            [
              -70.69409901899996,
              9.918512806000024
            ],
            [
              -70.69268893999993,
              9.915460744000086
            ],
            [
              -70.6912558599999,
              9.912225674000126
            ],
            [
              -70.69019479499997,
              9.908601598000075
            ],
            [
              -70.69017876499998,
              9.903717483000037
            ],
            [
              -70.69034774699992,
              9.899131377000174
            ],
            [
              -70.69046972599989,
              9.895095276000063
            ],
            [
              -70.69135274999996,
              9.893423235000057
            ],
            [
              -70.69209776499997,
              9.891108171000155
            ],
            [
              -70.69374582599988,
              9.889322117000177
            ],
            [
              -70.69562589299994,
              9.887834071000157
            ],
            [
              -70.69755196199986,
              9.886393031000125
            ],
            [
              -70.69885100899995,
              9.885178992000135
            ],
            [
              -70.7001750529999,
              9.883644949000086
            ],
            [
              -70.69992404399994,
              9.883553943000038
            ],
            [
              -70.69992504899994,
              9.883553943000038
            ],
            [
              -70.69991704299997,
              9.883550951000132
            ],
            [
              -70.70039606899991,
              9.883315933000063
            ],
            [
              -70.70191213499993,
              9.883703935000028
            ],
            [
              -70.70221380099991,
              9.883604172
            ],
            [
              -70.70197802499996,
              9.883449498000175
            ],
            [
              -70.70055606499989,
              9.882869929000094
            ],
            [
              -70.7001300519999,
              9.882883933000187
            ],
            [
              -70.69886998599992,
              9.88084189100016
            ],
            [
              -70.69733090999995,
              9.879032857000084
            ],
            [
              -70.69676798599994,
              9.878549167000187
            ],
            [
              -70.69591684599993,
              9.877817829000094
            ],
            [
              -70.6953059469999,
              9.877091761000031
            ],
            [
              -70.69452192799997,
              9.876159935000032
            ],
            [
              -70.69422604699992,
              9.875808274000178
            ],
            [
              -70.6939757479999,
              9.875510787000167
            ],
            [
              -70.69282370299999,
              9.874680777000037
            ],
            [
              -70.69245988699998,
              9.874467677000155
            ],
            [
              -70.69068960799996,
              9.873430763000158
            ],
            [
              -70.68849449899989,
              9.871242720000055
            ],
            [
              -70.68761045099984,
              9.869698686
            ],
            [
              -70.68634638799995,
              9.867655651000177
            ],
            [
              -70.68512332199992,
              9.865291607000131
            ],
            [
              -70.68418027999996,
              9.864389580000022
            ],
            [
              -70.68284221999994,
              9.86356257500006
            ],
            [
              -70.68197516299995,
              9.861628531000122
            ],
            [
              -70.6815881359999,
              9.859206479000079
            ],
            [
              -70.6812971089999,
              9.857010431000106
            ],
            [
              -70.68134310099998,
              9.855520397000078
            ],
            [
              -70.68017904899995,
              9.853889366000033
            ],
            [
              -70.6791329919999,
              9.852439333000063
            ],
            [
              -70.67787493799989,
              9.850694295000096
            ],
            [
              -70.67661987699995,
              9.849224266000078
            ],
            [
              -70.67484078899992,
              9.846892224000044
            ],
            [
              -70.67367972899996,
              9.845466196000189
            ],
            [
              -70.67289368099995,
              9.844287173000055
            ],
            [
              -70.67235365899995,
              9.84241613200004
            ],
            [
              -70.67242265199997,
              9.840972099
            ],
            [
              -70.67245964099999,
              9.838909048000119
            ],
            [
              -70.67233050399989,
              9.837860384000066
            ],
            [
              -70.67224561299997,
              9.837171017000117
            ],
            [
              -70.67207660299994,
              9.8352719720001
            ],
            [
              -70.67199764499998,
              9.834231658000022
            ],
            [
              -70.67192457499988,
              9.833268923
            ],
            [
              -70.67167256399989,
              9.831794891000072
            ],
            [
              -70.67094752099996,
              9.83001884500004
            ],
            [
              -70.66973545399992,
              9.827872811000134
            ],
            [
              -70.66971342699998,
              9.827829708000024
            ],
            [
              -70.669669,
              9.82784700000019
            ],
            [
              -70.66946462999982,
              9.827939809000156
            ],
            [
              -70.66786805399988,
              9.828664848000187
            ],
            [
              -70.66774,
              9.828723
            ],
            [
              -70.667089,
              9.829649
            ],
            [
              -70.6666919999999,
              9.830564
            ],
            [
              -70.6657459999999,
              9.831643
            ],
            [
              -70.664875,
              9.832832
            ],
            [
              -70.66435599999988,
              9.834098000000154
            ],
            [
              -70.663938,
              9.835059
            ],
            [
              -70.663005,
              9.83593000000019
            ],
            [
              -70.661327,
              9.836283
            ],
            [
              -70.659773,
              9.836791
            ],
            [
              -70.65927899999986,
              9.837619000000132
            ],
            [
              -70.657773,
              9.838171000000159
            ],
            [
              -70.65699099999989,
              9.838804000000152
            ],
            [
              -70.656371,
              9.83989
            ],
            [
              -70.656056,
              9.840571000000125
            ],
            [
              -70.65448699999985,
              9.841264
            ],
            [
              -70.653417,
              9.840739
            ],
            [
              -70.65137184999992,
              9.840929324000115
            ],
            [
              -70.650967,
              9.840967
            ],
            [
              -70.649167,
              9.841211000000158
            ],
            [
              -70.646933,
              9.841107
            ],
            [
              -70.64587199999988,
              9.841753
            ],
            [
              -70.645018,
              9.843287000000146
            ],
            [
              -70.64456,
              9.844388000000151
            ],
            [
              -70.643219,
              9.845461000000114
            ],
            [
              -70.642835,
              9.846145
            ],
            [
              -70.643378,
              9.847775
            ],
            [
              -70.643358,
              9.848811000000183
            ],
            [
              -70.64341499999989,
              9.850946
            ],
            [
              -70.64390699999984,
              9.852946
            ],
            [
              -70.644174,
              9.853669000000139
            ],
            [
              -70.644507,
              9.854757
            ],
            [
              -70.64444699999984,
              9.85593200000011
            ],
            [
              -70.644188,
              9.856334000000174
            ],
            [
              -70.642419,
              9.85722
            ],
            [
              -70.641849,
              9.858879
            ],
            [
              -70.641154,
              9.859876000000156
            ],
            [
              -70.6402839999999,
              9.860606000000132
            ],
            [
              -70.638843,
              9.861523
            ],
            [
              -70.638154,
              9.861692000000119
            ],
            [
              -70.636396,
              9.863201000000117
            ],
            [
              -70.6354,
              9.86313100000018
            ],
            [
              -70.63475199999988,
              9.862235000000112
            ],
            [
              -70.634012,
              9.861294
            ],
            [
              -70.6328769999999,
              9.861017
            ],
            [
              -70.631741,
              9.86106100000012
            ],
            [
              -70.6304669999999,
              9.860508
            ],
            [
              -70.629356,
              9.859681
            ],
            [
              -70.627897,
              9.85873800000013
            ],
            [
              -70.627576,
              9.856857000000105
            ],
            [
              -70.6270449999999,
              9.855504
            ],
            [
              -70.625843,
              9.853805
            ],
            [
              -70.624475,
              9.853825
            ],
            [
              -70.621809,
              9.854164
            ],
            [
              -70.621042,
              9.855195
            ],
            [
              -70.620414,
              9.856524
            ],
            [
              -70.618791,
              9.856636
            ],
            [
              -70.61617299999989,
              9.855783
            ],
            [
              -70.615318,
              9.854451000000154
            ],
            [
              -70.615831,
              9.852755000000172
            ],
            [
              -70.61412,
              9.850253000000123
            ],
            [
              -70.613846,
              9.847890000000177
            ],
            [
              -70.61275899999987,
              9.846306
            ],
            [
              -70.612228,
              9.845067
            ],
            [
              -70.611882,
              9.843805
            ],
            [
              -70.612163,
              9.842613
            ],
            [
              -70.611796,
              9.840365000000133
            ],
            [
              -70.610266,
              9.840271
            ],
            [
              -70.60975899999988,
              9.838825
            ],
            [
              -70.61112999999989,
              9.836489
            ],
            [
              -70.612362,
              9.83429
            ],
            [
              -70.61375499999986,
              9.833054
            ],
            [
              -70.614939,
              9.831611
            ],
            [
              -70.614989,
              9.829754
            ],
            [
              -70.613714,
              9.829706
            ],
            [
              -70.613023,
              9.827251000000103
            ],
            [
              -70.613443,
              9.825716000000114
            ],
            [
              -70.614558,
              9.824204
            ],
            [
              -70.6150449999999,
              9.82390700000019
            ],
            [
              -70.615162,
              9.82315
            ],
            [
              -70.614885,
              9.822439
            ],
            [
              -70.6140999999999,
              9.821016
            ],
            [
              -70.61312799999985,
              9.820349000000135
            ],
            [
              -70.612319,
              9.818743
            ],
            [
              -70.611858,
              9.817617
            ],
            [
              -70.61095499999982,
              9.816813000000138
            ],
            [
              -70.60921599999989,
              9.817361000000176
            ],
            [
              -70.608451,
              9.817383
            ],
            [
              -70.608197,
              9.817038
            ],
            [
              -70.607573,
              9.815936
            ],
            [
              -70.606624,
              9.815154000000177
            ],
            [
              -70.605466,
              9.814716000000146
            ],
            [
              -70.603867,
              9.814713
            ],
            [
              -70.602199,
              9.81455000000011
            ],
            [
              -70.6010169999999,
              9.813883000000146
            ],
            [
              -70.59921,
              9.81376500000016
            ],
            [
              -70.59737799999982,
              9.814427
            ],
            [
              -70.596404,
              9.814449
            ],
            [
              -70.594946,
              9.813367
            ],
            [
              -70.593581,
              9.81231
            ],
            [
              -70.592191,
              9.811894
            ],
            [
              -70.591649,
              9.813263
            ],
            [
              -70.590815,
              9.813784000000112
            ],
            [
              -70.59060399999987,
              9.814713
            ],
            [
              -70.59108,
              9.815909
            ],
            [
              -70.59244199999989,
              9.81672
            ],
            [
              -70.593439,
              9.817640000000154
            ],
            [
              -70.59421899999984,
              9.818891000000121
            ],
            [
              -70.594942,
              9.820398
            ],
            [
              -70.595129,
              9.821401
            ],
            [
              -70.595085,
              9.822414
            ],
            [
              -70.595668,
              9.823422
            ],
            [
              -70.59683699999982,
              9.824540000000127
            ],
            [
              -70.597044,
              9.82692100000014
            ],
            [
              -70.597207,
              9.827879
            ],
            [
              -70.597578,
              9.828345000000184
            ],
            [
              -70.597631,
              9.828963000000158
            ],
            [
              -70.597656,
              9.829973
            ],
            [
              -70.598422,
              9.830926
            ],
            [
              -70.598515,
              9.83285300000017
            ],
            [
              -70.597236,
              9.834245
            ],
            [
              -70.59672099999989,
              9.836084000000142
            ],
            [
              -70.595626,
              9.837927
            ],
            [
              -70.59372699999989,
              9.839003000000105
            ],
            [
              -70.59254,
              9.840391000000182
            ],
            [
              -70.593234,
              9.842244
            ],
            [
              -70.594195,
              9.843877000000134
            ],
            [
              -70.594552,
              9.845976
            ],
            [
              -70.594362,
              9.847823000000119
            ],
            [
              -70.595204,
              9.849876000000165
            ],
            [
              -70.5959289999999,
              9.852371
            ],
            [
              -70.596155,
              9.852729000000124
            ],
            [
              -70.597411,
              9.853246000000127
            ],
            [
              -70.59892899999988,
              9.854371000000128
            ],
            [
              -70.59967499999988,
              9.855394
            ],
            [
              -70.60014299999989,
              9.856430000000103
            ],
            [
              -70.601113,
              9.856799
            ],
            [
              -70.601322,
              9.858262
            ],
            [
              -70.601868,
              9.859455000000139
            ],
            [
              -70.602066,
              9.860664000000156
            ],
            [
              -70.601957,
              9.861772
            ],
            [
              -70.602048,
              9.863193000000138
            ],
            [
              -70.6016029999999,
              9.865030000000104
            ],
            [
              -70.601713,
              9.86681700000014
            ],
            [
              -70.602569,
              9.869169
            ],
            [
              -70.603352,
              9.870948000000169
            ],
            [
              -70.60345799999982,
              9.872668
            ],
            [
              -70.603168,
              9.874819
            ],
            [
              -70.600986,
              9.876275
            ],
            [
              -70.60013,
              9.87778500000013
            ],
            [
              -70.59926499999989,
              9.87863
            ],
            [
              -70.598147,
              9.879531000000156
            ],
            [
              -70.596321,
              9.880190000000141
            ],
            [
              -70.594959,
              9.881793
            ],
            [
              -70.594697,
              9.883092
            ],
            [
              -70.594916,
              9.884737000000143
            ],
            [
              -70.593569,
              9.886178
            ],
            [
              -70.592621,
              9.888198000000159
            ],
            [
              -70.592584,
              9.890314000000103
            ],
            [
              -70.593403,
              9.892410000000154
            ],
            [
              -70.54838529899996,
              9.906176936
            ],
            [
              -70.537859,
              9.909396000000129
            ],
            [
              -70.53753660899991,
              9.909402002000093
            ],
            [
              -70.53754945399993,
              9.909428533000039
            ],
            [
              -70.53971256399996,
              9.91178058100013
            ],
            [
              -70.54083963199992,
              9.916276678000088
            ],
            [
              -70.54310574699986,
              9.919400740000128
            ],
            [
              -70.54328577399991,
              9.92249681100003
            ],
            [
              -70.54214374599991,
              9.925750900000082
            ],
            [
              -70.54090772199999,
              9.929692997000018
            ],
            [
              -70.54018270799992,
              9.932764075000136
            ],
            [
              -70.53953268699996,
              9.933267091000175
            ],
            [
              -70.5401997319999,
              9.935928155000056
            ],
            [
              -70.54084577099991,
              9.937925194
            ],
            [
              -70.54174582399997,
              9.940266240000085
            ],
            [
              -70.54384892799999,
              9.943847314000095
            ],
            [
              -70.54409994699995,
              9.945682361000138
            ],
            [
              -70.54748211099985,
              9.947752392000098
            ],
            [
              -70.54977620199986,
              9.94846838799998
            ],
            [
              -70.55100126399998,
              9.950396434000027
            ],
            [
              -70.55134629399998,
              9.951933471000075
            ],
            [
              -70.55363839499995,
              9.95388750300009
            ],
            [
              -70.55632451999998,
              9.955749532000084
            ],
            [
              -70.55894463499993,
              9.955594510000026
            ],
            [
              -70.56144872999994,
              9.955392484000015
            ],
            [
              -70.56543690299998,
              9.955606474000149
            ],
            [
              -70.5683130139999,
              9.955152437000152
            ],
            [
              -70.56993707499998,
              9.95423841500019
            ],
            [
              -70.57135313599997,
              9.9530713690001
            ],
            [
              -70.5743222559999,
              9.952802349000024
            ],
            [
              -70.57652334999995,
              9.953333351000083
            ],
            [
              -70.57791539899983,
              9.95317533300016
            ],
            [
              -70.57935345899989,
              9.952719317000117
            ],
            [
              -70.58132454299982,
              9.952448294000135
            ],
            [
              -70.58487268599993,
              9.952018269000177
            ],
            [
              -70.58746680799999,
              9.953766291000022
            ],
            [
              -70.59024294799991,
              9.957371367000064
            ],
            [
              -70.59061096599999,
              9.958793391000142
            ],
            [
              -70.58995795299995,
              9.96117745500004
            ],
            [
              -70.58914292799994,
              9.963079510000114
            ],
            [
              -70.58996999499988,
              9.967529608000063
            ],
            [
              -70.59040502899984,
              9.971015688000023
            ],
            [
              -70.59250814799992,
              9.975192769000046
            ],
            [
              -70.5938002229999,
              9.978680854000118
            ],
            [
              -70.59485829599998,
              9.984231980000061
            ],
            [
              -70.59529432999989,
              9.98687003300006
            ],
            [
              -70.59714343299993,
              9.990290108000181
            ],
            [
              -70.59806648699993,
              9.99274516200012
            ],
            [
              -70.59878253299996,
              9.994741207000118
            ],
            [
              -70.60051960899995,
              9.9956392200001
            ],
            [
              -70.60181866499988,
              9.995893208000155
            ],
            [
              -70.60392775599996,
              9.996103200000107
            ],
            [
              -70.60536481499992,
              9.996381204000045
            ],
            [
              -70.60645386699997,
              9.997460219000061
            ],
            [
              -70.60907400499997,
              10.002925342000083
            ],
            [
              -70.61166115299989,
              10.008937468000113
            ],
            [
              -70.61120016899986,
              10.014270592000116
            ],
            [
              -70.61174320999993,
              10.018489698000167
            ],
            [
              -70.61828451699989,
              10.024065789000133
            ],
            [
              -70.6212526629999,
              10.026956841000072
            ],
            [
              -70.62410578599997,
              10.028440862000025
            ],
            [
              -70.62443081199996,
              10.03085191700012
            ],
            [
              -70.62930702399984,
              10.031514895999976
            ],
            [
              -70.63215007699989,
              10.035073560000114
            ]
          ]
        ]
      }
    }
  ]
}