{
  "type": "FeatureCollection",
  "features": [
    {
      "type": "Feature",
      "properties": {
        "Pais": "Venezuela",
        "Estado": "Yaracuy",
        "Municipio": "José Antonio Páez",
        "Parroquia": "José Antonio Páez"
      },
      "geometry": {
        "type": "Polygon",
        "coordinates": [
          [
            [
              -69.030627,
              10.152978000000132
            ],
            [
              -69.032231,
              10.15361700000011
            ],
            [
              -69.033905,
              10.154165000000148
            ],
            [
              -69.035649,
              10.154505
            ],
            [
              -69.036346,
              10.15475600000019
            ],
            [
              -69.036859,
              10.155489000000102
            ],
            [
              -69.037999,
              10.15617500000019
            ],
            [
              -69.03930099999985,
              10.156609
            ],
            [
              -69.040533,
              10.15685900000011
            ],
            [
              -69.04171799999989,
              10.156581000000187
            ],
            [
              -69.042716,
              10.156121000000155
            ],
            [
              -69.043785,
              10.15598100000011
            ],
            [
              -69.044922,
              10.155291
            ],
            [
              -69.0465,
              10.154118000000153
            ],
            [
              -69.04721899999987,
              10.153427
            ],
            [
              -69.048985,
              10.152896000000112
            ],
            [
              -69.050332,
              10.152756
            ],
            [
              -69.051749,
              10.152203000000156
            ],
            [
              -69.053004,
              10.151925
            ],
            [
              -69.0542109999999,
              10.151441
            ],
            [
              -69.055394,
              10.149948000000109
            ],
            [
              -69.056345,
              10.149166
            ],
            [
              -69.05724999999984,
              10.148269
            ],
            [
              -69.05783,
              10.147695
            ],
            [
              -69.059363,
              10.147508000000187
            ],
            [
              -69.060036,
              10.147323000000142
            ],
            [
              -69.061476,
              10.146839
            ],
            [
              -69.062452,
              10.146722000000182
            ],
            [
              -69.063753,
              10.146468
            ],
            [
              -69.0653779999999,
              10.145960000000173
            ],
            [
              -69.066052,
              10.145844000000181
            ],
            [
              -69.067909,
              10.144854000000123
            ],
            [
              -69.068859,
              10.143384
            ],
            [
              -69.069531,
              10.142189
            ],
            [
              -69.069947,
              10.14129400000013
            ],
            [
              -69.07013099999989,
              10.14033000000012
            ],
            [
              -69.0701279999999,
              10.13877
            ],
            [
              -69.070358,
              10.137462000000141
            ],
            [
              -69.070145,
              10.135467
            ],
            [
              -69.070142,
              10.13383800000014
            ],
            [
              -69.070255,
              10.1322100000001
            ],
            [
              -69.070253,
              10.131246
            ],
            [
              -69.069089,
              10.130718
            ],
            [
              -69.06711699999983,
              10.130561
            ],
            [
              -69.066282,
              10.129896
            ],
            [
              -69.066605,
              10.128128
            ],
            [
              -69.06669,
              10.126941
            ],
            [
              -69.06671299999988,
              10.126941
            ],
            [
              -69.066991,
              10.12636700000013
            ],
            [
              -69.0673369999999,
              10.125471
            ],
            [
              -69.067476,
              10.125058
            ],
            [
              -69.067893,
              10.124209000000121
            ],
            [
              -69.06828599999989,
              10.123451000000102
            ],
            [
              -69.06898,
              10.12168300000019
            ],
            [
              -69.068836,
              10.119252000000131
            ],
            [
              -69.068646,
              10.117439
            ],
            [
              -69.068318,
              10.116040000000112
            ],
            [
              -69.067945,
              10.115422000000137
            ],
            [
              -69.0673369999999,
              10.113496000000112
            ],
            [
              -69.06696299999987,
              10.112212000000113
            ],
            [
              -69.066265,
              10.111411
            ],
            [
              -69.065615,
              10.11171000000013
            ],
            [
              -69.065568,
              10.11171000000013
            ],
            [
              -69.06508,
              10.111528
            ],
            [
              -69.064638,
              10.111391
            ],
            [
              -69.064057,
              10.111392000000137
            ],
            [
              -69.063035,
              10.111532000000182
            ],
            [
              -69.062222,
              10.11153400000012
            ],
            [
              -69.060478,
              10.110803
            ],
            [
              -69.058223,
              10.110738
            ],
            [
              -69.057108,
              10.110901000000183
            ],
            [
              -69.05524799999984,
              10.110010000000159
            ],
            [
              -69.054433,
              10.109415000000126
            ],
            [
              -69.053152,
              10.107789
            ],
            [
              -69.052151,
              10.106713
            ],
            [
              -69.050569,
              10.1055
            ],
            [
              -69.048615,
              10.104242
            ],
            [
              -69.047731,
              10.103923000000123
            ],
            [
              -69.046522,
              10.103306
            ],
            [
              -69.0448009999999,
              10.102575000000172
            ],
            [
              -69.0447999999999,
              10.102116
            ],
            [
              -69.044636,
              10.101452000000108
            ],
            [
              -69.043799,
              10.100696
            ],
            [
              -69.043378,
              10.099688000000185
            ],
            [
              -69.042702,
              10.098496000000182
            ],
            [
              -69.042004,
              10.097809000000154
            ],
            [
              -69.039493,
              10.096736
            ],
            [
              -69.038492,
              10.095614
            ],
            [
              -69.0377,
              10.094698000000164
            ],
            [
              -69.036487,
              10.09259
            ],
            [
              -69.035647,
              10.090756000000113
            ],
            [
              -69.035408,
              10.087063000000114
            ],
            [
              -69.034941,
              10.085734000000116
            ],
            [
              -69.034359,
              10.084886
            ],
            [
              -69.034637,
              10.08445
            ],
            [
              -69.035192,
              10.083164
            ],
            [
              -69.035793,
              10.08158
            ],
            [
              -69.036325,
              10.080386
            ],
            [
              -69.035184,
              10.07898900000015
            ],
            [
              -69.0352749999999,
              10.077911000000142
            ],
            [
              -69.0353889999999,
              10.076649000000145
            ],
            [
              -69.034689,
              10.075068000000101
            ],
            [
              -69.03304,
              10.075254
            ],
            [
              -69.031693,
              10.075555
            ],
            [
              -69.02976399999989,
              10.074916
            ],
            [
              -69.02880699999986,
              10.072578000000135
            ],
            [
              -69.028336,
              10.068909000000133
            ],
            [
              -69.02735599999988,
              10.066914
            ],
            [
              -69.025286,
              10.065656000000104
            ],
            [
              -69.024215,
              10.064029000000119
            ],
            [
              -69.02356099999986,
              10.062058
            ],
            [
              -69.02393099999989,
              10.061002000000144
            ],
            [
              -69.023765,
              10.059236
            ],
            [
              -69.02348199999989,
              10.057126
            ],
            [
              -69.022523,
              10.053595
            ],
            [
              -69.021824,
              10.052381
            ],
            [
              -69.021751,
              10.050523000000112
            ],
            [
              -69.020796,
              10.049034
            ],
            [
              -69.020655,
              10.047864
            ],
            [
              -69.021048,
              10.04685400000011
            ],
            [
              -69.021742,
              10.045522
            ],
            [
              -69.02143799999988,
              10.044353000000115
            ],
            [
              -69.021529,
              10.043275000000108
            ],
            [
              -69.02183,
              10.04242500000015
            ],
            [
              -69.022781,
              10.04164400000019
            ],
            [
              -69.023383,
              10.040404
            ],
            [
              -69.023333,
              10.038408000000118
            ],
            [
              -69.02256399999987,
              10.037354000000107
            ],
            [
              -69.021796,
              10.036759000000131
            ],
            [
              -69.020631,
              10.035179000000142
            ],
            [
              -69.020862,
              10.034123000000136
            ],
            [
              -69.020254,
              10.032312
            ],
            [
              -69.019626,
              10.031533
            ],
            [
              -69.0190659999999,
              10.030250000000137
            ],
            [
              -69.01774,
              10.028968000000134
            ],
            [
              -69.017296,
              10.027569
            ],
            [
              -69.01727199999988,
              10.027202
            ],
            [
              -69.018453,
              10.025365
            ],
            [
              -69.019497,
              10.024559000000181
            ],
            [
              -69.019588,
              10.023320000000183
            ],
            [
              -69.018471,
              10.022084
            ],
            [
              -69.01698299999987,
              10.021444
            ],
            [
              -69.01609899999988,
              10.020757
            ],
            [
              -69.015865,
              10.019978
            ],
            [
              -69.01614299999989,
              10.019129000000135
            ],
            [
              -69.016885,
              10.018623
            ],
            [
              -69.018625,
              10.017289000000119
            ],
            [
              -69.018972,
              10.01683
            ],
            [
              -69.01886832499997,
              10.016439489999982
            ],
            [
              -69.018552,
              10.015248
            ],
            [
              -69.01801299999983,
              10.012955
            ],
            [
              -69.017915,
              10.010019
            ],
            [
              -69.01769329799993,
              10.009395734
            ],
            [
              -69.0174009999999,
              10.008574
            ],
            [
              -69.01695150899991,
              10.007358688000068
            ],
            [
              -69.016655,
              10.006557000000157
            ],
            [
              -69.0161109629999,
              10.005850253000062
            ],
            [
              -69.016003,
              10.00571
            ],
            [
              -69.015282,
              10.005183000000159
            ],
            [
              -69.014095,
              10.003947
            ],
            [
              -69.013885,
              10.003351000000123
            ],
            [
              -69.01360299999988,
              10.001791
            ],
            [
              -69.013137,
              10.000714
            ],
            [
              -69.01310999999987,
              9.998328000000186
            ],
            [
              -69.013177,
              9.996906
            ],
            [
              -69.01285482799989,
              9.993207431000087
            ],
            [
              -69.01216007399995,
              9.993547147000129
            ],
            [
              -69.00091260399995,
              9.999046852000163
            ],
            [
              -68.96362087399996,
              10.017281490000016
            ],
            [
              -68.96363825799989,
              10.017097984000145
            ],
            [
              -68.96355501099993,
              10.017255994000038
            ],
            [
              -68.963516,
              10.017668
            ],
            [
              -68.962316,
              10.019031
            ],
            [
              -68.961809,
              10.019906000000105
            ],
            [
              -68.961556,
              10.02039000000019
            ],
            [
              -68.961306,
              10.021632000000125
            ],
            [
              -68.96154499999989,
              10.022871000000123
            ],
            [
              -68.9619249999999,
              10.024614
            ],
            [
              -68.9624199999999,
              10.026334000000134
            ],
            [
              -68.96255038099997,
              10.026897733000169
            ],
            [
              -68.96287099999984,
              10.028284
            ],
            [
              -68.96350699999988,
              10.030164000000127
            ],
            [
              -68.963629,
              10.031426000000124
            ],
            [
              -68.9636359999999,
              10.032758000000172
            ],
            [
              -68.96362164999994,
              10.033710671000051
            ],
            [
              -68.96361799999983,
              10.03395300000011
            ],
            [
              -68.963321,
              10.03485
            ],
            [
              -68.96184199999988,
              10.03646700000013
            ],
            [
              -68.961289,
              10.037366
            ],
            [
              -68.96011,
              10.03833800000018
            ],
            [
              -68.95934299999988,
              10.03834200000017
            ],
            [
              -68.95808899999986,
              10.03835
            ],
            [
              -68.957393,
              10.038354
            ],
            [
              -68.955354,
              10.039353000000176
            ],
            [
              -68.954013,
              10.040533
            ],
            [
              -68.952997,
              10.041664
            ],
            [
              -68.952399,
              10.043046000000174
            ],
            [
              -68.95180099999988,
              10.044083000000171
            ],
            [
              -68.951384,
              10.044407
            ],
            [
              -68.950111,
              10.045288
            ],
            [
              -68.949695,
              10.045681
            ],
            [
              -68.949604,
              10.046756000000187
            ],
            [
              -68.949807,
              10.047597000000167
            ],
            [
              -68.948314,
              10.048399
            ],
            [
              -68.948146,
              10.048388
            ],
            [
              -68.948199,
              10.048744
            ],
            [
              -68.949206,
              10.050278000000105
            ],
            [
              -68.95037899999988,
              10.052752000000169
            ],
            [
              -68.951179,
              10.054998000000182
            ],
            [
              -68.951028,
              10.057273000000123
            ],
            [
              -68.949205,
              10.059673
            ],
            [
              -68.9452,
              10.06265900000011
            ],
            [
              -68.941589,
              10.065046
            ],
            [
              -68.938137,
              10.066789
            ],
            [
              -68.934547,
              10.068923
            ],
            [
              -68.93128,
              10.070481000000143
            ],
            [
              -68.929084,
              10.07269900000017
            ],
            [
              -68.927045,
              10.073584
            ],
            [
              -68.9255639999999,
              10.074695000000133
            ],
            [
              -68.92547599999989,
              10.080736000000115
            ],
            [
              -68.924794,
              10.08384100000012
            ],
            [
              -68.92278,
              10.09026200000011
            ],
            [
              -68.92189899999988,
              10.095504
            ],
            [
              -68.92339399999986,
              10.097379000000103
            ],
            [
              -68.924817,
              10.098611
            ],
            [
              -68.928191,
              10.09997
            ],
            [
              -68.92905,
              10.099987
            ],
            [
              -68.9294,
              10.100284000000102
            ],
            [
              -68.930321,
              10.098533
            ],
            [
              -68.93047899999988,
              10.097613
            ],
            [
              -68.9311029999999,
              10.09699
            ],
            [
              -68.931912,
              10.096158000000173
            ],
            [
              -68.932281,
              10.09565
            ],
            [
              -68.933231,
              10.095186
            ],
            [
              -68.934671,
              10.095131
            ],
            [
              -68.934946,
              10.094372
            ],
            [
              -68.935129,
              10.093727000000115
            ],
            [
              -68.93638,
              10.093100000000106
            ],
            [
              -68.93812,
              10.092584
            ],
            [
              -68.939071,
              10.092395
            ],
            [
              -68.940702,
              10.093442000000152
            ],
            [
              -68.942377,
              10.094098
            ],
            [
              -68.943518,
              10.094574
            ],
            [
              -68.94561,
              10.09486
            ],
            [
              -68.946518,
              10.09536
            ],
            [
              -68.947356,
              10.0957
            ],
            [
              -68.947895,
              10.096753
            ],
            [
              -68.949314,
              10.097158
            ],
            [
              -68.950569,
              10.097426
            ],
            [
              -68.95129,
              10.0975830000001
            ],
            [
              -68.951687,
              10.097971
            ],
            [
              -68.952486,
              10.100057000000163
            ],
            [
              -68.953324,
              10.10039600000016
            ],
            [
              -68.953453,
              10.100847000000158
            ],
            [
              -68.955879,
              10.100312000000145
            ],
            [
              -68.960233,
              10.097898
            ],
            [
              -68.968603,
              10.094654
            ],
            [
              -68.974527,
              10.090094
            ],
            [
              -68.977888,
              10.088765
            ],
            [
              -68.979087,
              10.091789000000176
            ],
            [
              -68.981281,
              10.093912000000103
            ],
            [
              -68.982966,
              10.09568
            ],
            [
              -68.98365499999989,
              10.098168
            ],
            [
              -68.983978,
              10.103864
            ],
            [
              -68.986336,
              10.108461
            ],
            [
              -68.989379,
              10.110359
            ],
            [
              -68.99265999999989,
              10.113591000000156
            ],
            [
              -68.996851,
              10.116468000000168
            ],
            [
              -68.999157,
              10.117783
            ],
            [
              -69.003046,
              10.11882
            ],
            [
              -69.006385,
              10.119253
            ],
            [
              -69.010545,
              10.119169
            ],
            [
              -69.015098,
              10.11918100000014
            ],
            [
              -69.01717999999983,
              10.119805
            ],
            [
              -69.014679,
              10.123874000000114
            ],
            [
              -69.015922,
              10.12992700000018
            ],
            [
              -69.016555,
              10.133229
            ],
            [
              -69.017208,
              10.13449
            ],
            [
              -69.0182329999999,
              10.135887
            ],
            [
              -69.01781299999988,
              10.137097000000153
            ],
            [
              -69.010812,
              10.14191000000011
            ],
            [
              -69.009358,
              10.143081000000166
            ],
            [
              -69.00506,
              10.146923
            ],
            [
              -69.006357,
              10.148389
            ],
            [
              -69.00751999999989,
              10.149212000000148
            ],
            [
              -69.009125,
              10.150127000000168
            ],
            [
              -69.01052,
              10.150354000000107
            ],
            [
              -69.011264,
              10.150536000000102
            ],
            [
              -69.012543,
              10.15108400000014
            ],
            [
              -69.014007,
              10.150898
            ],
            [
              -69.01561,
              10.150689000000114
            ],
            [
              -69.016237,
              10.15084800000011
            ],
            [
              -69.017028,
              10.15107600000016
            ],
            [
              -69.018469,
              10.15107300000011
            ],
            [
              -69.01976999999988,
              10.150888
            ],
            [
              -69.02112,
              10.152078000000131
            ],
            [
              -69.022305,
              10.152213
            ],
            [
              -69.024419,
              10.15198
            ],
            [
              -69.027636,
              10.153012000000103
            ],
            [
              -69.0288139999999,
              10.153256
            ],
            [
              -69.02971999999988,
              10.152796
            ],
            [
              -69.030627,
              10.152978000000132
            ]
          ]
        ]
      }
    }
  ]
}