{"type": "FeatureCollection", "features": [{"type": "Feature", "properties": {"Pais": "Venezuela", "Estado": "Aragua", "Municipio": "Jos\u00e9 Rafael Revenga"}, "geometry": {"type": "Polygon", "coordinates": [[[-67.236969, 10.35270700000018], [-67.238304, 10.35349500000018], [-67.23931899999985, 10.353707000000156], [-67.241218, 10.352962000000161], [-67.242632, 10.352169], [-67.244392, 10.351355], [-67.246084, 10.350564000000134], [-67.247847, 10.349177000000168], [-67.25002299999989, 10.34848], [-67.252221, 10.347897000000103], [-67.25434699999983, 10.347818000000132], [-67.256658, 10.347694], [-67.25910599999986, 10.347869000000117], [-67.261093, 10.347881], [-67.262918, 10.347846000000175], [-67.26402699999988, 10.347922], [-67.265824, 10.348642], [-67.267645, 10.349272], [-67.269539, 10.349444], [-67.27060199999988, 10.34929], [-67.271781, 10.3491590000001], [-67.274416, 10.344515], [-67.274824, 10.343796], [-67.274651, 10.340448], [-67.275142, 10.339374000000134], [-67.27605099999988, 10.338028000000122], [-67.277004, 10.3369110000001], [-67.278489, 10.335912], [-67.279694, 10.335163], [-67.28046199999983, 10.334274], [-67.28024, 10.332760000000178], [-67.280293, 10.331501000000117], [-67.280575, 10.330723], [-67.280443, 10.329508], [-67.279961, 10.32537600000012], [-67.279256, 10.323293], [-67.27778, 10.318908], [-67.276786, 10.311043], [-67.278242, 10.306905], [-67.28029, 10.304374], [-67.280139, 10.302449], [-67.280133, 10.299516], [-67.281672, 10.297051], [-67.283757, 10.295929000000115], [-67.284439, 10.293929], [-67.284651, 10.293128], [-67.28505599999988, 10.291115], [-67.28570899999983, 10.290065], [-67.286621, 10.288054000000102], [-67.287856, 10.286183], [-67.288907, 10.284310000000119], [-67.29056, 10.282006], [-67.291768, 10.280868], [-67.292917, 10.280003], [-67.293506, 10.279131], [-67.293767, 10.27868], [-67.29418, 10.275199000000157], [-67.295105, 10.270966], [-67.295438, 10.269181000000117], [-67.29561, 10.267441], [-67.295616, 10.266410000000178], [-67.295946, 10.265221], [-67.294966, 10.263061], [-67.295353, 10.261635000000183], [-67.295363, 10.259827000000143], [-67.294017, 10.221126], [-67.293803, 10.212078000000133], [-67.259969, 10.177349000000106], [-67.208223, 10.172570000000121], [-67.199098, 10.17252], [-67.198678, 10.178935], [-67.198695, 10.17994700000014], [-67.195025, 10.247532000000149], [-67.195907, 10.252961000000141], [-67.202984, 10.292778000000169], [-67.19275560199992, 10.304621149000127], [-67.18986186699993, 10.3079717170001], [-67.18637969299994, 10.312003620000155], [-67.18639702699994, 10.312086380000096], [-67.18641202199996, 10.312154387000135], [-67.18650503299995, 10.31260039000017], [-67.18825471499991, 10.325241666000181], [-67.18846015199995, 10.325247121000189], [-67.190263, 10.325295000000153], [-67.191187, 10.325461], [-67.19223, 10.324826], [-67.19332, 10.324191], [-67.19404666799988, 10.324288978000027], [-67.194566, 10.324359000000186], [-67.19558199999983, 10.324457000000109], [-67.19667, 10.324075000000107], [-67.198031, 10.324243], [-67.198678, 10.324224000000186], [-67.199771, 10.323109000000102], [-67.20067299999988, 10.322794000000158], [-67.20275299999986, 10.322623], [-67.203819, 10.32212600000014], [-67.205112, 10.32213400000012], [-67.206448, 10.322852000000182], [-67.2076699999999, 10.323249000000146], [-67.20861999999988, 10.322682000000157], [-67.209732, 10.322185], [-67.211023, 10.322582], [-67.211612, 10.324465], [-67.212017, 10.326231000000178], [-67.213384, 10.329493], [-67.215315, 10.331016], [-67.21616499999988, 10.331801], [-67.217614, 10.332909], [-67.21852899999982, 10.334358], [-67.220092, 10.335628000000156], [-67.221097, 10.337467], [-67.22182599999985, 10.339143], [-67.222999, 10.340067], [-67.224355, 10.341222], [-67.225499, 10.343084000000147], [-67.226181, 10.344898000000114], [-67.227163, 10.346737], [-67.229052, 10.347596], [-67.230828, 10.348019], [-67.232135, 10.349631], [-67.232405, 10.350801], [-67.232836, 10.352132], [-67.23427, 10.35209500000019], [-67.235294, 10.350865], [-67.23668, 10.350827], [-67.236969, 10.35270700000018]]]}}]}