{"type": "FeatureCollection", "features": [{"type": "Feature", "properties": {"Pais": "Venezuela", "Estado": "Gu\u00e1rico", "Municipio": "Jos\u00e9 F\u00e9lix Ribas"}, "geometry": {"type": "Polygon", "coordinates": [[[-65.74262599999986, 9.688556], [-65.743276, 9.6890590000001], [-65.744182, 9.689770000000124], [-65.745712, 9.68972], [-65.74649999999986, 9.689374], [-65.747125, 9.689166], [-65.748052, 9.688981], [-65.749557, 9.687991000000181], [-65.75053, 9.687690000000146], [-65.751479, 9.68778500000019], [-65.75191799999988, 9.68654], [-65.752147, 9.685644000000138], [-65.752123, 9.68507000000011], [-65.751588, 9.684567], [-65.7511229999999, 9.683948000000157], [-65.750611, 9.683238], [-65.750169, 9.682504], [-65.749495, 9.682023], [-65.7491, 9.681657000000143], [-65.749585, 9.681082000000174], [-65.751022, 9.68101], [-65.751695, 9.68117000000018], [-65.7528319999999, 9.681397000000118], [-65.754108, 9.681647], [-65.755012, 9.681737000000169], [-65.755755, 9.682079], [-65.75628999999986, 9.682606000000135], [-65.757309, 9.682237000000157], [-65.757399, 9.681364], [-65.75749099999985, 9.681112000000155], [-65.758651, 9.68115500000016], [-65.75923, 9.681085], [-65.759669, 9.680602], [-65.759899, 9.679798000000176], [-65.75998999999985, 9.679225], [-65.760266, 9.67839800000013], [-65.760936, 9.677387000000124], [-65.761583, 9.676582000000167], [-65.762277, 9.67603000000014], [-65.763018, 9.675615000000107], [-65.76355, 9.675270000000125], [-65.764176, 9.674993000000143], [-65.765033, 9.674807], [-65.765498, 9.675174], [-65.765963, 9.675746], [-65.767012, 9.675867000000153], [-65.768468, 9.675971], [-65.769234, 9.676221000000112], [-65.769908, 9.676748], [-65.7703, 9.676081], [-65.77016, 9.675669], [-65.77046, 9.675393], [-65.770994, 9.675391], [-65.77157299999988, 9.675367000000165], [-65.772222, 9.675274000000115], [-65.77298699999989, 9.675089], [-65.773317, 9.673874], [-65.7738619999999, 9.672930000000122], [-65.774534, 9.672676], [-65.774416, 9.671942000000115], [-65.7747399999999, 9.671711000000187], [-65.7755269999999, 9.671411], [-65.775921, 9.67120400000016], [-65.776383, 9.67056], [-65.776312, 9.670193], [-65.776102, 9.669459000000188], [-65.776263, 9.66904600000015], [-65.776633, 9.668678], [-65.777744, 9.668102], [-65.778254, 9.668147], [-65.77939, 9.668236], [-65.780202, 9.668349], [-65.78113, 9.668439], [-65.78239699999989, 9.66800700000016], [-65.781775, 9.666992000000164], [-65.78175, 9.666349], [-65.781679, 9.665684000000113], [-65.781445, 9.66511], [-65.780494, 9.664837], [-65.779843, 9.66415], [-65.778984, 9.663647], [-65.779347, 9.662644000000114], [-65.779376, 9.661424], [-65.779381, 9.66085], [-65.779591, 9.660199000000148], [-65.78003199999989, 9.659495000000163], [-65.780808, 9.659080000000131], [-65.781845, 9.65815], [-65.782635, 9.657457000000136], [-65.782684, 9.656834000000117], [-65.782298, 9.656387], [-65.782216, 9.656022], [-65.782432, 9.655532], [-65.782997, 9.655077], [-65.783636, 9.65473500000013], [-65.78438, 9.65409], [-65.785115, 9.653124000000105], [-65.78636399999988, 9.652302], [-65.787055, 9.652142], [-65.788238, 9.652104], [-65.789164, 9.652051000000142], [-65.790054, 9.651562000000183], [-65.79081799999989, 9.650112], [-65.7916039999999, 9.648593000000176], [-65.79218999999989, 9.647333], [-65.793379, 9.645386], [-65.794095, 9.643869000000109], [-65.79512, 9.642595], [-65.79551799999984, 9.641295000000127], [-65.79577399999988, 9.639907], [-65.795997, 9.638912000000118], [-65.7967, 9.63771700000018], [-65.797902, 9.636873], [-65.798921, 9.636082000000101], [-65.799446, 9.635123000000135], [-65.800777, 9.633241], [-65.801054, 9.632496], [-65.801236, 9.630973000000154], [-65.80155799999989, 9.630181000000164], [-65.803162, 9.628153], [-65.80434899999989, 9.62616], [-65.804816, 9.625525], [-65.80513599999983, 9.623997], [-65.805468, 9.62279], [-65.805853, 9.621789], [-65.8067, 9.620728000000156], [-65.8082, 9.619783], [-65.809063, 9.619203], [-65.809951, 9.618692], [-65.811269, 9.617845000000159], [-65.811989, 9.617155], [-65.812534, 9.616080000000125], [-65.812786, 9.615267], [-65.813799, 9.612936], [-65.814366, 9.611814000000152], [-65.81513799999988, 9.609904], [-65.815754, 9.609586], [-65.816956, 9.608719], [-65.818323, 9.608652000000177], [-65.819984, 9.608322], [-65.8221319999999, 9.608023000000173], [-65.82384899999988, 9.608013], [-65.825863, 9.607856], [-65.82724999999988, 9.607696000000146], [-65.828607, 9.60733], [-65.82945599999982, 9.607027000000187], [-65.830516, 9.606096], [-65.83186, 9.604628000000105], [-65.832242, 9.604247], [-65.832769, 9.603334000000189], [-65.833241, 9.602192000000173], [-65.833447, 9.601381], [-65.833324, 9.599087000000111], [-65.833852, 9.597507000000121], [-65.834465, 9.596383], [-65.83812499999988, 9.594081000000187], [-65.959186, 9.586916], [-65.91063499999984, 9.470893000000103], [-65.876343, 9.32542], [-65.882782, 9.251953], [-65.909823, 9.187559], [-65.914045, 9.18425800000017], [-65.917087, 9.179749000000129], [-65.91750399999984, 9.176967000000161], [-65.917484, 9.1744], [-65.918572, 9.172896], [-65.920531, 9.170532], [-65.922496, 9.16881], [-65.925569, 9.16836400000011], [-65.927324, 9.167926], [-65.928193, 9.166637], [-65.927992, 9.164993], [-65.927992, 9.164795], [-65.92796, 9.164732000000129], [-65.92795799999988, 9.164714], [-65.92792099999986, 9.164655], [-65.927229, 9.16329], [-65.926691, 9.162092], [-65.926492, 9.161648], [-65.926081, 9.159896], [-65.927065, 9.159316], [-65.928736, 9.159206000000154], [-65.93025299999988, 9.15858900000012], [-65.931979, 9.157999000000132], [-65.933702, 9.157523], [-65.935232, 9.157548000000133], [-65.935439, 9.156312000000185], [-65.935365, 9.155186], [-65.936448, 9.15419500000013], [-65.936794, 9.152938], [-65.93707599999982, 9.151359000000184], [-65.93795199999983, 9.150249000000144], [-65.938988, 9.149325], [-65.941089, 9.147157000000107], [-65.941932, 9.145289000000105], [-65.940027, 9.145417], [-65.937782, 9.146619], [-65.935665, 9.147019], [-65.934358, 9.144794], [-65.934318, 9.143071], [-65.933794, 9.141157], [-65.933053, 9.139699000000121], [-65.931299, 9.139256000000103], [-65.93061, 9.137476], [-65.931443, 9.136227000000133], [-65.93012, 9.134942], [-65.928773, 9.133703], [-65.929195, 9.132057], [-65.930476, 9.13038], [-65.93222, 9.128642000000127], [-65.933157, 9.12673000000018], [-65.93312999999989, 9.125558], [-65.932076, 9.123498], [-65.930574, 9.121842], [-65.92929499999985, 9.119342000000131], [-65.928808, 9.117956], [-65.929603, 9.116179000000102], [-65.93030099999987, 9.114653000000146], [-65.930483, 9.113531], [-65.928853, 9.112562000000139], [-65.926622, 9.111537], [-65.92554599999988, 9.109384], [-65.92475699999989, 9.108086000000185], [-65.923538, 9.106160000000159], [-65.923271, 9.104112000000157], [-65.923645, 9.10118], [-65.92383399999983, 9.099645], [-65.923141, 9.09811800000017], [-65.922239, 9.097920000000101], [-65.922235, 9.09544000000011], [-65.923041, 9.092997000000139], [-65.92125699999985, 9.091635], [-65.91915, 9.090107000000103], [-65.91854599999988, 9.08748], [-65.91922099999988, 9.084553], [-65.918489, 9.082612], [-65.917396, 9.080138], [-65.917034, 9.076849], [-65.917039, 9.073842], [-65.916831, 9.071084000000155], [-65.91636, 9.068826], [-65.915396, 9.066858], [-65.914389, 9.064775], [-65.913328, 9.06310400000018], [-65.911329, 9.06206], [-65.912362, 9.058588], [-65.912651, 9.056573000000128], [-65.912646, 9.05414], [-65.912514, 9.052392], [-65.91205099999985, 9.050961000000143], [-65.91115, 9.049453], [-65.910911, 9.048531], [-65.911076, 9.047019000000148], [-65.91071999999986, 9.044786000000101], [-65.909593, 9.042907], [-65.90879799999988, 9.040575], [-65.90877199999989, 9.03807300000011], [-65.90891, 9.035389000000123], [-65.90955799999989, 9.03276], [-65.911278, 9.031091000000117], [-65.91268799999989, 9.029967], [-65.912577, 9.02831300000014], [-65.911411, 9.025997000000189], [-65.912388, 9.023076], [-65.912901, 9.021569], [-65.91313799999989, 9.019875], [-65.91266, 9.01803000000018], [-65.911644, 9.016452000000186], [-65.910722, 9.014806], [-65.910448, 9.013236000000177], [-65.910286, 9.013196], [-65.911363, 9.010409], [-65.913318, 9.007403000000181], [-65.915937, 9.005035], [-65.91921699999989, 9.002877000000183], [-65.923356, 8.998148], [-65.923547, 8.9945120000001], [-65.923752, 8.992586], [-65.923941, 8.988735000000133], [-65.923914, 8.985314], [-65.91947199999987, 8.979352], [-65.918128, 8.976153], [-65.914582, 8.972323], [-65.913538, 8.969466], [-65.77756899999986, 9.069823], [-65.777159, 9.070128000000125], [-65.776246, 9.070618000000138], [-65.775226, 9.070623], [-65.77416099999988, 9.070535], [-65.772813, 9.070764000000167], [-65.772321, 9.07236300000011], [-65.771678, 9.072053], [-65.770775, 9.070637], [-65.770218, 9.070673], [-65.768996, 9.07161600000012], [-65.768302, 9.071558], [-65.766942, 9.072407], [-65.76573999999988, 9.073488000000111], [-65.7655769999999, 9.074863], [-65.764385, 9.075439], [-65.763304, 9.07627], [-65.76186899999988, 9.07613], [-65.75995499999988, 9.075545000000147], [-65.75882999999988, 9.074929000000168], [-65.757326, 9.074765], [-65.756436, 9.073946], [-65.75558299999989, 9.073678], [-65.754858, 9.074079000000154], [-65.754191, 9.072460000000149], [-65.753443, 9.071460000000172], [-65.752733, 9.070965], [-65.750391, 9.070993000000101], [-65.749431, 9.071528000000114], [-65.747101, 9.07089], [-65.74654, 9.069847], [-65.74594899999983, 9.069148], [-65.74441899999988, 9.069144], [-65.74242099999987, 9.069362000000126], [-65.74162399999989, 9.069876], [-65.740098, 9.070974], [-65.739349, 9.071374000000162], [-65.737892, 9.072497000000169], [-65.736558, 9.073185], [-65.735326, 9.073370000000125], [-65.734247, 9.074086], [-65.73291599999988, 9.074660000000108], [-65.731202, 9.075869000000125], [-65.730147, 9.076586000000134], [-65.728735, 9.077755], [-65.72809399999988, 9.07863900000018], [-65.727233, 9.078785000000153], [-65.72617199999985, 9.079845], [-65.72531, 9.080083], [-65.724213, 9.080500000000143], [-65.72334199999989, 9.081242], [-65.722088, 9.082666000000131], [-65.72178, 9.083074000000124], [-65.720422, 9.083831], [-65.719439, 9.084273], [-65.718862, 9.084125], [-65.71741, 9.083641000000114], [-65.715681, 9.084437], [-65.71497499999987, 9.085044], [-65.71454, 9.086024000000123], [-65.71413199999984, 9.086820000000102], [-65.713569, 9.087201000000164], [-65.71218399999987, 9.086832000000186], [-65.711001, 9.086857000000123], [-65.70994, 9.086563000000126], [-65.708831, 9.08636], [-65.707661, 9.085651], [-65.70605099999983, 9.086219], [-65.70492799999988, 9.086819], [-65.704349, 9.086786000000131], [-65.703277, 9.08578], [-65.70202199999989, 9.085965], [-65.700767, 9.086126], [-65.699585, 9.086083], [-65.698758, 9.085678], [-65.69829, 9.084590000000162], [-65.697741, 9.08419], [-65.697323, 9.084183], [-65.696942, 9.08475], [-65.696764, 9.085643], [-65.696251, 9.085771], [-65.695798, 9.085212], [-65.6953989999999, 9.084172], [-65.695038, 9.083569], [-65.694636, 9.082689], [-65.694369, 9.082088], [-65.69371, 9.081341], [-65.693409, 9.081313], [-65.69272599999988, 9.081199], [-65.691869, 9.081837], [-65.68960699999985, 9.08262400000018], [-65.686958, 9.082967000000167], [-65.685265, 9.081675000000189], [-65.6840749999999, 9.08209], [-65.683082, 9.083174], [-65.682561, 9.083808], [-65.681792, 9.084047000000169], [-65.679305, 9.084394], [-65.678736, 9.085118000000136], [-65.677127, 9.086927], [-65.67654, 9.087353000000121], [-65.674759, 9.087137], [-65.673323, 9.088284], [-65.6731, 9.089107000000126], [-65.67203399999988, 9.090374000000168], [-65.670652, 9.091199], [-65.668822, 9.091098], [-65.667268, 9.091139], [-65.666293, 9.092522], [-65.664965, 9.092843000000187], [-65.664655, 9.094675], [-65.66406599999982, 9.095192], [-65.6609519999999, 9.095573000000115], [-65.65873, 9.095396], [-65.6587459999999, 9.097073], [-65.657426, 9.09833500000019], [-65.655786, 9.099271], [-65.65465399999982, 9.100376], [-65.65478699999989, 9.102008000000126], [-65.653498, 9.102789], [-65.652632, 9.103256], [-65.652857, 9.104913000000181], [-65.652341, 9.106603], [-65.650059, 9.105851000000143], [-65.648604, 9.10545800000017], [-65.64705, 9.106785000000173], [-65.64663499999989, 9.107925], [-65.64609, 9.108605000000125], [-65.644992, 9.107759000000101], [-65.642797, 9.108638], [-65.639941, 9.110149000000149], [-65.638563, 9.109413000000188], [-65.63713699999988, 9.110076000000163], [-65.636093, 9.110126], [-65.63513499999988, 9.110523000000171], [-65.6354209999999, 9.111377000000118], [-65.634941, 9.112333], [-65.633952, 9.113188], [-65.633037, 9.113769000000161], [-65.63239, 9.114951], [-65.63286, 9.115878], [-65.632975, 9.117235], [-65.632269, 9.117865000000165], [-65.632211, 9.119794], [-65.63146599999988, 9.119988000000149], [-65.63009399999987, 9.120216], [-65.628224, 9.121055000000126], [-65.627087, 9.121104000000116], [-65.625907, 9.120945], [-65.625402, 9.121969], [-65.62467499999985, 9.123633], [-65.623635, 9.124785], [-65.622514, 9.125201000000175], [-65.620624, 9.125903000000164], [-65.619702, 9.126874], [-65.617747, 9.127252], [-65.616284, 9.127387], [-65.61358799999982, 9.129038], [-65.61293099999989, 9.130771], [-65.61166, 9.131828], [-65.610941, 9.131815], [-65.610063, 9.131662], [-65.60897199999988, 9.133020000000158], [-65.60884, 9.133936], [-65.608191, 9.13521], [-65.605876, 9.136294000000134], [-65.604998, 9.136141000000123], [-65.60427099999987, 9.136587], [-65.603797, 9.137216], [-65.60372399999989, 9.137313], [-65.600291, 9.143131], [-65.556609, 9.2344930000001], [-65.541262, 9.267518], [-65.635182, 9.448785], [-65.52886027099999, 9.53597371700016], [-65.51309656999996, 9.548900679000042], [-65.50311454999996, 9.55708639500017], [-65.50175415899997, 9.558201979000103], [-65.50158559799996, 9.558420790000184], [-65.64702107199986, 9.560002076999979], [-65.64764948599998, 9.632818987], [-65.69785995899997, 9.687213855000095], [-65.69803987199992, 9.686838222], [-65.69846134499988, 9.685958246000041], [-65.698472, 9.68593600000014], [-65.69972499999989, 9.686232000000132], [-65.69995193599993, 9.686246284000049], [-65.70113899999984, 9.686321], [-65.70246, 9.686181], [-65.70359599999983, 9.685881], [-65.70444, 9.686184], [-65.7051469999999, 9.68496], [-65.70609599999989, 9.684338], [-65.70709199999988, 9.683923], [-65.70718600699996, 9.683933404000186], [-65.708113, 9.684036000000162], [-65.709318, 9.68385], [-65.71027, 9.684399000000155], [-65.710666, 9.685477], [-65.711249, 9.686761], [-65.71146, 9.687747], [-65.71165322099989, 9.687655488000132], [-65.712919, 9.687056], [-65.713289, 9.68639], [-65.713796, 9.685333000000185], [-65.714978, 9.685055], [-65.716019, 9.685626], [-65.717414, 9.685716], [-65.718419, 9.685385], [-65.719987, 9.685206000000164], [-65.721124, 9.685548], [-65.721173, 9.686512], [-65.720617, 9.68678800000015], [-65.720527, 9.687936], [-65.72229, 9.688162000000148], [-65.72374999999982, 9.687998], [-65.724563, 9.688295], [-65.725467, 9.688477], [-65.726116, 9.688361], [-65.7276, 9.688427], [-65.728807, 9.688883], [-65.729665, 9.688996], [-65.73049999999984, 9.689017], [-65.73145, 9.688878], [-65.7318039999999, 9.688009], [-65.73335, 9.688415], [-65.734532, 9.688344], [-65.7351819999999, 9.688365], [-65.736109, 9.688363], [-65.737269, 9.687946000000181], [-65.738752, 9.688128000000177], [-65.739632, 9.687942], [-65.740212, 9.687941000000137], [-65.74262599999986, 9.688556]]]}}]}