{"type": "FeatureCollection", "features": [{"type": "Feature", "properties": {"Pais": "Venezuela", "Estado": "Anzo\u00e1tegui", "Municipio": "Jos\u00e9 Gregorio Monagas"}, "geometry": {"type": "Polygon", "coordinates": [[[-65.0772237409999, 8.761790235000092], [-65.07761675299992, 8.762319250000075], [-65.0783107989999, 8.76337527000004], [-65.07907383099996, 8.763719277000177], [-65.07958285199999, 8.76427129100017], [-65.08004487599993, 8.764523297999972], [-65.08126793099996, 8.764314280000121], [-65.08200595799991, 8.763439263000066], [-65.08279099499993, 8.763208252000084], [-65.08399104899996, 8.763091235000047], [-65.08489108699996, 8.762308218000044], [-65.08539810299993, 8.761549197000022], [-65.08655215499994, 8.761271179000119], [-65.08706016999997, 8.761661187000072], [-65.08777520799998, 8.760717157000101], [-65.08872325299996, 8.761521179], [-65.08936827199994, 8.76064615100006], [-65.08941327599996, 8.759772130000158], [-65.09017530199986, 8.759909135000044], [-65.09112334599996, 8.760483142], [-65.0923914039999, 8.759446105000109], [-65.09319843299988, 8.75845607400015], [-65.09432948499995, 8.758270069000105], [-65.0946294979999, 8.75801706500016], [-65.09509051199996, 8.75716603100011], [-65.09605955199999, 8.75647401000009], [-65.09672857799995, 8.755805995000173], [-65.09739661199995, 8.75529997500007], [-65.09813563599994, 8.755206978000103], [-65.09869067099993, 8.755964989000177], [-65.10002872299998, 8.754536947000133], [-65.1002577189999, 8.753340911000123], [-65.10025671999989, 8.752282889000185], [-65.10106375099997, 8.751775875000135], [-65.10221780199998, 8.751175854000167], [-65.10281682199991, 8.750668829], [-65.10353184799993, 8.749725804999969], [-65.10431588999995, 8.749126791000151], [-65.10565493899998, 8.748503768000035], [-65.10634696699998, 8.748111756000128], [-65.10731600899993, 8.747787738000113], [-65.10891008099992, 8.748383750000073], [-65.11011114299993, 8.748703749000128], [-65.11177522699995, 8.750103774000081], [-65.1126292539999, 8.750079777000167], [-65.11299927399995, 8.749872761000063], [-65.11385230499985, 8.74906573900006], [-65.11391830599996, 8.747111690000168], [-65.11484234199997, 8.747224688000074], [-65.11645841899991, 8.747291683000014], [-65.11648040999995, 8.746302662000176], [-65.11747145399988, 8.744944615000179], [-65.11883451399996, 8.745425626999975], [-65.1196905569999, 8.746389645000022], [-65.12038359399997, 8.746687652000048], [-65.12086560599988, 8.745008610000014], [-65.12167364199996, 8.744386583000164], [-65.12211366599996, 8.74599562700007], [-65.1229257139999, 8.748661685000059], [-65.12371174799983, 8.749395702000129], [-65.12502781299992, 8.749577699000156], [-65.12604384999997, 8.749553701000139], [-65.12657588199994, 8.749874708000164], [-65.12742992099999, 8.749551696000083], [-65.12677987399985, 8.74757463800006], [-65.12747290999988, 8.747734643000058], [-65.12881397699994, 8.748836672000039], [-65.13015304199996, 8.74894966900007], [-65.13105306999984, 8.74869465200004], [-65.13179110899995, 8.74786562300011], [-65.13262314599996, 8.748761647000151], [-65.13324716799991, 8.748898652000037], [-65.13377719599998, 8.747885623000116], [-65.13456122599985, 8.747516610000048], [-65.13469823299988, 8.746550577000164], [-65.13529825799998, 8.746089564000101], [-65.13647529799994, 8.745674550000047], [-65.13765235299996, 8.745764547000135], [-65.13892040899992, 8.744198504000167], [-65.13954242599988, 8.74291046500008], [-65.14020944999999, 8.74146041900002], [-65.14136249299992, 8.740354393000132], [-65.14281554999997, 8.739271354000152], [-65.1445236269999, 8.738717331000032], [-65.14539965799992, 8.737726307000116], [-65.14592867699997, 8.73623126700005], [-65.14611067699997, 8.734690227000101], [-65.14654769499987, 8.73340219], [-65.14841878199996, 8.734249204000093], [-65.1493208249999, 8.735076214000173], [-65.15047387099992, 8.734545205000188], [-65.14973383599988, 8.733351172000084], [-65.14827776299984, 8.731973140999969], [-65.14762973299997, 8.731376131000161], [-65.14785873999989, 8.73006509400011], [-65.14884977399998, 8.728914062000115], [-65.14900977899993, 8.727603037000051], [-65.14944678699993, 8.726613008000129], [-65.1505778369999, 8.726151982000033], [-65.15136186499996, 8.725138952], [-65.15029681499993, 8.7236229290001], [-65.14962578099988, 8.722243889000026], [-65.14943976099988, 8.72134787400006], [-65.15022279399994, 8.720104830000082], [-65.1522998879999, 8.71975681400005], [-65.15354894099988, 8.720765837000158], [-65.15495700899993, 8.721177836000038], [-65.15611105899995, 8.720439814000088], [-65.15666308099998, 8.719312789000185], [-65.15742410899998, 8.71841476000003], [-65.15753710699988, 8.71710372299998], [-65.15739709999997, 8.716091702000028], [-65.15857413899982, 8.715308672000049], [-65.15912716999992, 8.714916661000075], [-65.15760009399997, 8.712803616000087], [-65.15720806399986, 8.712550616000101], [-65.15785109199993, 8.710618559000068], [-65.15921314399992, 8.710455553000088], [-65.16087522299995, 8.710498542000153], [-65.16274731499988, 8.711553563000166], [-65.16394736899997, 8.711321545000146], [-65.16426737099988, 8.709481502000017], [-65.16512140799995, 8.708882476000042], [-65.16597343299998, 8.707868452000127], [-65.16673447199997, 8.706947423000031], [-65.16756349499991, 8.705566389000182], [-65.16811652199993, 8.704508353000051], [-65.16827552299998, 8.703289329000086], [-65.16887354499988, 8.701793283000086], [-65.16894354099998, 8.701977284000122], [-65.17146166199996, 8.70300829700011], [-65.17159865699995, 8.702088276000097], [-65.17048861199993, 8.70089425700013], [-65.16880152999994, 8.699793234000083], [-65.16815449399996, 8.699357226000075], [-65.16852350699997, 8.698896215000048], [-65.16919153899988, 8.698021187000109], [-65.16972155699995, 8.69760716900015], [-65.17025057699993, 8.696065135000083], [-65.17057158399996, 8.694248081000012], [-65.17057057699998, 8.693696064000108], [-65.16948552399998, 8.693560066000032], [-65.16900049899982, 8.693285071000105], [-65.16929850899987, 8.692273036000131], [-65.17052056499989, 8.69084499500002], [-65.16936450799983, 8.68974297700015], [-65.16756242299994, 8.688963958000045], [-65.16841444699998, 8.687720925000178], [-65.16903647699996, 8.68677689600014], [-65.16903546699996, 8.685742867999977], [-65.16815642299997, 8.684731856000042], [-65.16688536399994, 8.683883834000028], [-65.16760038999996, 8.682893804000173], [-65.16856742699997, 8.681258762000084], [-65.1690274469999, 8.68020073800011], [-65.1689094329999, 8.678728701000068], [-65.16849140299996, 8.676614647000122], [-65.16717533799988, 8.676340649], [-65.16595229499995, 8.6765036540001], [-65.16472823299989, 8.676252656000088], [-65.16267213599997, 8.675312637000047], [-65.16140208299993, 8.67485463700018], [-65.16098505199989, 8.673912611000048], [-65.16082204499992, 8.673154586000123], [-65.16093504099996, 8.671268545000089], [-65.16194908799991, 8.670369521000168], [-65.16271211899988, 8.670575514000063], [-65.16430518599998, 8.671009519000165], [-65.16488221299994, 8.670986516000141], [-65.16509022499991, 8.671376526000074], [-65.16601427199998, 8.671352528000057], [-65.16647328499988, 8.669925484000089], [-65.16640227899995, 8.66859245300003], [-65.16656227299995, 8.667511418000174], [-65.16695428699995, 8.666912406], [-65.16776132999996, 8.666612394000026], [-65.16891537099997, 8.666357388000108], [-65.16912238599997, 8.665782370000102], [-65.16831333799996, 8.665002353000148], [-65.16761930499985, 8.663991328000066], [-65.16771130599989, 8.663508311000157], [-65.16882235899993, 8.663015297000072], [-65.16974540099989, 8.66296128700003], [-65.17057543399994, 8.66283928100006], [-65.17086943699991, 8.662171269000055], [-65.17049442299998, 8.661602249], [-65.17021341099996, 8.661123242000087], [-65.17023540599996, 8.661031241000046], [-65.17074343099995, 8.661118238000029], [-65.17132045799991, 8.661044232000108], [-65.17116844599997, 8.65960219599998], [-65.17072641799996, 8.659285198000077], [-65.16979937699995, 8.65890419100009], [-65.16948936599994, 8.657806165000181], [-65.1702413939999, 8.65681413699997], [-65.17106141799997, 8.655592095000145], [-65.17151443799997, 8.654739074000133], [-65.17146042599995, 8.653823051000131], [-65.17087839499993, 8.653370038000048], [-65.17038637799993, 8.652549021000027], [-65.17109940999995, 8.65231401400007], [-65.17181443999993, 8.652261010000132], [-65.17231845399988, 8.651844], [-65.17212443999983, 8.650882970000112], [-65.17078238199997, 8.650482974000056], [-65.1688812939999, 8.649629952], [-65.1693773099999, 8.648409922000155], [-65.16982532499992, 8.646915887000091], [-65.17006932799995, 8.645859863000112], [-65.17035733299997, 8.644572819000189], [-65.1706923449999, 8.643378793000181], [-65.17040432799996, 8.642188767000107], [-65.16941428499996, 8.642473773000063], [-65.16837224099999, 8.642138767000063], [-65.16790321299999, 8.641295755000101], [-65.16749718799997, 8.639832718000093], [-65.1667281469999, 8.63912870300004], [-65.16565809799994, 8.638198682999985], [-65.16516707499989, 8.63756166800016], [-65.16492705999991, 8.636601644000109], [-65.16464203599998, 8.635686626999984], [-65.16431402899991, 8.635162613000148], [-65.16395800499987, 8.634157594000044], [-65.16376899599993, 8.633700583000177], [-65.16450101599992, 8.632983552000098], [-65.16512004499998, 8.632496536000076], [-65.16555406299995, 8.632011531000046], [-65.16540705599994, 8.631141508999974], [-65.16413799899993, 8.631130517000145], [-65.16320494899998, 8.630153491000101], [-65.16349795799988, 8.629417471000181], [-65.16399597299988, 8.628289441000106], [-65.16401097599999, 8.627487414000086], [-65.1636119559999, 8.626780403999987], [-65.16268491499994, 8.626353397000116], [-65.1612478379999, 8.62570139200011], [-65.16052680899992, 8.625158377], [-65.15955176799997, 8.62457136200004], [-65.15817869999995, 8.623300337000103], [-65.15756466399995, 8.621816300000148], [-65.15711463799994, 8.620651273000135], [-65.15625159399997, 8.619628258000148], [-65.15541254499988, 8.618742240000188], [-65.15334445399992, 8.617317206000052], [-65.1524404139999, 8.616866204000019], [-65.15136835299995, 8.615707176000058], [-65.15074132599995, 8.615346176], [-65.14974027899996, 8.61437015600012], [-65.14896523899995, 8.61300212500015], [-65.14875222299992, 8.61245410600003], [-65.14908823999991, 8.61132807600012], [-65.14931724099995, 8.611119074000044], [-65.14905722999993, 8.6104800600001], [-65.14856919999988, 8.610140049000108], [-65.14764516499997, 8.61003405100007], [-65.14713213499982, 8.609420037000064], [-65.1472181389999, 8.60873201600009], [-65.14767315899991, 8.608085998000092], [-65.14732013899999, 8.607286988000055], [-65.14704012099992, 8.606967978000114], [-65.14724312799996, 8.606507960999977], [-65.14776714899995, 8.605815942], [-65.14866218499992, 8.605211925000049], [-65.14953522699994, 8.604767916000185], [-65.1522363439999, 8.604834906], [-65.15283237199992, 8.604485891000024], [-65.15342339599988, 8.603448856000114], [-65.1529063669999, 8.602421831000129], [-65.15185631399999, 8.601285815000097], [-65.15155230099998, 8.600829797000188], [-65.15121327899988, 8.601635823000095], [-65.15050225899995, 8.60203183200008], [-65.15019723999995, 8.601484830000118], [-65.14951820199997, 8.60045879900008], [-65.14886116999998, 8.599341772000116], [-65.14841914199997, 8.598979766000184], [-65.14620605399995, 8.599228782000182], [-65.14886914499994, 8.595193668999968], [-65.15001320099998, 8.594174642000155], [-65.15055721699997, 8.593045607000079], [-65.14962216699996, 8.591839584000184], [-65.14906914599993, 8.591913589], [-65.14887313299988, 8.590723563000154], [-65.14921513599995, 8.590193539000154], [-65.15017918699994, 8.58970353], [-65.15060620099996, 8.588484493000124], [-65.15022417099993, 8.587089462999984], [-65.14935912799996, 8.585905435000086], [-65.14879609799993, 8.584902416000148], [-65.14839507799996, 8.58401238600004], [-65.14749203199995, 8.583607386000097], [-65.14596396899998, 8.583071375000088], [-65.14584695499997, 8.582958373000167], [-65.14454789399997, 8.582236362000174], [-65.1442798729999, 8.580749331000163], [-65.1441018669999, 8.57889428500016], [-65.14409385699997, 8.578046257000153], [-65.14412685499985, 8.57664722900006], [-65.14443586099992, 8.575132182000175], [-65.1443378489999, 8.574560169], [-65.14481586799991, 8.573776148999968], [-65.14585091999993, 8.573469136000085], [-65.14716497199987, 8.57329612500007], [-65.14861203499999, 8.572527096000101], [-65.14950507199995, 8.571808078000117], [-65.15037210299994, 8.570677043000046], [-65.15027109699992, 8.56983002000004], [-65.14966406599996, 8.569056010000168], [-65.14910703399988, 8.568717005000053], [-65.1481099859999, 8.568152990000044], [-65.14754996099992, 8.56747098000011], [-65.14733895699999, 8.567197970000052], [-65.14734393799995, 8.565203916000087], [-65.14747594299985, 8.564560903000086], [-65.14746794499996, 8.563620886000024], [-65.14750593699995, 8.562817865000113], [-65.14775395099991, 8.562173846], [-65.14846097099996, 8.561273819000064], [-65.14906899699992, 8.5595717650001], [-65.14904299099999, 8.559342768000079], [-65.14855796699993, 8.559232760000043], [-65.14765893099997, 8.559378771000127], [-65.14698289799998, 8.558628754000154], [-65.14686388399991, 8.558193749000168], [-65.14858995999998, 8.557788725000023], [-65.14973300999998, 8.556563689000086], [-65.15030402599996, 8.555893677000086], [-65.15073505099986, 8.55511065100012], [-65.15202610299991, 8.555052642000021], [-65.15342716499993, 8.554237612000122], [-65.15378917699996, 8.553546598000139], [-65.15387617399995, 8.552926586000183], [-65.15356515699989, 8.551714553000181], [-65.15270611199998, 8.551149544000054], [-65.15198708299988, 8.55074353700013], [-65.15090103799997, 8.550684534000084], [-65.14922296199995, 8.551341567], [-65.14801690899992, 8.55073455600018], [-65.14763388499995, 8.549156519000064], [-65.14756986399988, 8.547231466000028], [-65.14842389299992, 8.54481640500012], [-65.14903692299993, 8.543688374000169], [-65.15034197199992, 8.542599341000027], [-65.15121400799995, 8.54213232], [-65.15204504699989, 8.542102316000012], [-65.15352510799994, 8.542432318000124], [-65.15461215999994, 8.542720318000022], [-65.1561622289999, 8.543118327000172], [-65.15731428299995, 8.542970316000094], [-65.1576292989999, 8.542096295000135], [-65.15752628099989, 8.54092925600014], [-65.15684024999996, 8.539101221000124], [-65.15606519899995, 8.537687191000032], [-65.15561518399994, 8.536476164000078], [-65.1543351119999, 8.535228127000153], [-65.1531800649999, 8.53514613599998], [-65.15128497499995, 8.53477413200011], [-65.15099695899994, 8.533654112000022], [-65.15134897199994, 8.531771061000086], [-65.15278802599988, 8.530222010999978], [-65.15405308299995, 8.52972899600013], [-65.15529613399985, 8.52937398299997], [-65.15681819799994, 8.529336975000149], [-65.15827626399994, 8.529804978000016], [-65.15931531499996, 8.529864975000123], [-65.16028135299996, 8.529465961000142], [-65.16149239899994, 8.528193920000149], [-65.16191841999995, 8.526883887], [-65.16242942699995, 8.524747834000095], [-65.16248843099993, 8.523623803000078], [-65.1625954239999, 8.522728781000126], [-65.16272542999991, 8.521879759000058], [-65.16255742199996, 8.521193739000125], [-65.16093133399988, 8.519947714000125], [-65.15965527399993, 8.519271703000072], [-65.15931725699994, 8.51764766499997], [-65.1591022419999, 8.516801648000069], [-65.15881422599995, 8.51568062300015], [-65.15822819499988, 8.514677591000122], [-65.1581481899999, 8.513463570999988], [-65.15878420899998, 8.512380536000023], [-65.15981324999996, 8.511431503000097], [-65.16099729799993, 8.509724457000061], [-65.16205133899996, 8.5089354320001], [-65.16366041199996, 8.508233404000066], [-65.16464644499996, 8.507559393000179], [-65.16554048799998, 8.507001365000178], [-65.16631451099988, 8.505802335000112], [-65.16681653699993, 8.505178323000166], [-65.16704553799997, 8.505016315000091], [-65.16819559299984, 8.50463929600005], [-65.1690006259999, 8.504379289000155], [-65.16943363899986, 8.503825272000029], [-65.16979365099996, 8.5027902490001], [-65.16998865899996, 8.501414209000131], [-65.17000165099995, 8.500405179000097], [-65.17008065099992, 8.498937151000177], [-65.17013864899991, 8.49772211300018], [-65.17032864099991, 8.49579506100008], [-65.17043865199997, 8.495244048000018], [-65.17034364399984, 8.494924044000186], [-65.16971161199996, 8.493967026000064], [-65.16933258699993, 8.492892993999988], [-65.16948559299988, 8.491951972000152], [-65.17083464399997, 8.490678936000165], [-65.17209269799997, 8.489544896000098], [-65.17284573199998, 8.48864387599997], [-65.17339574699997, 8.488248861000045], [-65.17534782999991, 8.487222830000178], [-65.1760378599999, 8.486940817], [-65.17700389799995, 8.486656804000063], [-65.17782993299994, 8.48616879399998], [-65.17784693499993, 8.48548077400011], [-65.17739991399998, 8.484567756000047], [-65.17674187599988, 8.483290722000106], [-65.17677887399992, 8.482327692000183], [-65.17720988699995, 8.481475677999981], [-65.17734088699996, 8.480763652000064], [-65.17754289999988, 8.48016564600016], [-65.17797191299996, 8.479153611000186], [-65.17874094299998, 8.479925633999983], [-65.17982799499998, 8.480259635000039], [-65.18088304199995, 8.479561606000061], [-65.18193407799987, 8.478406576999987], [-65.18206107799989, 8.477190545000099], [-65.18214007799986, 8.475837505000072], [-65.18224708299994, 8.474873483000067], [-65.18248908699996, 8.473588450000022], [-65.18257509099988, 8.47296843700019], [-65.18259508599994, 8.47260142700003], [-65.18259108699988, 8.472143421000112], [-65.18228306399988, 8.471274393000158], [-65.18156102899991, 8.470593377000114], [-65.18095500299995, 8.469889361000128], [-65.17988294299988, 8.468821340000147], [-65.1791889129999, 8.468575341000133], [-65.17817687399986, 8.468883348000134], [-65.17731083699988, 8.470082390000016], [-65.17614078599996, 8.470735412000067], [-65.1758107679999, 8.469959390000156], [-65.17594976599997, 8.467551332000028], [-65.17656378999988, 8.466582305000088], [-65.17750182299994, 8.465749280000182], [-65.17739481799998, 8.464191238000012], [-65.17769982499993, 8.462217191000036], [-65.17838083999993, 8.46101915500003], [-65.17904287699992, 8.460348137000096], [-65.18005590999996, 8.460041124000043], [-65.18104796599994, 8.460032121000097], [-65.18240402099985, 8.45956110100019], [-65.18313704699995, 8.458981079000125], [-65.18363306299995, 8.457693053000185], [-65.18385006699992, 8.456225012000118], [-65.18383805799994, 8.454917973000079], [-65.18383005999988, 8.454115958000045], [-65.18371205199998, 8.453841954000097], [-65.18341103199992, 8.453661951000072], [-65.18152295799996, 8.454113970000037], [-65.18127494399994, 8.45466698100006], [-65.1804219099999, 8.454788986000153], [-65.18007589499996, 8.454791992000025], [-65.17800180499995, 8.455063013000142], [-65.17769178099996, 8.45391998100007], [-65.17753676399991, 8.452179936000107], [-65.17789778199995, 8.451281909000102], [-65.17791377799995, 8.450548894000121], [-65.1779027749999, 8.449356868999985], [-65.17798476799993, 8.448255838000136], [-65.17800776899998, 8.448255838000136], [-65.17830778299992, 8.448206833000086], [-65.17982485299996, 8.447620811000093], [-65.18106790499996, 8.44733379400003], [-65.18188993999996, 8.446455773000139], [-65.18206294199996, 8.445215736000137], [-65.18196192399995, 8.444254718000025], [-65.18181091799988, 8.442926690000093], [-65.18243293999996, 8.442760684], [-65.18358099499989, 8.442199663000054], [-65.18575009299997, 8.442202645000123], [-65.18715314299993, 8.441822632000026], [-65.18799918499997, 8.44094461200001], [-65.18796817499998, 8.440142584000114], [-65.18761915499988, 8.439801580000164], [-65.18620910099992, 8.439470584000105], [-65.18510004299998, 8.439297585000077], [-65.18465302099986, 8.438361556000189], [-65.18448000799992, 8.437125529000127], [-65.18352195699998, 8.43585149900008], [-65.18257591499997, 8.43585950900001], [-65.18189088899993, 8.436530527000116], [-65.18141987299987, 8.438001560999965], [-65.18128186899997, 8.438117568000052], [-65.18027882199993, 8.436866538000118], [-65.17974259999983, 8.435685086999968], [-65.17950178199999, 8.435154498000031], [-65.17945020499997, 8.434414687000015], [-65.17939476599997, 8.433619468000018], [-65.17979977299996, 8.432470438], [-65.18140584199995, 8.431584408000049], [-65.18258590099998, 8.431963403000054], [-65.18422697899996, 8.432292411000105], [-65.18552803999995, 8.433219426000164], [-65.18633206799996, 8.432868412000062], [-65.18733110499994, 8.431163365000145], [-65.18747710699995, 8.429488322000168], [-65.18816013299994, 8.4285203], [-65.18985119999991, 8.42685425000019], [-65.19159226599999, 8.425463208000053], [-65.1927593229999, 8.424489176000066], [-65.19417437099992, 8.422872131000133], [-65.19561442999998, 8.421438082000066], [-65.19581043199986, 8.420175057000108], [-65.19554341699995, 8.418711015000099], [-65.19516639199986, 8.417888993000133], [-65.19462436299995, 8.416701971000123], [-65.19438335399991, 8.415512939000166], [-65.19437634999997, 8.414824919000068], [-65.1947453649999, 8.414821926000116], [-65.1955534039999, 8.414836916000127], [-65.19576140399988, 8.414949918000048], [-65.19598841599992, 8.414466913000126], [-65.19560439899993, 8.412934876000122], [-65.1952473689999, 8.411745844000166], [-65.19591039899996, 8.411051826000119], [-65.19695144999991, 8.411431827000172], [-65.19792449199997, 8.411835834000101], [-65.19901253699993, 8.412238835000153], [-65.20039160399983, 8.411721815000021], [-65.20058960599994, 8.41071179200003], [-65.20000057099998, 8.409409758000095], [-65.1993125279999, 8.407353720000174], [-65.1986394999999, 8.40694771300008], [-65.19840048999993, 8.405963682999982], [-65.19956152499998, 8.404348638000045], [-65.20128860599988, 8.403966626000056], [-65.20204863299989, 8.403844608999975], [-65.20319468899993, 8.403100591000054], [-65.20339268999999, 8.402021567000133], [-65.20338669199992, 8.401402548000021], [-65.20245263499999, 8.400173525000184], [-65.20226362599993, 8.399762514000031], [-65.20223062799994, 8.398617483000066], [-65.20304865299994, 8.397326452000073], [-65.20425469499997, 8.395573393000063], [-65.20449669899995, 8.394356368], [-65.20263260699988, 8.392241327000079], [-65.20064452099996, 8.391824316000111], [-65.2001574969999, 8.391531311000108], [-65.19856742499996, 8.391706321000015], [-65.19796840299995, 8.391734326000119], [-65.19629231599993, 8.390122297000062], [-65.19671533199994, 8.388537255000188], [-65.19831538999989, 8.386963206000075], [-65.19965244299993, 8.384315137000101], [-65.2013395109999, 8.38219108100003], [-65.20360859899989, 8.380658026999981], [-65.20500866699984, 8.37993400500011], [-65.20613070499996, 8.3790069800001], [-65.20500565099996, 8.377160937000042], [-65.20367757799994, 8.375683904000084], [-65.20315854999996, 8.374473871000077], [-65.20258552199988, 8.372300821000067], [-65.2031555339999, 8.369155738000131], [-65.20495960499994, 8.367213685000138], [-65.20718269099996, 8.365657630999976], [-65.20909377699996, 8.365273620000096], [-65.21045483699999, 8.365352618000088], [-65.21084985799996, 8.365647622000154], [-65.21174290699997, 8.367403663000061], [-65.2118249109999, 8.368801697000094], [-65.21333298999997, 8.36981871300003], [-65.21406001799994, 8.368528676000153], [-65.21435101599985, 8.367609648000155], [-65.21510404999998, 8.366754629000184], [-65.21594608199985, 8.365531593000071], [-65.21605208099999, 8.364499563000095], [-65.21691810799996, 8.360961477000103], [-65.21672308799998, 8.359794451000027], [-65.21659908099997, 8.358856422000088], [-65.21702009699999, 8.356995378000136], [-65.21814713999999, 8.356710360000022], [-65.22010522199997, 8.356486344000132], [-65.22165530299998, 8.356999354000095], [-65.22450843199988, 8.358668388000183], [-65.22556547899995, 8.358269374000031], [-65.22620450399995, 8.357575344000168], [-65.22632849899992, 8.35603930800005], [-65.2266985089999, 8.353652252000074], [-65.22697851599997, 8.351564198000176], [-65.22710451099994, 8.350187165000023], [-65.22732451999991, 8.34901612900012], [-65.22761551799994, 8.348097101000121], [-65.22755550899996, 8.34667606700009], [-65.22711149299988, 8.345993051000107], [-65.22640945399996, 8.344922037000117], [-65.22611843299995, 8.343434995000166], [-65.22670645099993, 8.342168964000166], [-65.22761848999988, 8.340991928999983], [-65.22825450999994, 8.33997690200016], [-65.22904854099994, 8.338617864000128], [-65.23004459499998, 8.339066866000167], [-65.23150966599997, 8.34029089600017], [-65.23231869799997, 8.340535901000123], [-65.23346974699996, 8.34031889], [-65.2347558059999, 8.339687862], [-65.23559983699994, 8.338763841000059], [-65.23576983399994, 8.337180800000056], [-65.23598984299997, 8.336078764000035], [-65.23613383399999, 8.334128724000152], [-65.23644584499993, 8.332979694000073], [-65.23661785299987, 8.331625649000046], [-65.23755689199993, 8.330975632], [-65.23911995199995, 8.330434618000027], [-65.24043801599993, 8.330834614000082], [-65.24186507199988, 8.33054660300013], [-65.24241909799997, 8.330518598000026], [-65.24315613599993, 8.33039659300016], [-65.24413217299997, 8.329070559000058], [-65.24606525299993, 8.32813552400006], [-65.24818534299993, 8.327543504000062], [-65.24918039099992, 8.327671497000097], [-65.24887138599996, 8.32937254400008], [-65.24821535999996, 8.33105259100006], [-65.25016244899996, 8.331815598000048], [-65.25204653399993, 8.330559565000158], [-65.25349258999995, 8.329399519999981], [-65.25455763399998, 8.329642526000043], [-65.25566670299997, 8.33243158800002], [-65.25738676699996, 8.330970541000056], [-65.25762477099983, 8.329064503000097], [-65.2580937869999, 8.327110441000059], [-65.25944883399995, 8.326157411000054], [-65.26163593799998, 8.325243388], [-65.26342900299983, 8.324195352000174], [-65.26315798799988, 8.322201300000188], [-65.26254695799986, 8.320991279000168], [-65.26237693799999, 8.319983244000184], [-65.2631359699999, 8.31965524200001], [-65.2643090229999, 8.318956220000132], [-65.26567208099988, 8.318944211000087], [-65.26701314399998, 8.319093204000069], [-65.26771916999996, 8.317870170000106], [-65.26778316699995, 8.317342158000145], [-65.26738515299996, 8.316657144000146], [-65.26699113699993, 8.316546141000117], [-65.26682111699989, 8.315561119000108], [-65.26750314899994, 8.31424808200012], [-65.26870419699992, 8.314260079000121], [-65.26968624199992, 8.315605108000113], [-65.27049829099997, 8.316033121000089], [-65.27142333199993, 8.3160481110001], [-65.27265637199991, 8.314339066000173], [-65.27361041199998, 8.312449013000048], [-65.27456843899995, 8.311040970000136], [-65.27416041499993, 8.309300927000152], [-65.27322537599991, 8.308001898000043], [-65.27180530099992, 8.306638874000043], [-65.27052324199997, 8.30531985000016], [-65.27005621399996, 8.304749836999974], [-65.26963318799989, 8.30392781500018], [-65.26946017399996, 8.302598783000178], [-65.26960918099996, 8.301083749000043], [-65.26909015299998, 8.299826722000034], [-65.26822510999989, 8.29866369600012], [-65.26808109599989, 8.298045683000055], [-65.27030219199997, 8.298438675000057], [-65.27294132199995, 8.29896568100014], [-65.27543943099988, 8.299402674000135], [-65.27673548699983, 8.299642674000097], [-65.27839556399994, 8.299260662000108], [-65.27944359499998, 8.29759961700006], [-65.27974359599995, 8.29482154599998], [-65.28034661599992, 8.292407480000122], [-65.28090963299996, 8.29065843300009], [-65.28069162399993, 8.28949041400017], [-65.28185465699988, 8.287667362000093], [-65.2823506719999, 8.286218323000014], [-65.28328070599986, 8.284213269000077], [-65.28431175799989, 8.28328624400018], [-65.28495477999991, 8.282799228000044], [-65.28541879099993, 8.280317155000091], [-65.28276767599993, 8.281029191000016], [-65.28081758199988, 8.279877168000041], [-65.28027054899991, 8.27802312900019], [-65.28019153699995, 8.276923105000094], [-65.28140958699993, 8.276109070000189], [-65.28337167799992, 8.275954067000043], [-65.28494975099994, 8.276789079000025], [-65.28631781399997, 8.277419090000024], [-65.28850290699995, 8.276298042000178], [-65.28955194299994, 8.274751004000052], [-65.2907720039999, 8.274258984000028], [-65.2909939999999, 8.273177961000044], [-65.28987395099995, 8.271880932000101], [-65.28937592399996, 8.270370891000141], [-65.29031094999988, 8.268871853000064], [-65.29133998999993, 8.267715820000092], [-65.29242304099984, 8.267338813000094], [-65.29362610099997, 8.267625807], [-65.2956551819999, 8.267171789000088], [-65.29699424599994, 8.267090780000046], [-65.29786928599998, 8.266715773000044], [-65.29819728099994, 8.264625709000143], [-65.29828428999986, 8.263913696000088], [-65.29835828499995, 8.261824638000064], [-65.29835427399996, 8.26132063200015], [-65.29797625499992, 8.260291608000045], [-65.29786624399998, 8.258227562000172], [-65.29811024699984, 8.257101533000025], [-65.29898628099994, 8.256887515000074], [-65.29977432399994, 8.257224520000136], [-65.30178141099992, 8.25688451100018], [-65.30256644899987, 8.256923507000181], [-65.30339748699998, 8.256801502000144], [-65.30364048399991, 8.255537459000095], [-65.3030294539999, 8.254281437999964], [-65.30247142799982, 8.253804432000152], [-65.30216340499999, 8.252981404000082], [-65.30300844099992, 8.251849377000099], [-65.30409149199994, 8.25147336300006], [-65.30482651799997, 8.251076349000073], [-65.30537753799985, 8.250612334000152], [-65.3057165489999, 8.249829308000017], [-65.30630757199998, 8.248677285000042], [-65.30706960899994, 8.248670281000159], [-65.30829966699986, 8.249278285000173], [-65.30969373599999, 8.250229305000175], [-65.31091178599996, 8.249576283000124], [-65.31131378799995, 8.24789823600014], [-65.31081176099997, 8.245906195999964], [-65.31068074999996, 8.244141153000044], [-65.31047773199992, 8.241964093000036], [-65.30993169199996, 8.24027105600004], [-65.30938566399993, 8.238578018999988], [-65.30889764699987, 8.238216013000056], [-65.30862662099997, 8.236244962000114], [-65.30788558499995, 8.235976957000105], [-65.30866161799997, 8.234891935000178], [-65.30943765199987, 8.233851897000136], [-65.31109271299994, 8.232919867000078], [-65.31268178999989, 8.232423848000167], [-65.31564491599983, 8.233153857000104], [-65.31814303699991, 8.233520856000155], [-65.3194890929999, 8.234288868000135], [-65.32052513799994, 8.233889854000154], [-65.32366327699998, 8.233562834999987], [-65.32596837799991, 8.23303780599997], [-65.32811447299986, 8.232742790000088], [-65.32870848999988, 8.231979772000045], [-65.32853748799994, 8.230926742000122], [-65.32528332899989, 8.228547696000078], [-65.32411827199996, 8.227387675000102], [-65.3235272369999, 8.22571863200011], [-65.32352323799995, 8.22528262100002], [-65.32486430099988, 8.225453621000156], [-65.32606234399998, 8.225121609000041], [-65.32603534399993, 8.224663603000124], [-65.32542530799992, 8.22361357900013], [-65.32500229199991, 8.222653556000182], [-65.32495128599999, 8.22210353800017], [-65.32626533799998, 8.221862533000035], [-65.32871544699992, 8.222069524000176], [-65.32980449699988, 8.22249552500017], [-65.33037753599996, 8.224624584000026], [-65.33093556099993, 8.225123586000109], [-65.33282665099983, 8.224739575000058], [-65.33376668199998, 8.223950551000144], [-65.3354137579999, 8.224830559000111], [-65.3359107789999, 8.223495528000058], [-65.33423169899999, 8.221606492000092], [-65.33306763699994, 8.220608465000169], [-65.33266561099998, 8.219441439999969], [-65.33335763999997, 8.21936644100009], [-65.33645177799991, 8.21926942500005], [-65.3369978049999, 8.218255391000184], [-65.33696479499991, 8.217154362000088], [-65.33695579199997, 8.216168345000142], [-65.33738980899989, 8.215522326999974], [-65.33901588299989, 8.21658534300019], [-65.3408689709999, 8.217279350000126], [-65.34236502699997, 8.216623335000122], [-65.34355308399995, 8.215167293000093], [-65.3443531129999, 8.214243261000036], [-65.34457711999994, 8.213438241000063], [-65.3453901389999, 8.211205184000107], [-65.34563615299999, 8.210354163000147], [-65.34429708999988, 8.210366160000149], [-65.34279201699997, 8.209921157000167], [-65.3419789859999, 8.209378155000024], [-65.34162296199997, 8.208280131000095], [-65.34152895999989, 8.208143123000127], [-65.34346103399997, 8.207116087999964], [-65.34459109199997, 8.206923082000174], [-65.34625315799997, 8.206862068000135], [-65.34780223199982, 8.207031068000049], [-65.34951931499995, 8.208025083000166], [-65.35075137399991, 8.208954097000117], [-65.35172340999998, 8.209152107000136], [-65.35135839299988, 8.207022053000117], [-65.35042433699988, 8.20581402099998], [-65.34946729199999, 8.204676006000057], [-65.3479352199999, 8.203794993000088], [-65.34740219499992, 8.203570988000138], [-65.34596413599996, 8.202803970000048], [-65.34565611299996, 8.201957955000125], [-65.34606712999994, 8.201426938000168], [-65.34742718299998, 8.201046926000174], [-65.34918727399992, 8.201696931000072], [-65.35020831499986, 8.202145933000054], [-65.35113335699992, 8.202389944000117], [-65.35209139499995, 8.200912901000038], [-65.35284542199992, 8.199988869000094], [-65.35311942999994, 8.199664867000138], [-65.35397847499996, 8.200230869000052], [-65.35399147699997, 8.201652908000028], [-65.35404849399998, 8.202959934000035], [-65.35401448999994, 8.204381973000181], [-65.35512154799994, 8.204211968000038], [-65.35705963299989, 8.203941952999969], [-65.35768765299997, 8.20444096500006], [-65.35871171299982, 8.205371978000073], [-65.35905073499998, 8.207158022000101], [-65.36031577999995, 8.206596008000133], [-65.36120582299992, 8.205394967000132], [-65.36246286999994, 8.203869924000173], [-65.3637429179999, 8.202343876000043], [-65.36528498699994, 8.201641861000098], [-65.36597301699993, 8.201084839000032], [-65.36655903599996, 8.19942779300004], [-65.36636401599998, 8.19830476900006], [-65.36558796999998, 8.196660737000059], [-65.36516995999995, 8.196366727000111], [-65.36368588899995, 8.195737722], [-65.36302885699996, 8.194481689999975], [-65.36285683799997, 8.193290658000024], [-65.36285183299998, 8.192785647000107], [-65.36270282599997, 8.191479615000048], [-65.36319583599993, 8.189754574], [-65.3634468439999, 8.189454565000176], [-65.36443789299994, 8.189238560000149], [-65.36547693099993, 8.189229545000046], [-65.3660039689999, 8.191334599000129], [-65.36647598999997, 8.192592631000082], [-65.36803405599994, 8.19113259], [-65.36903910199999, 8.189838555000165], [-65.36977012899996, 8.188868523000167], [-65.37027214299985, 8.188244500000167], [-65.37140218899998, 8.187982494000153], [-65.37224523699996, 8.189327523000145], [-65.37366729999991, 8.188236491000112], [-65.37522236099989, 8.186479435000024], [-65.3760223889999, 8.185531409000077], [-65.37711843199992, 8.184098367], [-65.37618037599992, 8.182410334000053], [-65.37487931499993, 8.181504321000148], [-65.37363126099996, 8.181424317000108], [-65.37258921699998, 8.181112323000036], [-65.37174018299999, 8.181785340000033], [-65.37047813099991, 8.182714364000162], [-65.36902806399996, 8.18325539000017], [-65.36809601899984, 8.182323371000052], [-65.36702396999993, 8.181140338000148], [-65.3664429449999, 8.180755332000103], [-65.36533887999997, 8.178563282000084], [-65.36565089099992, 8.177230251000026], [-65.36663392999992, 8.176097218000109], [-65.36863301799985, 8.174909181000146], [-65.3707571079999, 8.174912175000031], [-65.37331622099993, 8.174453153000059], [-65.37641034699993, 8.171718067000086], [-65.37689334799995, 8.168845996000016], [-65.37682135299997, 8.168525992000014], [-65.37781739499985, 8.168837998000072], [-65.37886244299989, 8.169493008000131], [-65.37954848599998, 8.171414048000088], [-65.3802515189999, 8.172577075000106], [-65.38120456499996, 8.17334908500004], [-65.38245161399993, 8.173337089000086], [-65.38280562699993, 8.171499034000021], [-65.38235360099992, 8.169966005000049], [-65.38220459499985, 8.168819969000083], [-65.38263460199988, 8.167829941000093], [-65.3837436469999, 8.167865945000017], [-65.38381066099993, 8.17022800000018], [-65.3841666859999, 8.171417032000136], [-65.38484872899994, 8.172811065000133], [-65.38601378599998, 8.173970081000107], [-65.38654479899998, 8.173919076000061], [-65.38741584099989, 8.173246059000064], [-65.38848888299998, 8.17176802300014], [-65.38853687199992, 8.169381962000159], [-65.38780383399995, 8.167415915000106], [-65.38591973699994, 8.16587288800008], [-65.38536071799996, 8.165212873000087], [-65.38486267899987, 8.163771833000055], [-65.38372463399992, 8.163048828000171], [-65.38223755799999, 8.161983801000076], [-65.3808474999999, 8.16149180400015], [-65.37955043799997, 8.16102179000012], [-65.37769735099994, 8.160304783000072], [-65.37625528199999, 8.159194760000162], [-65.37584825199997, 8.157454717000121], [-65.3763902689999, 8.156072681000182], [-65.37794934099992, 8.154728647000184], [-65.37915938099997, 8.153157603000068], [-65.38089945299993, 8.151489555000069], [-65.38224750799992, 8.149848506000069], [-65.38256351799998, 8.148928485000056], [-65.38293851999998, 8.14695242900018], [-65.38313853299985, 8.145986408000113], [-65.38320353599988, 8.145573397000135], [-65.38443857599992, 8.144231363000074], [-65.38587562899994, 8.142108302000054], [-65.38619364999994, 8.14155428600003], [-65.38661665299986, 8.139738238000064], [-65.38708566899993, 8.13792219000004], [-65.38772368799988, 8.136884163000047], [-65.38921775699998, 8.136090135000074], [-65.39140985399996, 8.135909127000048], [-65.39271590799996, 8.134750089000079], [-65.3918988659999, 8.133726069000033], [-65.39072579899994, 8.131580020000058], [-65.39107981299992, 8.129878973000075], [-65.39325090899996, 8.129904968000176], [-65.39562801699992, 8.129814955000086], [-65.39744208299999, 8.12858191200013], [-65.39881313899986, 8.126963874000182], [-65.40002719099994, 8.125874842000144], [-65.39897713699992, 8.124530807000042], [-65.39839110699995, 8.123618783999973], [-65.39862909899989, 8.119051677000016], [-65.39824006499987, 8.116784616000132], [-65.39954812999991, 8.115946599000154], [-65.4018862179999, 8.113975537000158], [-65.40503734799995, 8.112501488000134], [-65.40717443999995, 8.111380452999981], [-65.40923853199996, 8.109755400000097], [-65.41074558099996, 8.107883343000026], [-65.41245065499999, 8.107478331000095], [-65.41522978799998, 8.108416337000051], [-65.41819092699984, 8.109077346000163], [-65.4193349709999, 8.107919314000071], [-65.42102603599994, 8.105885249000096], [-65.42177005299993, 8.103814199000112], [-65.42120302499984, 8.102374165000185], [-65.42127501999994, 8.100056111000072], [-65.42312708999998, 8.09799805300014], [-65.42488715699994, 8.09589399400005], [-65.42590819899993, 8.09381994], [-65.42670222899994, 8.092252895000115], [-65.42668321599996, 8.090073837000148], [-65.42750123999997, 8.088529805000064], [-65.4291453109999, 8.086518741000134], [-65.43185941799993, 8.085323700000117], [-65.43430952699998, 8.082984634000013], [-65.43556955599996, 8.079302540000185], [-65.4370856089999, 8.075755442000172], [-65.43805364599996, 8.072994374000132], [-65.43880866799992, 8.069546280000111], [-65.43930567699994, 8.068257250000045], [-65.44140675499995, 8.065714176000142], [-65.44249879799997, 8.063801123000019], [-65.44367483499985, 8.06106004999998], [-65.4453318969999, 8.057878968000068], [-65.44702296199995, 8.055890916000067], [-65.44815500899989, 8.053356845000053], [-65.44911404199996, 8.052086817000145], [-65.45134513699998, 8.05114877700015], [-65.45449527399995, 8.049765737000143], [-65.45510128799998, 8.047764681000103], [-65.4567973579999, 8.046372636000115], [-65.45793240999996, 8.046889645000022], [-65.46010351799998, 8.049576709000121], [-65.46089357099999, 8.052780780000091], [-65.46278464999995, 8.052556765000134], [-65.46402370199996, 8.051810738000142], [-65.46581577299992, 8.050761708000039], [-65.46737484499988, 8.049554669999964], [-65.46942192299997, 8.048709638000048], [-65.47159501899989, 8.04905664100005], [-65.47348710299997, 8.04901662800006], [-65.47397113399995, 8.048942623000073], [-65.47550618799994, 8.047575589000076], [-65.47665123699994, 8.046601558000077], [-65.4782332979999, 8.04534752700016], [-65.47979136499998, 8.044025476000058], [-65.47949533899998, 8.041872434000084], [-65.47859929799989, 8.0397703860001], [-65.47856923799992, 8.039527700000065], [-65.47830127199995, 8.037364330000116], [-65.47823125299993, 8.03468125400019], [-65.47826725699997, 8.033511236000038], [-65.47735320699991, 8.031891198999972], [-65.47752120499996, 8.030009143000086], [-65.47859624699993, 8.028967118000082], [-65.48075733399986, 8.027868077], [-65.48320844899996, 8.02844209000017], [-65.48526654199992, 8.02888208800016], [-65.4879586539999, 8.027824044], [-65.48956171599986, 8.026456005000057], [-65.48973972299984, 8.025651990000085], [-65.48839465999993, 8.02490697900015], [-65.48778663499996, 8.02406395700001], [-65.48804763999988, 8.022226908000164], [-65.48877966099997, 8.021485897000048], [-65.48716258999997, 8.021316897000133], [-65.48613454399998, 8.019927867000092], [-65.48536049799998, 8.01860483300004], [-65.48341641399998, 8.017980832000035], [-65.48345840499996, 8.014905759000044], [-65.48335039499983, 8.013140717000056], [-65.48252634799996, 8.011267665000162], [-65.48262734299993, 8.009660631000031], [-65.48388339599995, 8.008066588000077], [-65.48622049099998, 8.006164527000124], [-65.48711552699996, 8.005605506000165], [-65.48576445399982, 8.004149487000063], [-65.48688749699994, 8.003290458000095], [-65.48800754699994, 8.002041418000147], [-65.48845655599996, 8.000615381000046], [-65.48930259699989, 7.999689362000026], [-65.49102566699992, 7.998848328000122], [-65.49229072499998, 7.998331309000037], [-65.49310775499998, 7.996672263999983], [-65.4927837319999, 7.995852252000191], [-65.49349375799994, 7.995432238999967], [-65.49406979199989, 7.995404234000034], [-65.49494282199993, 7.995074222000085], [-65.49626687299997, 7.993802181000092], [-65.49660388499996, 7.992860165000138], [-65.49659187699996, 7.991693127000019], [-65.49649587499994, 7.991259116000094], [-65.49706989699996, 7.991047109000078], [-65.4973589089999, 7.990014086000144], [-65.49640786099991, 7.989337068000054], [-65.49511180499996, 7.988870070000132], [-65.49390674499983, 7.988218052000036], [-65.49403675199994, 7.98741603600007], [-65.49429775799996, 7.985834000000125], [-65.49389072899993, 7.984303963000059], [-65.4931446999999, 7.983487950000153], [-65.49233165599998, 7.982832939000048], [-65.4909085889999, 7.98110789500015], [-65.4907665749999, 7.980788885000038], [-65.49085358399998, 7.98023887800008], [-65.49177862599998, 7.980549880000069], [-65.49242264299994, 7.980336868000052], [-65.49260264899993, 7.979899863000185], [-65.49238563499989, 7.978986833000135], [-65.49208062899999, 7.978440826000167], [-65.4920046229999, 7.977708805000077], [-65.49283465699995, 7.977700807000133], [-65.49348568999989, 7.978288817000134], [-65.49424171699991, 7.977799803000153], [-65.49450572899991, 7.976584776000095], [-65.49428871399988, 7.975556746000109], [-65.49481572899998, 7.975276744000041], [-65.49540775899993, 7.974469713000133], [-65.49497972899997, 7.973237685000186], [-65.49382667999987, 7.973157692000029], [-65.49255862899992, 7.973125698000047], [-65.49166357999997, 7.973500705000106], [-65.49042252799995, 7.973948724000138], [-65.48984250799998, 7.973587724000083], [-65.49024652199995, 7.972393687000135], [-65.49066853299996, 7.970855652000182], [-65.49065051499997, 7.96895660500013], [-65.49045851199998, 7.968202590000033], [-65.48957646699984, 7.967639579000092], [-65.48835241799998, 7.967400572000088], [-65.4876353759999, 7.967087571000036], [-65.48792038799996, 7.965642531000015], [-65.48869441199986, 7.964673504000075], [-65.48991346899999, 7.964385494000055], [-65.49104652199998, 7.964786497000091], [-65.49175354299985, 7.964023479], [-65.49231156999991, 7.962118434000047], [-65.49309859599992, 7.962476429000105], [-65.49425765399991, 7.963082447000147], [-65.49508768799984, 7.963119444000085], [-65.49600572499986, 7.962766432000024], [-65.49724878799987, 7.962525415000073], [-65.4982948309999, 7.963407436000125], [-65.49911787299988, 7.962712411999973], [-65.49949487599997, 7.961266379000165], [-65.49953087999995, 7.960213347999968], [-65.49849283499992, 7.960177356000031], [-65.49802980599998, 7.959976352000069], [-65.49790180099995, 7.958650323000086], [-65.49872682999995, 7.958161309000104], [-65.49927785199998, 7.957972303000076], [-65.49942185499998, 7.956208252000067], [-65.49953627699995, 7.955770673000188], [-65.49964386399995, 7.955359231000045], [-65.50089191999996, 7.955621239000095], [-65.50135393199997, 7.955708234999975], [-65.50178595099999, 7.95517721900012], [-65.50161693699988, 7.954400203000148], [-65.5004138889999, 7.953955199000063], [-65.49985386399993, 7.953228182000032], [-65.49975084799985, 7.952176158000043], [-65.50001485899992, 7.950892119000116], [-65.5000918479999, 7.949380090000147], [-65.50017185399997, 7.94807505000017], [-65.50032284999992, 7.947021026000186], [-65.50052086399995, 7.946103004000065], [-65.50057885199988, 7.944957973000101], [-65.50047885199996, 7.944157957000186], [-65.50095486099997, 7.943397931000163], [-65.50178290699995, 7.943159932000128], [-65.50255993699994, 7.942556910000121], [-65.50324195799993, 7.941565876000027], [-65.50376097499998, 7.940438853000103], [-65.50406798299991, 7.938856817000158], [-65.50423598099997, 7.937137773000188], [-65.50428598299999, 7.935214721000079], [-65.50401494799996, 7.931143629000189], [-65.50335791599997, 7.929914594000024], [-65.50301089499993, 7.929780591000053], [-65.50185584799993, 7.929517590000046], [-65.5008388039999, 7.929253594000045], [-65.49972974599996, 7.929012587999978], [-65.49866869999994, 7.928886594000062], [-65.49858669599996, 7.92767456100006], [-65.49837567999992, 7.927264556000125], [-65.49757365099998, 7.927799571000094], [-65.49708562099994, 7.927300557000024], [-65.49653658999989, 7.925475515000187], [-65.49645759099997, 7.92442249700008], [-65.49582955799985, 7.923834487000079], [-65.49550553799997, 7.923746485000095], [-65.49494250899988, 7.922721459], [-65.49491050499984, 7.921806442000104], [-65.49521250799995, 7.919743388000086], [-65.49536851999989, 7.919215377], [-65.49462948299993, 7.918994365], [-65.49414546399993, 7.919044376000159], [-65.49331042599994, 7.918527366000035], [-65.49270339399993, 7.917709343000126], [-65.49219236399989, 7.917279342000143], [-65.49161234399998, 7.916942335000044], [-65.49002126599993, 7.916821334000076], [-65.48898422699995, 7.916900343000123], [-65.48794917499993, 7.917048353000098], [-65.48638210399992, 7.91713336000015], [-65.48511505699997, 7.91714636100005], [-65.48345998299993, 7.917666385000075], [-65.48265194399994, 7.917560387000037], [-65.47949181699994, 7.919606448000138], [-65.47885079299994, 7.92007146800006], [-65.47800275099996, 7.920560483000088], [-65.47792075699982, 7.92159150700013], [-65.47712071599994, 7.922308525000119], [-65.47622468499998, 7.922592537000185], [-65.47581667099996, 7.923237549000078], [-65.47478262499988, 7.923637568000061], [-65.4732865549999, 7.923790582000095], [-65.47137647399995, 7.924152597000159], [-65.47026242299995, 7.923385578000023], [-65.4702584239999, 7.922928566], [-65.47101245199985, 7.922325556000033], [-65.4717044819999, 7.922295552000037], [-65.47287653199999, 7.921940540000151], [-65.47351455199993, 7.921269511000162], [-65.47397057799992, 7.920761507000066], [-65.47430858299998, 7.919957480000051], [-65.47328352999989, 7.918823463000081], [-65.47192347599992, 7.918768457000169], [-65.46979637999993, 7.91814946], [-65.46901234699993, 7.918134457000122], [-65.46744626999993, 7.918218470000056], [-65.46661423599994, 7.917975464], [-65.46578420299988, 7.918029474000036], [-65.46456815099998, 7.918568488000062], [-65.46364410299992, 7.918349487000114], [-65.46303907099997, 7.91778347200011], [-65.46109098699998, 7.916543457000103], [-65.4590688959999, 7.917182480000122], [-65.45865488499993, 7.91730148], [-65.45709780999988, 7.918324516000098], [-65.4564087849999, 7.918582524000158], [-65.45495172399995, 7.918094512000096], [-65.45319764299995, 7.917837520000148], [-65.4514665619999, 7.91767152400007], [-65.45021850599994, 7.917295521000142], [-65.44919845699991, 7.916687504000038], [-65.44746737599996, 7.91649951300019], [-65.44663934199991, 7.916644518], [-65.44445125299995, 7.916850536000027], [-65.44332419899996, 7.91704454700016], [-65.44175212299984, 7.916625536000026], [-65.43972103999994, 7.916279537000094], [-65.43843897899995, 7.917162560000065], [-65.43715192599996, 7.917610579000097], [-65.43232270599998, 7.916354576000174], [-65.43015661299984, 7.916422581000063], [-65.42771750499998, 7.916927602000158], [-65.42570641799995, 7.916329594000047], [-65.42367932199983, 7.916441612000085], [-65.42153523499996, 7.916440616000045], [-65.41998416099989, 7.915746608000177], [-65.41812806799999, 7.914414579000152], [-65.41569395399983, 7.912997565000182], [-65.4142328939999, 7.912119543000188], [-65.41233780399995, 7.911634537000168], [-65.41029970599982, 7.910624524000184], [-65.41016170199993, 7.910603523000134], [-65.41001168999998, 7.909391502000119], [-65.41016869499998, 7.909000486000082], [-65.41083572499991, 7.908811480000111], [-65.41115173599997, 7.908144461000063], [-65.40981566599999, 7.905822417000138], [-65.40837660099993, 7.904784387000063], [-65.40581448099988, 7.904443392000189], [-65.40205831499998, 7.904481415000021], [-65.3992301859999, 7.902884386000153], [-65.39619604499995, 7.901381357000048], [-65.3938299269999, 7.899733335000121], [-65.38993275399997, 7.897209290999967], [-65.38753463299997, 7.894715240000153], [-65.38504950299995, 7.890276143000108], [-65.38380943399994, 7.888365098000179], [-65.38208635199999, 7.886505058000068], [-65.37999225599992, 7.884466021000037], [-65.37825017199987, 7.883086998000067], [-65.37660208999984, 7.881866966000018], [-65.37564504499994, 7.880617947000133], [-65.37445097799991, 7.878683902000091], [-65.37431805199992, 7.878554405000102], [-65.37414441599998, 7.878385247000153], [-65.37386895799989, 7.878116894000073], [-65.37358208899997, 7.877520849000064], [-65.37351469899983, 7.877380829], [-65.37350144199996, 7.877353283000048], [-65.37190285199995, 7.874031796000111], [-65.37125182099999, 7.873938805000137], [-65.37174282999996, 7.871584742000152], [-65.36684255099993, 7.856524392000154], [-65.35608108299994, 7.859088503000123], [-65.35153805699991, 7.857616958000165], [-65.34140957099999, 7.854336211000032], [-65.34107050899996, 7.854226384000071], [-65.33957353999995, 7.853741496000112], [-65.33667685399996, 7.852803222000091], [-65.33454110199995, 7.8521114240001], [-65.32638938599996, 7.853713777000053], [-65.32503236699984, 7.853980521000096], [-65.32469666599997, 7.854046509000057], [-65.32462943999997, 7.854035462000127], [-65.32458530599996, 7.854028209000148], [-65.3107190469999, 7.851749517000087], [-65.30064556399998, 7.84578541500008], [-65.28279071999998, 7.832252166000046], [-65.2465791059999, 7.832194315000152], [-65.23604363199996, 7.828292261000058], [-65.22848627799993, 7.825309222000044], [-65.21153251299995, 7.822322212000188], [-65.18985654699998, 7.820444258000066], [-65.15896911899989, 7.809977136000157], [-65.12214598099996, 7.796655578000127], [-65.11074191199998, 7.79252991200002], [-65.10235166899997, 7.788618414000041], [-65.09231805499996, 7.783940782000059], [-65.0776873879999, 7.78018275400018], [-65.06277272999989, 7.777125725000076], [-65.05591150499993, 7.775719393000088], [-65.04727544999992, 7.773949276999986], [-65.04625796399995, 7.773740725000152], [-65.0191637339999, 7.767835689000094], [-65.00108388099994, 7.756309487000124], [-64.99836368699994, 7.74140114], [-64.99494449899998, 7.732454930000188], [-64.96475005099995, 7.706289422000054], [-64.95422355299996, 7.699861307000162], [-64.94460511699992, 7.697331279000082], [-64.93408660699993, 7.686774068000091], [-64.90928344499986, 7.672737832999985], [-64.89508679499994, 7.66859879000009], [-64.87677193899987, 7.661245686000143], [-64.87499754399994, 7.66087013300006], [-64.86371734499994, 7.658482665], [-64.85990419199999, 7.661719760000096], [-64.85912716299998, 7.66237878600009], [-64.84768265899999, 7.664470881000057], [-64.84223479799988, 7.664994707000062], [-64.84189477699988, 7.665027401000089], [-64.83578413399994, 7.66561495500008], [-64.82667074199998, 7.668774072000076], [-64.82127749399996, 7.668416083000182], [-64.81064302399994, 7.669766161000155], [-64.80422774399995, 7.669886190000057], [-64.79233222299996, 7.671259273000089], [-64.78436086899995, 7.674166376000187], [-64.77639852799985, 7.677648496000131], [-64.74822032299994, 7.689994914000124], [-64.73033757999991, 7.702342283000064], [-64.73029738299988, 7.702367435000042], [-64.72004214499992, 7.708784485000024], [-64.70920869499997, 7.718160755999975], [-64.70378547799999, 7.722742890000063], [-64.67560730299988, 7.742605490000187], [-64.64926068499989, 7.751758518999964], [-64.64454694499989, 7.753396111000086], [-64.63580502999991, 7.756433123000022], [-64.63388249699983, 7.757101023000075], [-64.59378272599992, 7.76461636300013], [-64.54826467299989, 7.760858459000076], [-64.52225452299996, 7.764616656000101], [-64.51303825499997, 7.767792751000059], [-64.50979098399995, 7.768911820000028], [-64.49624344499983, 7.784480255000062], [-64.48542198299992, 7.790451447000066], [-64.4772776349999, 7.794142569000144], [-64.47226742499998, 7.798964709000131], [-64.46307704499992, 7.804647889000023], [-64.45935489099998, 7.808277998000051], [-64.4575518119999, 7.810149051000053], [-64.45537874599995, 7.817313238000168], [-64.45453672799994, 7.821810355000025], [-64.45361270699993, 7.828262512000151], [-64.45664586299989, 7.831425577000118], [-64.46043903599997, 7.832046579000178], [-64.46535628399994, 7.838163713000029], [-64.50220501099989, 7.857490033000033], [-64.51772472099998, 7.860016041000165], [-64.52788319099989, 7.864198098000031], [-64.53007643599983, 7.865346776000024], [-64.5367886059999, 7.868862171000046], [-64.55392438399991, 7.87199718700009], [-64.5667079779999, 7.875441216000013], [-64.57265826799994, 7.881538337000109], [-64.57770154799994, 7.895005649999973], [-64.58038270799983, 7.904379870000071], [-64.57969470299992, 7.911173045], [-64.57210846299989, 7.934793658000103], [-64.56885740399986, 7.9557312], [-64.56181802799995, 7.971288866000123], [-64.56181316599992, 7.971299612000109], [-64.54555650299989, 7.989015123000172], [-64.54348682899996, 7.990128141000071], [-64.53682388799996, 7.993711301000076], [-64.52659069599997, 7.999214452], [-64.5070828769999, 8.012098859000162], [-64.4920492999999, 8.01691718800015], [-64.48865808199997, 8.018004089000101], [-64.47769762999985, 8.02823238000002], [-64.46770620299998, 8.031526513000188], [-64.44893735799991, 8.032510611000077], [-64.44233405299997, 8.030233583000154], [-64.43724081299996, 8.026143505000164], [-64.43294959299993, 8.02195041400006], [-64.42959241899996, 8.016394288000015], [-64.42200604399994, 8.008341126], [-64.41144353299995, 7.999148940000111], [-64.40484423499998, 7.99664090400006], [-64.39810092399983, 7.996425925000153], [-64.38568938299989, 8.001058089000082], [-64.37626798299993, 8.004472222], [-64.37213380499998, 8.005787272000134], [-64.36530912399991, 8.010955611999975], [-64.36173737199988, 8.013660505000075], [-64.36133615599994, 8.014722450000079], [-64.35936728999997, 8.019933671000047], [-64.35535514999992, 8.029278927000064], [-64.35233803199998, 8.03519109299998], [-64.34698582399994, 8.042107284000167], [-64.34050360799989, 8.058209716000079], [-64.34024732099994, 8.05884616700007], [-64.33863954499986, 8.062838844000112], [-64.33863853899987, 8.062838844000112], [-64.33740649699996, 8.065821923000101], [-64.33736113799995, 8.065864709000095], [-64.339463, 8.073411], [-64.339123, 8.077966000000117], [-64.339054, 8.082081], [-64.339296, 8.087019], [-64.33964199999986, 8.091084000000137], [-64.340064, 8.095606], [-64.3399849999999, 8.10080100000016], [-64.339397, 8.105979000000104], [-64.338219, 8.112039], [-64.337568, 8.115747], [-64.335673, 8.117633000000183], [-64.33251, 8.119879], [-64.329472, 8.120929], [-64.3254429999999, 8.12006], [-64.3182359999999, 8.120128], [-64.31423199999989, 8.121489000000167], [-64.313002, 8.123090000000104], [-64.313642, 8.126507], [-64.315669, 8.129998], [-64.321961, 8.136883], [-64.323128, 8.139879000000121], [-64.32202699999988, 8.14265], [-64.32085, 8.144734], [-64.318304, 8.146329], [-64.31517, 8.147104000000184], [-64.313804, 8.148822], [-64.31502399999988, 8.150484], [-64.319148, 8.153535], [-64.32164199999983, 8.155434000000184], [-64.324289, 8.156572], [-64.327325, 8.159453], [-64.329251, 8.162094], [-64.327922, 8.163168], [-64.32517999999982, 8.161755], [-64.322295, 8.160022], [-64.321072, 8.160106], [-64.320493, 8.162067], [-64.31963, 8.163342000000114], [-64.317034, 8.164662], [-64.315464, 8.166751], [-64.31615499999987, 8.16855800000019], [-64.319682, 8.169962], [-64.321648, 8.172143000000176], [-64.32506099999989, 8.175593000000163], [-64.327417, 8.177448], [-64.3301479999999, 8.179919000000154], [-64.331376, 8.182201000000134], [-64.32868299999984, 8.183086000000173], [-64.326954, 8.183475], [-64.3246529999999, 8.184401], [-64.324957, 8.186695], [-64.326743, 8.187247], [-64.331207, 8.189696], [-64.330133, 8.192697000000123], [-64.329453, 8.195877000000166], [-64.329456, 8.198153], [-64.33254, 8.199125000000151], [-64.335515, 8.200604000000112], [-64.339016, 8.201663000000167], [-64.341881, 8.203695], [-64.341914, 8.206590000000176], [-64.341159, 8.209243000000129], [-64.3409769999999, 8.211452000000122], [-64.340581, 8.215203000000145], [-64.339716, 8.218386], [-64.340033, 8.221829000000184], [-64.341318, 8.223031000000162], [-64.34309, 8.224388], [-64.344678, 8.225769], [-64.34721499999984, 8.22941400000019], [-64.348312, 8.232365], [-64.347165, 8.23506900000018], [-64.345405, 8.236769000000152], [-64.346118, 8.240437], [-64.34776599999987, 8.243128000000127], [-64.34721599999983, 8.24547900000016], [-64.345382, 8.244767], [-64.342045, 8.244051000000127], [-64.34099, 8.246776000000182], [-64.34296599999988, 8.249647], [-64.343264, 8.251459], [-64.341412, 8.253299], [-64.33847, 8.254669], [-64.336968, 8.256688000000167], [-64.336711, 8.258461000000125], [-64.338742, 8.260204000000101], [-64.340157, 8.262715], [-64.339688, 8.266122], [-64.338943, 8.267648000000179], [-64.336547, 8.268322000000126], [-64.333667, 8.26907100000011], [-64.33089499999988, 8.271129], [-64.328962, 8.273934000000168], [-64.329072, 8.277426], [-64.33030699999983, 8.278284], [-64.332707, 8.278047000000129], [-64.335924, 8.278396], [-64.337209, 8.279667], [-64.340036, 8.28022900000019], [-64.340503, 8.282613], [-64.339744, 8.284944], [-64.340836, 8.287458], [-64.342994, 8.290165000000172], [-64.343034, 8.291682], [-64.34041, 8.292635], [-64.337612, 8.294556], [-64.336852, 8.296772], [-64.3373079999999, 8.298283], [-64.340212, 8.297487000000103], [-64.341704, 8.296549], [-64.343405, 8.297768], [-64.34255999999988, 8.300652000000127], [-64.34321299999982, 8.303218000000186], [-64.344295, 8.30479], [-64.345471, 8.306613], [-64.345878, 8.309826000000157], [-64.345399, 8.312337], [-64.345372, 8.314015], [-64.34703, 8.315488], [-64.34863699999988, 8.316547], [-64.350151, 8.317562], [-64.35104799999988, 8.319136], [-64.350717, 8.320566], [-64.349032, 8.322747], [-64.348364, 8.324893000000145], [-64.349029, 8.326425], [-64.350585, 8.32714], [-64.353934, 8.326937000000157], [-64.356793, 8.326302], [-64.35938, 8.326086], [-64.361372, 8.326474], [-64.362061, 8.328074], [-64.36288699999989, 8.329472000000123], [-64.3623889999999, 8.331027000000176], [-64.361823, 8.332630000000108], [-64.36153, 8.334089], [-64.361574, 8.33621], [-64.362292, 8.337439000000131], [-64.363322, 8.338132], [-64.366244, 8.338807000000145], [-64.367665, 8.339468000000124], [-64.367537, 8.339978], [-64.36581, 8.342321], [-64.365459, 8.343227000000127], [-64.367272, 8.343834], [-64.368706, 8.341774000000157], [-64.370025, 8.343083], [-64.369116, 8.344855000000166], [-64.368301, 8.346694], [-64.36858199999983, 8.348002000000122], [-64.37032, 8.348356000000138], [-64.37262, 8.349091], [-64.375345, 8.349194000000182], [-64.37650699999989, 8.349584000000107], [-64.376516, 8.35112800000013], [-64.376512, 8.353111], [-64.375113, 8.356807000000174], [-64.373286, 8.358828], [-64.372938, 8.35982700000011], [-64.37328799999983, 8.361157], [-64.374426, 8.361478000000147], [-64.376163, 8.360703000000115], [-64.37770399999988, 8.360417], [-64.379807, 8.360556], [-64.381607, 8.36162400000012], [-64.382139, 8.362811], [-64.38228699999985, 8.364353000000165], [-64.382289, 8.365575], [-64.38011499999982, 8.366428], [-64.379194, 8.366517000000158], [-64.379221, 8.36783], [-64.37720299999984, 8.368404000000112], [-64.37617099999989, 8.36764200000016], [-64.375015, 8.366445], [-64.373517, 8.36544], [-64.372313, 8.365258], [-64.370714, 8.366053000000136], [-64.37062, 8.36815300000012], [-64.372774, 8.369651], [-64.374565, 8.370328], [-64.37454, 8.371342], [-64.37425599999989, 8.372063], [-64.3731719999999, 8.372109], [-64.371558, 8.37329700000015], [-64.371805, 8.37513500000017], [-64.37274, 8.376844000000176], [-64.37378699999988, 8.378322], [-64.375441, 8.379047000000185], [-64.37754599999988, 8.379255000000171], [-64.380015, 8.379249], [-64.380667, 8.379511], [-64.380116, 8.381875], [-64.3792509999999, 8.383553000000177], [-64.378004, 8.385701], [-64.377364, 8.387097], [-64.377653, 8.388751000000184], [-64.379104, 8.389734], [-64.3815039999999, 8.38970600000016], [-64.384349, 8.390037], [-64.385979, 8.390740000000108], [-64.386988, 8.39260800000011], [-64.388007, 8.394961000000137], [-64.388013, 8.396367000000112], [-64.386444, 8.397484000000134], [-64.385339, 8.398707], [-64.385445, 8.400433], [-64.384913, 8.401482], [-64.384291, 8.403732], [-64.3854189999999, 8.404699000000107], [-64.388608, 8.404907], [-64.389643, 8.405853], [-64.389682, 8.407674], [-64.39001, 8.410110000000145], [-64.39074699999986, 8.41113200000018], [-64.3928279999999, 8.412424000000101], [-64.39411799999988, 8.413342], [-64.394148, 8.414793], [-64.394232, 8.41659], [-64.394058, 8.419291], [-64.39514, 8.420259], [-64.396982, 8.420058], [-64.398624, 8.42129], [-64.39915999999988, 8.42266300000017], [-64.39924799999989, 8.425750000000107], [-64.400402, 8.426809], [-64.40298499999989, 8.42675300000019], [-64.404805, 8.42766], [-64.406004, 8.428694000000178], [-64.406978, 8.43001], [-64.40869, 8.431311000000164], [-64.410408, 8.431781000000171], [-64.41266, 8.432424], [-64.414707, 8.4320570000001], [-64.41714799999988, 8.431797], [-64.41823199999988, 8.433918], [-64.417472, 8.435087000000124], [-64.41789099999983, 8.437475], [-64.419549, 8.438362], [-64.421014, 8.439967000000138], [-64.421541, 8.440901000000167], [-64.42176399999983, 8.441634], [-64.421907, 8.442921000000126], [-64.422714, 8.44398800000016], [-64.424702, 8.444106000000147], [-64.427555, 8.443676], [-64.42773099999988, 8.44438700000012], [-64.427318, 8.445594000000142], [-64.427412, 8.446768000000134], [-64.42792999999983, 8.448347], [-64.428699, 8.44976], [-64.429492, 8.44907400000011], [-64.429962, 8.448373], [-64.431044, 8.448234], [-64.432109, 8.448395], [-64.433281, 8.449269000000129], [-64.434169, 8.44978], [-64.435825, 8.450551000000132], [-64.437264, 8.449829], [-64.438074, 8.448843], [-64.4383509999999, 8.446647], [-64.439791, 8.444887000000108], [-64.441202, 8.443958000000123], [-64.443209, 8.443914], [-64.444088, 8.445071], [-64.444313, 8.44697900000017], [-64.443924, 8.448256000000129], [-64.44308, 8.449795000000108], [-64.44234899999987, 8.451264000000151], [-64.442076, 8.452514000000178], [-64.4417749999999, 8.452498000000105], [-64.441124, 8.453342000000134], [-64.441324, 8.454075], [-64.441678, 8.455543], [-64.441522, 8.455800000000124], [-64.44064099999986, 8.456718], [-64.439835, 8.457865], [-64.440822, 8.458719], [-64.443095, 8.459247], [-64.444327, 8.459635000000162], [-64.4453089999999, 8.45913000000013], [-64.44518399999987, 8.457611], [-64.44518099999988, 8.456389000000172], [-64.44634799999989, 8.455903], [-64.44852, 8.456017000000145], [-64.44972699999988, 8.457397], [-64.450029, 8.45859], [-64.451274, 8.459623], [-64.451867, 8.460394], [-64.45385, 8.460305000000176], [-64.454783, 8.45964], [-64.455646, 8.458998], [-64.456483, 8.457113], [-64.458111, 8.456548], [-64.460197, 8.458024], [-64.460068, 8.459571], [-64.45897, 8.461116000000118], [-64.459854, 8.461443], [-64.4605959999999, 8.462718000000166], [-64.46001499999988, 8.463607], [-64.459875, 8.465684], [-64.46030599999989, 8.466436000000158], [-64.461823, 8.468316], [-64.462606, 8.469337000000166], [-64.463765, 8.470626], [-64.4649629999999, 8.471614000000102], [-64.466406, 8.472159], [-64.467572, 8.472756000000118], [-64.469483, 8.473615000000109], [-64.471394, 8.473365], [-64.4721239999999, 8.472980000000177], [-64.47371199999986, 8.471678], [-64.475149, 8.470863000000122], [-64.47655, 8.471616], [-64.4768729999999, 8.472693], [-64.477254, 8.474344], [-64.477568, 8.475998000000118], [-64.477387, 8.47727], [-64.477352, 8.478884000000164], [-64.47841199999988, 8.479899000000103], [-64.478482, 8.481004], [-64.478987, 8.481961000000183], [-64.47987299999988, 8.48238], [-64.48178, 8.48303], [-64.482146, 8.48399], [-64.482835, 8.484897000000103], [-64.483694, 8.484049000000141], [-64.48436, 8.482813], [-64.48606, 8.482407000000137], [-64.487054, 8.483561], [-64.487336, 8.484869000000117], [-64.487732, 8.487211], [-64.48770599999989, 8.489241], [-64.488031, 8.48932600000012], [-64.48886, 8.489262000000167], [-64.490155, 8.489349], [-64.490641, 8.48943], [-64.492173, 8.488729], [-64.49328299999985, 8.489926], [-64.492874, 8.49129500000015], [-64.491232, 8.492207000000121], [-64.49069699999984, 8.494224], [-64.491692, 8.495378], [-64.492392, 8.496838], [-64.494387, 8.497302000000104], [-64.495676, 8.498196], [-64.49717, 8.498993], [-64.49801, 8.500427], [-64.498479, 8.501846], [-64.499376, 8.503855], [-64.501548, 8.504117000000178], [-64.502011, 8.50409], [-64.503166, 8.503782000000172], [-64.50452699999988, 8.503219000000115], [-64.505306, 8.502294000000177], [-64.505921, 8.501186000000132], [-64.507141, 8.500418], [-64.508935, 8.501574000000119], [-64.509804, 8.502877], [-64.510744, 8.504362], [-64.511947, 8.506856000000141], [-64.512911, 8.508388], [-64.513847, 8.509505000000104], [-64.51560199999983, 8.511467], [-64.517237, 8.512946000000113], [-64.518594, 8.514359000000127], [-64.519977, 8.513613], [-64.521397, 8.511924], [-64.522132, 8.511228], [-64.52368599999988, 8.51156], [-64.525224, 8.512535000000184], [-64.52666, 8.512569000000155], [-64.528556, 8.512278], [-64.528986, 8.511171000000104], [-64.528759, 8.509129], [-64.529439, 8.507538], [-64.53039599999988, 8.505876], [-64.532362, 8.505606000000114], [-64.53322399999985, 8.50612800000016], [-64.533818, 8.507846], [-64.53464799999989, 8.509883000000116], [-64.535247, 8.512084000000186], [-64.53722499999986, 8.51310100000012], [-64.538314, 8.513230000000135], [-64.53980999999987, 8.514733000000149], [-64.541524, 8.51465], [-64.54307, 8.51404], [-64.54432, 8.514006], [-64.545689, 8.514271000000122], [-64.54734099999985, 8.515130000000113], [-64.547998, 8.515974], [-64.54956, 8.514675000000125], [-64.550569, 8.51103600000016], [-64.552835, 8.51067300000011], [-64.554351, 8.511831], [-64.5545939999999, 8.513047], [-64.55438299999986, 8.515323000000137], [-64.554581, 8.516700000000185], [-64.556876, 8.516933000000108], [-64.55779599999988, 8.516305], [-64.557944, 8.514719], [-64.55900799999989, 8.514618], [-64.560245, 8.51564100000013], [-64.561364, 8.516436], [-64.562777, 8.516332], [-64.563203, 8.517339000000106], [-64.562868, 8.518744], [-64.563112, 8.520028], [-64.563933, 8.5211240000001], [-64.565102, 8.522377], [-64.565827, 8.523083], [-64.56725499999988, 8.524794], [-64.568189, 8.525568000000135], [-64.57245099999983, 8.525113000000147], [-64.573094, 8.525044], [-64.57421199999987, 8.525723000000141], [-64.575845, 8.527088000000106], [-64.57816799999989, 8.53026100000011], [-64.579198, 8.531424], [-64.579596, 8.531949000000168], [-64.580282, 8.533484000000158], [-64.5809579999999, 8.533983], [-64.581887, 8.534182000000158], [-64.582793, 8.534565], [-64.583248, 8.53605400000015], [-64.582116, 8.536455000000103], [-64.581149, 8.53706000000011], [-64.580235, 8.538331], [-64.5801249999999, 8.538930000000107], [-64.580184, 8.540376], [-64.57999, 8.541871], [-64.579532, 8.542404], [-64.578685, 8.543513], [-64.578381, 8.54563], [-64.578508, 8.546869], [-64.579213, 8.547989], [-64.580112, 8.549911], [-64.580676, 8.550871], [-64.58125499999989, 8.553278], [-64.58253899999988, 8.554278], [-64.584512, 8.554721000000143], [-64.58641199999988, 8.55486500000012], [-64.586809, 8.555230000000165], [-64.586332, 8.556221], [-64.585165, 8.557725000000175], [-64.584333, 8.557938], [-64.58490299999983, 8.559427000000142], [-64.585346, 8.559768], [-64.585681, 8.560913], [-64.5854609999999, 8.562087000000133], [-64.584049, 8.562191], [-64.58258499999988, 8.561652], [-64.581809, 8.562853], [-64.582253, 8.563355], [-64.5820839999999, 8.565079], [-64.582097, 8.566435000000183], [-64.58217, 8.566847000000166], [-64.58220299999988, 8.567835], [-64.582236, 8.56891400000012], [-64.581687, 8.569700000000125], [-64.581185, 8.570417000000134], [-64.580291, 8.57145800000012], [-64.579971, 8.571897], [-64.579571, 8.573671], [-64.57976, 8.574128], [-64.580367, 8.574606000000188], [-64.581044, 8.575151000000119], [-64.5818809999999, 8.575512000000174], [-64.582948, 8.575709000000131], [-64.584489, 8.57696], [-64.585097, 8.577667000000133], [-64.585428, 8.578330000000108], [-64.585627, 8.579776], [-64.585613, 8.580787000000157], [-64.58532399999984, 8.582099], [-64.58515299999982, 8.583547], [-64.585443, 8.584923], [-64.586444, 8.585443000000112], [-64.587469, 8.585986000000105], [-64.588045, 8.585728], [-64.589368, 8.585992], [-64.589682, 8.587322000000142], [-64.58994899999988, 8.588675], [-64.58977, 8.589343], [-64.58987, 8.590169000000174], [-64.589912, 8.592122000000131], [-64.589732, 8.5926520000001], [-64.588669, 8.593005000000176], [-64.588277, 8.593146000000104], [-64.588403, 8.594248000000164], [-64.58845799999989, 8.595166], [-64.58890799999989, 8.596150000000137], [-64.589678, 8.596856000000116], [-64.590353, 8.597172000000171], [-64.590844, 8.59762700000016], [-64.591527, 8.598816000000113], [-64.591714, 8.599067000000105], [-64.59252999999984, 8.599588], [-64.593001, 8.600388000000123], [-64.595894, 8.60011100000014], [-64.598543, 8.598549], [-64.599183, 8.600106], [-64.600176, 8.602165], [-64.60027799999989, 8.603221], [-64.600708, 8.604503], [-64.60069599999986, 8.60572100000013], [-64.600149, 8.606691000000126], [-64.599498, 8.606466000000182], [-64.59852499999988, 8.6065210000001], [-64.5973249999999, 8.606991], [-64.596799, 8.607661], [-64.596298, 8.608607], [-64.59577599999983, 8.609784], [-64.595504, 8.610406000000182], [-64.594936, 8.611560000000111], [-64.594593, 8.614526], [-64.595504, 8.615346], [-64.596016, 8.615572], [-64.59684, 8.61692], [-64.59694, 8.617723], [-64.596927, 8.618803], [-64.59661099999988, 8.619656000000134], [-64.595924, 8.620580000000189], [-64.59532699999988, 8.621137], [-64.59477999999984, 8.622015], [-64.59462599999989, 8.622912], [-64.59428899999989, 8.623994], [-64.59385999999984, 8.625147], [-64.593802, 8.626365], [-64.594134, 8.627235000000155], [-64.594922, 8.62727400000017], [-64.59566399999989, 8.627383000000123], [-64.59624899999989, 8.627929], [-64.59648899999985, 8.628754], [-64.59673, 8.629717], [-64.596782, 8.630336], [-64.597157, 8.63077], [-64.5973259999999, 8.631503000000123], [-64.59823999999986, 8.632690000000139], [-64.603513, 8.634161000000177], [-64.604438, 8.634038], [-64.605114, 8.634469], [-64.605419, 8.634857000000181], [-64.605957, 8.635472000000107], [-64.605923, 8.636736], [-64.60606899999988, 8.637447], [-64.60556499999984, 8.638072], [-64.605012, 8.63837500000011], [-64.604084, 8.638222], [-64.60365799999988, 8.639742], [-64.603853, 8.640728000000138], [-64.604468, 8.642101], [-64.604562, 8.642238], [-64.60552, 8.64308], [-64.606798, 8.643552], [-64.60694199999989, 8.644079], [-64.606881, 8.644975000000159], [-64.606981, 8.645664000000124], [-64.60698799999989, 8.646445], [-64.606672, 8.647343000000149], [-64.606026, 8.64760100000018], [-64.605243, 8.648091], [-64.604901, 8.648714], [-64.604906, 8.64915], [-64.604865, 8.649794], [-64.60440699999987, 8.650372000000118], [-64.603967, 8.650376000000108], [-64.602896, 8.649811], [-64.601484, 8.649869], [-64.6014449999999, 8.650604000000158], [-64.601226, 8.651985], [-64.60124, 8.65343200000018], [-64.601082, 8.65387], [-64.605789, 8.666329], [-64.673951, 8.669653], [-64.748225, 8.69494], [-64.74916699999983, 8.694516], [-64.750085, 8.69397800000013], [-64.751587, 8.694031000000109], [-64.753247, 8.693784000000107], [-64.754307, 8.693566], [-64.756949, 8.692274], [-64.758336, 8.692421], [-64.760081, 8.693644], [-64.76145899999989, 8.692986000000133], [-64.762559, 8.692147], [-64.763678, 8.691009000000179], [-64.76469, 8.690584000000172], [-64.765704, 8.690413], [-64.76704099999989, 8.69016900000014], [-64.76845, 8.6902], [-64.769972, 8.689885], [-64.771563, 8.689684000000113], [-64.773264, 8.688954000000138], [-64.774943, 8.688293000000158], [-64.778812, 8.68731], [-64.780172, 8.687111], [-64.782358, 8.686421000000166], [-64.783788, 8.686245000000156], [-64.78501, 8.686025], [-64.786577, 8.685733], [-64.788239, 8.685715000000187], [-64.789837, 8.686158], [-64.791224, 8.686281000000122], [-64.792546, 8.686704000000134], [-64.79369499999984, 8.68620900000019], [-64.79461399999985, 8.685763], [-64.795141, 8.68534300000016], [-64.795848, 8.684531000000106], [-64.796275, 8.683424000000173], [-64.79712199999989, 8.682771000000116], [-64.79723399999989, 8.682379], [-64.797621, 8.681915000000174], [-64.798006, 8.681153], [-64.797845, 8.680710000000147], [-64.79851, 8.680803], [-64.82648972599998, 8.690510644000142], [-64.84076340099989, 8.69546293600007], [-64.84547983599998, 8.697099316000106], [-64.847998, 8.697973000000104], [-64.84801954599993, 8.698074400000166], [-64.84806320099995, 8.697999676], [-64.84877623199986, 8.69767065700006], [-64.84957926599998, 8.697201650000068], [-64.85033329399988, 8.696504628000127], [-64.85162635699987, 8.696444620000136], [-64.85305641799988, 8.696337606000156], [-64.8541484729999, 8.696968623000032], [-64.85641256599985, 8.696990608000021], [-64.85783764499996, 8.69856164000015], [-64.85931671199995, 8.698637635000125], [-64.86025475499997, 8.699937669000064], [-64.86214584499993, 8.699663656000041], [-64.86307488499995, 8.700159664000012], [-64.86503697699993, 8.700138654000057], [-64.86564900099995, 8.701143672000114], [-64.86658604999997, 8.702420706000055], [-64.86799811399999, 8.702726703000053], [-64.86908016099983, 8.702439686000048], [-64.8706762299999, 8.702628682000011], [-64.87227631099995, 8.703255700000057], [-64.8732653589999, 8.704991733000043], [-64.87360839099995, 8.70678078200001], [-64.87386040199993, 8.70873182600019], [-64.87547148399989, 8.710345867000058], [-64.87704655299996, 8.71078887100009], [-64.87875363899997, 8.71063185800017], [-64.87972767399998, 8.711034860000098], [-64.88147375699998, 8.710188834000121], [-64.88361385399992, 8.711613856000042], [-64.88604296199992, 8.711931850999974], [-64.88751604099997, 8.713593891000016], [-64.88852908599983, 8.713352875000169], [-64.88960013999997, 8.714168899000185], [-64.89109920299995, 8.713991879000105], [-64.89167322399999, 8.713686877999976], [-64.89269026799997, 8.713767865000023], [-64.8940283259999, 8.713637863000088], [-64.89498237699996, 8.714248872000155], [-64.89598542399995, 8.715225898000142], [-64.89603343399989, 8.717454944], [-64.89712048499996, 8.71762695000001], [-64.89706548999993, 8.718890981000072], [-64.89808253399997, 8.719017980000046], [-64.89830755699995, 8.720533014000125], [-64.90034164399992, 8.72074101100003], [-64.90065566499999, 8.72200104400008], [-64.90202172899996, 8.722285045999968], [-64.90261076299993, 8.723359065000125], [-64.90369680899983, 8.723416069000052], [-64.90373981499994, 8.72518511100003], [-64.90480487099995, 8.725426117999973], [-64.90489187799994, 8.72703415799998], [-64.90559291199992, 8.727831169000126], [-64.90611794899996, 8.729365204000146], [-64.90693698999996, 8.730299222000156], [-64.90810804299986, 8.731757253000069], [-64.90864907799994, 8.73269328300006], [-64.90994813899994, 8.733231293000188], [-64.91111418799989, 8.734275308000122], [-64.91156921799995, 8.735672348000094], [-64.91167022299999, 8.73645236800013], [-64.91057617899997, 8.737820407000072], [-64.90992416199992, 8.73939044500014], [-64.91028518999997, 8.740765478000128], [-64.91125323699993, 8.74263952400014], [-64.91299632499994, 8.743609534000086], [-64.9140953719999, 8.744861569000022], [-64.91680149299998, 8.745268559000124], [-64.91845958199997, 8.746881594000115], [-64.91989264799997, 8.747004595000078], [-64.92192073699988, 8.746614575000137], [-64.92374781799998, 8.746846567000148], [-64.92558190299997, 8.747677582000051], [-64.92765498699998, 8.747217568], [-64.92935406399988, 8.746279529000105], [-64.93080112699988, 8.745597510000096], [-64.93263219699986, 8.74408346000007], [-64.93454628899997, 8.743878448000146], [-64.93627235199995, 8.743262423999965], [-64.93769941999989, 8.742878401999974], [-64.93892547999991, 8.743072403000156], [-64.94180760599983, 8.744672436000087], [-64.94228863199999, 8.74429941600016], [-64.94516076099995, 8.745049423000125], [-64.94735185399998, 8.74479441200009], [-64.95018698799998, 8.744373382000049], [-64.95272909899984, 8.744482376], [-64.95550722699994, 8.745118375000175], [-64.95577224199991, 8.746104404000107], [-64.95725431399995, 8.746432407000157], [-64.95786934199998, 8.747758435000094], [-64.95774734499992, 8.749230473000011], [-64.95920641599992, 8.749559482000166], [-64.96056446999995, 8.749176466000108], [-64.96110449899993, 8.749929475000158], [-64.96225454199998, 8.74957145899998], [-64.96320358899999, 8.749722463000069], [-64.96391562599985, 8.749415451000061], [-64.96486166799997, 8.749336442000185], [-64.9666867499999, 8.749361432000114], [-64.96856982899993, 8.75049045600008], [-64.97037592099997, 8.750906462000046], [-64.97163797399992, 8.750180430000057], [-64.97238800299988, 8.749045398000078], [-64.97327303099996, 8.747680363000029], [-64.97460608499995, 8.747113346000106], [-64.97580813899998, 8.747169333000045], [-64.97742821499992, 8.747473342000035], [-64.97873928399997, 8.749136375999967], [-64.97960632499985, 8.750252397000054], [-64.98136540999991, 8.750555400000167], [-64.98302247199996, 8.750008378000189], [-64.98404951399993, 8.748939342000028], [-64.98501855699993, 8.748905339000146], [-64.98622462199995, 8.749351349000108], [-64.98772168499994, 8.748990327000058], [-64.9890987409999, 8.748193307], [-64.99133483999992, 8.747801288000176], [-64.99351592499994, 8.746696238000027], [-64.99397194999989, 8.746186234000106], [-64.99673006099994, 8.745029186000124], [-64.99751410499988, 8.744882182000083], [-64.99817813899995, 8.746438212000044], [-64.99905517899992, 8.746359215000155], [-64.99969719699993, 8.745961195000064], [-65.00043023599994, 8.745424181000033], [-65.00315235499994, 8.745513166000023], [-65.00352237699997, 8.745697166000184], [-65.00433040599995, 8.74613317300009], [-65.00453841799992, 8.746271185000126], [-65.00585448099986, 8.746223167999972], [-65.00629350299994, 8.746039164000024], [-65.00751654499999, 8.745646157000124], [-65.00832458399987, 8.74578314900009], [-65.00927163199998, 8.745759151000073], [-65.00959464199997, 8.744954130000167], [-65.01049367199994, 8.743688085000088], [-65.01065367899992, 8.742768064000131], [-65.01102269299997, 8.7423760530001], [-65.01226974299988, 8.742398042000048], [-65.01312377799985, 8.74145402400012], [-65.01330778199997, 8.741178009000066], [-65.01413982999998, 8.741844018000052], [-65.01450984099995, 8.742234027000052], [-65.01575690299995, 8.742439036000064], [-65.01663394299993, 8.742277025000078], [-65.01707195799992, 8.741771007000125], [-65.01760197399983, 8.740757977000158], [-65.01831800899998, 8.740596973000152], [-65.01903203699993, 8.7387329230001], [-65.02023207899992, 8.738431904000151], [-65.02118013699993, 8.739419927000085], [-65.02397526199991, 8.740910955], [-65.02480630099996, 8.740886946000046], [-65.02563833399995, 8.74095495], [-65.02702441099996, 8.742332981000061], [-65.02910349599995, 8.742997980000098], [-65.03021154499999, 8.742282957000043], [-65.0314805999999, 8.74179894200006], [-65.03291267299994, 8.742072939000082], [-65.0342277279999, 8.74142691700007], [-65.03471273899999, 8.741173912000022], [-65.03545378199993, 8.742874955000161], [-65.03810889799996, 8.742916934000164], [-65.03914895699995, 8.743743956], [-65.04067301999993, 8.74369595000013], [-65.04254410499993, 8.744221954000125], [-65.04284612499998, 8.745785992000037], [-65.04330815299994, 8.746728017000123], [-65.04455521099999, 8.746012994000182], [-65.0461932799999, 8.745412970000075], [-65.04741732999992, 8.745549961000165], [-65.04827236699998, 8.746398978000173], [-65.04945042799994, 8.746650982000062], [-65.05127450499987, 8.74676297100018], [-65.05266057499989, 8.746715971000185], [-65.05397863199994, 8.748161998000171], [-65.05448666099988, 8.748967015000062], [-65.0559187209999, 8.749011011000164], [-65.05663576599989, 8.74990703400016], [-65.05668276499995, 8.750734049000073], [-65.05663777299998, 8.751608069000099], [-65.05677678399985, 8.752137085000186], [-65.0575398169999, 8.752619093000078], [-65.05869387099995, 8.752732090000109], [-65.0591088839999, 8.751789067000175], [-65.06035793999996, 8.753466103], [-65.06070496599995, 8.754707131000032], [-65.0610529839999, 8.755765164000081], [-65.06026794799988, 8.756088176000162], [-65.06163102099993, 8.75682219000015], [-65.06248706299988, 8.757510194000076], [-65.06357412099993, 8.759096234000026], [-65.06424515599997, 8.76075027200011], [-65.06498518799998, 8.761071277999974], [-65.06646124699989, 8.760218253], [-65.06752228799996, 8.759274222000158], [-65.06846832599996, 8.75828419100003], [-65.06990040099998, 8.759018205000018], [-65.07034042199996, 8.759937218000118], [-65.07084944199983, 8.760511240000028], [-65.0718424939999, 8.761016247000157], [-65.07269653199995, 8.760693233999973], [-65.07357356799997, 8.759772204000171], [-65.07412658599998, 8.759150191000117], [-65.07576566399996, 8.759171173000084], [-65.07664470599997, 8.75981318800018], [-65.0772677359999, 8.76013519999998], [-65.07717672999996, 8.760939215000178], [-65.0772237409999, 8.761790235000092]]]}}]}