{"type": "FeatureCollection", "features": [{"type": "Feature", "properties": {"Pais": "Venezuela", "Estado": "Anzo\u00e1tegui", "Municipio": "Juan Manuel Cajigal", "Parroquia": "Juan Manuel Cajigal"}, "geometry": {"type": "Polygon", "coordinates": [[[-65.454654, 9.783368], [-65.455612, 9.784067000000164], [-65.45632299999983, 9.785366000000181], [-65.456806, 9.787102000000118], [-65.45828499999988, 9.788691000000142], [-65.459181, 9.789918], [-65.459865, 9.790941000000146], [-65.460815, 9.792925], [-65.461224, 9.794227], [-65.46161, 9.7955520000001], [-65.462765, 9.796783000000175], [-65.554105, 9.793441], [-65.650521, 9.77463], [-65.65492649999999, 9.774406274], [-65.66134894099997, 9.774080120000065], [-65.66901337099989, 9.773690895000072], [-65.67025807599993, 9.773627684000076], [-65.67071383199982, 9.773613730000022], [-65.68924051199997, 9.714795910000078], [-65.69791100399993, 9.687269154000148], [-65.69785995899997, 9.687213855000095], [-65.64764948599998, 9.632818987], [-65.64702107199986, 9.560002076999979], [-65.50158559799996, 9.558420790000184], [-65.50148360399993, 9.558490785000174], [-65.49983054199987, 9.561866885000086], [-65.49536436199998, 9.56472998200013], [-65.43016892499998, 9.654302685000175], [-65.42666776399989, 9.652036641000109], [-65.42631074499997, 9.65096061000014], [-65.42560170199988, 9.649383578000027], [-65.42496266599994, 9.64792154600002], [-65.42459563699998, 9.645653488000164], [-65.42377259699998, 9.644329459000119], [-65.42336657199996, 9.642933424000148], [-65.42319455199993, 9.641856387000132], [-65.42327354899999, 9.640158342000063], [-65.42297552199994, 9.63786629000009], [-65.42233949099989, 9.63672426300002], [-65.42085040299997, 9.633388183000022], [-65.41958333599996, 9.631632142000171], [-65.41721322399997, 9.630964131000042], [-65.41587716699996, 9.629369104000148], [-65.41437908799992, 9.627615062000132], [-65.41299801199995, 9.626136030000168], [-65.41152393999994, 9.624587997000049], [-65.41032687899991, 9.622808956000029], [-65.41014485999989, 9.620492897000133], [-65.40991183499995, 9.617580820000171], [-65.41015083099995, 9.615743768000016], [-65.40948479499997, 9.613730724000106], [-65.40812471899989, 9.61190667600016], [-65.4085037299999, 9.61015962600004], [-65.40967577499998, 9.608956595000052], [-65.41051580299995, 9.606839528000137], [-65.4104347899999, 9.60544049900011], [-65.40884971499992, 9.604444473000115], [-65.40765965999998, 9.603582460000098], [-65.40684162499997, 9.602786444000174], [-65.4059725709999, 9.601440407999974], [-65.40484751799988, 9.600050383000166], [-65.40439749199999, 9.598860357000092], [-65.4047294959999, 9.597022299000116], [-65.40478949199996, 9.595852267000112], [-65.40236538099998, 9.594404246000124], [-65.39878921899992, 9.593723244000046], [-65.39613708899986, 9.59252923200006], [-65.39426999599993, 9.591145207000181], [-65.39265691399993, 9.589484172000141], [-65.39127584999989, 9.587981134000131], [-65.38977677699995, 9.586089092000066], [-65.38825469199986, 9.584335050000107], [-65.38374549099996, 9.582859037999981], [-65.38133836899993, 9.580584995000038], [-65.37911625599992, 9.578216939000015], [-65.37730915999998, 9.575661876000083], [-65.37622510199998, 9.573468830000024], [-65.37541605799993, 9.571066770000073], [-65.37484901599998, 9.569694740000045], [-65.374561, 9.568526708000036], [-65.37322292999994, 9.56651865800012], [-65.37100782299996, 9.565000630000156], [-65.36909072899988, 9.563111593000087], [-65.36695962499994, 9.560536535000153], [-65.36455450199998, 9.558377494000126], [-65.36345244999995, 9.556917463000048], [-65.36132734399996, 9.554962418], [-65.35863421899995, 9.554502415000059], [-65.3559390939999, 9.553790415000094], [-65.35405000599991, 9.55236039], [-65.35315295899994, 9.550509342000169], [-65.35012680899996, 9.548905313000034], [-65.34683766899997, 9.549230337000097], [-65.34448455899985, 9.547850323000148], [-65.34293647899995, 9.545660270000042], [-65.34148240099995, 9.543584225000131], [-65.34037734299994, 9.541666177000081], [-65.33981530699998, 9.541028157000028], [-65.33977530299995, 9.53896410700014], [-65.33913725999997, 9.537455070000078], [-65.33792420399988, 9.536593058000165], [-65.33716515999998, 9.534488002000046], [-65.33667413699993, 9.53389599400009], [-65.33370500499996, 9.533667], [-65.33147790199996, 9.53347900100016], [-65.32919879799994, 9.53253399300013], [-65.32652366799994, 9.531453977000126], [-65.32475158199998, 9.530137946000025], [-65.32397054299997, 9.528147904000036], [-65.32166042799997, 9.526262866000025], [-65.32050736799988, 9.52416081500013], [-65.31902828999989, 9.521924762000083], [-65.31709118899994, 9.52026572800014], [-65.31637814499999, 9.518114683000078], [-65.3144490549999, 9.517464667000127], [-65.31132790899994, 9.515585640000154], [-65.31038785399988, 9.514032602999976], [-65.3091557969999, 9.513583590000053], [-65.30856272699987, 9.513855059000036], [-65.30721571699996, 9.514471634000188], [-65.30549265299993, 9.51638968500015], [-65.30473562299994, 9.517404715000112], [-65.30276153699992, 9.516916718000175], [-65.29956839899995, 9.517606753000166], [-65.29810732999994, 9.51748175500012], [-65.29698227699993, 9.515998725000145], [-65.29561121099994, 9.515482710000185], [-65.29456215199997, 9.514733700000022], [-65.29379011799995, 9.513867677], [-65.29233104899993, 9.51406269600011], [-65.29045497699997, 9.514261714000043], [-65.2879528609999, 9.51444173100009], [-65.28556875399988, 9.514873746000035], [-65.2846177209999, 9.514789756000027], [-65.28247660799985, 9.513728739999976], [-65.28002050499992, 9.513839745000041], [-65.27807642499994, 9.514245777000042], [-65.27624634199992, 9.514374789000044], [-65.27447126499999, 9.515535819000036], [-65.27120411999994, 9.515745842000115], [-65.26890100999998, 9.514685832000112], [-65.26636488899999, 9.51353581], [-65.26473982299984, 9.513203810000107], [-65.26266273299984, 9.514298857000028], [-65.2610146539999, 9.513990851000074], [-65.25939758799996, 9.514760877000015], [-65.25814153599993, 9.514150874000109], [-65.25685446099993, 9.512715844000013], [-65.25479237299993, 9.512777854000035], [-65.25172823299988, 9.512297857000021], [-65.24871109999992, 9.511793853000029], [-65.24601397499998, 9.510690837000084], [-65.24455689099995, 9.50820078800001], [-65.24368584899997, 9.506509748999974], [-65.24236977399988, 9.50427169599999], [-65.24102987699996, 9.503142854000032], [-65.2406426949999, 9.502816659000132], [-65.24023666999989, 9.50132862300012], [-65.23971162899994, 9.499359579999975], [-65.23839156999998, 9.499553581000157], [-65.23678750399995, 9.498877572000083], [-65.2359474619999, 9.498172562000036], [-65.23495841599998, 9.499212592000106], [-65.23440840199993, 9.500020619000054], [-65.23294133399997, 9.499091606000036], [-65.23175627199998, 9.498710600000152], [-65.22909615799995, 9.49941963599997], [-65.22838813499982, 9.500801676000151], [-65.22694107699988, 9.502533724999978], [-65.22579902199982, 9.501716708000174], [-65.22410294299982, 9.501225706000014], [-65.22302388999998, 9.499604662000024], [-65.22268787199988, 9.498115632000122], [-65.22285885999997, 9.496232580000083], [-65.22263184399998, 9.493871515000023], [-65.22172779099992, 9.490964443000053], [-65.22067172699997, 9.489320410000175], [-65.22080773099992, 9.48895239400008], [-65.21992269299989, 9.488385386000061], [-65.21939667499998, 9.489284409000106], [-65.21888765699987, 9.48940342100019], [-65.21807261499993, 9.4889044090001], [-65.21723356799998, 9.48840640200001], [-65.21635553499988, 9.488642416], [-65.21488046499996, 9.48851542000017], [-65.21432543699996, 9.486937381000075], [-65.21356439299996, 9.484557316000064], [-65.21335836699996, 9.481920248000165], [-65.21385337299995, 9.479966195000031], [-65.21362535299994, 9.477489136000031], [-65.21280231099996, 9.475936097000044], [-65.21258029599989, 9.475315080000087], [-65.21255880799998, 9.475245795000092], [-65.2123752849999, 9.474654058000112], [-65.21279829699989, 9.47249400800007], [-65.21294328999988, 9.470312946999968], [-65.21277126899997, 9.469005907000053], [-65.21181922999989, 9.468760915000189], [-65.21091119199997, 9.468286902000159], [-65.2095911319999, 9.468365914000117], [-65.20846208299992, 9.46931494800009], [-65.20752605399986, 9.471134999000128], [-65.2066380259999, 9.473092045999977], [-65.20558498299994, 9.474798101000033], [-65.20406492299992, 9.476049144000058], [-65.20188182099992, 9.475538136000068], [-65.20121677799989, 9.473432087000162], [-65.2015937889999, 9.471341026000061], [-65.20230181099998, 9.469867990000012], [-65.20461090599997, 9.468770944000028], [-65.20710701099989, 9.467925918000105], [-65.20907509799986, 9.467680899000186], [-65.21092317599982, 9.466794867000033], [-65.21123818999996, 9.465645835000032], [-65.20919109099987, 9.464651821000189], [-65.20661997299993, 9.464831839000169], [-65.20471989399994, 9.464915844000075], [-65.20389984699995, 9.463774823000108], [-65.20563492299988, 9.463439803000085], [-65.20762701499996, 9.463240785000153], [-65.2098261129999, 9.462856770000087], [-65.21139117899997, 9.461513725999964], [-65.21186819099995, 9.46020268600006], [-65.21084113799998, 9.459246662000169], [-65.20850303199995, 9.459700695000151], [-65.20630293999989, 9.45987870100015], [-65.20481687199998, 9.459591708000119], [-65.20350780099983, 9.458109672000035], [-65.20318977799997, 9.455932621000159], [-65.20453282299991, 9.452755530000104], [-65.20498083499996, 9.450802471000031], [-65.20441978899999, 9.447158384999966], [-65.20444877399996, 9.444909316000121], [-65.20354972599984, 9.44264426500007], [-65.20313647499984, 9.441395841000144], [-65.20283768799999, 9.440493208000134], [-65.20147761099997, 9.43839216400005], [-65.20147897599992, 9.438375390999965], [-65.201412, 9.438366], [-65.2013907359999, 9.438209623000091], [-65.201251, 9.437182], [-65.20120256999996, 9.436826405999966], [-65.20100935699998, 9.435407755000085], [-65.200994, 9.43529500000011], [-65.20075929599994, 9.435407755000085], [-65.200024, 9.435761000000127], [-65.199178, 9.437213000000156], [-65.198036, 9.436396], [-65.197473, 9.43546], [-65.196275, 9.436433000000136], [-65.194578, 9.435757000000137], [-65.19458956999989, 9.435407755000085], [-65.19461599999988, 9.43461], [-65.19556399999988, 9.434419000000105], [-65.196834, 9.43376700000016], [-65.19743, 9.432959], [-65.196243, 9.432257000000106], [-65.19472999999988, 9.431420000000116], [-65.194305, 9.430321000000106], [-65.193633, 9.430327], [-65.193008, 9.430538000000126], [-65.19295068899993, 9.43051258800017], [-65.19193899999988, 9.430064000000186], [-65.19098299999985, 9.42936], [-65.19091547999994, 9.429079244000036], [-65.19076799999982, 9.428466000000128], [-65.189942, 9.426637000000142], [-65.18909413499995, 9.426342899000076], [-65.188711, 9.42621], [-65.187295, 9.425969000000123], [-65.18661999999989, 9.42556100000013], [-65.18589899999984, 9.425245], [-65.184737, 9.42493300000018], [-65.183532, 9.424919000000102], [-65.18275, 9.425682000000165], [-65.181644, 9.42651700000016], [-65.180422, 9.42733], [-65.17903299999989, 9.427455000000123], [-65.17790499999984, 9.428519], [-65.177639, 9.430013], [-65.174789, 9.430172], [-65.174088, 9.429397], [-65.17302, 9.429084000000103], [-65.172099, 9.42989400000016], [-65.1714649999999, 9.428798], [-65.17019, 9.42876200000012], [-65.169399, 9.428354], [-65.168387, 9.429349000000173], [-65.167305, 9.430344000000105], [-65.16719599999982, 9.43121600000012], [-65.167806, 9.432198], [-65.1680889999999, 9.432839000000115], [-65.166975, 9.432687000000158], [-65.16633399999989, 9.433655000000101], [-65.165715, 9.43455500000016], [-65.16286, 9.434003000000132], [-65.16165, 9.43353], [-65.161065, 9.432685000000163], [-65.159974, 9.43251], [-65.158694, 9.431831], [-65.15767099999988, 9.43138], [-65.156533, 9.431114], [-65.155738, 9.430156000000181], [-65.154414, 9.429707000000121], [-65.153666, 9.428909], [-65.152602, 9.429124], [-65.1521259999999, 9.427499], [-65.151608, 9.426378], [-65.151391, 9.425278000000162], [-65.151199, 9.424523], [-65.150892, 9.423722000000168], [-65.149844, 9.423041000000126], [-65.148678, 9.422086], [-65.14858, 9.421353000000124], [-65.148918, 9.42011], [-65.147104, 9.419321], [-65.145208, 9.419863], [-65.143288, 9.420360000000187], [-65.1400589999999, 9.419374000000118], [-65.138036, 9.418471], [-65.13705, 9.416803], [-65.134947, 9.414502], [-65.133053, 9.415365], [-65.130803, 9.415129], [-65.128486, 9.415215000000103], [-65.127081, 9.41635], [-65.125205, 9.416456], [-65.123036, 9.414568], [-65.121591, 9.413546], [-65.120061, 9.413419], [-65.118396, 9.414051], [-65.116999, 9.413144000000159], [-65.1158539999999, 9.411936], [-65.11393499999986, 9.409472000000108], [-65.1113969999999, 9.407862000000137], [-65.109121, 9.407122000000186], [-65.106915, 9.406587000000115], [-65.10522999999989, 9.405129000000102], [-65.103343, 9.406132000000127], [-65.101511, 9.40593900000016], [-65.1002309999999, 9.405214], [-65.098669, 9.404078], [-65.097456, 9.403055000000109], [-65.096337, 9.40212200000019], [-65.094593, 9.401400000000137], [-65.0925299999999, 9.401324], [-65.090565, 9.401935000000151], [-65.089178, 9.402381000000105], [-65.087554, 9.402255], [-65.08539899999982, 9.4022480000001], [-65.084775, 9.402436], [-65.083808, 9.403247], [-65.082982, 9.404446], [-65.082364, 9.405529000000172], [-65.081977, 9.406473000000119], [-65.081733, 9.407874], [-65.081557, 9.409161], [-65.08107699999988, 9.410060000000101], [-65.080178, 9.410755], [-65.079093, 9.41129], [-65.07841599999989, 9.410676], [-65.076833, 9.409609], [-65.075648, 9.409296], [-65.074421, 9.409604000000172], [-65.073353, 9.409313000000111], [-65.07234, 9.410170000000107], [-65.071792, 9.411344], [-65.069985, 9.41138], [-65.068732, 9.411206], [-65.067042, 9.411379000000125], [-65.066341, 9.410672], [-65.064764, 9.410546000000124], [-65.06279199999989, 9.41023900000016], [-65.06096, 9.410023], [-65.05906, 9.410083], [-65.057044, 9.410097000000121], [-65.055348, 9.409536], [-65.05421399999989, 9.409728000000143], [-65.053986, 9.410257], [-65.053577, 9.411431], [-65.053123, 9.412719], [-65.051604, 9.414267000000166], [-65.049569, 9.414879], [-65.04892599999988, 9.415709000000106], [-65.048268, 9.417596000000117], [-65.0472999999999, 9.418383], [-65.046002, 9.418415], [-65.04374999999987, 9.417766000000142], [-65.041988, 9.417733], [-65.040208, 9.418343000000107], [-65.03836, 9.419251], [-65.036841, 9.420707000000107], [-65.03550599999988, 9.42191], [-65.033981, 9.422541], [-65.03217199999983, 9.422416000000112], [-65.030153, 9.422086], [-65.029955, 9.421412], [-65.029389, 9.422092000000134], [-65.051209, 9.505786], [-65.03167899999988, 9.656735], [-65.039632, 9.662477], [-65.043448, 9.665855], [-65.04433299999982, 9.666098], [-65.048228, 9.667496000000142], [-65.049556, 9.667903], [-65.050529, 9.668144], [-65.0522969999999, 9.669412], [-65.053804, 9.669381000000158], [-65.056018, 9.669682], [-65.0569, 9.670795], [-65.057604, 9.672261], [-65.058658, 9.674851000000103], [-65.059188, 9.675188000000105], [-65.060075, 9.674996], [-65.060871, 9.675327], [-65.061223, 9.67619], [-65.061043, 9.676891000000126], [-65.060149, 9.678999000000147], [-65.06058799999988, 9.680209], [-65.061646, 9.681753], [-65.06315, 9.682505000000106], [-65.064387, 9.68335], [-65.065182, 9.684204], [-65.065444, 9.68515600000012], [-65.065173, 9.686729], [-65.065702, 9.687588], [-65.066315, 9.689665000000161], [-65.066399, 9.691230000000132], [-65.067281, 9.692169], [-65.06905, 9.69309], [-65.070735, 9.69261900000015], [-65.072774, 9.692576000000145], [-65.074016, 9.692202], [-65.0757, 9.691818000000126], [-65.076939, 9.692314000000124], [-65.078086, 9.693770000000143], [-65.079323, 9.694789], [-65.081001, 9.696407], [-65.08143899999982, 9.697704], [-65.081346, 9.699099], [-65.081609, 9.699964], [-65.08248699999984, 9.702035], [-65.083189, 9.70402300000012], [-65.084602, 9.705473000000154], [-65.085041, 9.706422], [-65.085209, 9.709204000000113], [-65.085205, 9.710423000000105], [-65.084487, 9.7127890000001], [-65.08395, 9.71428], [-65.084386, 9.716448000000184], [-65.083762, 9.717506000000128], [-65.083758, 9.718551000000105], [-65.084644, 9.718707], [-65.086502, 9.719625000000121], [-65.087118, 9.720918], [-65.087113, 9.722398], [-65.08719599999989, 9.723964000000137], [-65.087638, 9.724303000000134], [-65.089056, 9.724099000000137], [-65.090296, 9.724334], [-65.09135899999984, 9.724224000000163], [-65.092159, 9.72368500000016], [-65.093754, 9.723564], [-65.0955249999999, 9.723963], [-65.09764899999988, 9.724701], [-65.098442, 9.725903000000187], [-65.098703, 9.727204], [-65.099232, 9.72815], [-65.1013559999999, 9.728802], [-65.103577, 9.727101000000175], [-65.104819, 9.726814], [-65.10606299999989, 9.725917], [-65.108017, 9.724831000000108], [-65.109259, 9.724283], [-65.110415, 9.723214], [-65.111391, 9.72284500000012], [-65.114138, 9.722961000000112], [-65.11573099999987, 9.723363000000177], [-65.1167, 9.725084], [-65.11758, 9.726806000000124], [-65.118551, 9.727918000000102], [-65.120494, 9.729531000000122], [-65.120665, 9.731443], [-65.121459, 9.732297], [-65.121985, 9.733853000000181], [-65.123665, 9.735036], [-65.124988, 9.73657500000013], [-65.125872, 9.737427000000139], [-65.127996, 9.738340000000164], [-65.129949, 9.737429000000134], [-65.131372, 9.735919], [-65.13305899999989, 9.734925], [-65.13438699999989, 9.735159], [-65.13589, 9.736259000000132], [-65.137482, 9.737009000000171], [-65.139963, 9.737043000000142], [-65.141288, 9.73806], [-65.14163799999989, 9.739533000000108], [-65.141277, 9.741369000000134], [-65.13985, 9.744011], [-65.138074, 9.745093], [-65.136476, 9.745823], [-65.13488199999989, 9.745421], [-65.13337899999988, 9.744582], [-65.132315, 9.7446920000001], [-65.13204799999988, 9.74513300000018], [-65.13213, 9.746959000000118], [-65.1330119999999, 9.748073], [-65.134162, 9.748571], [-65.134782, 9.748645000000181], [-65.135846, 9.748622], [-65.13797299999987, 9.748404000000107], [-65.13929999999988, 9.748985], [-65.141331, 9.751032000000123], [-65.139797, 9.75505], [-65.139614, 9.75951], [-65.140149, 9.759688], [-65.140986, 9.75983900000017], [-65.14226599999989, 9.760237], [-65.143333, 9.7603170000001], [-65.145981, 9.760677], [-65.14630099999988, 9.760215000000187], [-65.14659499999988, 9.759455000000173], [-65.14733, 9.758736], [-65.14874, 9.758123000000126], [-65.149704, 9.757149], [-65.150583, 9.756887000000177], [-65.151445, 9.757290000000125], [-65.151871, 9.758088], [-65.15267199999988, 9.759341000000177], [-65.153914, 9.76049600000016], [-65.155479, 9.761579], [-65.15637, 9.762556], [-65.157025, 9.763099], [-65.157446, 9.763461000000177], [-65.15854599999989, 9.764389], [-65.15920099999983, 9.764955000000157], [-65.159953, 9.765864], [-65.16112, 9.766515], [-65.161863, 9.766645], [-65.162698, 9.766612000000123], [-65.163812, 9.766714], [-65.16527999999983, 9.767317], [-65.166677, 9.767875000000174], [-65.16944599999982, 9.768623], [-65.171191, 9.769131000000186], [-65.172262, 9.76944], [-65.173704, 9.769859], [-65.175304, 9.769818], [-65.176256, 9.769899000000123], [-65.176882, 9.769892], [-65.1771609999999, 9.769998000000157], [-65.184205, 9.769167000000152], [-65.184426, 9.768155], [-65.184181, 9.766874000000143], [-65.183998, 9.764880000000176], [-65.183674, 9.762683], [-65.183588, 9.761147], [-65.184599, 9.760218], [-65.187017, 9.760741], [-65.189848, 9.760801000000185], [-65.193182, 9.760189], [-65.195936, 9.759608], [-65.19893, 9.759734], [-65.200677, 9.76044800000011], [-65.202574, 9.759945], [-65.20483, 9.760561], [-65.20715299999989, 9.760902], [-65.209444, 9.760417000000189], [-65.211579, 9.760507000000189], [-65.212998, 9.760904], [-65.216088, 9.759011], [-65.217464, 9.757550000000151], [-65.219746, 9.756194], [-65.22221699999983, 9.755111000000113], [-65.2259, 9.754679], [-65.22780399999988, 9.75484], [-65.23009699999989, 9.754516], [-65.232313, 9.75355], [-65.234786, 9.752696000000128], [-65.237071, 9.751615], [-65.238864, 9.749966], [-65.24112, 9.748358], [-65.24677, 9.745242000000133], [-65.248941, 9.744437000000175], [-65.250975, 9.743726], [-65.252783, 9.743613], [-65.25483299999985, 9.744461000000172], [-65.257066, 9.745146], [-65.258984, 9.744436], [-65.260369, 9.743778000000134], [-65.261947, 9.74376], [-65.2655079999999, 9.742801000000156], [-65.268717, 9.741365], [-65.271693, 9.739863], [-65.27411099999983, 9.738207], [-65.276394, 9.737034000000108], [-65.27744299999983, 9.735324], [-65.27911499999988, 9.733356], [-65.279511, 9.731356000000176], [-65.281329, 9.73000500000012], [-65.283358, 9.728858], [-65.285451, 9.729429], [-65.28762099999989, 9.729365], [-65.29836099999989, 9.68115500000016], [-65.376052, 9.695096], [-65.376658, 9.695318000000157], [-65.37724999999989, 9.695668000000182], [-65.37745299999989, 9.695789], [-65.376768, 9.696206], [-65.376175, 9.697061000000133], [-65.375443, 9.697987000000182], [-65.37539, 9.699501], [-65.3759189999999, 9.701306], [-65.375888, 9.70266], [-65.375966, 9.703438000000176], [-65.37711199999984, 9.704342], [-65.37707399999988, 9.705099000000132], [-65.376761, 9.706204], [-65.376333, 9.70735500000012], [-65.377221, 9.707987000000173], [-65.377554, 9.708808], [-65.377536, 9.709267], [-65.377266, 9.709981000000141], [-65.37731799999983, 9.710485], [-65.37772, 9.711214], [-65.37756599999983, 9.711973000000114], [-65.376852, 9.712486], [-65.376511, 9.713063], [-65.376515, 9.71343], [-65.376458, 9.714577], [-65.37624199999988, 9.716070000000173], [-65.374963, 9.717874], [-65.373564, 9.719289], [-65.372231, 9.720452], [-65.370806, 9.721615], [-65.369584, 9.722249], [-65.368453, 9.722767], [-65.367065, 9.723035], [-65.36658399999988, 9.723614000000111], [-65.365758, 9.724404000000106], [-65.36474599999985, 9.725218000000154], [-65.364359, 9.725888000000168], [-65.36409, 9.72674000000012], [-65.363778, 9.72789], [-65.363818, 9.72942600000016], [-65.36367299999989, 9.73101000000014], [-65.363483, 9.732733], [-65.362784, 9.734598000000176], [-65.361639, 9.735896], [-65.360474, 9.737538], [-65.360901, 9.738404000000116], [-65.36094, 9.739871], [-65.359859, 9.740778], [-65.35849999999988, 9.741551000000129], [-65.357364, 9.741611], [-65.355879, 9.741605000000106], [-65.355185, 9.741751000000136], [-65.354427, 9.74242500000014], [-65.353786, 9.743166000000144], [-65.353886, 9.743876000000114], [-65.35354799999988, 9.744706], [-65.353532, 9.74544], [-65.35328899999985, 9.746566], [-65.353395, 9.747734], [-65.353573, 9.749223], [-65.352837, 9.749805], [-65.352289, 9.750522], [-65.352442, 9.751827], [-65.3527979999999, 9.752626], [-65.352836, 9.753978000000188], [-65.354092, 9.755195000000128], [-65.354657, 9.755057], [-65.356463, 9.754807], [-65.360147, 9.754465000000152], [-65.360785, 9.755535], [-65.358187, 9.757630000000177], [-65.3598429999999, 9.75855], [-65.361666, 9.75768], [-65.364216, 9.757535000000132], [-65.365685, 9.756142000000182], [-65.366697, 9.757529], [-65.369256, 9.758232], [-65.36887, 9.756861000000129], [-65.369643, 9.75543], [-65.371757, 9.755772], [-65.37313, 9.75825500000019], [-65.373682, 9.759899000000132], [-65.375782, 9.758911000000126], [-65.376846, 9.758715], [-65.377838, 9.758244000000161], [-65.378362, 9.759431000000177], [-65.377271, 9.761484], [-65.375969, 9.76338], [-65.3751989999999, 9.765086000000167], [-65.377265, 9.765245000000164], [-65.378708, 9.765069], [-65.37935, 9.764991000000123], [-65.37919899999986, 9.763938], [-65.379254, 9.762539000000118], [-65.380502, 9.760024], [-65.382355, 9.759842], [-65.383368, 9.763361], [-65.384964, 9.765107000000114], [-65.38652599999989, 9.767978], [-65.38735599999984, 9.769665000000145], [-65.387231, 9.770951000000139], [-65.38818999999984, 9.771673], [-65.38902599999989, 9.7717770000001], [-65.388856, 9.771115], [-65.38919499999986, 9.770285000000115], [-65.390975, 9.769713], [-65.391597, 9.771449000000132], [-65.391249, 9.77354000000014], [-65.392419, 9.77448900000013], [-65.39231199999983, 9.775315], [-65.390888, 9.7766400000001], [-65.390073, 9.778462], [-65.39205, 9.778965], [-65.394137, 9.778826000000151], [-65.392892, 9.777442], [-65.393885, 9.776948000000175], [-65.39656899999989, 9.776389000000108], [-65.396973, 9.777255], [-65.39585099999988, 9.778576], [-65.39727099999988, 9.77904], [-65.39952099999988, 9.77910500000013], [-65.403109, 9.778512], [-65.406574, 9.777231000000143], [-65.409911, 9.77693900000014], [-65.408403, 9.774824000000137], [-65.408022, 9.773866000000112], [-65.408905, 9.774016], [-65.410649, 9.774476000000107], [-65.41025899999983, 9.772761000000116], [-65.408659, 9.772757000000183], [-65.40955, 9.771531000000152], [-65.411075, 9.771009000000106], [-65.4124819999999, 9.770304], [-65.413585, 9.771483000000103], [-65.412721, 9.773098000000118], [-65.413191, 9.773643000000106], [-65.414798, 9.77422], [-65.416733, 9.774999], [-65.418484, 9.77612500000015], [-65.420294, 9.776172], [-65.420951, 9.776897], [-65.421824, 9.778217], [-65.422211, 9.777524], [-65.423298, 9.777259000000186], [-65.42450699999983, 9.777542000000153], [-65.425602, 9.777965000000108], [-65.425116, 9.776022000000125], [-65.42635399999989, 9.774677], [-65.42759199999989, 9.769205], [-65.425758, 9.768997000000127], [-65.426042, 9.76537100000013], [-65.426484, 9.76545700000014], [-65.4279, 9.765624], [-65.428464, 9.766236000000106], [-65.429109, 9.765861000000143], [-65.42944, 9.764344], [-65.42993299999989, 9.762802], [-65.430714, 9.764168], [-65.43155499999989, 9.764708000000155], [-65.433007, 9.766044], [-65.434603, 9.765612000000147], [-65.435655, 9.766424], [-65.436777, 9.767213], [-65.43792599999989, 9.766191000000106], [-65.439356, 9.765485000000126], [-65.439718, 9.766696000000138], [-65.44024, 9.767745], [-65.44096899999988, 9.76863], [-65.44151099999988, 9.769403000000125], [-65.442572, 9.768909000000122], [-65.44258299999984, 9.769918], [-65.44245399999983, 9.770768], [-65.44378, 9.77116400000017], [-65.445634, 9.771027], [-65.44645899999989, 9.772232], [-65.447102, 9.773784], [-65.44691, 9.77527700000013], [-65.44729599999988, 9.776648], [-65.447678, 9.777606000000105], [-65.447847, 9.778223], [-65.447945, 9.778680000000122], [-65.44829499999986, 9.778883], [-65.44906, 9.778804], [-65.44947, 9.780267], [-65.450229, 9.779662], [-65.450892, 9.780892], [-65.451278, 9.782194000000118], [-65.451632, 9.782786], [-65.453002, 9.78293], [-65.45409099999989, 9.782848], [-65.454654, 9.783368]]]}}, {"type": "Feature", "properties": {"Pais": "Venezuela", "Estado": "Anzo\u00e1tegui", "Municipio": "Juan Manuel Cajigal", "Parroquia": "San Pablo"}, "geometry": {"type": "Polygon", "coordinates": [[[-65.11709599999983, 9.801321000000144], [-65.118697, 9.799055], [-65.119915, 9.797940000000153], [-65.121163, 9.797399000000155], [-65.122656, 9.798208000000102], [-65.1246809999999, 9.798827000000188], [-65.125791, 9.798494000000176], [-65.126841, 9.796854000000167], [-65.128164, 9.794614000000138], [-65.128535, 9.79236200000014], [-65.127776, 9.790651000000139], [-65.12492999999989, 9.78914600000013], [-65.124197, 9.787732], [-65.12459, 9.785320000000127], [-65.12533, 9.782881], [-65.125335, 9.781046000000174], [-65.124184, 9.779614000000151], [-65.123005, 9.777815000000146], [-65.122449, 9.775597000000118], [-65.124326, 9.775369000000126], [-65.1268869999999, 9.776304], [-65.129615, 9.77533300000016], [-65.131476, 9.773592000000178], [-65.134337, 9.772115000000156], [-65.13575999999989, 9.770609], [-65.136372, 9.76693200000011], [-65.135478, 9.765681], [-65.134199, 9.765397000000121], [-65.133256, 9.76387000000011], [-65.133244, 9.762655000000109], [-65.134539, 9.762296], [-65.135047, 9.76208400000013], [-65.1366369999999, 9.761034000000109], [-65.139614, 9.75951], [-65.139797, 9.75505], [-65.141331, 9.751032000000123], [-65.13929999999988, 9.748985], [-65.13797299999987, 9.748404000000107], [-65.135846, 9.748622], [-65.134782, 9.748645000000181], [-65.134162, 9.748571], [-65.1330119999999, 9.748073], [-65.13213, 9.746959000000118], [-65.13204799999988, 9.74513300000018], [-65.132315, 9.7446920000001], [-65.13337899999988, 9.744582], [-65.13488199999989, 9.745421], [-65.136476, 9.745823], [-65.138074, 9.745093], [-65.13985, 9.744011], [-65.141277, 9.741369000000134], [-65.14163799999989, 9.739533000000108], [-65.141288, 9.73806], [-65.139963, 9.737043000000142], [-65.137482, 9.737009000000171], [-65.13589, 9.736259000000132], [-65.13438699999989, 9.735159], [-65.13305899999989, 9.734925], [-65.131372, 9.735919], [-65.129949, 9.737429000000134], [-65.127996, 9.738340000000164], [-65.125872, 9.737427000000139], [-65.124988, 9.73657500000013], [-65.123665, 9.735036], [-65.121985, 9.733853000000181], [-65.121459, 9.732297], [-65.120665, 9.731443], [-65.120494, 9.729531000000122], [-65.118551, 9.727918000000102], [-65.11758, 9.726806000000124], [-65.1167, 9.725084], [-65.11573099999987, 9.723363000000177], [-65.114138, 9.722961000000112], [-65.111391, 9.72284500000012], [-65.110415, 9.723214], [-65.109259, 9.724283], [-65.108017, 9.724831000000108], [-65.10606299999989, 9.725917], [-65.104819, 9.726814], [-65.103577, 9.727101000000175], [-65.1013559999999, 9.728802], [-65.099232, 9.72815], [-65.098703, 9.727204], [-65.098442, 9.725903000000187], [-65.09764899999988, 9.724701], [-65.0955249999999, 9.723963], [-65.093754, 9.723564], [-65.092159, 9.72368500000016], [-65.09135899999984, 9.724224000000163], [-65.090296, 9.724334], [-65.089056, 9.724099000000137], [-65.087638, 9.724303000000134], [-65.08719599999989, 9.723964000000137], [-65.087113, 9.722398], [-65.087118, 9.720918], [-65.086502, 9.719625000000121], [-65.084644, 9.718707], [-65.083758, 9.718551000000105], [-65.083762, 9.717506000000128], [-65.084386, 9.716448000000184], [-65.08395, 9.71428], [-65.084487, 9.7127890000001], [-65.085205, 9.710423000000105], [-65.085209, 9.709204000000113], [-65.085041, 9.706422], [-65.084602, 9.705473000000154], [-65.083189, 9.70402300000012], [-65.08248699999984, 9.702035], [-65.081609, 9.699964], [-65.081346, 9.699099], [-65.08143899999982, 9.697704], [-65.081001, 9.696407], [-65.079323, 9.694789], [-65.078086, 9.693770000000143], [-65.076939, 9.692314000000124], [-65.0757, 9.691818000000126], [-65.074016, 9.692202], [-65.072774, 9.692576000000145], [-65.070735, 9.69261900000015], [-65.06905, 9.69309], [-65.067281, 9.692169], [-65.066399, 9.691230000000132], [-65.066315, 9.689665000000161], [-65.065702, 9.687588], [-65.065173, 9.686729], [-65.065444, 9.68515600000012], [-65.065182, 9.684204], [-65.064387, 9.68335], [-65.06315, 9.682505000000106], [-65.061646, 9.681753], [-65.06058799999988, 9.680209], [-65.060149, 9.678999000000147], [-65.061043, 9.676891000000126], [-65.061223, 9.67619], [-65.060871, 9.675327], [-65.060075, 9.674996], [-65.059188, 9.675188000000105], [-65.058658, 9.674851000000103], [-65.057604, 9.672261], [-65.0569, 9.670795], [-65.056018, 9.669682], [-65.053804, 9.669381000000158], [-65.0522969999999, 9.669412], [-65.050529, 9.668144], [-65.049556, 9.667903], [-65.048228, 9.667496000000142], [-65.04433299999982, 9.666098], [-65.043448, 9.665855], [-65.039632, 9.662477], [-65.03167899999988, 9.656735], [-65.021065, 9.734134000000154], [-65.0212709999999, 9.734669], [-65.021269, 9.734826], [-65.020998, 9.734621000000118], [-65.020991, 9.734675000000152], [-65.020944, 9.734580000000108], [-65.020828, 9.734492000000103], [-65.02003, 9.733629000000121], [-65.019466, 9.732809000000145], [-65.018944, 9.731691000000183], [-65.01794399999989, 9.731427000000167], [-65.017175, 9.731068000000107], [-65.01659, 9.730547], [-65.015799, 9.730326], [-65.014922, 9.730840000000114], [-65.014107, 9.730459], [-65.01373599999988, 9.730463000000157], [-65.01296999999983, 9.730425], [-65.012623, 9.730567], [-65.012841, 9.731482], [-65.012918, 9.732238000000109], [-65.01269, 9.73263], [-65.011878, 9.732593000000179], [-65.011269, 9.732027], [-65.01064, 9.731804000000125], [-65.009667, 9.731837000000155], [-65.009015, 9.731615], [-65.008546, 9.731116], [-65.00768899999986, 9.731194], [-65.00706699999989, 9.731659], [-65.006253, 9.731439], [-65.00535, 9.731609000000105], [-65.005037, 9.732782], [-65.00469199999986, 9.733084000000133], [-65.004533, 9.733498000000111], [-65.003863, 9.733758000000137], [-65.003009, 9.734157], [-65.001584, 9.733409], [-65.002016, 9.732016], [-65.00107, 9.730971000000125], [-65.00041, 9.731763], [-64.999083, 9.732932000000176], [-64.997934, 9.733547000000101], [-64.996553, 9.734234], [-64.99549599999989, 9.734801000000118], [-64.99432499999989, 9.735508000000152], [-64.993127, 9.736078], [-64.992376, 9.736986], [-64.991875, 9.73759200000012], [-64.991133, 9.739121000000125], [-64.989845, 9.73976], [-64.987696, 9.740206], [-64.986548, 9.739394000000175], [-64.986601, 9.738266], [-64.986728, 9.73594], [-64.985103, 9.735668], [-64.9851, 9.73567], [-64.98453499999988, 9.73701], [-64.94547099999988, 9.803805000000125], [-65.007443, 9.803444], [-65.114126, 9.811835], [-65.11068099999983, 9.843493000000137], [-65.111122, 9.843588000000182], [-65.112282, 9.843598000000156], [-65.114447, 9.842014000000177], [-65.11531899999989, 9.841110000000128], [-65.116027, 9.83991], [-65.115965, 9.838420000000156], [-65.11581299999989, 9.83716], [-65.117206, 9.837167], [-65.118817, 9.838204], [-65.1205169999999, 9.838804000000152], [-65.12196399999982, 9.839637000000153], [-65.12321899999984, 9.839829], [-65.124906, 9.839191], [-65.125893, 9.838101], [-65.125695, 9.836888], [-65.124849, 9.835888], [-65.123819, 9.834936], [-65.123276, 9.83402500000011], [-65.12337, 9.832000000000107], [-65.121412, 9.831019], [-65.122295, 9.828876], [-65.123274, 9.826984], [-65.123138, 9.825082], [-65.122127, 9.823695], [-65.120326, 9.82227], [-65.120057, 9.820920000000115], [-65.12166, 9.818884], [-65.122672, 9.81573], [-65.12362, 9.813174000000117], [-65.124809, 9.811441], [-65.126048, 9.81012], [-65.12491, 9.807724], [-65.124028, 9.805372], [-65.122647, 9.804172000000108], [-65.12143199999986, 9.80336], [-65.119453, 9.802763], [-65.117501, 9.802349000000106], [-65.11709599999983, 9.801321000000144]]]}}]}