{
  "type": "FeatureCollection",
  "features": [
    {
      "type": "Feature",
      "properties": {
        "Pais": "Venezuela",
        "Estado": "Mérida",
        "Municipio": "Justo Briceño"
      },
      "geometry": {
        "type": "Polygon",
        "coordinates": [
          [
            [
              -70.901506,
              9.128342000000146
            ],
            [
              -70.904794,
              9.129950000000179
            ],
            [
              -70.9075959999999,
              9.132545000000107
            ],
            [
              -70.91049,
              9.134497000000124
            ],
            [
              -70.912992,
              9.135232
            ],
            [
              -70.914658,
              9.132802
            ],
            [
              -70.916765,
              9.130968
            ],
            [
              -70.91833899999989,
              9.129477000000122
            ],
            [
              -70.930354,
              9.127512
            ],
            [
              -70.931192,
              9.129161
            ],
            [
              -70.934565,
              9.131409
            ],
            [
              -70.93536299999988,
              9.131424
            ],
            [
              -70.936695,
              9.13145
            ],
            [
              -70.938665,
              9.130781000000184
            ],
            [
              -70.939217,
              9.129909000000112
            ],
            [
              -70.939927,
              9.129922000000136
            ],
            [
              -70.941255,
              9.130125
            ],
            [
              -70.94332,
              9.129105
            ],
            [
              -70.944332,
              9.127534
            ],
            [
              -70.946158,
              9.125273
            ],
            [
              -70.946876,
              9.12493300000017
            ],
            [
              -70.948215,
              9.124606000000142
            ],
            [
              -70.94975,
              9.123487
            ],
            [
              -70.95129,
              9.122103000000152
            ],
            [
              -70.952663,
              9.120275
            ],
            [
              -70.954193,
              9.119333
            ],
            [
              -70.95456399999983,
              9.118633000000102
            ],
            [
              -70.954846,
              9.117932
            ],
            [
              -70.95486499999987,
              9.117049000000122
            ],
            [
              -70.954354,
              9.116067
            ],
            [
              -70.95447,
              9.114833
            ],
            [
              -70.954761,
              9.11369
            ],
            [
              -70.955767,
              9.112384000000134
            ],
            [
              -70.957786,
              9.109419000000116
            ],
            [
              -70.958714,
              9.107581
            ],
            [
              -70.959828,
              9.105394
            ],
            [
              -70.960301,
              9.104078000000186
            ],
            [
              -70.96034,
              9.102312
            ],
            [
              -70.960454,
              9.101166
            ],
            [
              -70.961085,
              9.100736
            ],
            [
              -70.961645,
              9.09951100000012
            ],
            [
              -70.96176,
              9.098276000000112
            ],
            [
              -70.961456,
              9.095973000000129
            ],
            [
              -70.96156799999989,
              9.094915000000185
            ],
            [
              -70.963121,
              9.092913
            ],
            [
              -70.963131,
              9.092472
            ],
            [
              -70.962699,
              9.091934
            ],
            [
              -70.962539,
              9.091135
            ],
            [
              -70.96272999999985,
              9.090521
            ],
            [
              -70.964235,
              9.090726000000132
            ],
            [
              -70.96467899999982,
              9.090735
            ],
            [
              -70.964868,
              9.090209000000186
            ],
            [
              -70.964282,
              9.088607000000138
            ],
            [
              -70.964656,
              9.087731000000133
            ],
            [
              -70.965208,
              9.086858
            ],
            [
              -70.96665499999989,
              9.085649
            ],
            [
              -70.967207,
              9.084777000000145
            ],
            [
              -70.967138,
              9.083892000000105
            ],
            [
              -70.967262,
              9.082304
            ],
            [
              -70.967825,
              9.080902
            ],
            [
              -70.96861299999989,
              9.077383000000168
            ],
            [
              -70.968744,
              9.075442000000123
            ],
            [
              -70.968165,
              9.073488000000111
            ],
            [
              -70.968369,
              9.070083000000125
            ],
            [
              -70.970917,
              9.072472
            ],
            [
              -70.972608,
              9.075639
            ],
            [
              -70.97416,
              9.07841500000012
            ],
            [
              -70.975272,
              9.081490000000144
            ],
            [
              -70.978491,
              9.084314
            ],
            [
              -70.979464,
              9.086333000000138
            ],
            [
              -70.979905,
              9.088857
            ],
            [
              -70.981457,
              9.09106
            ],
            [
              -70.98284699999988,
              9.092735000000118
            ],
            [
              -70.984051,
              9.093791
            ],
            [
              -70.98530199999988,
              9.095283
            ],
            [
              -70.986159,
              9.096614
            ],
            [
              -70.986414,
              9.09737100000018
            ],
            [
              -70.9874339999999,
              9.099001
            ],
            [
              -70.988337,
              9.099758000000122
            ],
            [
              -70.988036,
              9.100905000000182
            ],
            [
              -70.988801,
              9.101915
            ],
            [
              -70.992112,
              9.102169000000174
            ],
            [
              -70.993501,
              9.10256
            ],
            [
              -70.99409114299993,
              9.10267099500004
            ],
            [
              -70.99533,
              9.102904
            ],
            [
              -70.996997,
              9.103548
            ],
            [
              -70.997577,
              9.104947000000152
            ],
            [
              -70.99764839099993,
              9.105131216000132
            ],
            [
              -70.998342,
              9.106921
            ],
            [
              -70.99884957899997,
              9.108037794999973
            ],
            [
              -70.99939316599989,
              9.109374133000074
            ],
            [
              -70.99990398199998,
              9.110392624000042
            ],
            [
              -71.00016486699997,
              9.110180476999972
            ],
            [
              -71.0295640029999,
              9.086273601000073
            ],
            [
              -71.02979801899994,
              9.08651159600015
            ],
            [
              -71.03139408599998,
              9.087271609000084
            ],
            [
              -71.03221113099994,
              9.08906664500006
            ],
            [
              -71.03264816299992,
              9.090572673000167
            ],
            [
              -71.03288118099994,
              9.092199711000148
            ],
            [
              -71.03325219899989,
              9.093017734000057
            ],
            [
              -71.03373321999999,
              9.094408761000125
            ],
            [
              -71.03422724799992,
              9.095475776000058
            ],
            [
              -71.03504529399993,
              9.096534796000071
            ],
            [
              -71.03601033199993,
              9.097841826000035
            ],
            [
              -71.03735940199994,
              9.098862835999967
            ],
            [
              -71.03759707199987,
              9.09881250899997
            ],
            [
              -71.03899346999992,
              9.098516819000054
            ],
            [
              -71.03932847699997,
              9.098898833000021
            ],
            [
              -71.03991550699993,
              9.099158832000114
            ],
            [
              -71.04033752399994,
              9.099330828000177
            ],
            [
              -71.04146658299993,
              9.10074886100017
            ],
            [
              -71.0422606109999,
              9.101761880000026
            ],
            [
              -71.04404369899999,
              9.102562890000058
            ],
            [
              -71.04542475299996,
              9.103076891000057
            ],
            [
              -71.04675481599998,
              9.103429892
            ],
            [
              -71.0469002989999,
              9.10353888200018
            ],
            [
              -71.04823917699997,
              9.102303960000143
            ],
            [
              -71.04934887199994,
              9.101280427000063
            ],
            [
              -71.05221655899999,
              9.098635399999978
            ],
            [
              -71.05571909799994,
              9.09540481300013
            ],
            [
              -71.057665,
              9.09361
            ],
            [
              -71.057631,
              9.089999
            ],
            [
              -71.057429,
              9.087518000000102
            ],
            [
              -71.056934,
              9.082649000000117
            ],
            [
              -71.05684999999983,
              9.080281000000127
            ],
            [
              -71.057083,
              9.077426000000173
            ],
            [
              -71.056891,
              9.075543000000152
            ],
            [
              -71.054673,
              9.073069
            ],
            [
              -71.05257399999988,
              9.070755000000133
            ],
            [
              -71.05027499999989,
              9.068950000000143
            ],
            [
              -71.04755,
              9.068117000000143
            ],
            [
              -71.045625,
              9.06800800000019
            ],
            [
              -71.043087,
              9.067287
            ],
            [
              -71.04241,
              9.066998000000126
            ],
            [
              -71.04195099999987,
              9.065809000000172
            ],
            [
              -71.041393,
              9.06423
            ],
            [
              -71.041896,
              9.06236
            ],
            [
              -71.040964,
              9.060534000000132
            ],
            [
              -71.039142,
              9.05819200000019
            ],
            [
              -71.038269,
              9.055698
            ],
            [
              -71.038091,
              9.053263000000186
            ],
            [
              -71.038589,
              9.051025
            ],
            [
              -71.039193,
              9.048232
            ],
            [
              -71.039295,
              9.045885000000112
            ],
            [
              -71.039271,
              9.04439
            ],
            [
              -71.039777,
              9.044107
            ],
            [
              -71.041093,
              9.045283
            ],
            [
              -71.042521,
              9.047676000000138
            ],
            [
              -71.044978,
              9.049226000000147
            ],
            [
              -71.048301,
              9.054144
            ],
            [
              -71.050294,
              9.057036
            ],
            [
              -71.052467,
              9.058176
            ],
            [
              -71.056205,
              9.058671000000174
            ],
            [
              -71.059447,
              9.058553000000188
            ],
            [
              -71.06313,
              9.058475000000158
            ],
            [
              -71.068526,
              9.058255
            ],
            [
              -71.071696,
              9.057932000000164
            ],
            [
              -71.07330799999988,
              9.057286
            ],
            [
              -71.07457,
              9.05798
            ],
            [
              -71.07713599999988,
              9.059045
            ],
            [
              -71.08056199999987,
              9.058832
            ],
            [
              -71.082935,
              9.057991
            ],
            [
              -71.087754,
              9.056469
            ],
            [
              -71.08829324599998,
              9.056207639000036
            ],
            [
              -71.090789,
              9.054998
            ],
            [
              -71.09163659699993,
              9.054731673000106
            ],
            [
              -71.092794,
              9.054368000000125
            ],
            [
              -71.095652,
              9.053313
            ],
            [
              -71.0958302059999,
              9.053225209000175
            ],
            [
              -71.09601266999982,
              9.053135321000184
            ],
            [
              -71.09640040599993,
              9.052944308000122
            ],
            [
              -71.09713610999995,
              9.052564086000075
            ],
            [
              -71.09704252399996,
              9.052441887000043
            ],
            [
              -71.09656806199996,
              9.051822362
            ],
            [
              -71.096554,
              9.051804
            ],
            [
              -71.095867,
              9.050872
            ],
            [
              -71.094863,
              9.050335
            ],
            [
              -71.0943,
              9.048503000000153
            ],
            [
              -71.09230899999989,
              9.047177
            ],
            [
              -71.09229174699988,
              9.047157098000184
            ],
            [
              -71.091482,
              9.046223000000168
            ],
            [
              -71.090853,
              9.046003
            ],
            [
              -71.089216,
              9.046465000000126
            ],
            [
              -71.087949,
              9.045472000000188
            ],
            [
              -71.08792497399998,
              9.045440131000134
            ],
            [
              -71.086457,
              9.043493
            ],
            [
              -71.085653,
              9.042494
            ],
            [
              -71.084886,
              9.040872
            ],
            [
              -71.083902,
              9.040197
            ],
            [
              -71.083367,
              9.038572
            ],
            [
              -71.081921,
              9.037996
            ],
            [
              -71.07997699999987,
              9.036692
            ],
            [
              -71.078238,
              9.035177000000147
            ],
            [
              -71.074694,
              9.033759
            ],
            [
              -71.072168,
              9.033751000000109
            ],
            [
              -71.069837,
              9.032935000000123
            ],
            [
              -71.06847899999985,
              9.032036000000119
            ],
            [
              -71.06759,
              9.028553000000102
            ],
            [
              -71.066063,
              9.027242000000172
            ],
            [
              -71.0648159999999,
              9.024593
            ],
            [
              -71.064652,
              9.023031
            ],
            [
              -71.062387,
              9.021916
            ],
            [
              -71.060216,
              9.022385
            ],
            [
              -71.057227,
              9.022338000000104
            ],
            [
              -71.05385699999988,
              9.023148000000162
            ],
            [
              -71.05194399999988,
              9.022303
            ],
            [
              -71.050357,
              9.020119
            ],
            [
              -71.04754,
              9.01790700000015
            ],
            [
              -71.044271,
              9.017749
            ],
            [
              -71.041757,
              9.017028
            ],
            [
              -71.038967,
              9.016403
            ],
            [
              -71.035851,
              9.015668000000119
            ],
            [
              -71.03355,
              9.013724
            ],
            [
              -71.031461,
              9.01207600000015
            ],
            [
              -71.029351,
              9.010498
            ],
            [
              -71.027686,
              9.007763000000125
            ],
            [
              -71.0271,
              9.00584
            ],
            [
              -71.02553199999983,
              9.003471000000104
            ],
            [
              -71.023971,
              9.001447000000155
            ],
            [
              -71.02287499999989,
              8.999532000000158
            ],
            [
              -71.021286,
              8.997163
            ],
            [
              -71.023472,
              8.996161000000143
            ],
            [
              -71.024226,
              8.994285000000161
            ],
            [
              -71.023207,
              8.987578000000155
            ],
            [
              -71.0212489999999,
              8.983554
            ],
            [
              -71.019714,
              8.982223
            ],
            [
              -71.0173319999999,
              8.981120000000146
            ],
            [
              -71.016064,
              8.980285000000151
            ],
            [
              -71.01690899999983,
              8.975909000000115
            ],
            [
              -71.017947,
              8.97432300000014
            ],
            [
              -71.019076,
              8.971864
            ],
            [
              -71.019988,
              8.969891
            ],
            [
              -71.02142,
              8.968386
            ],
            [
              -71.024135,
              8.966616
            ],
            [
              -71.025931,
              8.964917000000128
            ],
            [
              -71.026232,
              8.962503
            ],
            [
              -71.02665999999988,
              8.959720000000175
            ],
            [
              -71.0284539999999,
              8.95634900000016
            ],
            [
              -71.03003399999989,
              8.953533
            ],
            [
              -71.03032999999988,
              8.950960000000123
            ],
            [
              -71.031623,
              8.948609
            ],
            [
              -71.03422,
              8.945926000000156
            ],
            [
              -71.035669,
              8.943366
            ],
            [
              -71.036028,
              8.940562
            ],
            [
              -71.035691,
              8.939266000000146
            ],
            [
              -71.036092,
              8.936323000000186
            ],
            [
              -71.03702999999985,
              8.935243000000185
            ],
            [
              -71.03684,
              8.932591000000116
            ],
            [
              -71.035754,
              8.929277000000184
            ],
            [
              -71.034148,
              8.922977000000117
            ],
            [
              -71.033299,
              8.919014000000118
            ],
            [
              -71.032494,
              8.915005
            ],
            [
              -71.031554,
              8.912718
            ],
            [
              -71.030997,
              8.911771000000158
            ],
            [
              -71.031086,
              8.90918
            ],
            [
              -71.033103,
              8.905551000000116
            ],
            [
              -71.035108,
              8.902311000000111
            ],
            [
              -71.03624799999989,
              8.900263000000109
            ],
            [
              -71.036808,
              8.898072
            ],
            [
              -71.036299,
              8.895543
            ],
            [
              -71.0356149999999,
              8.894165
            ],
            [
              -71.035382,
              8.893255
            ],
            [
              -71.029866,
              8.888002000000142
            ],
            [
              -71.027683,
              8.884924000000183
            ],
            [
              -71.027806,
              8.88274500000017
            ],
            [
              -71.02803999999986,
              8.880425
            ],
            [
              -71.027569,
              8.878445
            ],
            [
              -71.02891499999987,
              8.876323000000127
            ],
            [
              -71.030904,
              8.874986
            ],
            [
              -71.032015,
              8.873512
            ],
            [
              -71.03099999999989,
              8.871020000000101
            ],
            [
              -71.02758399999988,
              8.869145
            ],
            [
              -71.025363,
              8.867190000000107
            ],
            [
              -71.025341,
              8.864763
            ],
            [
              -71.026695,
              8.860511000000145
            ],
            [
              -71.027146,
              8.856076
            ],
            [
              -71.026525,
              8.852841
            ],
            [
              -71.02729099999988,
              8.8473
            ],
            [
              -71.028201,
              8.836279000000161
            ],
            [
              -71.03012299999989,
              8.828461
            ],
            [
              -71.0307,
              8.822765
            ],
            [
              -71.031402,
              8.81908
            ],
            [
              -71.0321249999999,
              8.81693
            ],
            [
              -71.033238,
              8.815571
            ],
            [
              -71.03171,
              8.811191
            ],
            [
              -71.03141099999988,
              8.808748
            ],
            [
              -71.02969999999988,
              8.806894000000113
            ],
            [
              -71.02657999999985,
              8.806545
            ],
            [
              -71.024486,
              8.807451000000185
            ],
            [
              -71.02320999999989,
              8.808746
            ],
            [
              -71.021682,
              8.808467
            ],
            [
              -71.0197179999999,
              8.808246
            ],
            [
              -71.017192,
              8.806873000000166
            ],
            [
              -71.01371299999988,
              8.80603
            ],
            [
              -71.011019,
              8.806906
            ],
            [
              -71.00819,
              8.809481000000119
            ],
            [
              -71.00637499999988,
              8.812143000000106
            ],
            [
              -71.00416499999983,
              8.81135600000016
            ],
            [
              -71.00204,
              8.81053
            ],
            [
              -71.001142,
              8.810863
            ],
            [
              -70.99929999999989,
              8.813046
            ],
            [
              -70.998277,
              8.814277000000118
            ],
            [
              -70.995571,
              8.816011
            ],
            [
              -70.9936009999999,
              8.815806000000123
            ],
            [
              -70.990753,
              8.817266000000131
            ],
            [
              -70.98895,
              8.819012
            ],
            [
              -70.98711,
              8.818208
            ],
            [
              -70.98505199999988,
              8.816717
            ],
            [
              -70.981999,
              8.815262
            ],
            [
              -70.979659,
              8.813476
            ],
            [
              -70.97756199999986,
              8.811021000000153
            ],
            [
              -70.976052,
              8.809064
            ],
            [
              -70.974673,
              8.808116000000155
            ],
            [
              -70.97422999999986,
              8.807914000000153
            ],
            [
              -70.973178,
              8.808224
            ],
            [
              -70.97227199999986,
              8.808490000000177
            ],
            [
              -70.96839799999987,
              8.809481000000119
            ],
            [
              -70.965373,
              8.811518
            ],
            [
              -70.963707,
              8.81307800000019
            ],
            [
              -70.962526,
              8.81465500000013
            ],
            [
              -70.961368,
              8.81614
            ],
            [
              -70.961165,
              8.818118
            ],
            [
              -70.961505,
              8.819217
            ],
            [
              -70.9622,
              8.819277
            ],
            [
              -70.9589519999999,
              8.822638
            ],
            [
              -70.95486399999987,
              8.824395
            ],
            [
              -70.949705,
              8.827742
            ],
            [
              -70.944728,
              8.829673000000128
            ],
            [
              -70.94099199999988,
              8.832316000000162
            ],
            [
              -70.938846,
              8.837621000000127
            ],
            [
              -70.93514,
              8.844407000000103
            ],
            [
              -70.932844,
              8.84567600000014
            ],
            [
              -70.931174,
              8.847007000000133
            ],
            [
              -70.92902,
              8.846918
            ],
            [
              -70.926646,
              8.846029
            ],
            [
              -70.923856,
              8.843628000000137
            ],
            [
              -70.922479,
              8.842841
            ],
            [
              -70.920405,
              8.843441000000155
            ],
            [
              -70.918236,
              8.843881000000124
            ],
            [
              -70.916844,
              8.845254
            ],
            [
              -70.91553,
              8.847223
            ],
            [
              -70.9137,
              8.848693
            ],
            [
              -70.911359,
              8.850078
            ],
            [
              -70.9108829999999,
              8.850796000000116
            ],
            [
              -70.91070799999989,
              8.85305000000011
            ],
            [
              -70.910489,
              8.855557
            ],
            [
              -70.9106369999999,
              8.857784
            ],
            [
              -70.91138599999988,
              8.859935
            ],
            [
              -70.913483,
              8.860897
            ],
            [
              -70.9149599999999,
              8.86221200000017
            ],
            [
              -70.91641,
              8.863228
            ],
            [
              -70.917446,
              8.864456
            ],
            [
              -70.917569,
              8.864960000000167
            ],
            [
              -70.916606,
              8.865569000000107
            ],
            [
              -70.913967,
              8.867118
            ],
            [
              -70.909034,
              8.870143
            ],
            [
              -70.9065169999999,
              8.872173000000146
            ],
            [
              -70.904397,
              8.874383
            ],
            [
              -70.902246,
              8.87611
            ],
            [
              -70.90208499999983,
              8.877767
            ],
            [
              -70.902267,
              8.879166000000168
            ],
            [
              -70.901499,
              8.88050800000019
            ],
            [
              -70.899512,
              8.882325
            ],
            [
              -70.899276,
              8.883615
            ],
            [
              -70.8983889999999,
              8.88472800000011
            ],
            [
              -70.89631,
              8.886707
            ],
            [
              -70.89450999999985,
              8.888659000000132
            ],
            [
              -70.892955,
              8.88998800000013
            ],
            [
              -70.890418,
              8.8890320000001
            ],
            [
              -70.887645,
              8.887733
            ],
            [
              -70.886041,
              8.887270000000115
            ],
            [
              -70.88449,
              8.887312
            ],
            [
              -70.88194,
              8.88863
            ],
            [
              -70.880278,
              8.890535000000114
            ],
            [
              -70.878865,
              8.892092000000105
            ],
            [
              -70.877301,
              8.8928
            ],
            [
              -70.875867,
              8.892864
            ],
            [
              -70.87506799999989,
              8.893632
            ],
            [
              -70.874925,
              8.896714
            ],
            [
              -70.87491,
              8.901316
            ],
            [
              -70.87507,
              8.90715900000015
            ],
            [
              -70.872745,
              8.912463
            ],
            [
              -70.869535,
              8.91687800000011
            ],
            [
              -70.867929,
              8.919174
            ],
            [
              -70.867737,
              8.923953
            ],
            [
              -70.868136,
              8.926431
            ],
            [
              -70.869844,
              8.931749
            ],
            [
              -70.87085699999989,
              8.937042000000133
            ],
            [
              -70.872942,
              8.938903
            ],
            [
              -70.874411,
              8.941205
            ],
            [
              -70.874895,
              8.944278
            ],
            [
              -70.875469,
              8.948775000000182
            ],
            [
              -70.874859,
              8.95301000000012
            ],
            [
              -70.874444,
              8.954739000000131
            ],
            [
              -70.874929,
              8.957813000000101
            ],
            [
              -70.87587,
              8.960467000000165
            ],
            [
              -70.876786,
              8.962983000000122
            ],
            [
              -70.877699,
              8.965293000000145
            ],
            [
              -70.879616,
              8.968141
            ],
            [
              -70.88301599999988,
              8.971086000000184
            ],
            [
              -70.885751,
              8.972822000000122
            ],
            [
              -70.888416,
              8.974604000000113
            ],
            [
              -70.890533,
              8.978484
            ],
            [
              -70.892756,
              8.98172
            ],
            [
              -70.89418299999988,
              8.984321000000136
            ],
            [
              -70.89501499999989,
              8.987344000000178
            ],
            [
              -70.89620999999983,
              8.989949
            ],
            [
              -70.897448,
              8.9923
            ],
            [
              -70.897792,
              8.993652
            ],
            [
              -70.897767,
              8.995122000000151
            ],
            [
              -70.8973529999999,
              8.996897000000104
            ],
            [
              -70.89821299999988,
              8.999878
            ],
            [
              -70.899232,
              9.001095
            ],
            [
              -70.90080599999987,
              9.002886
            ],
            [
              -70.901825,
              9.005227000000104
            ],
            [
              -70.902404,
              9.007361000000117
            ],
            [
              -70.90305299999989,
              9.010575
            ],
            [
              -70.904303,
              9.013191000000177
            ],
            [
              -70.90539199999989,
              9.014936000000148
            ],
            [
              -70.905624,
              9.016840000000116
            ],
            [
              -70.905138,
              9.020052000000135
            ],
            [
              -70.90493,
              9.021222000000137
            ],
            [
              -70.904375,
              9.02422700000011
            ],
            [
              -70.903474,
              9.028654
            ],
            [
              -70.904053,
              9.031958
            ],
            [
              -70.904979,
              9.033680000000118
            ],
            [
              -70.905442,
              9.034345
            ],
            [
              -70.905905,
              9.03514900000016
            ],
            [
              -70.906369,
              9.036732
            ],
            [
              -70.906994,
              9.038430000000176
            ],
            [
              -70.90674,
              9.040679000000125
            ],
            [
              -70.906393,
              9.042468000000156
            ],
            [
              -70.9067179999999,
              9.0449
            ],
            [
              -70.907435,
              9.046071
            ],
            [
              -70.909775,
              9.051969
            ],
            [
              -70.914035,
              9.056193000000121
            ],
            [
              -70.916442,
              9.057594
            ],
            [
              -70.920192,
              9.057711000000154
            ],
            [
              -70.922854,
              9.058103
            ],
            [
              -70.925309,
              9.058564
            ],
            [
              -70.928712,
              9.059988
            ],
            [
              -70.930148,
              9.061252
            ],
            [
              -70.931468,
              9.063708
            ],
            [
              -70.931932,
              9.066094
            ],
            [
              -70.931122,
              9.068801
            ],
            [
              -70.93008099999986,
              9.070888
            ],
            [
              -70.929688,
              9.071966000000145
            ],
            [
              -70.9308,
              9.073963000000163
            ],
            [
              -70.931911,
              9.075868
            ],
            [
              -70.931819,
              9.077038
            ],
            [
              -70.93056899999982,
              9.077381000000173
            ],
            [
              -70.92920399999986,
              9.077472
            ],
            [
              -70.926611,
              9.077792
            ],
            [
              -70.92316199999988,
              9.078248000000144
            ],
            [
              -70.91999,
              9.078154
            ],
            [
              -70.916703,
              9.079185
            ],
            [
              -70.91329999999988,
              9.079894
            ],
            [
              -70.908532,
              9.082253
            ],
            [
              -70.90600899999987,
              9.083101
            ],
            [
              -70.903995,
              9.083833
            ],
            [
              -70.902861,
              9.085163000000136
            ],
            [
              -70.901241,
              9.086332
            ],
            [
              -70.899458,
              9.085689000000116
            ],
            [
              -70.897838,
              9.085848000000112
            ],
            [
              -70.897583,
              9.086743000000126
            ],
            [
              -70.897074,
              9.087063000000114
            ],
            [
              -70.896866,
              9.087591
            ],
            [
              -70.896032,
              9.087682
            ],
            [
              -70.89443399999988,
              9.087842
            ],
            [
              -70.891541,
              9.088987000000145
            ],
            [
              -70.890383,
              9.089789
            ],
            [
              -70.888786,
              9.090453000000139
            ],
            [
              -70.886471,
              9.091415000000154
            ],
            [
              -70.884897,
              9.090657000000135
            ],
            [
              -70.882397,
              9.089989000000116
            ],
            [
              -70.88105399999984,
              9.090034000000117
            ],
            [
              -70.878322,
              9.091501000000164
            ],
            [
              -70.876679,
              9.092968
            ],
            [
              -70.87547499999988,
              9.094964000000175
            ],
            [
              -70.873554,
              9.096591000000103
            ],
            [
              -70.871054,
              9.096750000000156
            ],
            [
              -70.868367,
              9.096564
            ],
            [
              -70.866562,
              9.097205000000145
            ],
            [
              -70.86781199999984,
              9.098468
            ],
            [
              -70.869341,
              9.099961
            ],
            [
              -70.875454,
              9.10343
            ],
            [
              -70.878116,
              9.104373
            ],
            [
              -70.879922,
              9.105177
            ],
            [
              -70.881798,
              9.106303
            ],
            [
              -70.88314099999985,
              9.108208000000104
            ],
            [
              -70.88429899999983,
              9.111100000000135
            ],
            [
              -70.8858039999999,
              9.113762000000122
            ],
            [
              -70.887958,
              9.115874
            ],
            [
              -70.88925499999982,
              9.117688
            ],
            [
              -70.890784,
              9.118836
            ],
            [
              -70.89215,
              9.119479000000126
            ],
            [
              -70.89409499999988,
              9.121683
            ],
            [
              -70.895832,
              9.124507000000108
            ],
            [
              -70.89882,
              9.127285
            ],
            [
              -70.901506,
              9.128342000000146
            ]
          ]
        ]
      }
    }
  ]
}