{"type": "FeatureCollection", "features": [{"type": "Feature", "properties": {"Pais": "Venezuela", "Estado": "Gu\u00e1rico", "Municipio": "Leonardo Infante"}, "geometry": {"type": "Polygon", "coordinates": [[[-65.882782, 9.251953], [-65.876343, 9.32542], [-65.91063499999984, 9.470893000000103], [-65.959186, 9.586916], [-65.99905, 9.60987], [-66.12533699999989, 9.318779000000177], [-66.12507, 9.3182240000001], [-66.12467199999986, 9.3173910000001], [-66.123775, 9.316043], [-66.122992, 9.314836], [-66.122489, 9.31345000000016], [-66.121493, 9.312467], [-66.120482, 9.31215], [-66.119132, 9.311481000000128], [-66.118361, 9.310778], [-66.117583, 9.30931800000019], [-66.116742, 9.308637], [-66.11559199999988, 9.308339], [-66.114088, 9.307347], [-66.11313299999989, 9.306571000000133], [-66.111709, 9.305030000000158], [-66.111148, 9.304239], [-66.10986, 9.303939000000128], [-66.109605, 9.302879000000189], [-66.109777, 9.301301], [-66.109239, 9.300511], [-66.108824, 9.299333], [-66.108097, 9.298746000000165], [-66.10776399999986, 9.298074000000156], [-66.107612, 9.297613000000183], [-66.106855, 9.29624500000017], [-66.106728, 9.29567], [-66.106262, 9.294766], [-66.104322, 9.294659], [-66.103822, 9.294237000000123], [-66.10268899999988, 9.293137], [-66.10217, 9.292576000000167], [-66.10146899999984, 9.291806], [-66.10116, 9.291112000000169], [-66.10051499999986, 9.289907000000142], [-66.099539, 9.287984], [-66.099388, 9.286376000000189], [-66.0989019999999, 9.285312], [-66.099287, 9.284563000000105], [-66.099976, 9.28368300000011], [-66.100488, 9.282432], [-66.10084299999988, 9.282049], [-66.101045, 9.281228], [-66.10101999999989, 9.280195], [-66.100577, 9.279293000000166], [-66.100442, 9.278052000000173], [-66.100361, 9.277477], [-66.100296, 9.276192], [-66.1002759999999, 9.27495400000015], [-66.100317, 9.272983000000124], [-66.100182, 9.27171900000019], [-66.100542, 9.271107], [-66.101264, 9.270846], [-66.101463, 9.270163], [-66.101451, 9.268535000000156], [-66.101421, 9.267755000000136], [-66.1013109999999, 9.2664], [-66.101285, 9.265436], [-66.101284, 9.264382], [-66.101148, 9.263141], [-66.100502, 9.260904], [-66.101008, 9.259952], [-66.101614, 9.258565], [-66.10230599999988, 9.2575700000001], [-66.103366, 9.256628000000148], [-66.103986, 9.255677000000162], [-66.10451399999988, 9.254771000000176], [-66.105296, 9.25384600000018], [-66.1053859999999, 9.252862000000107], [-66.104682, 9.252298000000167], [-66.104066, 9.251896000000102], [-66.103716, 9.250972], [-66.10413299999988, 9.249788000000137], [-66.104358, 9.249012], [-66.10413099999982, 9.24770100000012], [-66.103939, 9.246963000000164], [-66.104249, 9.246511], [-66.105112, 9.246115], [-66.105609, 9.245575], [-66.10588399999989, 9.244571000000121], [-66.106365, 9.243664], [-66.106913, 9.242895], [-66.10723, 9.242122], [-66.107852, 9.241125000000125], [-66.108153, 9.239985000000104], [-66.108123, 9.239228], [-66.108122, 9.23815000000019], [-66.108552, 9.237471000000141], [-66.108847, 9.236651000000165], [-66.10921699999989, 9.235512], [-66.109609, 9.234466], [-66.109954, 9.233441], [-66.110236, 9.232117000000187], [-66.110535, 9.231091], [-66.11058, 9.230060000000151], [-66.11084599999987, 9.229515000000163], [-66.11088499999988, 9.228759000000139], [-66.110738, 9.228023000000178], [-66.110869, 9.227314000000149], [-66.112068, 9.226306], [-66.11288, 9.226185000000157], [-66.113243, 9.225435000000118], [-66.1132659999999, 9.224335], [-66.11351699999989, 9.223423], [-66.113399, 9.222435], [-66.112966, 9.222060000000113], [-66.112972, 9.22068400000012], [-66.113188, 9.220299], [-66.11396599999989, 9.219626000000119], [-66.114986, 9.219463000000133], [-66.11558699999983, 9.219475000000102], [-66.116696, 9.219496], [-66.117689, 9.219516000000112], [-66.11867199999989, 9.218916], [-66.119558, 9.218544000000122], [-66.121094, 9.218024000000128], [-66.122307, 9.21752000000015], [-66.123735, 9.217732000000126], [-66.124286, 9.217926], [-66.1257169999999, 9.217977000000133], [-66.127528, 9.2176], [-66.12838299999987, 9.217594], [-66.130165, 9.217491], [-66.13191499999988, 9.217777], [-66.13265, 9.216898000000185], [-66.133456, 9.215928], [-66.134768, 9.215081000000112], [-66.135602, 9.214983000000188], [-66.135931, 9.213614], [-66.136578, 9.212503], [-66.13758499999989, 9.211927000000117], [-66.138831, 9.212020000000166], [-66.138889, 9.211471], [-66.13942, 9.210358000000156], [-66.140588, 9.209784], [-66.141426, 9.209480000000156], [-66.142529, 9.209776000000147], [-66.142857, 9.209577], [-66.14287599999989, 9.208637], [-66.142893, 9.207835000000102], [-66.143097, 9.20694500000019], [-66.143044, 9.206141000000116], [-66.14336, 9.204313], [-66.14433799999989, 9.20392], [-66.145234, 9.203066], [-66.14519799999988, 9.202584000000172], [-66.144974, 9.201135], [-66.145443, 9.200823000000128], [-66.146079, 9.20134], [-66.146132, 9.20102], [-66.146341, 9.199855000000127], [-66.146676, 9.199334], [-66.147417, 9.199234000000104], [-66.148144, 9.198721], [-66.148939, 9.198301000000129], [-66.14949999999988, 9.197968000000117], [-66.14961099999982, 9.197099], [-66.150268, 9.196607000000142], [-66.150722, 9.197029], [-66.15122, 9.197497], [-66.152121, 9.197538], [-66.152597, 9.196859], [-66.152801, 9.195946000000163], [-66.153305, 9.195062], [-66.15419599999984, 9.194414], [-66.155861, 9.193277000000137], [-66.156537, 9.192992000000174], [-66.1572819999999, 9.192732000000149], [-66.158123, 9.192267], [-66.158596, 9.191772000000128], [-66.15870499999988, 9.190994], [-66.158599, 9.189410000000123], [-66.1589939999999, 9.188180000000102], [-66.159569, 9.187205], [-66.159753, 9.186154000000158], [-66.16032299999989, 9.185386], [-66.161189, 9.184898], [-66.161756, 9.184290000000146], [-66.161888, 9.18349], [-66.16236399999985, 9.182812], [-66.16252699999984, 9.181646], [-66.163123, 9.180786000000126], [-66.1639899999999, 9.180229], [-66.16485, 9.179993], [-66.165724, 9.180217], [-66.166078, 9.179834], [-66.16615499999989, 9.179468], [-66.166432, 9.179474], [-66.166613, 9.179661000000124], [-66.167289, 9.18052200000011], [-66.167651, 9.180896000000132], [-66.168328, 9.180565000000115], [-66.168384, 9.18008500000019], [-66.168093, 9.17964400000011], [-66.168147, 9.179278], [-66.168632, 9.179287], [-66.169082, 9.179846000000111], [-66.169565, 9.17997], [-66.16971, 9.179675], [-66.16985299999988, 9.179472], [-66.170313, 9.179549], [-66.170631, 9.179808], [-66.1710379999999, 9.180274], [-66.171303, 9.180830000000185], [-66.17180999999982, 9.180931], [-66.172534, 9.180555], [-66.17272799999984, 9.180101], [-66.17297699999983, 9.179234000000122], [-66.173032, 9.1788], [-66.173247, 9.17846], [-66.1739879999999, 9.177282000000105], [-66.174461, 9.17678700000016], [-66.174785, 9.17677], [-66.175382, 9.176942], [-66.176364, 9.177512], [-66.178159, 9.179410000000132], [-66.178219, 9.179428], [-66.17917, 9.179240000000107], [-66.179843, 9.179093], [-66.1801569999999, 9.178434], [-66.180081, 9.17767600000019], [-66.180121, 9.176851000000113], [-66.180437, 9.176078000000132], [-66.181433, 9.175982], [-66.181916, 9.176106000000118], [-66.182846, 9.175826], [-66.18335099999985, 9.174850000000106], [-66.184425, 9.174321], [-66.186055, 9.173757], [-66.187535, 9.173762000000181], [-66.188662, 9.174013000000173], [-66.18972899999989, 9.173782], [-66.190304, 9.172830000000147], [-66.191919, 9.17183000000017], [-66.191957, 9.17112], [-66.1920669999999, 9.170273000000122], [-66.192248, 9.169314], [-66.192399, 9.168721000000176], [-66.19243399999988, 9.168171000000143], [-66.192631, 9.16757900000016], [-66.193584, 9.167322], [-66.194204, 9.166394], [-66.194957, 9.165721], [-66.196071, 9.165513], [-66.196855, 9.164474], [-66.1976499999999, 9.164008000000138], [-66.198798, 9.163250000000119], [-66.199672, 9.162304000000177], [-66.200486, 9.160944], [-66.20276699999988, 9.159040000000118], [-66.203024, 9.157784000000106], [-66.2045169999999, 9.15710200000018], [-66.205329, 9.156957], [-66.205377, 9.155766], [-66.20614299999988, 9.155574], [-66.206828, 9.15485400000017], [-66.206863, 9.154258], [-66.20711, 9.153529000000105], [-66.207916, 9.152513], [-66.208898, 9.151982], [-66.209373, 9.151326], [-66.21005899999989, 9.150560000000155], [-66.21129699999989, 9.149918000000127], [-66.211893, 9.150183], [-66.212747, 9.149098000000151], [-66.21288499999986, 9.148045], [-66.21370799999983, 9.147374000000127], [-66.214128, 9.147175000000175], [-66.21512799999988, 9.146874000000139], [-66.215815, 9.147162], [-66.21623, 9.147216], [-66.216535, 9.146970000000124], [-66.21654, 9.146717000000137], [-66.216468, 9.145753000000127], [-66.21667099999985, 9.144863], [-66.216889, 9.144363], [-66.21697199999988, 9.143722000000139], [-66.217312, 9.142903], [-66.2180919999999, 9.142047000000105], [-66.217967, 9.14138000000014], [-66.217746, 9.139793000000111], [-66.218104, 9.139227000000176], [-66.218756, 9.138988], [-66.218569, 9.137952], [-66.218361, 9.13687], [-66.218126, 9.135949], [-66.21791599999983, 9.134890000000155], [-66.217229, 9.134579], [-66.216704, 9.134293000000127], [-66.216483, 9.133785], [-66.21625299999988, 9.132634], [-66.216012, 9.131964], [-66.215671, 9.131729], [-66.214729, 9.131412000000125], [-66.21446399999985, 9.130811000000165], [-66.214781, 9.130015], [-66.215363, 9.12982], [-66.216077, 9.128824], [-66.216619, 9.128308000000175], [-66.2174629999999, 9.127751000000103], [-66.218822, 9.126814], [-66.219455, 9.126390000000129], [-66.219999, 9.125782], [-66.22042499999986, 9.125286], [-66.220615, 9.125037], [-66.22065, 9.124442], [-66.22075999999987, 9.123595000000137], [-66.221099, 9.122822000000156], [-66.221533, 9.123060000000123], [-66.222087, 9.123094], [-66.22262199999983, 9.122921000000133], [-66.223084, 9.122929000000113], [-66.223223, 9.122909], [-66.224277, 9.122242], [-66.224905, 9.122047000000123], [-66.225553, 9.121968], [-66.226658, 9.121026], [-66.226473, 9.119922], [-66.225733, 9.118853000000172], [-66.225805, 9.11759400000011], [-66.2252519999999, 9.114121000000182], [-66.225646, 9.111835], [-66.225188, 9.109372000000178], [-66.224236, 9.108506], [-66.224197, 9.105868000000157], [-66.223142, 9.104403], [-66.222635, 9.103178000000128], [-66.223202, 9.10147], [-66.22300599999988, 9.099769], [-66.22280399999988, 9.098344], [-66.224502, 9.098927000000117], [-66.225763, 9.099410000000148], [-66.2278859999999, 9.099496000000158], [-66.2281, 9.099202000000162], [-66.228375, 9.098222], [-66.22928699999983, 9.097666], [-66.22942199999989, 9.096752], [-66.230465, 9.095442000000105], [-66.230645, 9.094551], [-66.23061699999982, 9.093679], [-66.229775, 9.093021000000135], [-66.229718, 9.092447000000107], [-66.229429, 9.091868000000147], [-66.228555, 9.09059], [-66.2291699999999, 9.089891], [-66.228024, 9.089410000000157], [-66.226827, 9.089204000000166], [-66.227768, 9.088374], [-66.227489, 9.087337], [-66.22757, 9.086788000000126], [-66.227848, 9.08560100000011], [-66.228554, 9.083872], [-66.228735, 9.082935], [-66.228304, 9.081414], [-66.2273459999999, 9.080799000000184], [-66.22669, 9.081268], [-66.22570499999983, 9.079736000000139], [-66.224849, 9.078665000000171], [-66.226112, 9.077909000000147], [-66.22646099999986, 9.076632000000188], [-66.225518, 9.075330000000122], [-66.227148, 9.074719000000186], [-66.22794, 9.074368000000106], [-66.228224, 9.07402900000011], [-66.228071, 9.072489], [-66.228649, 9.072477000000106], [-66.229811, 9.072156], [-66.229947, 9.07112700000016], [-66.23045899999988, 9.069829], [-66.231142, 9.069178], [-66.231315, 9.068631], [-66.23152, 9.06764900000013], [-66.23196599999989, 9.067336000000182], [-66.23305, 9.067426000000182], [-66.233938, 9.066893000000107], [-66.234637, 9.065507], [-66.234484, 9.063922000000161], [-66.23446299999989, 9.062730000000101], [-66.233473, 9.061404], [-66.233653, 9.060513000000185], [-66.234132, 9.05972000000014], [-66.235432, 9.060524], [-66.236164, 9.060882000000163], [-66.2363309999999, 9.06061], [-66.237481, 9.059738], [-66.238266, 9.059753000000171], [-66.238775, 9.058594], [-66.238356, 9.057645], [-66.237889, 9.056742], [-66.238059, 9.055186000000162], [-66.23903, 9.054036], [-66.239139, 9.053212], [-66.238487, 9.052374], [-66.238273, 9.051545000000147], [-66.240114, 9.051878000000158], [-66.239864, 9.050544000000116], [-66.24000399999989, 9.049354], [-66.24019, 9.047042], [-66.23978099999982, 9.045543], [-66.240057, 9.044517], [-66.2399999999999, 9.04275], [-66.240844, 9.041024], [-66.2417109999999, 9.040444], [-66.242736, 9.040005000000122], [-66.243169, 9.039188], [-66.243067, 9.038498000000118], [-66.24283899999989, 9.037256], [-66.242395, 9.036353000000133], [-66.242808, 9.035374000000104], [-66.243021, 9.035126], [-66.244311, 9.034165], [-66.244506, 9.033664], [-66.247265, 9.032043], [-66.247199, 9.029588000000103], [-66.24856, 9.027459], [-66.249762, 9.028606], [-66.25115099999982, 9.028426], [-66.251062, 9.02714], [-66.251293, 9.026021000000185], [-66.25177899999989, 9.023715], [-66.2528319999999, 9.023024], [-66.253053, 9.021285], [-66.252756, 9.01995], [-66.251264, 9.019486], [-66.251433, 9.018022], [-66.25002699999987, 9.017834000000107], [-66.250352, 9.015456], [-66.25144299999982, 9.014147], [-66.251696, 9.01302800000019], [-66.25259, 9.012243], [-66.25161899999989, 9.011169], [-66.250235, 9.011028000000124], [-66.249723, 9.010055], [-66.251015, 9.009025000000122], [-66.252504, 9.007403000000181], [-66.2530799999999, 9.006359000000145], [-66.253678, 9.005316000000164], [-66.253681, 9.005178000000114], [-66.253998, 9.004382], [-66.25324299999988, 9.004024], [-66.253307, 9.003131], [-66.253562, 9.001943000000153], [-66.254099, 9.001678], [-66.255172, 9.001148000000114], [-66.254898, 8.999882000000184], [-66.254223, 8.999021000000141], [-66.254256, 8.998494], [-66.25369399999988, 8.997773000000109], [-66.252811, 8.998008], [-66.252822, 8.997481000000107], [-66.251096, 8.996746], [-66.250178, 8.995617], [-66.249721, 8.993869000000188], [-66.250133, 8.992984000000149], [-66.25023, 8.99168], [-66.25069599999983, 8.991506], [-66.25136, 8.990672000000188], [-66.252398, 8.989685], [-66.253158, 8.988739000000123], [-66.25315099999983, 8.987982], [-66.253585, 8.987120000000118], [-66.25456, 8.985903000000121], [-66.255279, 8.984658000000138], [-66.256067, 8.984559000000104], [-66.255933, 8.985427000000186], [-66.256333, 8.986215000000186], [-66.25778799999989, 8.985145000000102], [-66.258711, 8.984156000000155], [-66.260041, 8.983565000000112], [-66.261548, 8.983321], [-66.262084, 8.983148], [-66.26276999999982, 8.981284], [-66.262515, 8.979124000000184], [-66.263401, 8.978753], [-66.264179, 8.978059], [-66.26474599999989, 8.977475], [-66.26496, 8.978258000000153], [-66.26577499999985, 8.979077], [-66.266756, 8.97859300000016], [-66.26732199999987, 8.978055], [-66.267806, 8.977034000000117], [-66.268515, 8.976292000000171], [-66.26935999999989, 8.976791], [-66.269757, 8.97661600000015], [-66.270705, 8.975466], [-66.271347, 8.974609], [-66.271784, 8.973633], [-66.271724, 8.972073000000137], [-66.271651, 8.971155], [-66.271093, 8.970250000000135], [-66.270891, 8.969925], [-66.271004, 8.96788700000019], [-66.271019, 8.967154000000107], [-66.27190699999989, 8.966692], [-66.272669, 8.965630000000147], [-66.27302, 8.964354], [-66.272928, 8.963229], [-66.272715, 8.962354000000175], [-66.27368399999983, 8.962443], [-66.274336, 8.962204], [-66.27476899999988, 8.96138800000017], [-66.275538, 8.960028], [-66.27618799999988, 8.958781000000101], [-66.276708, 8.957142], [-66.277704, 8.957025000000101], [-66.279011, 8.957533], [-66.28014199999984, 8.957625], [-66.281135, 8.956568000000118], [-66.280785, 8.955668000000117], [-66.280906, 8.954272], [-66.281996, 8.954111], [-66.283421, 8.953407], [-66.284414, 8.953451], [-66.28459999999984, 8.954463], [-66.286411, 8.952988], [-66.287341, 8.95160900000019], [-66.288059, 8.950432000000148], [-66.28863799999988, 8.949298000000113], [-66.288895, 8.948043], [-66.289695, 8.946272], [-66.29025799999982, 8.946971000000133], [-66.29094, 8.946412], [-66.291443, 8.945575], [-66.292066, 8.943456], [-66.292856, 8.941020000000151], [-66.293914, 8.940171], [-66.2955, 8.939493], [-66.2963069999999, 8.937402], [-66.29692299999982, 8.935581], [-66.29716, 8.934165000000121], [-66.298276, 8.933867], [-66.29901499999988, 8.933882], [-66.300646, 8.932174], [-66.3004, 8.930657000000167], [-66.29946699999988, 8.928873000000124], [-66.29955399999989, 8.92690400000015], [-66.298953, 8.925837000000115], [-66.299274, 8.924859], [-66.299088, 8.923777], [-66.299502, 8.9228], [-66.298628, 8.921499], [-66.299384, 8.920689000000152], [-66.300505, 8.919016000000113], [-66.30032, 8.917935], [-66.299702, 8.916548], [-66.299863, 8.914374], [-66.300648, 8.91329], [-66.303783, 8.911498000000165], [-66.30450599999983, 8.910069], [-66.305274, 8.9086870000001], [-66.305451, 8.906857], [-66.305316, 8.90557100000018], [-66.305783, 8.903152], [-66.306822, 8.902073000000144], [-66.30705199999989, 8.901023000000123], [-66.307486, 8.899084], [-66.307792, 8.897693000000118], [-66.30696299999988, 8.896461000000158], [-66.305198, 8.8946830000001], [-66.304853, 8.892362000000105], [-66.305479, 8.891183], [-66.305368, 8.889851], [-66.303755, 8.889612000000113], [-66.302649, 8.888352000000111], [-66.302487, 8.886149000000103], [-66.30246, 8.884131], [-66.30192899999986, 8.882997], [-66.301696, 8.881984000000102], [-66.302065, 8.879814000000124], [-66.302632, 8.878153], [-66.303775, 8.876526], [-66.304664, 8.875994000000105], [-66.306874, 8.874161000000129], [-66.307276, 8.87265600000012], [-66.30784299999988, 8.869826000000103], [-66.307956, 8.86884300000014], [-66.30815, 8.867289000000142], [-66.308781, 8.866935000000183], [-66.310592, 8.866559000000166], [-66.311836, 8.865622], [-66.31287, 8.863719000000174], [-66.313863, 8.862639000000172], [-66.31482, 8.8622], [-66.31525099999988, 8.860353], [-66.313693, 8.858602], [-66.312126, 8.857264], [-66.311226, 8.8561], [-66.310789, 8.853799], [-66.311205, 8.851562], [-66.311459, 8.850444], [-66.311911, 8.848757000000148], [-66.31253, 8.84673000000015], [-66.312147, 8.845163000000127], [-66.311772, 8.842108000000167], [-66.311721, 8.841236], [-66.310151, 8.84005800000017], [-66.308492, 8.83984], [-66.30775099999983, 8.838794], [-66.308782, 8.837005], [-66.30997699999989, 8.836204000000123], [-66.3099749999999, 8.835196], [-66.308776, 8.835103000000174], [-66.30817899999988, 8.833784], [-66.30758799999984, 8.832214], [-66.306867, 8.830228], [-66.306902, 8.828533000000164], [-66.307222, 8.827623000000187], [-66.30817199999984, 8.827505], [-66.30930399999988, 8.828605], [-66.310512, 8.828263], [-66.31123, 8.827086000000122], [-66.309708, 8.824717], [-66.30896899999988, 8.822479000000158], [-66.309235, 8.820835], [-66.309431, 8.81916600000011], [-66.309511, 8.817563], [-66.30912, 8.816364000000135], [-66.308835, 8.814502], [-66.309447, 8.812887], [-66.309809, 8.812115], [-66.309852, 8.8111770000001], [-66.309734, 8.810166], [-66.309765, 8.808677], [-66.30988699999989, 8.80728100000016], [-66.309901, 8.805494], [-66.309626, 8.80425], [-66.308792, 8.803248], [-66.308235, 8.802274000000125], [-66.30829299999982, 8.801725], [-66.30950699999988, 8.801131], [-66.31062999999989, 8.800443000000143], [-66.311672, 8.799227], [-66.313559, 8.799564], [-66.314377, 8.799122], [-66.31425799999988, 8.798157000000174], [-66.313743, 8.79629], [-66.313499, 8.795804], [-66.31245899999988, 8.794683], [-66.312065, 8.793666], [-66.312288, 8.791792], [-66.312239, 8.789728], [-66.310814, 8.788255000000163], [-66.310322, 8.787466], [-66.310245, 8.785631], [-66.310159, 8.784186], [-66.30848, 8.781654], [-66.3075199999999, 8.780007000000182], [-66.306231, 8.778674], [-66.304517, 8.777814], [-66.303206, 8.77639], [-66.301962, 8.775127000000168], [-66.301153, 8.772933], [-66.30044, 8.770535], [-66.3004729999999, 8.768955], [-66.30135499999989, 8.766544], [-66.301349, 8.764619], [-66.300979, 8.762388], [-66.299572, 8.760044000000107], [-66.29760099999987, 8.75817000000012], [-66.296533, 8.756201], [-66.29601199999985, 8.754609000000187], [-66.297115, 8.753783], [-66.298739, 8.75345], [-66.299115, 8.752060000000142], [-66.298034, 8.750685], [-66.29635699999989, 8.751339000000144], [-66.295197, 8.751590000000135], [-66.293861, 8.751402], [-66.292969, 8.749895], [-66.29182, 8.747373], [-66.290658, 8.745493000000124], [-66.29068599999988, 8.744165], [-66.290545, 8.742054000000167], [-66.289791, 8.740526], [-66.2906109999999, 8.738869], [-66.291215, 8.737598000000105], [-66.29113499999983, 8.735878], [-66.289546, 8.732317000000137], [-66.289917, 8.731178], [-66.291566, 8.731854000000169], [-66.291882, 8.733281], [-66.292405, 8.73368100000016], [-66.293495, 8.733497], [-66.295082, 8.732682000000125], [-66.294843, 8.734212], [-66.295048, 8.735431], [-66.296733, 8.734388], [-66.296724, 8.732600000000105], [-66.29642, 8.730578], [-66.29606499999989, 8.728760000000136], [-66.29535099999987, 8.726454000000103], [-66.2943949999999, 8.724647000000175], [-66.293842, 8.72349], [-66.29176299999989, 8.723493], [-66.290164, 8.723735], [-66.28843299999988, 8.723677], [-66.289071, 8.722957000000179], [-66.290042, 8.720708], [-66.288403, 8.719575], [-66.286873, 8.719818000000146], [-66.28514299999989, 8.72079100000019], [-66.284917, 8.720767000000137], [-66.28513999999984, 8.72079100000019], [-66.284083, 8.720678], [-66.283499, 8.719887], [-66.28347399999984, 8.71890100000013], [-66.282119, 8.718484], [-66.281371, 8.717758], [-66.2810199999999, 8.71687900000012], [-66.28094099999987, 8.715136], [-66.280756, 8.714009], [-66.280902, 8.712591], [-66.28289999999987, 8.710914], [-66.28454, 8.70762400000018], [-66.2836989999999, 8.705797000000189], [-66.283045, 8.703927], [-66.28283, 8.703143000000125], [-66.282542, 8.701488000000154], [-66.282799, 8.70021], [-66.283223, 8.697606000000121], [-66.283427, 8.695547], [-66.283837, 8.693608], [-66.286007, 8.692621000000145], [-66.28758, 8.69247], [-66.289116, 8.693051], [-66.29151499999989, 8.693191], [-66.291613, 8.691818000000126], [-66.290703, 8.690012], [-66.289588, 8.689233000000115], [-66.288115, 8.687851], [-66.28672499999988, 8.686929], [-66.285443, 8.686376000000166], [-66.28416, 8.685846], [-66.2825, 8.685697000000118], [-66.28172499999988, 8.6852], [-66.282092, 8.684245], [-66.282504, 8.683291000000168], [-66.282782, 8.682151], [-66.28293399999984, 8.680390000000102], [-66.282909, 8.679358], [-66.283008, 8.67796200000015], [-66.283553, 8.677286000000151], [-66.284089, 8.677067], [-66.284701, 8.677607], [-66.285295, 8.677894], [-66.2861079999999, 8.677681000000177], [-66.286737, 8.677442], [-66.28681499999988, 8.677030000000116], [-66.286921, 8.676368], [-66.28735399999988, 8.675529], [-66.28775999999982, 8.674941000000103], [-66.28843899999987, 8.674497000000144], [-66.288906, 8.67423100000019], [-66.289611, 8.67365], [-66.289637, 8.672413], [-66.28976899999986, 8.671613], [-66.290429, 8.670962], [-66.291252, 8.670246000000134], [-66.292756, 8.670093], [-66.29385599999989, 8.670505], [-66.295116, 8.671012], [-66.29599, 8.671213], [-66.296619, 8.670951], [-66.297536, 8.670144], [-66.29818599999987, 8.668851000000188], [-66.298864, 8.667375000000106], [-66.29867899999988, 8.666249], [-66.29772199999985, 8.665634000000125], [-66.296831, 8.665157], [-66.296072, 8.665004], [-66.294736, 8.664862], [-66.294152, 8.664071], [-66.293528, 8.663307000000145], [-66.293782, 8.662721000000147], [-66.29459899999989, 8.66223], [-66.295278, 8.66169100000019], [-66.295915, 8.660923], [-66.29626899999988, 8.66047], [-66.2968489999999, 8.658921000000134], [-66.29710199999988, 8.657641], [-66.29779899999983, 8.656070000000113], [-66.298416, 8.655072000000189], [-66.299382, 8.653988], [-66.30002, 8.651752000000101], [-66.300356, 8.649648], [-66.300366, 8.649052000000154], [-66.30038899999988, 8.647699000000102], [-66.300809, 8.646101], [-66.300898, 8.644956], [-66.299784, 8.643905], [-66.29861, 8.643656], [-66.297607, 8.64425800000015], [-66.297212, 8.644366], [-66.29621, 8.643546], [-66.295542, 8.642113000000165], [-66.29525599999982, 8.641260000000102], [-66.294706, 8.639668], [-66.294674, 8.638819], [-66.29502, 8.637494], [-66.295839, 8.635467], [-66.29567799999984, 8.634089], [-66.295559, 8.632963000000132], [-66.294407, 8.631407], [-66.29401099999984, 8.630254], [-66.293821, 8.629219], [-66.292582, 8.627294], [-66.290331, 8.625261], [-66.289625, 8.624653], [-66.288883, 8.623493000000167], [-66.287856, 8.621389000000136], [-66.286875, 8.619309], [-66.286343, 8.617993000000183], [-66.284431, 8.61640100000011], [-66.282959, 8.616009000000133], [-66.280829, 8.616339], [-66.278912, 8.616329000000178], [-66.276678, 8.615993], [-66.275263, 8.616358000000105], [-66.27443099999982, 8.616413], [-66.2733649999999, 8.615294000000176], [-66.272329, 8.613740000000178], [-66.271208, 8.61168], [-66.270951, 8.609176], [-66.271333, 8.607050000000186], [-66.27125, 8.605146], [-66.270203, 8.602881], [-66.269632, 8.601174000000185], [-66.268171, 8.598856], [-66.2674909999999, 8.598065000000133], [-66.266606, 8.597178], [-66.265642, 8.598171], [-66.264875, 8.59845600000017], [-66.263607, 8.598319], [-66.262636, 8.597064000000103], [-66.261227, 8.595710000000167], [-66.25882399999989, 8.595807], [-66.258599, 8.595436], [-66.259591, 8.594169], [-66.260804, 8.593456000000174], [-66.261883, 8.591090000000179], [-66.262509, 8.589632000000165], [-66.26337099999989, 8.587835000000155], [-66.264687, 8.58510600000011], [-66.265289, 8.583649], [-66.266349, 8.58107600000011], [-66.26692, 8.580100000000186], [-66.267923, 8.578122000000121], [-66.267275, 8.576873000000148], [-66.267041, 8.575699], [-66.266812, 8.574205], [-66.26685799999984, 8.572853], [-66.267215, 8.570887000000141], [-66.26744699999989, 8.569492], [-66.266594, 8.568056000000183], [-66.2650809999999, 8.567411000000106], [-66.2648319999999, 8.565733], [-66.265439, 8.564000000000135], [-66.26632499999988, 8.563511000000176], [-66.266517, 8.561703], [-66.26590399999986, 8.561096], [-66.264996, 8.560186], [-66.26485, 8.559244], [-66.26498599999985, 8.558054], [-66.26584, 8.55671500000011], [-66.26636899999988, 8.555486], [-66.26664, 8.554505], [-66.26711299999988, 8.553848000000187], [-66.26852, 8.551189], [-66.269843, 8.550799000000154], [-66.270499, 8.550236], [-66.271765, 8.549088], [-66.272754, 8.547958000000108], [-66.274008, 8.546168], [-66.27494, 8.545680000000118], [-66.2758639999999, 8.54432], [-66.27618399999983, 8.543133], [-66.276331, 8.541278], [-66.276128, 8.539601000000175], [-66.275455, 8.538488], [-66.274909, 8.536645], [-66.274545, 8.534965000000113], [-66.274704, 8.533752000000106], [-66.27492, 8.531875], [-66.27502499999986, 8.5311430000001], [-66.27506199999988, 8.528966], [-66.274203, 8.527873], [-66.272963, 8.526155000000188], [-66.27213, 8.524857000000111], [-66.271648, 8.523335], [-66.271283, 8.521724], [-66.27089599999988, 8.520066000000156], [-66.27039699999989, 8.51815500000015], [-66.269372, 8.517358000000115], [-66.267937, 8.51753900000017], [-66.267295, 8.517299], [-66.26792, 8.515842], [-66.267731, 8.514693], [-66.26787, 8.513319], [-66.269077, 8.512927000000104], [-66.27078099999989, 8.511832], [-66.271677, 8.510747], [-66.272435, 8.509636000000114], [-66.27440399999989, 8.50783500000017], [-66.275339, 8.504434000000117], [-66.274808, 8.503118000000143], [-66.274803, 8.501994], [-66.274641, 8.500707000000148], [-66.27394299999986, 8.499641], [-66.2727809999999, 8.498749000000146], [-66.272215, 8.498052], [-66.271441, 8.497442], [-66.270323, 8.496667000000173], [-66.269703, 8.496473], [-66.268841, 8.495541], [-66.268349, 8.494592], [-66.267774, 8.49309200000016], [-66.26747499999982, 8.491665000000182], [-66.266588, 8.490916], [-66.265528, 8.490807], [-66.26474599999989, 8.490587000000176], [-66.263766, 8.489882], [-66.263135, 8.488977], [-66.263266, 8.488016], [-66.263642, 8.487679], [-66.264624, 8.48693900000012], [-66.2646539999999, 8.486527], [-66.263785, 8.486053], [-66.263342, 8.484945], [-66.262895, 8.484043000000156], [-66.261829, 8.482856], [-66.261196, 8.482065], [-66.2605789999999, 8.480335000000139], [-66.26011299999988, 8.479226], [-66.259925, 8.478054], [-66.259941, 8.47716000000014], [-66.260183, 8.476453000000106], [-66.26040799999987, 8.475471], [-66.26052799999985, 8.473845000000154], [-66.259675, 8.473762], [-66.2587779999999, 8.473563], [-66.25784, 8.473088], [-66.25715399999984, 8.472664000000123], [-66.25606, 8.471866], [-66.254856, 8.47072100000014], [-66.25427, 8.46984], [-66.254608, 8.46902], [-66.255259, 8.468710000000158], [-66.255937, 8.468195], [-66.25599399999987, 8.467599], [-66.255928, 8.466039000000137], [-66.255594, 8.465300000000127], [-66.254796, 8.464735], [-66.25285999999983, 8.463188000000173], [-66.251213, 8.462312000000168], [-66.250356, 8.46245800000014], [-66.24957999999987, 8.463293000000135], [-66.248924, 8.463856], [-66.24797, 8.464321], [-66.24691499999989, 8.463913000000105], [-66.246819, 8.462764], [-66.247183, 8.461693], [-66.247961, 8.460766000000149], [-66.248431, 8.460246], [-66.249232, 8.459297000000106], [-66.249729, 8.458618], [-66.250132, 8.457960000000128], [-66.2512119999999, 8.45690000000019], [-66.252377, 8.45623200000017], [-66.25387199999989, 8.455249], [-66.255082, 8.454627], [-66.25599199999988, 8.454047], [-66.256467, 8.453298], [-66.2553309999999, 8.452224000000172], [-66.254786, 8.451710000000105], [-66.254268, 8.450945], [-66.254739, 8.450357], [-66.255339, 8.45039000000014], [-66.256094, 8.449417], [-66.25696, 8.448698], [-66.257983, 8.448279], [-66.25927, 8.447223000000122], [-66.260216, 8.44591], [-66.259928, 8.443841], [-66.25940999999989, 8.4417], [-66.258646, 8.440494], [-66.257642, 8.439812000000131], [-66.25710999999984, 8.438519], [-66.256049, 8.437079], [-66.254899, 8.435455], [-66.25357999999989, 8.434309], [-66.251471, 8.433447000000172], [-66.249976, 8.433124], [-66.249066, 8.43235200000015], [-66.248649, 8.431083000000115], [-66.248272, 8.430183000000113], [-66.24762, 8.429163], [-66.247554, 8.427602], [-66.247915, 8.426737], [-66.248551, 8.425945000000127], [-66.249045, 8.425403000000188], [-66.250073, 8.42468700000012], [-66.25066099999987, 8.422656000000131], [-66.250488, 8.421965000000114], [-66.24977699999982, 8.421723], [-66.249007, 8.42219200000011], [-66.248414, 8.423146000000145], [-66.248069, 8.423071000000164], [-66.247605, 8.423201], [-66.246763, 8.423874000000183], [-66.24620499999986, 8.424117], [-66.245669, 8.424406000000147], [-66.245272, 8.424651000000154], [-66.24441699999988, 8.42468300000013], [-66.244364, 8.42371900000012], [-66.244497, 8.422689000000162], [-66.244215, 8.421629], [-66.244551, 8.420855000000131], [-66.24540599999983, 8.420777], [-66.247288, 8.420144000000107], [-66.2479, 8.419421000000114], [-66.248406, 8.418169], [-66.248337, 8.416792], [-66.248546, 8.415351], [-66.248957, 8.41428], [-66.249526, 8.411974], [-66.250475, 8.410453000000132], [-66.251668, 8.410909000000174], [-66.252468, 8.411382], [-66.25403299999988, 8.411615000000154], [-66.254844, 8.411422000000186], [-66.25540299999989, 8.411133], [-66.25594399999989, 8.410524000000123], [-66.256388, 8.408880000000181], [-66.256614, 8.40776], [-66.258049, 8.406157000000121], [-66.258353, 8.40591000000012], [-66.258995, 8.404843], [-66.258267, 8.40283600000015], [-66.25731799999988, 8.401627], [-66.256349, 8.400212], [-66.256027, 8.398831], [-66.25549399999989, 8.397537000000113], [-66.25461499999989, 8.396307], [-66.253641, 8.395236000000125], [-66.252622, 8.394072000000108], [-66.251705, 8.392337], [-66.25053199999985, 8.390712], [-66.250081, 8.390131000000167], [-66.249056, 8.389219], [-66.248804, 8.387793000000158], [-66.24903199999989, 8.386582000000146], [-66.24945099999985, 8.384961000000146], [-66.24977599999983, 8.383591000000138], [-66.249921, 8.381827], [-66.250172, 8.380638], [-66.24979, 8.379944], [-66.24907799999988, 8.379771], [-66.24844799999988, 8.380173000000127], [-66.24820299999988, 8.380973], [-66.248052, 8.38175], [-66.24756899999983, 8.381627000000151], [-66.246862, 8.381156], [-66.24646, 8.380347], [-66.24649199999988, 8.379842], [-66.246735, 8.379112], [-66.247332, 8.377930000000163], [-66.247757, 8.377364], [-66.248271, 8.37698300000011], [-66.249633, 8.375562000000173], [-66.250869, 8.374895], [-66.252398, 8.374531000000104], [-66.25275, 8.37421600000016], [-66.253166, 8.372801000000152], [-66.251858, 8.372320000000116], [-66.250792, 8.372577], [-66.250099, 8.372589000000175], [-66.248765, 8.37233700000013], [-66.248356, 8.371963000000108], [-66.24806699999982, 8.371293], [-66.248269, 8.370265], [-66.24972, 8.369051000000184], [-66.250076, 8.368507000000136], [-66.250676, 8.367095000000177], [-66.2516629999999, 8.36610300000018], [-66.252968, 8.365391], [-66.252813, 8.364976000000183], [-66.25182399999989, 8.364776000000177], [-66.250907, 8.364348], [-66.251264, 8.363712], [-66.252064, 8.3629], [-66.253405, 8.362739], [-66.254743, 8.362739], [-66.256178, 8.362534], [-66.257089, 8.361838], [-66.257562, 8.361159], [-66.257839, 8.359787], [-66.25794799999989, 8.358849], [-66.257865, 8.358252], [-66.25737, 8.357509000000164], [-66.257262, 8.357095], [-66.257483, 8.356273], [-66.258719, 8.355537], [-66.26009, 8.354941000000167], [-66.260935, 8.355506], [-66.261666, 8.355908], [-66.26248, 8.355532], [-66.26322, 8.355499000000123], [-66.26426, 8.355379000000141], [-66.266252, 8.354931], [-66.268752, 8.354515], [-66.269773, 8.354188], [-66.27022, 8.353668], [-66.27081699999985, 8.352486], [-66.271828, 8.351334000000122], [-66.272461, 8.350748000000124], [-66.273308, 8.3498], [-66.273831, 8.348868], [-66.273969, 8.347563], [-66.273717, 8.346092], [-66.27343699999989, 8.344849], [-66.273158, 8.343629], [-66.2728, 8.342980000000125], [-66.272302, 8.342398], [-66.272426, 8.34185], [-66.27192, 8.341749], [-66.270947, 8.341985], [-66.269887, 8.341898000000128], [-66.26906499999984, 8.34138], [-66.26861899999989, 8.340455], [-66.26848199999989, 8.33898500000015], [-66.268889, 8.33814400000017], [-66.26981999999987, 8.337655], [-66.270268, 8.337067], [-66.270719, 8.336317000000179], [-66.271389, 8.336283], [-66.272143, 8.336708], [-66.27293999999989, 8.337387], [-66.273826, 8.33820400000019], [-66.27446, 8.338903], [-66.275589, 8.33903700000019], [-66.276495, 8.338685000000169], [-66.27631899999989, 8.339508], [-66.276261, 8.340241000000162], [-66.27631899999989, 8.340884], [-66.27685299999985, 8.340686000000176], [-66.27736099999987, 8.340741], [-66.27759999999984, 8.34024], [-66.277891, 8.339443000000188], [-66.27794499999987, 8.338939], [-66.2779369999999, 8.33809], [-66.27788, 8.33735600000017], [-66.277795, 8.336873], [-66.277321, 8.3362], [-66.276871, 8.335504], [-66.27623299999988, 8.335012], [-66.275611, 8.334978], [-66.274873, 8.33494300000018], [-66.274575, 8.334846000000141], [-66.273706, 8.334373], [-66.273154, 8.334249000000113], [-66.272469, 8.333802000000105], [-66.27248999999989, 8.332587000000103], [-66.272863, 8.332341], [-66.273707, 8.33153], [-66.27423499999986, 8.330346000000134], [-66.27365099999986, 8.330122], [-66.272932, 8.32976], [-66.272744, 8.329256], [-66.273085, 8.328267], [-66.272685, 8.327237000000139], [-66.271852, 8.326990000000137], [-66.270874, 8.325689000000125], [-66.269765, 8.325627000000111], [-66.268499, 8.326255], [-66.268132, 8.326739000000146], [-66.267468, 8.32773], [-66.266988, 8.328468], [-66.26643999999987, 8.329527], [-66.26526799999982, 8.330407], [-66.264962, 8.329468000000134], [-66.26431499999984, 8.329449000000182], [-66.263622, 8.329431000000113], [-66.263221, 8.328079000000173], [-66.263309, 8.327505], [-66.26323599999989, 8.326909000000171], [-66.26276999999982, 8.326132], [-66.26186499999989, 8.325495], [-66.260566, 8.324655000000178], [-66.260791, 8.323644], [-66.261552, 8.323478000000136], [-66.26208, 8.322947], [-66.2616579999999, 8.321917], [-66.261143, 8.320842], [-66.260625, 8.319239], [-66.26028899999989, 8.317268], [-66.260303, 8.315799], [-66.260434, 8.314582], [-66.261566, 8.314598000000103], [-66.262073, 8.31436500000018], [-66.262996, 8.314244000000144], [-66.26378099999988, 8.314262], [-66.265141, 8.31384], [-66.26427799999988, 8.312492000000134], [-66.263653, 8.312152], [-66.262679, 8.311561], [-66.262052, 8.310969], [-66.261542, 8.310812], [-66.260874, 8.310977], [-66.26073499999984, 8.310909], [-66.260226, 8.310774], [-66.259857, 8.310937], [-66.25948999999986, 8.31133], [-66.25907799999987, 8.31195200000019], [-66.258944, 8.312641], [-66.258672, 8.31344600000017], [-66.25809, 8.312693], [-66.257739, 8.312030000000107], [-66.257666, 8.311479000000134], [-66.257243, 8.310289], [-66.257218, 8.309945], [-66.25770099999988, 8.309575000000166], [-66.2585289999999, 8.309133], [-66.259221, 8.308899], [-66.259795, 8.308437], [-66.26053, 8.307697], [-66.259505, 8.306373], [-66.25918, 8.3061], [-66.258482, 8.305256], [-66.257844, 8.303034], [-66.258042, 8.301564], [-66.25856999999985, 8.30078], [-66.25935, 8.299949], [-66.26006599999988, 8.299945], [-66.260527, 8.299804000000108], [-66.260961, 8.298974], [-66.261699, 8.298923], [-66.262341, 8.298162000000161], [-66.262341, 8.298139], [-66.26240699999988, 8.297565000000134], [-66.262334, 8.296946000000105], [-66.26207399999987, 8.295984], [-66.261745, 8.295183], [-66.261463, 8.294335], [-66.261547, 8.29295800000017], [-66.262054, 8.292817], [-66.262747, 8.29295], [-66.263464, 8.293106], [-66.263786, 8.292760000000158], [-66.26383, 8.292415000000176], [-66.263178, 8.291594], [-66.262574, 8.291070000000104], [-66.261648, 8.29075500000016], [-66.260837, 8.290324], [-66.259771, 8.289711000000125], [-66.2589569999999, 8.288936], [-66.258234, 8.287794000000133], [-66.258316, 8.286256], [-66.25854, 8.285107], [-66.258974, 8.284370000000138], [-66.25945499999989, 8.283587000000182], [-66.26044599999989, 8.283144000000107], [-66.26157699999987, 8.28304500000013], [-66.2629859999999, 8.28315], [-66.26319399999988, 8.2830340000001], [-66.26373999999987, 8.281838], [-66.263345, 8.281427000000178], [-66.26265099999989, 8.281225000000177], [-66.26186599999988, 8.281299], [-66.261007, 8.280616], [-66.260339, 8.280758], [-66.259672, 8.281497000000115], [-66.259395, 8.281453], [-66.25847, 8.281207000000109], [-66.257844, 8.28093500000017], [-66.2572899999999, 8.280985], [-66.25769799999989, 8.279674], [-66.258226, 8.27909700000015], [-66.258499, 8.278476], [-66.25869999999986, 8.277396], [-66.2600819999999, 8.276767], [-66.260541, 8.276305], [-66.260005, 8.275621000000115], [-66.259564, 8.275302000000181], [-66.259192, 8.274846000000139], [-66.258499, 8.27485], [-66.257761, 8.27492400000017], [-66.257048, 8.275365], [-66.25639799999982, 8.27491], [-66.256257, 8.274452], [-66.256084, 8.27273200000019], [-66.255524, 8.271726], [-66.255018, 8.272051000000147], [-66.25416299999989, 8.272010000000137], [-66.253997, 8.271277], [-66.254754, 8.270446], [-66.255049, 8.269664], [-66.25424, 8.269601], [-66.253294, 8.269653000000119], [-66.25244, 8.269819], [-66.25207099999989, 8.269867], [-66.251742, 8.268928000000187], [-66.251524, 8.267347000000143], [-66.251052, 8.265720000000158], [-66.251022, 8.264665], [-66.25032599999986, 8.264142000000163], [-66.249674, 8.263251000000139], [-66.249299, 8.262313000000177], [-66.249154, 8.261258000000112], [-66.24928799999986, 8.260569], [-66.250483, 8.259575], [-66.251382, 8.259454], [-66.252057, 8.26023000000015], [-66.252987, 8.261164000000122], [-66.254004, 8.261387000000127], [-66.254974, 8.261312000000146], [-66.25527199999982, 8.26110400000016], [-66.25519599999984, 8.260026], [-66.255144, 8.259039], [-66.255091, 8.257915], [-66.25527, 8.257019000000184], [-66.25519499999984, 8.256055000000174], [-66.254522, 8.255509000000131], [-66.253849, 8.2551], [-66.253137, 8.255678000000103], [-66.252766, 8.255382000000111], [-66.25239, 8.254375], [-66.252129, 8.253321], [-66.251732, 8.252544000000114], [-66.25094699999988, 8.252595], [-66.25028, 8.253035], [-66.24936, 8.253638], [-66.249098, 8.252377], [-66.249318, 8.250678000000107], [-66.24845499999986, 8.249307000000158], [-66.247505, 8.248762], [-66.246441, 8.248471000000109], [-66.246526, 8.2473], [-66.247053, 8.246654], [-66.2478799999999, 8.245938000000137], [-66.249009, 8.24554], [-66.24969999999985, 8.245145], [-66.250577, 8.245186], [-66.25155, 8.245661], [-66.252592, 8.24613600000015], [-66.252983, 8.245835000000113], [-66.252399, 8.244761], [-66.25165699999985, 8.244352000000163], [-66.250917, 8.244105000000161], [-66.250338, 8.243833], [-66.250055, 8.242963], [-66.25016399999987, 8.241930000000139], [-66.25045599999987, 8.240643], [-66.25049499999989, 8.239358000000152], [-66.250185, 8.237845], [-66.249251, 8.236153000000172], [-66.249153, 8.235282], [-66.249473, 8.234706000000187], [-66.250278, 8.234219], [-66.250809, 8.234216000000117], [-66.250898, 8.233756], [-66.2500399999999, 8.233096], [-66.250426, 8.2320840000001], [-66.25146099999989, 8.231504], [-66.25245399999989, 8.231451000000163], [-66.253264, 8.231698000000165], [-66.254373, 8.231806], [-66.255369, 8.232304], [-66.256086, 8.232437], [-66.255846, 8.231085], [-66.254848, 8.230173], [-66.254708, 8.230083], [-66.25407799999988, 8.228894000000139], [-66.25364, 8.22908], [-66.252809, 8.22910800000011], [-66.25211199999984, 8.22840200000013], [-66.2522929999999, 8.227804], [-66.253069, 8.226468000000125], [-66.253806, 8.226165], [-66.255028, 8.225881], [-66.256809, 8.226214], [-66.257589, 8.22552], [-66.259939, 8.224679], [-66.26056, 8.224193], [-66.261062, 8.223248000000183], [-66.261494, 8.22219], [-66.2621549999999, 8.22090100000014], [-66.262983, 8.220253000000184], [-66.263927, 8.219811], [-66.263832, 8.219398000000126], [-66.26340599999986, 8.217841], [-66.262867, 8.216513], [-66.262186, 8.214773], [-66.261465, 8.213951000000122], [-66.261068, 8.213174], [-66.262172, 8.212501], [-66.262514, 8.211856000000125], [-66.262344, 8.210504000000185], [-66.262131, 8.209679000000108], [-66.261565, 8.20782400000013], [-66.260775, 8.207026], [-66.26014999999984, 8.206847], [-66.259067, 8.207152000000121], [-66.258468, 8.207386], [-66.25782299999986, 8.207619], [-66.257312, 8.20711800000015], [-66.25706999999989, 8.205398000000116], [-66.257272, 8.204525], [-66.257514, 8.20255], [-66.257898, 8.201263], [-66.258335, 8.200961000000177], [-66.25907699999988, 8.201392000000112], [-66.259622, 8.200058], [-66.2595, 8.19895700000012], [-66.25944699999985, 8.197925000000168], [-66.258842, 8.197057], [-66.257639, 8.196813000000134], [-66.25652899999989, 8.196476000000189], [-66.25528199999985, 8.19646100000017], [-66.255117, 8.195980000000134], [-66.254786, 8.194675000000188], [-66.255264, 8.193662], [-66.25668999999982, 8.192803], [-66.257313, 8.192639], [-66.257558, 8.191191], [-66.25752, 8.188943], [-66.257167, 8.187775], [-66.256841, 8.187364000000116], [-66.25452599999983, 8.18648400000012], [-66.254057, 8.185294000000113], [-66.254769, 8.184739], [-66.25598899999989, 8.184088000000145], [-66.256419, 8.182777], [-66.255619, 8.180396], [-66.254195, 8.177950000000124], [-66.253834, 8.175521], [-66.254443, 8.173314], [-66.25526, 8.171104000000184], [-66.255684, 8.168784], [-66.25639799999982, 8.16855], [-66.256902, 8.167858], [-66.256091, 8.167404], [-66.2555789999999, 8.166834], [-66.25474099999985, 8.165738], [-66.25406999999984, 8.16549], [-66.253055, 8.16561200000018], [-66.2522469999999, 8.165640000000167], [-66.25128299999989, 8.166518000000167], [-66.250478, 8.166960000000131], [-66.24962199999987, 8.166667], [-66.248949, 8.166259], [-66.24802, 8.165393000000165], [-66.247315, 8.163562000000184], [-66.246499, 8.162305000000117], [-66.246887, 8.161522000000161], [-66.24745899999988, 8.160761], [-66.247241, 8.159065], [-66.247417, 8.157687], [-66.247849, 8.156883], [-66.247987, 8.156627000000128], [-66.249112, 8.15561], [-66.25033, 8.154547], [-66.252305, 8.152973000000145], [-66.253106, 8.151821], [-66.253168, 8.150650000000155], [-66.252304, 8.149026], [-66.25261999999987, 8.147923000000105], [-66.2533739999999, 8.146679], [-66.253087, 8.145097], [-66.252092, 8.144714], [-66.249965, 8.14449900000011], [-66.2484189999999, 8.144624], [-66.247977, 8.144007000000101], [-66.24736499999989, 8.142175], [-66.246441, 8.142067000000168], [-66.245754, 8.143035000000168], [-66.245018, 8.143453], [-66.2442089999999, 8.143252000000132], [-66.243971, 8.142198000000178], [-66.24432899999988, 8.140383], [-66.24432, 8.138891000000115], [-66.244445, 8.13677900000016], [-66.244603, 8.136273], [-66.244546, 8.13453], [-66.243987, 8.133730000000128], [-66.243729, 8.133158], [-66.244643, 8.131707], [-66.245056, 8.131222], [-66.24583499999989, 8.130299], [-66.246337, 8.129401], [-66.246792, 8.128295], [-66.24745899999988, 8.12787800000018], [-66.24823999999984, 8.12725300000011], [-66.249507, 8.126946000000146], [-66.250864, 8.126065], [-66.250603, 8.125035000000139], [-66.249722, 8.12432900000016], [-66.248147, 8.123491], [-66.247428, 8.123036], [-66.24645399999986, 8.122309], [-66.245528, 8.121948000000145], [-66.244649, 8.121632], [-66.244436, 8.120785000000183], [-66.244612, 8.119476], [-66.2449519999999, 8.118464000000188], [-66.245059, 8.117132], [-66.244721, 8.114817], [-66.244598, 8.113693000000126], [-66.243802, 8.111817000000144], [-66.24250099999989, 8.110586], [-66.241964, 8.109695000000102], [-66.24108399999989, 8.10921900000011], [-66.239672, 8.108655], [-66.238418, 8.107355], [-66.237096, 8.106423], [-66.236167, 8.105557], [-66.235107, 8.105794], [-66.23379099999988, 8.105826], [-66.23245, 8.105559], [-66.230159, 8.104817], [-66.22800399999988, 8.103409000000113], [-66.227187, 8.10201400000011], [-66.22696699999989, 8.100042], [-66.227022, 8.097816], [-66.22703599999983, 8.09632500000015], [-66.227532, 8.094509000000187], [-66.227942, 8.093611000000124], [-66.229179, 8.092203000000154], [-66.230558, 8.091253], [-66.231501, 8.09065], [-66.233181, 8.089928], [-66.234566, 8.089712000000134], [-66.235372, 8.089431000000161], [-66.23633499999988, 8.088415000000111], [-66.23657999999989, 8.087037000000123], [-66.23625, 8.085846000000174], [-66.235388, 8.084567], [-66.235359, 8.083763000000147], [-66.235168, 8.082708], [-66.234354, 8.081911], [-66.233354, 8.080724], [-66.23254, 8.079766000000177], [-66.23158599999988, 8.078648], [-66.23112, 8.077894000000185], [-66.23004999999989, 8.076593000000173], [-66.228845, 8.07589], [-66.2283809999999, 8.075434], [-66.22774999999984, 8.074245], [-66.227306, 8.073399], [-66.22661, 8.07283], [-66.226399, 8.072395], [-66.226113, 8.07086], [-66.225832, 8.070265], [-66.225477, 8.068982000000176], [-66.22516999999988, 8.067837000000111], [-66.225962, 8.06528500000013], [-66.226532, 8.064225], [-66.22716999999989, 8.062844000000155], [-66.22737299999989, 8.06217800000013], [-66.22718, 8.060848], [-66.225881, 8.059824], [-66.224704, 8.059855000000141], [-66.223739, 8.06055], [-66.222779, 8.061956], [-66.22167599999989, 8.062881], [-66.221059, 8.063780000000179], [-66.219907, 8.064132000000143], [-66.218866, 8.063817], [-66.2178909999999, 8.06292900000011], [-66.218023, 8.061804000000109], [-66.21885, 8.061179], [-66.21926, 8.06039600000014], [-66.219233, 8.059777], [-66.21904499999988, 8.059204], [-66.218717, 8.058426], [-66.21849999999984, 8.057005], [-66.218376, 8.055560000000185], [-66.219477, 8.054589000000135], [-66.22156, 8.055355000000134], [-66.222271, 8.054708], [-66.22221999999988, 8.05402000000015], [-66.221913, 8.052829], [-66.221213, 8.05164], [-66.220655, 8.050956], [-66.219243, 8.050437000000159], [-66.21797, 8.04975800000011], [-66.21759999999989, 8.049760000000106], [-66.216936, 8.050613000000169], [-66.21646, 8.051902], [-66.215704, 8.052778], [-66.214939, 8.052325], [-66.21484, 8.051178], [-66.214696, 8.050514000000135], [-66.213815, 8.049992], [-66.21312, 8.049583], [-66.2122169999999, 8.048993], [-66.21188799999987, 8.048146000000145], [-66.21114099999988, 8.046866], [-66.210372, 8.045586], [-66.210253, 8.045013], [-66.211031, 8.04397500000016], [-66.2117659999999, 8.043489], [-66.212829, 8.043596], [-66.213937, 8.043727000000104], [-66.214097, 8.043473], [-66.21393299999988, 8.042969], [-66.21321099999983, 8.041965000000118], [-66.212235, 8.040893], [-66.211073, 8.039707], [-66.210672, 8.038356000000135], [-66.209949, 8.037190000000123], [-66.209275, 8.036368000000152], [-66.208627, 8.036051], [-66.20730299999985, 8.034752], [-66.207111, 8.033652000000131], [-66.207404, 8.032525000000135], [-66.208182, 8.031419], [-66.209449, 8.031066], [-66.21050899999989, 8.030761], [-66.210574, 8.030141], [-66.21005999999988, 8.029181], [-66.20888299999984, 8.029234000000145], [-66.207548, 8.029702000000157], [-66.206789, 8.030166000000179], [-66.20605099999989, 8.030171], [-66.20542199999983, 8.029303], [-66.205299, 8.02818], [-66.205198, 8.026781], [-66.204729, 8.025499], [-66.20451, 8.023825], [-66.204479, 8.022609000000159], [-66.20436, 8.022036000000185], [-66.204261, 8.020913000000178], [-66.20434499999988, 8.019650000000127], [-66.204871, 8.01891200000017], [-66.205863, 8.018791], [-66.20664199999987, 8.017868000000135], [-66.206938, 8.017247], [-66.20693299999988, 8.016421], [-66.20667499999985, 8.015734000000123], [-66.206232, 8.015026000000148], [-66.205856, 8.01404100000019], [-66.20587599999982, 8.013468], [-66.205866, 8.011999000000174], [-66.205649, 8.010509000000184], [-66.206757, 8.010456], [-66.208184, 8.009896], [-66.207789, 8.009508], [-66.2069719999999, 8.008091], [-66.206277, 8.0076830000001], [-66.205535, 8.007137], [-66.204038, 8.007583000000182], [-66.202704, 8.008280000000127], [-66.2022, 8.008926], [-66.201537, 8.009825], [-66.200915, 8.010082000000182], [-66.200315, 8.010017000000119], [-66.19978, 8.009332000000143], [-66.19954, 8.007934], [-66.199536, 8.00736], [-66.199923, 8.006509000000165], [-66.20036, 8.00623000000013], [-66.201944, 8.00491200000016], [-66.204756, 8.004297], [-66.205188, 8.003376], [-66.2053489999999, 8.003214000000185], [-66.205575, 8.002524000000108], [-66.205988, 8.002017], [-66.207022, 8.001413], [-66.208244, 8.001153], [-66.20976799999988, 8.001303000000178], [-66.209877, 8.000270000000114], [-66.207272, 7.997144000000105], [-66.205504, 7.99558], [-66.205626, 7.993576000000132], [-66.206613, 7.99272400000018], [-66.20708, 7.991357], [-66.206359, 7.990516], [-66.20517499999988, 7.98973500000011], [-66.204464, 7.989537], [-66.203857, 7.988744], [-66.202796, 7.987621], [-66.203044, 7.98680000000013], [-66.201825, 7.986591], [-66.200642, 7.986865], [-66.199834, 7.986894], [-66.199125, 7.986582], [-66.198619, 7.985401], [-66.197877, 7.983298], [-66.19739199999987, 7.982186], [-66.196881, 7.981235], [-66.196612, 7.98055], [-66.196497, 7.980258], [-66.196399, 7.980009], [-66.195582, 7.979373], [-66.194789, 7.978622], [-66.194265, 7.97718900000018], [-66.1953089999999, 7.975833], [-66.196361, 7.97521300000011], [-66.198083, 7.974491], [-66.197988, 7.973548000000164], [-66.196805, 7.972698], [-66.19555799999989, 7.972741], [-66.194428, 7.972718], [-66.193245, 7.972992], [-66.19192, 7.973469], [-66.1906469999999, 7.973627000000135], [-66.189587, 7.973559], [-66.189466, 7.972707], [-66.19026999999988, 7.971806000000129], [-66.19110199999989, 7.970607], [-66.191465, 7.969811], [-66.191791, 7.968556000000149], [-66.1921119999999, 7.966429000000176], [-66.192987, 7.965437000000179], [-66.19394099999988, 7.965044], [-66.196199, 7.965251], [-66.197117, 7.965499], [-66.19779, 7.96533], [-66.197872, 7.964712], [-66.197295, 7.963598], [-66.196444, 7.963466000000153], [-66.195639, 7.963335], [-66.194701, 7.962903], [-66.193498, 7.96196], [-66.19338, 7.960971000000143], [-66.19443699999988, 7.960098], [-66.19563199999982, 7.960352], [-66.19668799999988, 7.960580000000107], [-66.197346, 7.961121000000105], [-66.198369, 7.961877000000129], [-66.198371, 7.960684000000185], [-66.19792699999988, 7.959848000000136], [-66.19726, 7.958596000000114], [-66.196837, 7.957876], [-66.195903, 7.956159], [-66.195904, 7.955034], [-66.194451, 7.953857], [-66.193839, 7.954464], [-66.193114, 7.954885], [-66.19259199999982, 7.955586], [-66.19193099999984, 7.956306000000154], [-66.191428, 7.957191], [-66.1906929999999, 7.957038000000125], [-66.19010099999986, 7.955534], [-66.18981899999989, 7.95468000000011], [-66.19059, 7.953112], [-66.191151, 7.952757000000133], [-66.192406, 7.952324], [-66.193748, 7.952168], [-66.193585, 7.951109], [-66.192545, 7.95007800000019], [-66.191632, 7.9496], [-66.190371, 7.949230000000171], [-66.19010999999989, 7.948443], [-66.190671, 7.947009], [-66.190991, 7.946029000000181], [-66.19096799999983, 7.944928], [-66.190927, 7.94355], [-66.190346, 7.941565000000139], [-66.18968699999988, 7.941069000000141], [-66.188446, 7.941939000000161], [-66.18790299999989, 7.942501000000107], [-66.187714, 7.942727000000161], [-66.187351, 7.943499], [-66.186992, 7.944134], [-66.18656399999986, 7.944745000000182], [-66.18605599999984, 7.944781000000148], [-66.185577, 7.944495], [-66.185216, 7.94409800000011], [-66.18506899999988, 7.94340700000015], [-66.185033, 7.942924000000119], [-66.185006, 7.942006], [-66.184511, 7.941399], [-66.184052, 7.941275000000132], [-66.183236, 7.941671], [-66.182601, 7.942254000000105], [-66.18208, 7.942886], [-66.18129, 7.943145000000129], [-66.180451, 7.942394000000149], [-66.17992, 7.941304], [-66.17989899999986, 7.940111], [-66.180546, 7.938977], [-66.181163, 7.938164], [-66.18226, 7.937567000000115], [-66.18310899999989, 7.936689000000115], [-66.182834, 7.935467], [-66.18143699999985, 7.93498000000011], [-66.180188, 7.935046], [-66.17914, 7.935529], [-66.178441, 7.935859000000164], [-66.17732299999989, 7.936318000000142], [-66.17664899999988, 7.93655600000011], [-66.1758999999999, 7.93594400000012], [-66.175966, 7.935028000000159], [-66.176335, 7.933934], [-66.176956, 7.932914], [-66.177957, 7.931375], [-66.177945, 7.929722], [-66.177352, 7.928311], [-66.176811, 7.92768], [-66.176594, 7.92701], [-66.176305, 7.925375], [-66.17610899999988, 7.923719], [-66.17693899999989, 7.920455000000175], [-66.177911, 7.920291], [-66.179579, 7.919958], [-66.180304, 7.919514000000106], [-66.179423, 7.918601], [-66.178209, 7.918186], [-66.177055, 7.918209000000161], [-66.176, 7.917866000000174], [-66.175833, 7.917036], [-66.176346, 7.91567], [-66.177638, 7.915674], [-66.178259, 7.915755000000161], [-66.178295, 7.915159], [-66.177739, 7.914138], [-66.177179, 7.913347], [-66.177123, 7.91268], [-66.176954, 7.911965], [-66.1765769999999, 7.911201000000119], [-66.176068, 7.910158000000138], [-66.175575, 7.909459], [-66.175063, 7.9086], [-66.175148, 7.90672], [-66.176315, 7.906078], [-66.17727699999989, 7.905295000000137], [-66.178212, 7.903615], [-66.17851999999988, 7.902107000000115], [-66.179657, 7.900731000000121], [-66.181, 7.900506000000178], [-66.182086, 7.899312000000123], [-66.183297, 7.898764], [-66.18493099999984, 7.899004], [-66.186174, 7.899144], [-66.18743299999988, 7.899652], [-66.189085, 7.900099], [-66.19047999999987, 7.8996], [-66.190863, 7.897841000000142], [-66.191461, 7.89682], [-66.192399, 7.894958000000145], [-66.193706, 7.894251000000111], [-66.19497499999989, 7.89425400000016], [-66.197337, 7.894968], [-66.198751, 7.894652], [-66.2000579999999, 7.893945], [-66.201086, 7.894425], [-66.202377, 7.894474], [-66.203425, 7.894037000000139], [-66.20450199999982, 7.893256000000179], [-66.206215, 7.892993000000104], [-66.208063, 7.892962000000182], [-66.209598, 7.892397000000187], [-66.209607, 7.890814], [-66.208326, 7.890282000000127], [-66.20621999999986, 7.889436000000103], [-66.2049679999999, 7.888585], [-66.205093, 7.88705], [-66.20572199999987, 7.88564], [-66.206223, 7.884824], [-66.20685, 7.883529], [-66.20634299999989, 7.881293000000142], [-66.20604899999984, 7.879887000000167], [-66.20571599999988, 7.878114], [-66.20517399999989, 7.877575], [-66.204074, 7.877208], [-66.203505, 7.875682], [-66.203169, 7.875216], [-66.203584, 7.874123], [-66.2053509999999, 7.872347000000161], [-66.206198, 7.871584], [-66.20703, 7.870362], [-66.207949, 7.869440000000168], [-66.209235, 7.868663], [-66.210271, 7.867698], [-66.210268, 7.865609], [-66.210023, 7.863998], [-66.209742, 7.861973000000148], [-66.209556, 7.860936000000152], [-66.209051, 7.858562000000177], [-66.2076019999999, 7.858372], [-66.20684099999988, 7.858357], [-66.2056869999999, 7.858356000000185], [-66.204507, 7.858538000000124], [-66.20364299999989, 7.857924000000139], [-66.20425399999982, 7.856262000000129], [-66.204843, 7.855677], [-66.20517199999983, 7.854261000000122], [-66.205256, 7.85245], [-66.20492599999989, 7.850562000000139], [-66.204566, 7.84897100000012], [-66.204485, 7.848442], [-66.2031889999999, 7.846419], [-66.203947, 7.844347000000141], [-66.20526299999989, 7.84318], [-66.2061369999999, 7.842211], [-66.207129, 7.83996], [-66.20701799999989, 7.83865], [-66.205957, 7.83638000000019], [-66.20413999999988, 7.836113000000125], [-66.202196, 7.836395000000152], [-66.200881, 7.83751500000011], [-66.200326, 7.838697], [-66.200829, 7.840038000000163], [-66.20143699999988, 7.84186300000016], [-66.2008909999999, 7.84371], [-66.199505, 7.842718], [-66.198593, 7.842172000000119], [-66.198042, 7.840945], [-66.19697099999985, 7.839156000000173], [-66.196161, 7.837074], [-66.195059, 7.835675], [-66.194456, 7.833597000000111], [-66.195319, 7.832055], [-66.197071, 7.829865], [-66.198249, 7.82869600000015], [-66.19989199999986, 7.828454], [-66.202096, 7.827857], [-66.201688, 7.826403000000141], [-66.199063, 7.825018000000114], [-66.197403, 7.825007], [-66.19606199999987, 7.825118], [-66.194285, 7.825173000000177], [-66.192492, 7.824861000000112], [-66.1912779999999, 7.824400000000139], [-66.19006699999989, 7.82382500000017], [-66.189404, 7.822411], [-66.188707, 7.820423], [-66.18830699999984, 7.819658000000175], [-66.18713799999983, 7.819289], [-66.186203, 7.818788000000154], [-66.185048, 7.818834], [-66.183433, 7.81886900000012], [-66.182306, 7.817607000000123], [-66.182469, 7.816417], [-66.18333, 7.814921], [-66.184791, 7.813436], [-66.18599, 7.812382000000184], [-66.18755999999985, 7.812323000000106], [-66.189946, 7.811821000000123], [-66.19095, 7.811245], [-66.19076899999988, 7.809933], [-66.190073, 7.809024], [-66.18913, 7.807789000000128], [-66.187997, 7.806779], [-66.1865289999999, 7.80528], [-66.186092, 7.805203], [-66.184711, 7.80506], [-66.184296, 7.805051], [-66.182877, 7.804517], [-66.18223499999988, 7.803196], [-66.181611, 7.802128000000152], [-66.180881, 7.801723], [-66.180288, 7.80139], [-66.180459, 7.799856], [-66.180641, 7.798850000000186], [-66.180677, 7.798208000000159], [-66.180399, 7.797147000000109], [-66.1796159999999, 7.796007000000145], [-66.180328, 7.795035], [-66.181905, 7.794608], [-66.183247, 7.79442900000015], [-66.18551799999989, 7.793948000000114], [-66.186516, 7.793624000000136], [-66.188112, 7.793450000000121], [-66.188957, 7.792733000000112], [-66.189837, 7.791466000000128], [-66.190458, 7.790423000000146], [-66.19093499999985, 7.789653], [-66.19143899999989, 7.788722], [-66.192215, 7.788004000000171], [-66.193635, 7.787368000000129], [-66.194364, 7.786694000000125], [-66.194363, 7.785639], [-66.193411, 7.784816], [-66.192554, 7.783904], [-66.192168, 7.783598000000154], [-66.192235, 7.782566], [-66.192628, 7.781427000000122], [-66.1906019999999, 7.780124000000114], [-66.1895679999999, 7.779919], [-66.187989, 7.779313000000172], [-66.186582, 7.779284], [-66.185033, 7.778335], [-66.1844349999999, 7.776027], [-66.184202, 7.773934], [-66.183728, 7.772296], [-66.1820259999999, 7.770953000000134], [-66.181539, 7.771081], [-66.180058, 7.771303000000159], [-66.17959, 7.77049], [-66.180773, 7.767944], [-66.181659, 7.767481000000146], [-66.18343699999986, 7.767425000000117], [-66.184958, 7.766378], [-66.185, 7.764337], [-66.185424, 7.762762000000123], [-66.186363, 7.760877000000107], [-66.18752599999988, 7.759271000000126], [-66.189205, 7.758434000000136], [-66.190395, 7.757747000000109], [-66.190441, 7.75664600000016], [-66.19026899999989, 7.754922], [-66.189606, 7.753509000000122], [-66.18810699999989, 7.752377], [-66.18668699999989, 7.751889], [-66.185668, 7.750950000000159], [-66.185148, 7.750458], [-66.1843209999999, 7.751405000000148], [-66.184268, 7.752849], [-66.18457199999989, 7.75492], [-66.18366, 7.756623], [-66.1826109999999, 7.757129], [-66.181141, 7.755722000000105], [-66.180395, 7.754996], [-66.17948399999989, 7.754426000000137], [-66.179327, 7.753115], [-66.179744, 7.751908000000185], [-66.178205, 7.750454000000104], [-66.176024, 7.749950000000183], [-66.175747, 7.751115], [-66.17548099999988, 7.75283], [-66.174526, 7.753224000000159], [-66.173397, 7.752053000000103], [-66.172214, 7.750125], [-66.170743, 7.750989000000175], [-66.170236, 7.752103000000147], [-66.168397, 7.752915], [-66.167134, 7.752636], [-66.16513, 7.751356000000158], [-66.164254, 7.750214], [-66.163212, 7.748197], [-66.1620769999999, 7.746223], [-66.161335, 7.744189000000119], [-66.16090999999989, 7.742436], [-66.160606, 7.740388], [-66.16001, 7.739091], [-66.159086, 7.738062000000127], [-66.156646, 7.736704], [-66.155266, 7.735391000000106], [-66.156057, 7.732838], [-66.158419, 7.73128000000014], [-66.159562, 7.729558000000111], [-66.15784, 7.729179], [-66.156691, 7.728972000000113], [-66.155302, 7.728072000000111], [-66.154219, 7.726856], [-66.15341299999989, 7.725693], [-66.151736, 7.725383], [-66.15002, 7.725853], [-66.149225, 7.727465000000109], [-66.148788, 7.728536000000133], [-66.148784, 7.729821], [-66.148113, 7.731046000000106], [-66.146312, 7.731124], [-66.144839, 7.729854000000103], [-66.14494799999983, 7.72795200000013], [-66.146318, 7.726373], [-66.148174, 7.724759], [-66.148476, 7.723526], [-66.14795299999986, 7.722047], [-66.14661, 7.720115], [-66.144988, 7.719348], [-66.143402, 7.720187000000124], [-66.14215, 7.721607], [-66.14228999999989, 7.722643000000119], [-66.140676, 7.722655], [-66.139278, 7.721089000000177], [-66.139423, 7.719647], [-66.141131, 7.718489000000147], [-66.144355, 7.717614], [-66.14475099999987, 7.716337], [-66.143855, 7.716158], [-66.142982, 7.71598], [-66.141394, 7.71581], [-66.140364, 7.71432], [-66.139962, 7.713715], [-66.139138, 7.71337700000015], [-66.1381669999999, 7.71241700000013], [-66.138317, 7.711823000000152], [-66.138858, 7.710228], [-66.13886, 7.709012], [-66.139848, 7.708069], [-66.14082899999988, 7.706345], [-66.140393, 7.705120000000136], [-66.139022, 7.705643], [-66.137636, 7.705729], [-66.13718, 7.70549], [-66.13720099999983, 7.704458], [-66.13641099999984, 7.70363900000018], [-66.136106, 7.703885], [-66.13508599999989, 7.70526400000017], [-66.134671, 7.706356], [-66.13445799999988, 7.707729], [-66.133794, 7.70861], [-66.132317, 7.7097270000001], [-66.129934, 7.710114000000146], [-66.128662, 7.710248], [-66.12704199999985, 7.710559], [-66.125009, 7.710701], [-66.122975, 7.710935], [-66.121943, 7.712887], [-66.12054499999988, 7.713546], [-66.119883, 7.713234], [-66.11848, 7.713045], [-66.1168909999999, 7.712944], [-66.11600799999985, 7.712145], [-66.11464099999989, 7.711314000000129], [-66.113418, 7.711335000000133], [-66.113039, 7.710753], [-66.11167199999988, 7.709922], [-66.11088399999988, 7.71009000000015], [-66.109736, 7.710938000000112], [-66.1083569999999, 7.711804], [-66.10662899999983, 7.712824], [-66.105382, 7.71403800000013], [-66.103695, 7.715288000000157], [-66.10045, 7.716047], [-66.098983, 7.716751], [-66.096691, 7.718287000000146], [-66.09469299999989, 7.718958], [-66.092409, 7.720127000000161], [-66.091446, 7.72205700000012], [-66.090946, 7.723905000000116], [-66.08938, 7.724905], [-66.08606199999986, 7.724722], [-66.083268, 7.724871], [-66.08139099999983, 7.725291], [-66.07878099999988, 7.72549000000015], [-66.0749019999999, 7.725731], [-66.07061, 7.724724], [-66.067385, 7.723442000000148], [-66.063088, 7.722665000000177], [-66.05815, 7.720589000000189], [-66.055022, 7.719079000000136], [-66.052148, 7.717528], [-66.048609, 7.714748], [-66.046304, 7.712498], [-66.044775, 7.710608], [-66.04241199999984, 7.708929000000182], [-66.04045999999988, 7.708498], [-66.037731, 7.708856], [-66.036058, 7.708384], [-66.035479, 7.70846500000016], [-66.033958, 7.708433000000184], [-66.032575, 7.708405000000141], [-66.0312229999999, 7.707986000000119], [-66.030234, 7.70679500000017], [-66.02942, 7.706021], [-66.02825699999988, 7.705377], [-66.0264269999999, 7.704674000000182], [-66.022475, 7.702894000000185], [-66.020745, 7.702904000000103], [-66.019059, 7.703007], [-66.017305, 7.703039000000103], [-66.015139, 7.702994000000103], [-66.01364199999989, 7.702894000000185], [-66.01280999999989, 7.702836000000161], [-66.01282819699998, 7.701820439000073], [-66.01287406099993, 7.69926076500019], [-66.012894, 7.698148], [-66.01400054499999, 7.694535891000044], [-66.01495383299988, 7.691424064000046], [-66.01595934799997, 7.687407952000115], [-65.97910984799995, 7.681488608000109], [-65.95126123199998, 7.677216128999987], [-65.94655840499996, 7.676494630999969], [-65.94335718599996, 7.676003540000124], [-65.92305234599996, 7.672888644000125], [-65.91473422199988, 7.673339274000114], [-65.89981033599992, 7.674147768000068], [-65.86290175699992, 7.687072226000055], [-65.83916580099992, 7.706864802999974], [-65.81177271599995, 7.737323639000067], [-65.79161091599997, 7.756424187], [-65.76097769299986, 7.788992091000125], [-65.74253200099997, 7.816658838000023], [-65.71905609799995, 7.847135673000025], [-65.69100894799993, 7.867592289000129], [-65.65827960299987, 7.891930010000067], [-65.63991312499996, 7.899921229000029], [-65.63575999999989, 7.913944], [-65.636136, 7.914536000000169], [-65.63619710799992, 7.914555918000019], [-65.63708399999985, 7.914845000000184], [-65.63711059799994, 7.914858215000095], [-65.63866, 7.915628], [-65.639743, 7.915683], [-65.64177, 7.915635000000179], [-65.643568, 7.915796000000171], [-65.64488099999988, 7.915802], [-65.646818, 7.915984], [-65.64804, 7.916061], [-65.649491, 7.916043000000172], [-65.650574, 7.916029], [-65.651381, 7.916111000000114], [-65.652353, 7.916488], [-65.65311699999984, 7.916777000000138], [-65.65390799999983, 7.917409], [-65.65453999999988, 7.918296], [-65.65474249499994, 7.918654665000133], [-65.6549639999999, 7.919047], [-65.654024, 7.91938], [-65.653016, 7.919828000000166], [-65.652718, 7.921781000000124], [-65.652575, 7.923297000000105], [-65.65293817899988, 7.924870774000112], [-65.653013, 7.925195000000144], [-65.65362399999987, 7.926196000000175], [-65.65400742499997, 7.926616042000148], [-65.65453499999984, 7.927194000000156], [-65.655053, 7.928059000000133], [-65.655687, 7.929037], [-65.655307, 7.929982000000109], [-65.654737, 7.930494000000181], [-65.654657, 7.931481000000133], [-65.654483, 7.932332], [-65.654471, 7.933203000000162], [-65.65470599999986, 7.933544], [-65.65516799999989, 7.933676], [-65.65536999999989, 7.933238000000188], [-65.65575299999989, 7.932568000000174], [-65.656229, 7.93194300000016], [-65.657392, 7.930850000000135], [-65.657778, 7.930456], [-65.65812099999988, 7.93019900000013], [-65.658343, 7.929554], [-65.658635, 7.928931], [-65.659255, 7.928809], [-65.660313, 7.928681], [-65.661167, 7.928808000000117], [-65.661359, 7.929424], [-65.661344, 7.930113000000119], [-65.66105, 7.930552], [-65.660435, 7.931041000000164], [-65.659657, 7.93151], [-65.658604, 7.932073], [-65.658312, 7.932673], [-65.658664, 7.933128000000181], [-65.658854, 7.933584], [-65.658861, 7.934226], [-65.658547, 7.934872], [-65.658025, 7.935475], [-65.65746, 7.936422], [-65.657468, 7.937041], [-65.658428, 7.938268], [-65.658968, 7.939132], [-65.659506, 7.939791], [-65.66018, 7.940287], [-65.660851, 7.940508], [-65.66161199999988, 7.940544], [-65.661793, 7.940335000000118], [-65.661804, 7.939303], [-65.66174599999988, 7.938341], [-65.661722, 7.938249], [-65.66257199999984, 7.938124000000187], [-65.664184, 7.938104000000124], [-65.66488, 7.938462], [-65.664681, 7.939106], [-65.664165, 7.940282], [-65.664362, 7.941289], [-65.664902, 7.942086], [-65.66536799999989, 7.942539], [-65.66565, 7.943017], [-65.665173, 7.943527000000131], [-65.664458, 7.943422000000112], [-65.663738, 7.942949], [-65.66251, 7.942414], [-65.66195399999987, 7.942169], [-65.661148, 7.942179000000124], [-65.660347, 7.942602000000136], [-65.6598699999999, 7.943158000000153], [-65.659371, 7.943784], [-65.659103, 7.944429000000127], [-65.659066, 7.945186], [-65.659074, 7.945806], [-65.65959, 7.946533000000159], [-65.660244, 7.947304000000145], [-65.660969, 7.948213], [-65.66114, 7.948944000000154], [-65.661429, 7.949996000000112], [-65.661391, 7.950661], [-65.66008099999988, 7.950861000000145], [-65.659019, 7.950668000000121], [-65.657699, 7.950111], [-65.656934, 7.949754], [-65.656258, 7.949097], [-65.65558299999987, 7.948533], [-65.654411, 7.948845000000119], [-65.65395599999988, 7.94931], [-65.653106, 7.949481000000162], [-65.652303, 7.949766000000125], [-65.65116199999989, 7.950606000000164], [-65.650409, 7.951212], [-65.650191, 7.952178], [-65.65049899999985, 7.952908], [-65.651263, 7.953242000000103], [-65.65218, 7.952864], [-65.653194, 7.952897000000178], [-65.653933, 7.953002], [-65.654515, 7.953523000000132], [-65.654565, 7.953728000000183], [-65.653782, 7.953899000000149], [-65.653068, 7.953908000000183], [-65.651922, 7.954312000000186], [-65.651095, 7.954506], [-65.650175, 7.954632], [-65.650046, 7.955413], [-65.650424, 7.956165], [-65.651236, 7.956614], [-65.652111, 7.956603], [-65.6525079999999, 7.957034], [-65.652501, 7.95831800000019], [-65.6519229999999, 7.959976], [-65.651244, 7.961017], [-65.650904, 7.961457], [-65.65045599999985, 7.962472000000162], [-65.6503709999999, 7.963046], [-65.650859, 7.963407], [-65.651639, 7.963145], [-65.65237099999985, 7.962723000000153], [-65.65308299999987, 7.962530000000186], [-65.65332499999988, 7.963514], [-65.653932, 7.964056000000141], [-65.654642, 7.963703], [-65.65592, 7.962770000000148], [-65.656865, 7.962804000000119], [-65.657549, 7.964057], [-65.657677, 7.965087], [-65.658629, 7.965717], [-65.659304, 7.966282], [-65.659441, 7.968000000000131], [-65.659174, 7.968806], [-65.658768, 7.969499], [-65.6582059999999, 7.970630000000142], [-65.65791699999988, 7.971482], [-65.657609, 7.972633000000144], [-65.65792, 7.973569000000111], [-65.65878, 7.974201], [-65.659545, 7.974512000000175], [-65.65998699999983, 7.974919000000114], [-65.659716, 7.975336000000141], [-65.659145, 7.975755000000163], [-65.659435, 7.976853], [-65.66066399999988, 7.977502000000129], [-65.66190499999988, 7.977211], [-65.662511, 7.977823], [-65.663394, 7.978431], [-65.664479, 7.978555], [-65.6657909999999, 7.978515], [-65.666731, 7.978137], [-65.667333, 7.978335000000129], [-65.667972, 7.979749], [-65.66856799999988, 7.98137], [-65.669131, 7.982188], [-65.669803, 7.98245500000013], [-65.670462, 7.981759000000125], [-65.670892, 7.981134], [-65.67165199999988, 7.979290000000105], [-65.672175, 7.978733], [-65.673098, 7.978813], [-65.67419099999984, 7.979648], [-65.674, 7.980980000000102], [-65.673093, 7.982093], [-65.672914, 7.982554000000164], [-65.67454, 7.983542], [-65.675143, 7.983855000000176], [-65.67483, 7.984616], [-65.6729509999999, 7.985558], [-65.672829, 7.986867000000132], [-65.673393, 7.98768500000017], [-65.674423, 7.988934], [-65.674851, 7.990029000000106], [-65.675303, 7.991193000000123], [-65.675475, 7.992062], [-65.676744, 7.992207], [-65.678895, 7.99289], [-65.679754, 7.993361000000107], [-65.680341, 7.994294], [-65.679566, 7.994969], [-65.678239, 7.996051], [-65.67606, 7.996394], [-65.67367, 7.997087], [-65.673648, 7.998441000000128], [-65.673474, 7.999493000000143], [-65.67308, 8.00092700000016], [-65.672349, 8.00134], [-65.671071, 8.001551], [-65.670064, 8.001932000000181], [-65.670132, 8.003358], [-65.67115599999988, 8.004517], [-65.672131, 8.005077000000142], [-65.67311699999988, 8.006028000000128], [-65.673886, 8.005824000000132], [-65.67477, 8.004956], [-65.675666, 8.004434], [-65.67713, 8.004160000000127], [-65.677128, 8.004918000000146], [-65.676937, 8.005785000000117], [-65.677458, 8.006790000000137], [-65.67844199999985, 8.007764], [-65.679634, 8.00874400000015], [-65.680689, 8.009675], [-65.681392, 8.01075400000019], [-65.680811, 8.01154], [-65.678756, 8.012208], [-65.67757299999988, 8.01233000000019], [-65.676795, 8.0135], [-65.677049, 8.016265], [-65.677723, 8.018216000000109], [-65.679012, 8.019039], [-65.68008, 8.019602], [-65.681884, 8.020235], [-65.683388, 8.020859000000144], [-65.68461699999989, 8.022116], [-65.68522999999988, 8.023813000000132], [-65.684303, 8.024587], [-65.682944, 8.02514], [-65.681159, 8.02602400000012], [-65.68069899999989, 8.027342], [-65.68048599999986, 8.028186000000119], [-65.680818, 8.029299], [-65.6791219999999, 8.029589], [-65.677737, 8.030922], [-65.677673, 8.032827], [-65.678298, 8.034180000000106], [-65.679434, 8.036146], [-65.67890199999988, 8.037530000000174], [-65.677134, 8.040666000000101], [-65.67664999999988, 8.043384000000117], [-65.678106, 8.045453], [-65.678997, 8.046447], [-65.6812379999999, 8.047163000000182], [-65.681055, 8.048490000000186], [-65.681598, 8.049518000000148], [-65.683503, 8.049902000000145], [-65.684501, 8.051152000000172], [-65.683953, 8.052351], [-65.6830379999999, 8.054137], [-65.684094, 8.055044000000123], [-65.685334, 8.055980000000147], [-65.68552799999986, 8.057778], [-65.685479, 8.058558000000119], [-65.683626, 8.057992000000183], [-65.682716, 8.05892800000015], [-65.682474, 8.060643000000141], [-65.683258, 8.06209200000012], [-65.68340599999988, 8.063889000000131], [-65.683362, 8.065197000000182], [-65.682394, 8.066498], [-65.6817, 8.067211], [-65.680703, 8.068006], [-65.679944, 8.06929], [-65.679535, 8.070450000000108], [-65.678304, 8.071329], [-65.677856, 8.072991], [-65.677722, 8.073538], [-65.67648499999984, 8.073912], [-65.675478, 8.072914], [-65.674835, 8.074180000000183], [-65.675755, 8.075680000000148], [-65.676861, 8.076474], [-65.678688, 8.07782], [-65.680106, 8.078968], [-65.682105, 8.081377], [-65.68207399999989, 8.082295000000158], [-65.68039, 8.082217000000128], [-65.680555, 8.08282], [-65.68085899999988, 8.083404], [-65.68052299999988, 8.084450000000118], [-65.68090199999989, 8.085565], [-65.680441, 8.086905], [-65.678978, 8.087133], [-65.67731699999985, 8.087033000000133], [-65.676772, 8.088141000000178], [-65.67665199999988, 8.08965400000011], [-65.677149, 8.091370000000154], [-65.676999, 8.092399], [-65.67620199999988, 8.09343], [-65.676459, 8.094748], [-65.677351, 8.095718], [-65.678214, 8.097538000000156], [-65.67819299999985, 8.098181], [-65.67743999999988, 8.098593], [-65.67576, 8.099756000000184], [-65.67564, 8.101958000000138], [-65.675812, 8.102354], [-65.676388, 8.103108], [-65.6765319999999, 8.103641], [-65.675926, 8.103782], [-65.674638, 8.103579000000138], [-65.672683, 8.103309], [-65.67308, 8.1045620000001], [-65.673515, 8.10607], [-65.674245, 8.107058], [-65.67486899999989, 8.107745], [-65.67482299999989, 8.109122000000127], [-65.675514, 8.11128200000013], [-65.675241, 8.112536000000148], [-65.67518899999988, 8.114074], [-65.67493799999983, 8.115375], [-65.675003, 8.116181], [-65.674525, 8.116671000000167], [-65.67374399999989, 8.11722], [-65.67399299999988, 8.11874500000016], [-65.6738749999999, 8.119522000000131], [-65.67365699999988, 8.121215], [-65.674523, 8.122277000000167], [-65.676456, 8.122523000000115], [-65.676952, 8.123596], [-65.677156, 8.126474], [-65.6765309999999, 8.127901000000122], [-65.6761939999999, 8.130372], [-65.676634, 8.13243], [-65.677894, 8.134838000000116], [-65.678375, 8.136346], [-65.679502, 8.138588], [-65.680584, 8.140117], [-65.681084, 8.141052], [-65.67998399999988, 8.142165], [-65.67914599999983, 8.143723], [-65.67944399999988, 8.145180000000153], [-65.679887, 8.146458], [-65.68044399999985, 8.147073], [-65.681972, 8.14772], [-65.681424, 8.14892], [-65.680137, 8.149360000000172], [-65.678851, 8.149112], [-65.676291, 8.149626000000126], [-65.676679, 8.151155000000188], [-65.67744699999986, 8.151685000000157], [-65.67885499999983, 8.151754], [-65.679504, 8.152395000000126], [-65.68043399999982, 8.154310000000123], [-65.681427, 8.156456], [-65.682339, 8.157519], [-65.68214299999983, 8.158524], [-65.68081299999983, 8.159606], [-65.680464, 8.161065000000178], [-65.680193, 8.162251], [-65.67797, 8.163741], [-65.676147, 8.165015000000153], [-65.67585799999983, 8.166085], [-65.677716, 8.166513000000123], [-65.67845199999988, 8.167295000000138], [-65.679178, 8.168444], [-65.679391, 8.169668], [-65.678534, 8.170399], [-65.678061, 8.171417000000133], [-65.67928299999988, 8.173593], [-65.680134, 8.175803000000144], [-65.679808, 8.177286], [-65.677976, 8.177434], [-65.67683, 8.178499000000102], [-65.67535999999984, 8.178934], [-65.673534, 8.17961], [-65.672468, 8.181092], [-65.672512, 8.181828], [-65.673604, 8.183058000000187], [-65.672591, 8.18364600000018], [-65.67161599999986, 8.183752], [-65.67053, 8.183740000000114], [-65.669954, 8.184387000000186], [-65.67052399999983, 8.185302], [-65.671435, 8.185722000000169], [-65.671638, 8.186556], [-65.67071, 8.188065], [-65.670372, 8.189869000000101], [-65.669663, 8.191040000000157], [-65.668301, 8.190284000000133], [-65.667228, 8.190571], [-65.66682999999989, 8.191408], [-65.667046, 8.192565], [-65.667668, 8.19332], [-65.668586, 8.195601], [-65.669481, 8.197881], [-65.670552, 8.199731], [-65.671092, 8.201540000000136], [-65.6718, 8.203194], [-65.671733, 8.204525], [-65.670563, 8.205635], [-65.66924499999988, 8.20563900000019], [-65.667385, 8.204568], [-65.666047, 8.204501000000164], [-65.664671, 8.205537], [-65.664099, 8.206759], [-65.664655, 8.20742], [-65.66632599999986, 8.209978], [-65.666638, 8.211734000000149], [-65.66551, 8.212984], [-65.664179, 8.213378], [-65.662361, 8.215203000000145], [-65.661827, 8.215966], [-65.662166, 8.216207], [-65.663756, 8.21704], [-65.6648, 8.2190030000001], [-65.663604, 8.219516000000112], [-65.660845, 8.21905900000013], [-65.659568, 8.218535000000145], [-65.657058, 8.218247], [-65.65532599999989, 8.21888], [-65.65486999999985, 8.220772000000125], [-65.655115, 8.222434000000135], [-65.654777, 8.224261000000126], [-65.655766, 8.226476000000105], [-65.656315, 8.228056], [-65.6566739999999, 8.229767], [-65.656889, 8.23094600000013], [-65.656145, 8.23243900000017], [-65.65499799999986, 8.233574000000146], [-65.654111, 8.234510000000114], [-65.654432, 8.235968000000128], [-65.655254, 8.235604], [-65.655766, 8.236172000000124], [-65.656127, 8.237148], [-65.657433, 8.2368], [-65.65841499999988, 8.237176], [-65.65782499999989, 8.23823700000014], [-65.657016, 8.238923], [-65.657357, 8.240473], [-65.658012, 8.243711], [-65.657836, 8.244831], [-65.657323, 8.245664], [-65.656845, 8.24544200000014], [-65.65604499999989, 8.245163000000105], [-65.655005, 8.245842], [-65.654062, 8.24569600000018], [-65.65286899999984, 8.245405], [-65.6515849999999, 8.246466000000112], [-65.65183599999989, 8.247968], [-65.653758, 8.247869], [-65.65506, 8.249037], [-65.655933, 8.25060400000018], [-65.656597, 8.252877000000126], [-65.656385, 8.253674], [-65.6554139999999, 8.254355], [-65.655892, 8.255979000000139], [-65.655889, 8.258161], [-65.655358, 8.258833], [-65.653789, 8.259426], [-65.652642, 8.258470000000159], [-65.65129499999989, 8.260034], [-65.651272, 8.261412], [-65.652397, 8.263723000000141], [-65.65228699999989, 8.266338000000133], [-65.65146099999987, 8.26615], [-65.650145, 8.266085000000146], [-65.64932999999985, 8.266955], [-65.648683, 8.26833500000015], [-65.64851, 8.26934000000017], [-65.648408, 8.270348], [-65.648404, 8.271152], [-65.64816, 8.271534], [-65.64758599999988, 8.272091], [-65.646905, 8.273103000000162], [-65.64629999999988, 8.273910000000114], [-65.645605, 8.273934000000168], [-65.64481, 8.273495], [-65.643572, 8.273202], [-65.642299, 8.272540000000106], [-65.64159399999988, 8.272196], [-65.642368, 8.269762000000128], [-65.64251, 8.268296000000134], [-65.64204299999989, 8.267729], [-65.641419, 8.267043], [-65.640108, 8.266817000000174], [-65.638686, 8.26785000000018], [-65.63887099999982, 8.269235], [-65.63829, 8.270733000000178], [-65.63768, 8.272368], [-65.636774, 8.273188], [-65.63591699999984, 8.272540000000106], [-65.634597, 8.271923], [-65.633296, 8.273489], [-65.632416, 8.274908], [-65.632605, 8.276867], [-65.63317099999989, 8.277919000000168], [-65.631805, 8.277301], [-65.630307, 8.277826000000118], [-65.631409, 8.279447000000118], [-65.631947, 8.280659], [-65.630005, 8.281332000000134], [-65.630115, 8.282897000000105], [-65.630148, 8.283978], [-65.63013699999988, 8.28639], [-65.629508, 8.28722], [-65.628048, 8.288000000000125], [-65.62775099999988, 8.289276], [-65.627824, 8.290565], [-65.627238, 8.29289], [-65.62700199999983, 8.294398000000115], [-65.6271799999999, 8.296702000000153], [-65.627495, 8.298343], [-65.627642, 8.30018600000011], [-65.627601, 8.301402], [-65.627566, 8.302458000000172], [-65.62738799999988, 8.30362300000013], [-65.62734399999988, 8.3042650000001], [-65.627245, 8.304446000000155], [-65.626251, 8.303747], [-65.625235, 8.303025], [-65.625195, 8.304908], [-65.6251, 8.306375], [-65.624927, 8.308782000000122], [-65.626592, 8.309479], [-65.62763899999987, 8.309973], [-65.629563, 8.310518], [-65.630578, 8.311975000000132], [-65.630253, 8.313412], [-65.629614, 8.31454], [-65.628456, 8.315973], [-65.62817799999988, 8.317366000000163], [-65.628624, 8.31857500000018], [-65.628771, 8.319016], [-65.629157, 8.319924], [-65.62963999999988, 8.32138700000013], [-65.629736, 8.322677000000112], [-65.629107, 8.324196], [-65.627832, 8.324982], [-65.626204, 8.325251], [-65.624406, 8.325767], [-65.623144, 8.326162000000181], [-65.62165, 8.325907], [-65.62018399999988, 8.326181000000133], [-65.619063, 8.326513], [-65.61868, 8.326891000000103], [-65.618751, 8.328226], [-65.61959599999989, 8.329241], [-65.621479, 8.329509], [-65.62300999999985, 8.32986300000016], [-65.624078, 8.331340000000125], [-65.6233079999999, 8.332398000000126], [-65.622731, 8.333186000000126], [-65.621437, 8.334001], [-65.619819, 8.334807000000126], [-65.618913, 8.335793], [-65.618748, 8.337511], [-65.618491, 8.338423], [-65.618589, 8.339872000000184], [-65.618821, 8.341487], [-65.619002, 8.342456], [-65.61768299999989, 8.343293], [-65.616343, 8.34243], [-65.614681, 8.342339], [-65.614327, 8.344235], [-65.61384, 8.345922], [-65.612963, 8.34831], [-65.61188799999985, 8.349545], [-65.610327, 8.350789000000134], [-65.608874, 8.353115], [-65.60817799999984, 8.355646], [-65.608039, 8.358123], [-65.608952, 8.358538], [-65.610503, 8.359292], [-65.610846, 8.36022000000014], [-65.613238, 8.36148], [-65.614192, 8.362907], [-65.61548, 8.363999], [-65.616122, 8.365004], [-65.617089, 8.365949], [-65.618121, 8.367057], [-65.619497, 8.367461000000105], [-65.620441, 8.367602], [-65.62176399999987, 8.367408000000125], [-65.62301699999989, 8.368063000000177], [-65.624227, 8.368601], [-65.626207, 8.368907], [-65.627292, 8.368937000000187], [-65.628099, 8.369832000000144], [-65.628503, 8.371083000000112], [-65.629128, 8.372708000000102], [-65.630451, 8.373318], [-65.63204899999988, 8.37487700000014], [-65.632742, 8.3757], [-65.63250699999986, 8.376658], [-65.631481, 8.377802], [-65.63150799999988, 8.379296000000181], [-65.632055, 8.381217000000163], [-65.63112, 8.38158200000015], [-65.631395, 8.383312000000103], [-65.63250099999988, 8.384261000000151], [-65.633522, 8.384932], [-65.63616999999988, 8.38452100000012], [-65.637508, 8.384627], [-65.638483, 8.38614600000011], [-65.638181, 8.387815], [-65.637527, 8.389703000000111], [-65.637265, 8.392429], [-65.638162, 8.393418000000167], [-65.64033899999987, 8.394121], [-65.642019, 8.3952010000001], [-65.642299, 8.395943], [-65.640942, 8.397331000000122], [-65.64132599999982, 8.399293], [-65.641511, 8.401756], [-65.640727, 8.40332], [-65.639434, 8.40489300000013], [-65.63783999999987, 8.405676], [-65.63629499999985, 8.406346], [-65.635907, 8.40946], [-65.635934, 8.411780000000135], [-65.638385, 8.410951000000125], [-65.63962699999985, 8.41199500000016], [-65.641483, 8.412597], [-65.643333, 8.413382000000183], [-65.646234, 8.413828000000137], [-65.64715, 8.414978], [-65.649488, 8.414054], [-65.651691, 8.414619000000187], [-65.651226, 8.415525], [-65.65017199999988, 8.416025000000161], [-65.64993, 8.417213], [-65.65112499999987, 8.417475], [-65.65145499999988, 8.418908000000158], [-65.652897, 8.42106], [-65.654556, 8.422115000000133], [-65.656021, 8.422637000000122], [-65.658112, 8.425588], [-65.659642, 8.42625], [-65.6602529999999, 8.427552], [-65.663078, 8.42988], [-65.663266, 8.431401000000164], [-65.66399399999989, 8.432661000000166], [-65.664808, 8.432499], [-65.6663329999999, 8.430886], [-65.668509, 8.433242], [-65.668783, 8.434214], [-65.668958, 8.435390000000154], [-65.667526, 8.436155], [-65.667061, 8.4378880000001], [-65.667832, 8.439241], [-65.668437, 8.439924000000133], [-65.67048199999982, 8.442024000000174], [-65.67072, 8.443455], [-65.671257, 8.444916], [-65.672812, 8.444706], [-65.6736949999999, 8.446199], [-65.673972, 8.447057], [-65.674751, 8.448134000000152], [-65.67457599999989, 8.45026600000017], [-65.673711, 8.451414000000113], [-65.671859, 8.452305000000138], [-65.6718269999999, 8.452626], [-65.67236799999989, 8.453100000000177], [-65.673219, 8.454111000000182], [-65.673979, 8.454223000000184], [-65.67448399999984, 8.454374], [-65.674882, 8.455855], [-65.674852, 8.456911], [-65.674709, 8.458698], [-65.67467, 8.459295000000111], [-65.672918, 8.4607400000001], [-65.67227899999989, 8.462055], [-65.6723219999999, 8.462975000000142], [-65.672674, 8.463651], [-65.673242, 8.46483700000016], [-65.67390799999987, 8.465820000000122], [-65.674127, 8.4671120000001], [-65.673596, 8.467902], [-65.672677, 8.46852], [-65.670888, 8.469597], [-65.670292, 8.471074], [-65.67027999999988, 8.472314], [-65.670512, 8.473101], [-65.670689, 8.474231], [-65.672256, 8.474434], [-65.67306, 8.475467], [-65.67394699999988, 8.475996000000123], [-65.675176, 8.477522], [-65.675493, 8.478587000000118], [-65.676549, 8.479672000000164], [-65.6774989999999, 8.480433], [-65.678975, 8.481414], [-65.680047, 8.482775], [-65.679208, 8.48381], [-65.677708, 8.484550000000183], [-65.675828, 8.485602], [-65.673997, 8.487390000000175], [-65.67419099999984, 8.489578000000165], [-65.674946, 8.489851], [-65.67594299999985, 8.491393], [-65.676466, 8.491729], [-65.67693899999983, 8.492982], [-65.679536, 8.491927], [-65.680737, 8.491982000000121], [-65.680556, 8.493470000000173], [-65.68103, 8.494723], [-65.68261699999988, 8.495868000000144], [-65.68260799999985, 8.496993000000145], [-65.682199, 8.498383], [-65.682043, 8.499849], [-65.68185999999986, 8.501406], [-65.681632, 8.503789], [-65.681597, 8.505028], [-65.681637, 8.50691200000017], [-65.682001, 8.507956], [-65.683159, 8.507895000000133], [-65.684249, 8.507787], [-65.68565699999988, 8.507044], [-65.686513, 8.507847], [-65.687923, 8.507885], [-65.689094, 8.508996000000138], [-65.690221, 8.50921], [-65.691785, 8.509574000000157], [-65.69233, 8.51073700000012], [-65.69192, 8.511346], [-65.69110999999987, 8.512197000000128], [-65.691671, 8.513636000000133], [-65.692003, 8.514173], [-65.69363, 8.515526], [-65.693438, 8.516601], [-65.692737, 8.517684], [-65.692309, 8.519763000000125], [-65.692628, 8.520759000000112], [-65.69218299999983, 8.521804], [-65.69185699999986, 8.522714], [-65.69218199999983, 8.52433], [-65.69328, 8.525577000000169], [-65.694037, 8.526631000000123], [-65.695285, 8.527469], [-65.6959389999999, 8.52806100000015], [-65.696923, 8.528432000000123], [-65.698133, 8.528993000000185], [-65.699343, 8.528727], [-65.70031599999987, 8.529511], [-65.70110499999987, 8.530244], [-65.701778, 8.530997], [-65.701914, 8.531896], [-65.702287, 8.532618], [-65.703503, 8.533822], [-65.702727, 8.53511], [-65.702012, 8.535872], [-65.70130299999983, 8.538058], [-65.701213, 8.539617], [-65.701444, 8.54045], [-65.70227299999988, 8.542241000000104], [-65.703026, 8.543433000000164], [-65.704151, 8.543739], [-65.70475, 8.543824], [-65.705318, 8.545010000000104], [-65.70569199999989, 8.544882000000143], [-65.706587, 8.544286], [-65.707325, 8.545179], [-65.70748, 8.546262000000127], [-65.707639, 8.548035], [-65.70555299999984, 8.550666], [-65.705998, 8.552148], [-65.707116, 8.552683], [-65.707189, 8.554224], [-65.705527, 8.555741000000125], [-65.705493, 8.556958000000122], [-65.706254, 8.557897], [-65.706397, 8.559394], [-65.706049, 8.560257], [-65.704396, 8.562303], [-65.706092, 8.564530000000104], [-65.705049, 8.56790100000012], [-65.70584899999989, 8.569094], [-65.70713, 8.570462000000134], [-65.707793, 8.571582], [-65.707593, 8.572954], [-65.70798, 8.573998000000131], [-65.709099, 8.574511000000143], [-65.710585, 8.575951], [-65.711709, 8.57628000000011], [-65.71245, 8.577081000000135], [-65.71213399999988, 8.577647], [-65.71188599999988, 8.579064], [-65.712079, 8.581274000000121], [-65.711619, 8.5845], [-65.710184, 8.585357000000101], [-65.708586, 8.584602000000189], [-65.708927, 8.586472000000185], [-65.70942599999984, 8.58848300000011], [-65.709592, 8.590004], [-65.71036, 8.591517000000124], [-65.711358, 8.592210000000136], [-65.71256199999988, 8.593827000000147], [-65.7145, 8.59482], [-65.716196, 8.595394000000113], [-65.717896, 8.596634], [-65.718196, 8.597492000000159], [-65.71736, 8.598457], [-65.715698, 8.59914700000013], [-65.715699, 8.600801], [-65.715854, 8.602688], [-65.716248, 8.605156000000136], [-65.716424, 8.607136], [-65.71580499999988, 8.607763], [-65.715164, 8.609193], [-65.7153459999999, 8.610139000000117], [-65.714773, 8.611617], [-65.714441, 8.612734000000103], [-65.714096, 8.614333], [-65.714785, 8.61533900000012], [-65.716566, 8.61619], [-65.71738099999988, 8.617636000000118], [-65.717977, 8.618685], [-65.718991, 8.61965400000014], [-65.719262, 8.620718], [-65.718764, 8.621164], [-65.71755599999989, 8.622165], [-65.717939, 8.62337], [-65.718399, 8.623451], [-65.72009899999989, 8.623037], [-65.720736, 8.624248], [-65.721169, 8.624489000000153], [-65.722783, 8.62467], [-65.724229, 8.626776000000177], [-65.725646, 8.627411000000166], [-65.727194, 8.629152000000147], [-65.728062, 8.631219000000101], [-65.727664, 8.632219], [-65.72679999999986, 8.633344], [-65.726103, 8.63429], [-65.725565, 8.63530900000012], [-65.726485, 8.636345], [-65.727634, 8.636628], [-65.72877, 8.636520000000132], [-65.73154099999988, 8.63670900000011], [-65.731895, 8.637270000000171], [-65.73246299999988, 8.63850200000013], [-65.731112, 8.638834], [-65.730133, 8.6399100000001], [-65.73034599999988, 8.640582000000109], [-65.731458, 8.643023000000142], [-65.73192399999988, 8.644574], [-65.733417, 8.645785], [-65.734148, 8.646103], [-65.735948, 8.647116], [-65.73653799999983, 8.649175], [-65.736943, 8.6496], [-65.738197, 8.650253], [-65.739696, 8.652108], [-65.740931, 8.654276], [-65.74266299999988, 8.653542], [-65.744359, 8.653334], [-65.74653499999988, 8.654081], [-65.74887699999988, 8.654718000000173], [-65.749696, 8.656071], [-65.74961699999983, 8.657241], [-65.750646, 8.659358], [-65.752375, 8.660415000000114], [-65.75461, 8.661554], [-65.756694, 8.662322000000131], [-65.757347, 8.662982], [-65.757806, 8.663832], [-65.757979, 8.66488800000019], [-65.75828999999987, 8.665992], [-65.758835, 8.666915], [-65.75903099999988, 8.667994000000135], [-65.75853199999989, 8.669111], [-65.757737, 8.669858], [-65.756526, 8.6704170000001], [-65.755601, 8.670407000000125], [-65.755372, 8.672146000000112], [-65.755031, 8.673632000000168], [-65.754438, 8.674931000000186], [-65.753551, 8.675540000000126], [-65.752371, 8.675481], [-65.752227, 8.675915], [-65.751702, 8.677329000000157], [-65.751133, 8.678469000000177], [-65.751394, 8.679961000000162], [-65.75170399999985, 8.681225], [-65.751716, 8.682142000000113], [-65.750644, 8.684765], [-65.749851, 8.685352], [-65.749378, 8.684178], [-65.74818, 8.683706], [-65.746925, 8.684127], [-65.74657899999988, 8.686002000000144], [-65.746746, 8.687585000000183], [-65.747312, 8.688715], [-65.747644, 8.690070000000105], [-65.746523, 8.690883], [-65.745683, 8.691492000000153], [-65.744836, 8.692628000000184], [-65.743707, 8.694242000000145], [-65.744012, 8.695919000000174], [-65.74554199999989, 8.697723], [-65.745974, 8.698438], [-65.74591, 8.699905000000115], [-65.74562, 8.701025], [-65.745435, 8.703016000000105], [-65.74624, 8.703438], [-65.748134, 8.703849000000105], [-65.750147, 8.70394], [-65.752827, 8.704429000000118], [-65.754234, 8.704903000000115], [-65.754875, 8.705483000000129], [-65.754733, 8.705535000000168], [-65.754898, 8.705506], [-65.913538, 8.969466], [-65.914582, 8.972323], [-65.918128, 8.976153], [-65.91947199999987, 8.979352], [-65.923914, 8.985314], [-65.923941, 8.988735000000133], [-65.923752, 8.992586], [-65.923547, 8.9945120000001], [-65.923356, 8.998148], [-65.91921699999989, 9.002877000000183], [-65.915937, 9.005035], [-65.913318, 9.007403000000181], [-65.911363, 9.010409], [-65.910286, 9.013196], [-65.910448, 9.013236000000177], [-65.910722, 9.014806], [-65.911644, 9.016452000000186], [-65.91266, 9.01803000000018], [-65.91313799999989, 9.019875], [-65.912901, 9.021569], [-65.912388, 9.023076], [-65.911411, 9.025997000000189], [-65.912577, 9.02831300000014], [-65.91268799999989, 9.029967], [-65.911278, 9.031091000000117], [-65.90955799999989, 9.03276], [-65.90891, 9.035389000000123], [-65.90877199999989, 9.03807300000011], [-65.90879799999988, 9.040575], [-65.909593, 9.042907], [-65.91071999999986, 9.044786000000101], [-65.911076, 9.047019000000148], [-65.910911, 9.048531], [-65.91115, 9.049453], [-65.91205099999985, 9.050961000000143], [-65.912514, 9.052392], [-65.912646, 9.05414], [-65.912651, 9.056573000000128], [-65.912362, 9.058588], [-65.911329, 9.06206], [-65.913328, 9.06310400000018], [-65.914389, 9.064775], [-65.915396, 9.066858], [-65.91636, 9.068826], [-65.916831, 9.071084000000155], [-65.917039, 9.073842], [-65.917034, 9.076849], [-65.917396, 9.080138], [-65.918489, 9.082612], [-65.91922099999988, 9.084553], [-65.91854599999988, 9.08748], [-65.91915, 9.090107000000103], [-65.92125699999985, 9.091635], [-65.923041, 9.092997000000139], [-65.922235, 9.09544000000011], [-65.922239, 9.097920000000101], [-65.923141, 9.09811800000017], [-65.92383399999983, 9.099645], [-65.923645, 9.10118], [-65.923271, 9.104112000000157], [-65.923538, 9.106160000000159], [-65.92475699999989, 9.108086000000185], [-65.92554599999988, 9.109384], [-65.926622, 9.111537], [-65.928853, 9.112562000000139], [-65.930483, 9.113531], [-65.93030099999987, 9.114653000000146], [-65.929603, 9.116179000000102], [-65.928808, 9.117956], [-65.92929499999985, 9.119342000000131], [-65.930574, 9.121842], [-65.932076, 9.123498], [-65.93312999999989, 9.125558], [-65.933157, 9.12673000000018], [-65.93222, 9.128642000000127], [-65.930476, 9.13038], [-65.929195, 9.132057], [-65.928773, 9.133703], [-65.93012, 9.134942], [-65.931443, 9.136227000000133], [-65.93061, 9.137476], [-65.931299, 9.139256000000103], [-65.933053, 9.139699000000121], [-65.933794, 9.141157], [-65.934318, 9.143071], [-65.934358, 9.144794], [-65.935665, 9.147019], [-65.937782, 9.146619], [-65.940027, 9.145417], [-65.941932, 9.145289000000105], [-65.941089, 9.147157000000107], [-65.938988, 9.149325], [-65.93795199999983, 9.150249000000144], [-65.93707599999982, 9.151359000000184], [-65.936794, 9.152938], [-65.936448, 9.15419500000013], [-65.935365, 9.155186], [-65.935439, 9.156312000000185], [-65.935232, 9.157548000000133], [-65.933702, 9.157523], [-65.931979, 9.157999000000132], [-65.93025299999988, 9.15858900000012], [-65.928736, 9.159206000000154], [-65.927065, 9.159316], [-65.926081, 9.159896], [-65.926492, 9.161648], [-65.926691, 9.162092], [-65.927229, 9.16329], [-65.92792099999986, 9.164655], [-65.92795799999988, 9.164714], [-65.92796, 9.164732000000129], [-65.927992, 9.164795], [-65.927992, 9.164993], [-65.928193, 9.166637], [-65.927324, 9.167926], [-65.925569, 9.16836400000011], [-65.922496, 9.16881], [-65.920531, 9.170532], [-65.918572, 9.172896], [-65.917484, 9.1744], [-65.91750399999984, 9.176967000000161], [-65.917087, 9.179749000000129], [-65.914045, 9.18425800000017], [-65.909823, 9.187559], [-65.882782, 9.251953]]]}}]}