{"type": "FeatureCollection", "features": [{"type": "Feature", "properties": {"Pais": "Venezuela", "Estado": "Monagas", "Municipio": "Libertador"}, "geometry": {"type": "Polygon", "coordinates": [[[-62.32673337499995, 9.270708521000131], [-62.32560136099988, 9.280587797000067], [-62.32164625199994, 9.294351198000129], [-62.328108560999965, 9.297124244000088], [-62.333201827999915, 9.305353444000104], [-62.33623699899988, 9.310946586000114], [-62.33987620099998, 9.317603757000029], [-62.340976298999976, 9.328200040000013], [-62.33772917399989, 9.334354229000041], [-62.33062186899997, 9.340140420000125], [-62.32543065699997, 9.345838597000068], [-62.32310359199994, 9.353861835000089], [-62.32713082499998, 9.36268506200014], [-62.33267210599996, 9.36898221399997], [-62.343765652999934, 9.376435361000176], [-62.349012924999954, 9.382427504000077], [-62.35389615499997, 9.384763552000095], [-62.3607654839999, 9.38680156800018], [-62.36767980399992, 9.387848574000088], [-62.37079286199992, 9.389140726000107], [-62.37170516499998, 9.389519395999969], [-62.37187283199995, 9.389451658000041], [-62.382848243999945, 9.385017522000169], [-62.38642012799994, 9.383538282000188], [-62.405156347999934, 9.375778970000113], [-62.41851674299994, 9.370245971000031], [-62.459244999999896, 9.353379], [-62.459973, 9.351932], [-62.460910999999896, 9.351104], [-62.462512, 9.349517], [-62.464111999999886, 9.347861], [-62.465371, 9.347009000000185], [-62.466836, 9.345903], [-62.468139, 9.344386], [-62.470291, 9.342751000000135], [-62.471587, 9.339789], [-62.474247, 9.338795], [-62.47651599999989, 9.337894], [-62.48034699999988, 9.336988], [-62.48155999999989, 9.33620500000012], [-62.482839, 9.334687000000145], [-62.483957, 9.332964], [-62.486315, 9.331373], [-62.488101, 9.330107], [-62.489793, 9.328657], [-62.49160399999988, 9.327826000000186], [-62.494813, 9.32632500000011], [-62.496734, 9.324622], [-62.497645, 9.32292200000012], [-62.498189, 9.321384], [-62.499127, 9.320533000000182], [-62.499218, 9.32028], [-62.500834999999825, 9.316887000000122], [-62.503026, 9.316265000000158], [-62.50468199999989, 9.315350000000137], [-62.505946, 9.314646000000153], [-62.506506999999885, 9.312963], [-62.507363, 9.310795], [-62.507686, 9.30856400000016], [-62.508316, 9.306926], [-62.507448, 9.305696000000182], [-62.506943, 9.303957], [-62.506322, 9.302082], [-62.505607, 9.300116000000173], [-62.505083, 9.298697000000175], [-62.504977, 9.297413000000176], [-62.50483699999984, 9.295096000000115], [-62.504121, 9.292969], [-62.504035, 9.291431000000102], [-62.50392699999986, 9.28996300000017], [-62.504784, 9.287887000000126], [-62.506031, 9.285576], [-62.505189, 9.284622000000184], [-62.504097999999885, 9.284244000000172], [-62.502857, 9.282881], [-62.502034, 9.281605000000127], [-62.50130699999988, 9.280603], [-62.501751, 9.27883], [-62.5029, 9.278151], [-62.504603, 9.277327], [-62.507424, 9.277271], [-62.508668999999884, 9.27698], [-62.509167999999875, 9.27601], [-62.509371, 9.275503], [-62.509352, 9.273781], [-62.509519, 9.272057], [-62.50945699999983, 9.270611], [-62.510069, 9.269410000000107], [-62.51007, 9.267298000000153], [-62.509759, 9.266291000000138], [-62.509406, 9.263609], [-62.510999, 9.26336], [-62.512739, 9.263868], [-62.514708, 9.264120000000105], [-62.515568, 9.266681], [-62.516849, 9.267562000000112], [-62.519618, 9.271317000000124], [-62.519655, 9.272626], [-62.521019, 9.272449], [-62.522188, 9.271447], [-62.524028, 9.270484000000124], [-62.525858, 9.27083000000016], [-62.526762, 9.271003], [-62.527348, 9.271685], [-62.52774799999986, 9.272346], [-62.529669999999896, 9.272553], [-62.531661, 9.272781000000123], [-62.533567, 9.273700000000133], [-62.53595499999989, 9.274223], [-62.537349, 9.274826], [-62.538257, 9.275366000000133], [-62.53935799999982, 9.274504], [-62.539806, 9.273144000000116], [-62.54015699999985, 9.2713940000001], [-62.540583, 9.270081000000175], [-62.540677, 9.268105000000105], [-62.54007, 9.267560000000117], [-62.539737999999886, 9.26676], [-62.5394179999999, 9.26499600000011], [-62.539149, 9.263576], [-62.538855, 9.262064000000123], [-62.53989899999982, 9.258056000000181], [-62.539997, 9.256448], [-62.54074999999989, 9.255452], [-62.54128999999989, 9.254022], [-62.54336999999987, 9.253928], [-62.545223, 9.254135000000133], [-62.547028999999895, 9.254321], [-62.547906999999896, 9.254172000000153], [-62.548269, 9.253433], [-62.548606, 9.252557], [-62.54885, 9.251567], [-62.5494149999999, 9.250320000000102], [-62.549767, 9.248663000000136], [-62.549863, 9.246802000000173], [-62.550537, 9.245048000000168], [-62.551721, 9.243289000000118], [-62.551338, 9.242077], [-62.550853, 9.239993], [-62.549595, 9.239113], [-62.54871, 9.238504000000148], [-62.547174, 9.237672], [-62.54615099999984, 9.237088], [-62.545494, 9.236223], [-62.545301, 9.235559], [-62.54482399999989, 9.234233], [-62.544757, 9.23226000000011], [-62.54536599999989, 9.230851], [-62.546258, 9.229807000000164], [-62.546685, 9.228723000000173], [-62.547205, 9.227545], [-62.54739699999982, 9.226074], [-62.54710399999982, 9.224677], [-62.546601, 9.223098000000164], [-62.546614, 9.222134], [-62.54615, 9.21982], [-62.545464, 9.218405000000189], [-62.5442809999999, 9.218075], [-62.542917, 9.218160000000182], [-62.54265699999985, 9.217566], [-62.54186, 9.216565000000173], [-62.541552, 9.21588], [-62.541008, 9.214738000000182], [-62.540179, 9.212912], [-62.53925, 9.212555], [-62.541415, 9.21177200000011], [-62.542754, 9.211503], [-62.542702, 9.210999], [-62.542137, 9.210087000000101], [-62.541678, 9.20821], [-62.54267, 9.208060000000103], [-62.54348899999985, 9.208946], [-62.544232, 9.209212], [-62.545084, 9.208904000000132], [-62.54581799999988, 9.208275000000128], [-62.54615799999988, 9.207674000000111], [-62.547338, 9.20777500000014], [-62.548017, 9.208501000000183], [-62.548648, 9.209091000000114], [-62.550043, 9.209786], [-62.55157899999989, 9.210686000000123], [-62.553669, 9.211487000000147], [-62.554926, 9.212253], [-62.556261, 9.211709], [-62.556966, 9.210553000000118], [-62.556765, 9.209108000000128], [-62.55764, 9.208799000000113], [-62.558422, 9.210535], [-62.558575, 9.211819], [-62.55985699999985, 9.21281400000015], [-62.560792, 9.21374400000019], [-62.561528999999894, 9.213460000000111], [-62.561634, 9.212494000000163], [-62.561669, 9.211392000000103], [-62.562384, 9.21124500000019], [-62.563979999999844, 9.211295], [-62.565457, 9.211002000000121], [-62.566586, 9.210644], [-62.567156999999895, 9.209994], [-62.568214, 9.209338000000116], [-62.568758, 9.208299000000125], [-62.569256, 9.207305000000133], [-62.57016, 9.207478], [-62.57076, 9.207356000000118], [-62.570963, 9.206895000000145], [-62.57035499999989, 9.206213], [-62.569701, 9.205762], [-62.569396, 9.205306000000121], [-62.569149999999865, 9.20395400000018], [-62.569714, 9.202685000000145], [-62.57039399999985, 9.201391], [-62.571517, 9.200344], [-62.57310599999988, 9.199728000000107], [-62.57481499999989, 9.199593000000107], [-62.57602899999989, 9.200657], [-62.576849, 9.201589], [-62.5781429999999, 9.201504000000114], [-62.578656, 9.201911], [-62.579243, 9.202708], [-62.579922, 9.203549], [-62.580339, 9.203567000000135], [-62.581217, 9.203557], [-62.582073, 9.203592], [-62.583578, 9.203758000000107], [-62.584916, 9.203443000000163], [-62.585949, 9.202765], [-62.5873959999999, 9.203964], [-62.588398, 9.204664], [-62.589198, 9.203805000000102], [-62.589067, 9.202406000000167], [-62.588896, 9.201627], [-62.58909899999986, 9.201119], [-62.58916, 9.200383000000102], [-62.590005, 9.19934000000012], [-62.591082, 9.198431], [-62.591396, 9.197555], [-62.592550999999844, 9.197495], [-62.593369, 9.19822], [-62.593854, 9.198122], [-62.594169, 9.197315000000117], [-62.594439, 9.196623], [-62.594912, 9.195469000000116], [-62.59584899999987, 9.194493], [-62.596664, 9.195012000000133], [-62.59644, 9.195634], [-62.596148, 9.196395], [-62.595621, 9.196884000000125], [-62.595629, 9.197619], [-62.596233, 9.19791000000015], [-62.59704099999982, 9.197762000000125], [-62.59759099999985, 9.197296000000108], [-62.5985629999999, 9.197399000000132], [-62.599423999999885, 9.197871], [-62.60005199999989, 9.198162], [-62.601555, 9.198167], [-62.60283, 9.198473], [-62.603739, 9.199151000000143], [-62.604649, 9.199943000000133], [-62.606231, 9.20082], [-62.60784299999989, 9.20018], [-62.608136999999886, 9.199557], [-62.60831, 9.198452], [-62.609288999999876, 9.197086000000184], [-62.611094, 9.197225000000117], [-62.612435, 9.19720800000016], [-62.612685, 9.196815000000129], [-62.612563, 9.196197000000154], [-62.612276, 9.195328000000188], [-62.6121, 9.194021], [-62.61255199999988, 9.193120000000135], [-62.613694, 9.19391000000013], [-62.614603, 9.194565000000125], [-62.61520999999988, 9.19497], [-62.615693, 9.194758], [-62.615894, 9.194113], [-62.616279, 9.193396], [-62.617225, 9.193201], [-62.618380999999886, 9.193187000000137], [-62.61937299999988, 9.192922], [-62.6202, 9.19243], [-62.621351, 9.192026], [-62.622068, 9.192017], [-62.622012, 9.193189000000132], [-62.620864, 9.194006], [-62.621111, 9.19540400000011], [-62.621992, 9.195600000000127], [-62.62362799999988, 9.195144], [-62.62412399999988, 9.19610200000011], [-62.624181, 9.196997], [-62.62344999999988, 9.197878000000173], [-62.622696, 9.198714], [-62.623608, 9.199644], [-62.62628699999988, 9.199359000000129], [-62.627802, 9.200374], [-62.628545, 9.20066300000019], [-62.62990999999988, 9.200716000000114], [-62.63190699999984, 9.201518], [-62.63328899999988, 9.203085], [-62.635481, 9.204827], [-62.63649, 9.20600800000011], [-62.637561, 9.206753000000106], [-62.638764, 9.206738000000144], [-62.640379, 9.206443], [-62.64225, 9.206213], [-62.64348699999988, 9.207278], [-62.643595, 9.208723], [-62.643334, 9.210219], [-62.64382799999987, 9.210948000000144], [-62.64513, 9.211621], [-62.646335, 9.211790000000178], [-62.64802, 9.211586000000125], [-62.649433, 9.211752], [-62.649373, 9.212579], [-62.647969, 9.213171], [-62.648557, 9.21412800000013], [-62.649561, 9.214988], [-62.649974, 9.214685], [-62.65024199999988, 9.213832], [-62.651191, 9.213889000000108], [-62.651548, 9.214803], [-62.652758, 9.215523000000132], [-62.654128, 9.216057], [-62.655685, 9.216727000000105], [-62.657046, 9.216343000000109], [-62.659004, 9.215653], [-62.660181, 9.21545500000019], [-62.661711, 9.215781000000163], [-62.66186199999987, 9.216881], [-62.661414, 9.218195], [-62.660805, 9.219557000000123], [-62.66111299999989, 9.220242], [-62.66284999999988, 9.220474000000138], [-62.663015, 9.220793], [-62.663091, 9.2214120000001], [-62.663079, 9.222400000000164], [-62.662884, 9.223573], [-62.662576, 9.225], [-62.663281, 9.225979000000166], [-62.663659, 9.22673200000014], [-62.663181, 9.227404], [-62.663324, 9.227815], [-62.66414499999985, 9.228862000000163], [-62.66464399999984, 9.23002600000018], [-62.66572499999984, 9.231574], [-62.66631899999987, 9.233083], [-62.66614699999985, 9.23418700000019], [-62.664994, 9.234568], [-62.663095, 9.234316], [-62.662357, 9.234509], [-62.662435, 9.235289], [-62.663573, 9.235665], [-62.665266, 9.236080000000129], [-62.66684999999984, 9.237117000000126], [-62.66856899999988, 9.237808000000143], [-62.6699789999999, 9.237814], [-62.671216, 9.236673], [-62.671132, 9.235411], [-62.67223399999989, 9.234686], [-62.673672, 9.235013000000151], [-62.674493, 9.236105], [-62.673925999999824, 9.237099], [-62.673897999999895, 9.238776], [-62.674694, 9.239661000000126], [-62.675586, 9.238732], [-62.676986, 9.237681000000123], [-62.677642999999875, 9.236433], [-62.678329, 9.235782], [-62.67905399999984, 9.236439000000189], [-62.678698, 9.237729000000172], [-62.678361, 9.238629], [-62.678988, 9.238851], [-62.679841, 9.238588], [-62.680906, 9.238689], [-62.681938999999886, 9.238011], [-62.68293599999987, 9.238228], [-62.683188, 9.240154], [-62.683321, 9.241736], [-62.684113, 9.242209000000116], [-62.685355, 9.241574000000128], [-62.686733, 9.240753], [-62.687659, 9.240787], [-62.687601, 9.243934], [-62.687087, 9.24557], [-62.687935, 9.246892000000173], [-62.688785, 9.246399], [-62.689098999999885, 9.245500000000106], [-62.690784, 9.245249000000115], [-62.692174, 9.245485], [-62.694733, 9.244741], [-62.694908, 9.243866], [-62.696582, 9.24256], [-62.69654799999989, 9.241550000000132], [-62.69796399999984, 9.241992], [-62.698091, 9.242978000000164], [-62.699171, 9.244457000000125], [-62.700349, 9.244304], [-62.701735, 9.244195000000104], [-62.702764999999886, 9.243241], [-62.703629, 9.241922000000159], [-62.704396, 9.240144000000157], [-62.704907, 9.240345], [-62.705149, 9.24130600000018], [-62.706245, 9.242096000000174], [-62.707571, 9.242791000000125], [-62.708447, 9.242574000000104], [-62.709415, 9.242309], [-62.710197, 9.241909], [-62.710744, 9.241191], [-62.711545999999885, 9.240538], [-62.712457, 9.239287000000104], [-62.713767, 9.238536000000124], [-62.714867, 9.237603], [-62.71633299999985, 9.23639100000014], [-62.717403, 9.234886000000131], [-62.718653, 9.234985000000165], [-62.71942299999989, 9.235572], [-62.72015, 9.236459], [-62.721767, 9.236255], [-62.72319, 9.23525], [-62.72466999999989, 9.235254], [-62.725649, 9.235977000000162], [-62.72565899999984, 9.236781], [-62.726685, 9.237571], [-62.728148, 9.238081], [-62.72924399999988, 9.238940000000184], [-62.729785999999876, 9.239783000000102], [-62.730426, 9.241245000000106], [-62.730578999999864, 9.242437000000166], [-62.729851, 9.243525], [-62.730485, 9.244435], [-62.731281, 9.245275000000106], [-62.731892, 9.246163], [-62.73329299999989, 9.247294], [-62.73407, 9.248547000000144], [-62.7351579999999, 9.248625], [-62.736442, 9.247645], [-62.737473, 9.246759000000168], [-62.73885799999982, 9.246535000000108], [-62.740066, 9.247025000000178], [-62.741175, 9.246966], [-62.742514, 9.24665], [-62.744083, 9.246286000000111], [-62.744859, 9.245358], [-62.746453, 9.245224000000178], [-62.748486, 9.245083], [-62.749582, 9.243830000000116], [-62.750036, 9.24302], [-62.750465, 9.242096000000174], [-62.751796, 9.241253], [-62.752648, 9.240898000000186], [-62.753384, 9.240499], [-62.754583, 9.240231], [-62.75522699999988, 9.239924], [-62.756471, 9.239496], [-62.757596, 9.238747], [-62.758949, 9.237765000000138], [-62.76065299999988, 9.23707800000011], [-62.763054, 9.236749], [-62.76480899999984, 9.236406000000102], [-62.766278999999884, 9.235538], [-62.767516999999884, 9.234558000000163], [-62.768248, 9.233768000000168], [-62.768326, 9.232458000000122], [-62.76856, 9.230663000000106], [-62.768379, 9.229036000000121], [-62.76924, 9.22748600000017], [-62.7705279999999, 9.226873], [-62.770983999999885, 9.226293], [-62.771366, 9.225255000000118], [-62.771587, 9.224357], [-62.77162, 9.223186000000169], [-62.772927, 9.222205], [-62.7729819999999, 9.220918], [-62.773614, 9.219601], [-62.775339, 9.218799000000104], [-62.77733, 9.218981], [-62.77884099999983, 9.219628000000114], [-62.780535, 9.218137], [-62.780463, 9.215887], [-62.7799399999999, 9.214631], [-62.7796469999999, 9.213257], [-62.77955899999989, 9.211605000000134], [-62.77975, 9.21011], [-62.779970999999875, 9.209258], [-62.780889999999886, 9.208718], [-62.781878, 9.208155000000147], [-62.783159, 9.206898], [-62.784842, 9.206441], [-62.785399, 9.206618000000162], [-62.786079, 9.207459], [-62.787112, 9.206826000000149], [-62.78761, 9.205878], [-62.788247, 9.204905000000167], [-62.789229, 9.20386], [-62.790025, 9.202633000000105], [-62.791601, 9.200868], [-62.792533, 9.199478], [-62.793235, 9.198207], [-62.793937, 9.196911], [-62.794274, 9.19605700000011], [-62.795143, 9.195197000000178], [-62.79571, 9.194248000000186], [-62.79616, 9.193094], [-62.796535, 9.191505], [-62.796816, 9.189825000000155], [-62.796737, 9.188931], [-62.796488, 9.187442000000146], [-62.796305, 9.185538000000179], [-62.796057, 9.184118000000126], [-62.7957669999999, 9.182996000000173], [-62.794967, 9.181789000000151], [-62.794244, 9.1812240000001], [-62.793743, 9.179945000000146], [-62.794532, 9.178144], [-62.794469999999876, 9.176721], [-62.794705, 9.175019], [-62.79475699999989, 9.17354900000015], [-62.794169, 9.172661], [-62.793463, 9.171545], [-62.792601, 9.17105000000015], [-62.791850999999895, 9.170233], [-62.791191, 9.169093], [-62.790414, 9.167863], [-62.79122299999989, 9.165832], [-62.792583, 9.165517], [-62.792854, 9.164939], [-62.792987, 9.164455000000146], [-62.792304999999885, 9.163431000000173], [-62.791841, 9.163253000000168], [-62.79213599999986, 9.162767], [-62.79225, 9.162651], [-62.792692, 9.1609], [-62.793493, 9.160109], [-62.793942, 9.158886000000166], [-62.793979, 9.158082], [-62.793532, 9.157444], [-62.7931329999999, 9.156944], [-62.79234099999985, 9.156449000000123], [-62.791654, 9.156986000000131], [-62.790952, 9.158349000000158], [-62.79009799999989, 9.158406], [-62.790294, 9.157370000000128], [-62.790914, 9.15502], [-62.79146, 9.154210000000148], [-62.792119, 9.153237000000104], [-62.792865, 9.151712], [-62.793548, 9.150762000000157], [-62.794155, 9.149239], [-62.794741, 9.147946], [-62.79545, 9.147179000000165], [-62.79662599999983, 9.146889000000158], [-62.797398, 9.147706], [-62.798654, 9.148333], [-62.798739, 9.147689], [-62.798613, 9.14681800000011], [-62.798163, 9.145813], [-62.798546, 9.144936], [-62.80038899999988, 9.144407000000115], [-62.800908, 9.143321000000185], [-62.801935, 9.142115], [-62.803155, 9.141617], [-62.804676, 9.141207], [-62.805474, 9.140187], [-62.805734, 9.138691], [-62.806162, 9.137698000000114], [-62.806678, 9.13633700000014], [-62.80609099999987, 9.1355870000001], [-62.804648, 9.134732], [-62.804776, 9.133812000000148], [-62.80533899999989, 9.132451000000117], [-62.805973, 9.131317], [-62.806564, 9.130414], [-62.80623, 9.129523000000177], [-62.804985, 9.129814], [-62.804369, 9.128536], [-62.803766, 9.128406], [-62.803753, 9.127189000000158], [-62.803216, 9.126737], [-62.802383, 9.126748], [-62.802491, 9.126034000000175], [-62.802597, 9.12522900000016], [-62.802495, 9.124358], [-62.80241, 9.123049], [-62.8027, 9.122081], [-62.802777, 9.120749], [-62.803018, 9.119575], [-62.801866, 9.117913], [-62.80091, 9.11719], [-62.80059499999987, 9.115931], [-62.799913, 9.114953], [-62.798767, 9.113727], [-62.798289, 9.112516], [-62.797721, 9.111307], [-62.797204, 9.110555], [-62.796594, 9.109782000000166], [-62.796583999999825, 9.108933], [-62.79617599999989, 9.107629], [-62.796554, 9.106316000000106], [-62.796453, 9.105605], [-62.797154, 9.104219000000114], [-62.797328, 9.10320600000017], [-62.796342999999865, 9.102002], [-62.795737, 9.101619000000142], [-62.794832, 9.101286], [-62.793699, 9.101277], [-62.792743, 9.100532], [-62.792752, 9.099338], [-62.793163, 9.098827], [-62.793151, 9.097794], [-62.79283999999984, 9.096857000000114], [-62.792344, 9.095990000000143], [-62.791831, 9.095583], [-62.791872, 9.095170000000167], [-62.791861, 9.094205], [-62.79101999999989, 9.093435000000113], [-62.791035, 9.092655], [-62.791365, 9.09118100000012], [-62.791242, 9.090585], [-62.791399, 9.090170000000171], [-62.79196999999988, 9.089566000000104], [-62.791174999999896, 9.088749000000178], [-62.791193, 9.088267], [-62.791568, 9.086724000000117], [-62.790688, 9.08662], [-62.790062, 9.086421], [-62.78942399999988, 9.08525800000018], [-62.788853, 9.083795], [-62.787925, 9.083485], [-62.787475, 9.082549], [-62.787673, 9.081720000000189], [-62.787037, 9.08060300000011], [-62.78603, 9.079491000000132], [-62.785033, 9.079205000000115], [-62.784176999999886, 9.079193], [-62.783293, 9.078722], [-62.78163299999983, 9.079041000000188], [-62.780795, 9.078593], [-62.780389, 9.077427], [-62.77975, 9.076172000000156], [-62.778604, 9.07503800000012], [-62.777712, 9.073855], [-62.77693499999987, 9.072556], [-62.776248, 9.071118000000126], [-62.776396, 9.0699], [-62.77656599999989, 9.068635], [-62.777275, 9.067937], [-62.777097, 9.066515], [-62.777148999999895, 9.064999000000114], [-62.777293, 9.063459], [-62.777186, 9.06212900000014], [-62.777038, 9.061350000000175], [-62.776589, 9.060437], [-62.77647899999988, 9.058877000000166], [-62.7761, 9.05814700000019], [-62.775838, 9.057461000000103], [-62.775834, 9.057071000000121], [-62.775965, 9.056381], [-62.77616, 9.05523], [-62.776081, 9.054427], [-62.776444, 9.053826], [-62.776576, 9.053181000000166], [-62.77687, 9.052649], [-62.77739799999989, 9.052344000000176], [-62.777548, 9.051286], [-62.777629, 9.050275], [-62.777589, 9.048829000000126], [-62.777094, 9.04794], [-62.776992, 9.047091], [-62.776339, 9.046617], [-62.77634399999988, 9.045010000000161], [-62.776104, 9.044254000000137], [-62.77484799999985, 9.043535000000134], [-62.77426, 9.042647], [-62.773423, 9.042198], [-62.77222899999987, 9.040882], [-62.772826, 9.040576000000101], [-62.77345, 9.040499000000125], [-62.773716, 9.039577], [-62.77384499999988, 9.038703], [-62.773948, 9.0376], [-62.773632, 9.036226], [-62.773121, 9.035957], [-62.773041, 9.035016000000155], [-62.7730279999999, 9.033891000000153], [-62.773408, 9.032784], [-62.773924, 9.0314], [-62.774504, 9.029579], [-62.77519199999989, 9.029088000000115], [-62.77559699999989, 9.028142000000173], [-62.774712, 9.027533], [-62.77549, 9.026857], [-62.775617, 9.025822], [-62.7751439999999, 9.024864], [-62.774246, 9.023176], [-62.773755, 9.022608], [-62.774249, 9.021385000000123], [-62.775122, 9.020892], [-62.775684999999896, 9.019645], [-62.775506, 9.018063], [-62.775094, 9.016437000000167], [-62.7744009999999, 9.016446], [-62.774535, 9.016031000000169], [-62.774567, 9.014745000000175], [-62.7751889999999, 9.014622], [-62.77534699999984, 9.014276], [-62.77504, 9.013683], [-62.77451699999989, 9.012426000000119], [-62.774744, 9.012033000000145], [-62.77472799999987, 9.010656], [-62.775233, 9.010374000000184], [-62.775314, 9.009317000000124], [-62.774985, 9.008839], [-62.775182, 9.00794100000013], [-62.775197, 9.007229], [-62.775698, 9.006509000000108], [-62.776899, 9.006494000000146], [-62.776676, 9.005142], [-62.777147, 9.003919], [-62.776875, 9.002361000000121], [-62.776159, 9.002325000000155], [-62.776336, 9.001702000000137], [-62.776981, 9.001442000000111], [-62.77692999999988, 9.00105200000013], [-62.776217, 9.001382], [-62.775751, 9.001044], [-62.77631799999989, 9.000095], [-62.777011, 9.000064000000123], [-62.77735299999989, 8.999646], [-62.77755399999984, 8.999024], [-62.777936999999895, 8.998192000000131], [-62.77839399999988, 8.997727], [-62.778736, 8.997309], [-62.778709, 8.996965], [-62.778041, 8.99715700000013], [-62.777919, 8.996562], [-62.77877299999989, 8.994866000000115], [-62.77964999999989, 8.993621000000132], [-62.780897, 8.992362], [-62.780798, 8.992206], [-62.781034, 8.991144000000133], [-62.782298, 8.990319000000113], [-62.782682, 8.989481], [-62.783443, 8.98881200000011], [-62.783786, 8.988708], [-62.78442, 8.988937], [-62.784899, 8.98876], [-62.786495, 8.987557], [-62.787237, 8.986408000000154], [-62.787817, 8.985265], [-62.787994, 8.984457], [-62.787674, 8.982775000000117], [-62.787981, 8.98232800000011], [-62.78917, 8.98077400000011], [-62.78918, 8.979263000000174], [-62.789522, 8.978518000000122], [-62.79034099999984, 8.977549], [-62.791281, 8.976141], [-62.791866, 8.975112], [-62.79235099999988, 8.9745], [-62.792629, 8.973917000000142], [-62.792446, 8.972779000000116], [-62.792405, 8.9717270000001], [-62.793654, 8.971728], [-62.79392199999984, 8.970275], [-62.794664, 8.968553], [-62.795244, 8.967983000000117], [-62.796406, 8.966933], [-62.796444, 8.965535000000102], [-62.796482, 8.963542], [-62.796383999999875, 8.96221700000018], [-62.795906, 8.960632000000146], [-62.796202, 8.959339000000114], [-62.796159, 8.958219000000156], [-62.795832, 8.956972000000178], [-62.795864, 8.955413000000135], [-62.79595, 8.953464000000167], [-62.79632, 8.95226], [-62.796613, 8.950876000000108], [-62.797268, 8.950486000000183], [-62.798419, 8.950329000000124], [-62.798946, 8.9496], [-62.79854, 8.948081000000116], [-62.798709, 8.947068000000172], [-62.799282, 8.946337], [-62.799312, 8.945924000000161], [-62.79908, 8.945314000000167], [-62.799822, 8.944760000000144], [-62.800934, 8.944216], [-62.800589999999886, 8.943107000000168], [-62.800404, 8.941877], [-62.800572, 8.940269000000171], [-62.800986, 8.939017000000149], [-62.802783, 8.938219], [-62.804046999999855, 8.937417], [-62.804053999999894, 8.935815], [-62.804218999999875, 8.934708000000114], [-62.80401099999989, 8.933525000000145], [-62.804751999999894, 8.932354], [-62.805872, 8.931397], [-62.806417999999894, 8.930576], [-62.805364, 8.930248], [-62.804446, 8.929846], [-62.804693, 8.929059000000109], [-62.804657, 8.928144], [-62.805733, 8.927853000000141], [-62.805851, 8.926132], [-62.806327, 8.924100000000124], [-62.806355, 8.921855000000164], [-62.807441, 8.92122], [-62.80870899999985, 8.919915], [-62.808355, 8.916173], [-62.809498999999846, 8.914666], [-62.81007, 8.912699], [-62.810933, 8.911683], [-62.81213699999989, 8.91054], [-62.81276, 8.909304000000134], [-62.813074, 8.908445000000142], [-62.814522, 8.907614000000137], [-62.815488, 8.90627400000011], [-62.816947, 8.904549], [-62.817217, 8.90257], [-62.817672, 8.901180000000124], [-62.81816, 8.898872000000154], [-62.818537999999876, 8.896706000000165], [-62.819859, 8.894368000000156], [-62.82170999999988, 8.892583], [-62.82316999999989, 8.891477], [-62.82412399999987, 8.890435], [-62.825769, 8.889894], [-62.828349, 8.889021], [-62.829977, 8.888642000000118], [-62.831476, 8.887328000000139], [-62.83251, 8.886557], [-62.833882, 8.885545], [-62.835189, 8.883483000000126], [-62.83562099999989, 8.881521], [-62.836511, 8.880023], [-62.837248, 8.878737], [-62.838745, 8.877973], [-62.839469, 8.877557], [-62.84113, 8.87626], [-62.84602599999988, 8.868938000000185], [-62.847012, 8.8681], [-62.847435, 8.866504], [-62.848582, 8.865661000000102], [-62.849473, 8.86537600000014], [-62.850711, 8.864507000000174], [-62.85097799999983, 8.86365000000012], [-62.851487, 8.863059], [-62.85248099999984, 8.863023000000112], [-62.853223, 8.863064000000179], [-62.854324, 8.862818], [-62.856531, 8.860700000000122], [-62.857343, 8.85959400000013], [-62.858568999999875, 8.858999], [-62.859428, 8.85729700000013], [-62.860298, 8.85646400000013], [-62.861538, 8.854472000000158], [-62.862631, 8.853425], [-62.863777, 8.853154000000188], [-62.864886, 8.851945000000114], [-62.865017, 8.851162], [-62.865748, 8.850334], [-62.866729, 8.849382000000162], [-62.868247, 8.847953], [-62.869265, 8.84677100000016], [-62.870201, 8.845271], [-62.869947, 8.842923], [-62.87065199999989, 8.841454], [-62.871426, 8.840533], [-62.872199, 8.839017000000183], [-62.87338, 8.838447], [-62.874023, 8.838332], [-62.874943, 8.837016000000176], [-62.875546, 8.835276], [-62.87668799999989, 8.834319000000164], [-62.877497, 8.832525], [-62.878116, 8.831816000000174], [-62.878251, 8.830529], [-62.878929, 8.829542000000117], [-62.880263, 8.828738], [-62.880779, 8.82833], [-62.88105099999984, 8.826419], [-62.882482, 8.825153], [-62.883523, 8.823993], [-62.884579, 8.823199], [-62.886184, 8.82282000000015], [-62.887473999999884, 8.822704000000101], [-62.887651, 8.821896], [-62.88834999999989, 8.82084], [-62.888965, 8.819421], [-62.889733, 8.81895800000018], [-62.890951, 8.818157000000156], [-62.892404, 8.817463], [-62.893764, 8.816131], [-62.894934, 8.815310000000125], [-62.89542199999988, 8.814193], [-62.894492, 8.814066], [-62.894429999999886, 8.813061], [-62.895163, 8.812897000000135], [-62.896286, 8.812032000000158], [-62.89704299999988, 8.812462], [-62.898109, 8.811919], [-62.899284, 8.811212000000182], [-62.900282, 8.81129], [-62.901066, 8.811238000000174], [-62.901162, 8.810158000000172], [-62.902391, 8.80903700000016], [-62.90338899999989, 8.807375], [-62.904319, 8.807478000000117], [-62.904781, 8.807484000000102], [-62.90532799999983, 8.807258], [-62.905808, 8.805935], [-62.906727, 8.804619000000173], [-62.908287, 8.804287], [-62.908702, 8.804845], [-62.909286999999836, 8.805006], [-62.909915999999896, 8.804525], [-62.91058, 8.804364], [-62.911466, 8.80394200000012], [-62.910932, 8.803320000000156], [-62.911366, 8.801999], [-62.912238, 8.801235000000133], [-62.912512, 8.800537000000134], [-62.913645, 8.799946], [-62.91357, 8.798620000000142], [-62.9142609999999, 8.797977], [-62.914828999999884, 8.796536000000174], [-62.916076, 8.795895], [-62.916551, 8.796198000000118], [-62.917109, 8.795079], [-62.9174569999999, 8.793921000000182], [-62.91882, 8.792704000000185], [-62.919991, 8.792500000000189], [-62.920827, 8.791989], [-62.92163, 8.790631], [-62.92237599999987, 8.789619], [-62.923318, 8.788875000000132], [-62.923995999999875, 8.789056000000187], [-62.926069, 8.785889000000111], [-62.92662699999988, 8.785388], [-62.927812, 8.784337000000164], [-62.928878, 8.78379400000017], [-62.929043, 8.782712000000174], [-62.929876, 8.781536], [-62.930894, 8.780949000000135], [-62.931902, 8.779538000000116], [-62.932343, 8.778996], [-62.932649, 8.777954000000136], [-62.93340199999983, 8.777102000000184], [-62.933414000999846, 8.776974998000128], [-62.93357, 8.77703700000012], [-62.934923, 8.7760320000001], [-62.93749799999989, 8.77422700000011], [-62.937436, 8.773244000000147], [-62.937365999999884, 8.772056], [-62.93819, 8.771225], [-62.93904, 8.769911], [-62.939947, 8.769466], [-62.941144, 8.768712000000164], [-62.942301, 8.76812], [-62.943627, 8.767728], [-62.944666, 8.765925000000152], [-62.945267, 8.764736], [-62.946557, 8.764024], [-62.947865, 8.762579], [-62.94918599999983, 8.761477000000184], [-62.949076, 8.760451], [-62.950361, 8.75903], [-62.950964, 8.757886], [-62.951595, 8.756306], [-62.951682, 8.75557], [-62.95264, 8.75580900000017], [-62.952937, 8.75396700000016], [-62.954169, 8.753532], [-62.95510599999989, 8.755009], [-62.956139, 8.75481], [-62.956881, 8.754852], [-62.9577, 8.753356], [-62.95881899999989, 8.752399], [-62.959413, 8.751622000000111], [-62.958671, 8.750985000000185], [-62.95936099999989, 8.750296], [-62.960682, 8.749789], [-62.96179, 8.750321], [-62.962453, 8.750136000000111], [-62.963078, 8.749563], [-62.96331299999986, 8.748478], [-62.964213, 8.747850000000142], [-62.965164, 8.746739], [-62.966705, 8.746499], [-62.967528, 8.746263000000113], [-62.968133, 8.745164000000102], [-62.969093, 8.744877], [-62.970341, 8.744877], [-62.971109999999896, 8.744436], [-62.97146999999984, 8.744766], [-62.972361, 8.743886], [-62.97289599999988, 8.743981], [-62.973799, 8.743421000000126], [-62.975234, 8.743437], [-62.97651, 8.743550000000141], [-62.977563, 8.743259], [-62.978602, 8.74322100000012], [-62.979754, 8.743110000000172], [-62.980840999999884, 8.741948], [-62.98175899999984, 8.743517], [-62.982617, 8.743004], [-62.984922, 8.742209], [-62.985822, 8.742748], [-62.98642561699995, 8.744046721000132], [-62.986429, 8.74405400000012], [-62.987872, 8.74368], [-62.98903999999982, 8.74398], [-62.99154, 8.744026], [-62.993269, 8.744488000000104], [-62.995046999999886, 8.74499500000013], [-62.996239307999986, 8.745339588000093], [-62.996521, 8.745421], [-62.99804399999988, 8.745915], [-62.99905399999989, 8.746312], [-63.000949, 8.746265], [-63.002296999999885, 8.746444000000167], [-63.00234399999988, 8.746465000000114], [-63.00308542999994, 8.750889341000175], [-63.00339155599994, 8.751777878000041], [-63.00405508999995, 8.7517324210001], [-63.005370149999976, 8.751904414000023], [-63.00750624199998, 8.751173387000051], [-63.00923432099995, 8.751227386000153], [-63.01084739699991, 8.751373374000138], [-63.01172042799993, 8.751067367000132], [-63.01252546299986, 8.750945361000163], [-63.013198504999934, 8.751559376000102], [-63.014168543999915, 8.75184937600011], [-63.01543860899994, 8.752182383000047], [-63.015782624999986, 8.752041376000022], [-63.016775664999955, 8.75233137600003], [-63.01757970599988, 8.752094370000123], [-63.01875575699995, 8.752221368000164], [-63.020714847999955, 8.752342356000042], [-63.02116786899995, 8.751419329000157], [-63.023331965999944, 8.751285315000075], [-63.023606979999954, 8.751122314000156], [-63.02422300499995, 8.750336294000135], [-63.02532204399995, 8.74954626300007], [-63.025764060999904, 8.747270207000042], [-63.026861099999905, 8.746181172999968], [-63.02747011999986, 8.744546119000063], [-63.028359158999876, 8.743436084000109], [-63.028694170999984, 8.742125057000123], [-63.02957219399997, 8.739614976000155], [-63.03086024299995, 8.736596901000098], [-63.031469262999906, 8.734961847000022], [-63.03246430199988, 8.7327717820001], [-63.032723294999926, 8.730634733000102], [-63.03375334399988, 8.72982270700004], [-63.0352574019999, 8.72783464000014], [-63.036023427999964, 8.725762581000026], [-63.03615343299998, 8.72475156300004], [-63.03685946099995, 8.72375752400012], [-63.03689745199995, 8.722701499000038], [-63.03789848899993, 8.721177459000103], [-63.03848450899994, 8.719565406000186], [-63.03941454499994, 8.717881358000113], [-63.0406055979999, 8.71704433400015], [-63.04105361399996, 8.715548287000104], [-63.04189164699994, 8.71379624400015], [-63.042456664999975, 8.712437205000072], [-63.042727667999884, 8.711723180000035], [-63.04219564799996, 8.711475181000026], [-63.0430346739999, 8.709838128000058], [-63.04448473299988, 8.706933043000106], [-63.04565776599998, 8.703892962], [-63.046206788999825, 8.703405946000032], [-63.04257945699999, 8.663397899000074], [-63.04569851699995, 8.645115402000044], [-63.040311088999886, 8.603604333000078], [-63.03985605499997, 8.601122272000168], [-63.039171013999976, 8.598734212000068], [-63.00126005899989, 8.547266015000162], [-62.836458362999906, 8.506256913000072], [-62.76989553599998, 8.489693480000142], [-62.72574216099997, 8.478706395000131], [-62.72579628099999, 8.478638471000181], [-62.725677, 8.478680000000168], [-62.725280418999944, 8.480479942000045], [-62.722599548999824, 8.492647452000142], [-62.7209786329999, 8.500004210000043], [-62.682434999999884, 8.67494], [-62.68200999999988, 8.676868], [-62.68288299999983, 8.676722], [-62.68401799999987, 8.676773], [-62.68538, 8.676723], [-62.687817, 8.676338], [-62.68934599999989, 8.676992], [-62.691812, 8.678597], [-62.69508, 8.678777], [-62.697004999999876, 8.678936], [-62.69829899999985, 8.680103], [-62.699236, 8.681007], [-62.699407, 8.681084000000169], [-62.700412, 8.681537000000162], [-62.701713, 8.682292000000132], [-62.702036, 8.682875], [-62.703566, 8.68298], [-62.704423, 8.682995], [-62.70458599999989, 8.684225], [-62.705237, 8.684911000000113], [-62.70605299999988, 8.685683], [-62.707103, 8.685325], [-62.7078489999999, 8.684863], [-62.708406, 8.685507], [-62.709533, 8.684779], [-62.711689, 8.684312], [-62.713381, 8.685006000000158], [-62.714134999999885, 8.685986], [-62.716648, 8.686376000000166], [-62.71823, 8.685426], [-62.719437, 8.685542], [-62.720343, 8.686265], [-62.7212, 8.687493], [-62.722234, 8.687318000000118], [-62.724067, 8.686885000000188], [-62.725175, 8.687441], [-62.7268729999999, 8.687104], [-62.728693, 8.686924], [-62.729114, 8.68704600000018], [-62.729579999999885, 8.687716], [-62.730847, 8.687578000000144], [-62.7314209999999, 8.687489], [-62.73286599999989, 8.686589], [-62.733325, 8.686481000000128], [-62.734412, 8.685915], [-62.736057, 8.685398], [-62.737538, 8.68484], [-62.73914899999983, 8.68462200000016], [-62.740581, 8.683997000000147], [-62.742601, 8.684221], [-62.743312, 8.684654000000137], [-62.743757, 8.684202], [-62.745095, 8.683536], [-62.745997, 8.682335000000137], [-62.747178, 8.681789], [-62.748755, 8.681319], [-62.7496129999999, 8.680784], [-62.75164399999983, 8.680688], [-62.753274, 8.680972000000168], [-62.753907, 8.680583000000127], [-62.754257, 8.681257], [-62.755147, 8.681568], [-62.75587, 8.68113], [-62.756397999999876, 8.680424], [-62.757749, 8.680077000000153], [-62.758848, 8.678617000000145], [-62.759787, 8.677805], [-62.760718, 8.677359], [-62.761016, 8.676684], [-62.761745, 8.676406], [-62.762172, 8.67549700000012], [-62.762932, 8.674829000000102], [-62.763661, 8.67336], [-62.764831, 8.672539000000143], [-62.76548799999989, 8.671004000000153], [-62.766428, 8.670191], [-62.767617, 8.66985], [-62.769182999999884, 8.669106000000113], [-62.770301, 8.66812700000014], [-62.7709339999999, 8.667142000000183], [-62.773617, 8.666587000000106], [-62.774941999999896, 8.666172], [-62.775962, 8.665036], [-62.777453, 8.66413400000016], [-62.778107, 8.663698000000124], [-62.779156, 8.662744], [-62.648722, 8.83018200000015], [-62.6642829999999, 8.878121], [-62.663998, 8.879139], [-62.662684, 8.87985], [-62.661168, 8.883735], [-62.657972, 8.881851], [-62.656751, 8.883177], [-62.6552769999999, 8.88394000000011], [-62.65406, 8.885381000000166], [-62.652937999999835, 8.886268], [-62.652296, 8.889388], [-62.649184, 8.88851], [-62.647867, 8.88977100000011], [-62.647285999999895, 8.890890000000127], [-62.643863999999894, 8.889644], [-62.644126, 8.89295], [-62.64307199999985, 8.894430000000114], [-62.642701, 8.895611000000144], [-62.642754, 8.896983000000148], [-62.63796, 8.899834000000169], [-62.636735, 8.900474], [-62.635587, 8.901293], [-62.634611999999834, 8.901214], [-62.633234, 8.900279], [-62.631634, 8.897203], [-62.629769, 8.898262000000102], [-62.62832699999984, 8.89877300000012], [-62.622246999999845, 8.899237000000142], [-62.622647, 8.902847], [-62.618981, 8.902073000000144], [-62.616355, 8.904062], [-62.611559, 8.90560500000015], [-62.606916, 8.904851000000122], [-62.60367799999989, 8.90798400000017], [-62.601727, 8.910884000000124], [-62.59971899999988, 8.912269000000151], [-62.596531, 8.914038000000176], [-62.593278, 8.919906], [-62.589521, 8.917532], [-62.588025, 8.918318], [-62.586113, 8.919142], [-62.583875, 8.919909], [-62.58251499999989, 8.920645], [-62.581198, 8.921905], [-62.58039099999985, 8.925433000000112], [-62.577646, 8.927619000000107], [-62.57610099999988, 8.930754], [-62.575766, 8.934692], [-62.575287, 8.93902], [-62.575078, 8.94062700000012], [-62.57396, 8.942933000000153], [-62.57206599999989, 8.947425], [-62.569536, 8.946755], [-62.569698, 8.950661], [-62.566203, 8.955399], [-62.56360199999983, 8.958294000000137], [-62.55952, 8.962007], [-62.558965, 8.963503000000173], [-62.556468, 8.96559400000018], [-62.554548, 8.967907], [-62.550215, 8.969903], [-62.546465, 8.971319000000108], [-62.546004, 8.971977], [-62.544423, 8.972377], [-62.54334, 8.973102], [-62.542188, 8.974448], [-62.541596, 8.975293000000136], [-62.539612, 8.975456000000122], [-62.53757599999989, 8.97546], [-62.537389, 8.974825000000124], [-62.536489999999844, 8.974308000000178], [-62.535065, 8.974565], [-62.53399899999988, 8.974511], [-62.533114, 8.974955], [-62.531573, 8.975811], [-62.530557, 8.975275], [-62.528843, 8.974626000000171], [-62.526852, 8.974011], [-62.52499299999988, 8.973825000000147], [-62.522953, 8.97371500000014], [-62.521516, 8.974865], [-62.52078, 8.976196], [-62.520342, 8.977448], [-62.519653, 8.978182], [-62.517772, 8.978615], [-62.515887, 8.97955300000018], [-62.513898, 8.979578000000117], [-62.512776, 8.980488], [-62.511302999999884, 8.981295], [-62.51071899999988, 8.982988000000148], [-62.51014, 8.983558], [-62.50945599999983, 8.984452000000147], [-62.507958, 8.984597], [-62.506397, 8.984927], [-62.50593, 8.98602], [-62.50497399999989, 8.985848], [-62.503685, 8.986054], [-62.501702, 8.986688], [-62.499937, 8.989479], [-62.496813, 8.991795], [-62.492219, 8.99328000000014], [-62.489673, 8.994959000000165], [-62.4881079999999, 8.996427], [-62.475133, 8.992848], [-62.47060599999986, 8.994239000000107], [-62.469034, 8.995479], [-62.468051, 8.996425000000102], [-62.467022, 8.997372000000155], [-62.464941999999894, 8.998510000000124], [-62.461950999999885, 8.998228], [-62.45944299999985, 8.997978], [-62.454713, 8.997079], [-62.45073, 8.99661900000018], [-62.448302, 8.996756000000175], [-62.447166, 8.99717900000013], [-62.446711, 8.998133], [-62.446635, 8.999512], [-62.445374, 8.999548], [-62.443723, 8.999595], [-62.442043999999896, 9.001111], [-62.441386, 9.002209000000164], [-62.440363999999875, 9.004235000000108], [-62.438569, 9.004883], [-62.43594699999983, 9.004704000000174], [-62.43470599999989, 9.004625], [-62.433186, 9.003612], [-62.433194, 9.00140800000014], [-62.4322939999999, 9.000401000000124], [-62.429801, 8.999875], [-62.427934, 8.999583], [-62.427303, 8.999165000000175], [-62.425983, 8.997917], [-62.424048, 8.99762800000019], [-62.421875999999884, 8.997919], [-62.420741, 8.998387], [-62.419356, 8.99973400000016], [-62.417939, 8.999935000000107], [-62.416483, 9.00039], [-62.415102, 9.001094], [-62.413792999999885, 9.00188900000012], [-62.41321599999986, 9.003420000000176], [-62.41221999999988, 9.004734000000155], [-62.41049, 9.004438], [-62.408785, 9.004188000000113], [-62.407645, 9.004427], [-62.40684299999987, 9.005299], [-62.406015, 9.006080000000168], [-62.405963, 9.008330000000171], [-62.397029, 9.017315000000167], [-62.389237, 9.026222000000132], [-62.38888699999984, 9.029595000000143], [-62.388769, 9.031136000000117], [-62.388786, 9.031755], [-62.38927399999989, 9.032797], [-62.388489, 9.034265000000175], [-62.38764099999986, 9.034335000000112], [-62.386578, 9.033263], [-62.383709, 9.032403000000158], [-62.38222499999989, 9.031871], [-62.37863, 9.033134], [-62.37619199999989, 9.035366000000181], [-62.370238, 9.035539], [-62.367086, 9.035712], [-62.364547, 9.03752800000018], [-62.363252, 9.038915], [-62.361633, 9.039305000000127], [-62.360847, 9.039098], [-62.359226, 9.038547000000108], [-62.357786, 9.039597000000128], [-62.356217, 9.040123000000108], [-62.353195, 9.039565000000152], [-62.35057299999988, 9.038514], [-62.34864, 9.039143], [-62.34735599999982, 9.040028], [-62.346325, 9.041732], [-62.346179, 9.04226400000016], [-62.345558, 9.043911], [-62.345224, 9.045137000000182], [-62.345677, 9.046548], [-62.346085, 9.04800500000016], [-62.34757699999989, 9.048881000000165], [-62.348937, 9.049899], [-62.35138, 9.050289000000134], [-62.35264, 9.050844], [-62.35381599999988, 9.051017000000172], [-62.355308, 9.05187], [-62.356348, 9.05299], [-62.357111, 9.054001000000142], [-62.357754, 9.055681], [-62.35727999999989, 9.057502000000113], [-62.356842, 9.059901], [-62.356266, 9.062327], [-62.354951, 9.064568000000122], [-62.35264, 9.066408000000138], [-62.349487999999894, 9.06770500000016], [-62.348047, 9.069228], [-62.347636, 9.07183300000014], [-62.347256, 9.073863], [-62.347911999999894, 9.075228], [-62.350885, 9.077296], [-62.351064, 9.079551], [-62.350626, 9.082058], [-62.349751, 9.08465200000012], [-62.348262, 9.085517], [-62.346919, 9.084936], [-62.34459, 9.083693], [-62.342134, 9.082058], [-62.339885, 9.081249000000128], [-62.337353, 9.081678], [-62.33598, 9.08268], [-62.334166999999866, 9.084393], [-62.332416, 9.085344], [-62.33188299999989, 9.086827000000142], [-62.32795, 9.092953], [-62.324799, 9.096758], [-62.324619414999916, 9.097326533000114], [-62.323423999999875, 9.101111000000174], [-62.322785, 9.105491], [-62.32336984799991, 9.107751713000141], [-62.324123, 9.110663], [-62.324521, 9.111799], [-62.325033, 9.112887], [-62.326487, 9.113994000000162], [-62.32821299999989, 9.115348], [-62.329176, 9.117683], [-62.32869315699992, 9.119732326000133], [-62.3282999999999, 9.121401000000162], [-62.327336999999886, 9.124081], [-62.32646199999988, 9.12695], [-62.32550830999992, 9.127107753000075], [-62.32497125599997, 9.127196589000164], [-62.320674426999915, 9.12794463400013], [-62.32355656999994, 9.129827674000182], [-62.32664571999999, 9.131846705000157], [-62.326008730999945, 9.14080296200018], [-62.32639178199992, 9.14815515700019], [-62.323904714999856, 9.158370454000135], [-62.32264470199988, 9.165798658000142], [-62.32163068099999, 9.172669852000013], [-62.321871718999944, 9.177298982000082], [-62.316670476999946, 9.177538007000067], [-62.309336147999886, 9.178967084000078], [-62.30485195099993, 9.182448198000145], [-62.301963856999976, 9.190224429000068], [-62.30296494199996, 9.198913652000044], [-62.30579710999996, 9.205880838999974], [-62.307190197999944, 9.211549989000105], [-62.30607617099997, 9.216515131000051], [-62.30084295099988, 9.221395291000078], [-62.29886487499988, 9.22558140700005], [-62.30190004699995, 9.231174549000059], [-62.30932539699995, 9.234864621000042], [-62.31425266199989, 9.241799787000105], [-62.3198789519999, 9.249730974000045], [-62.32432518699983, 9.256078128000127], [-62.32628030899997, 9.261994284000082], [-62.32673337499995, 9.270708521000131]]]}}]}