{
  "type": "FeatureCollection",
  "features": [
    {
      "type": "Feature",
      "properties": {
        "Pais": "Venezuela",
        "Estado": "Nueva Esparta",
        "Municipio": "Maneiro"
      },
      "geometry": {
        "type": "Polygon",
        "coordinates": [
          [
            [
              -63.804908999999896,
              11.032115
            ],
            [
              -63.805128,
              11.03216300000014
            ],
            [
              -63.805662,
              11.032489000000112
            ],
            [
              -63.80627,
              11.032814
            ],
            [
              -63.80673999999988,
              11.033029
            ],
            [
              -63.80695899999989,
              11.033093000000179
            ],
            [
              -63.807250999999894,
              11.033077000000105
            ],
            [
              -63.807478,
              11.03307500000011
            ],
            [
              -63.80774199999985,
              11.032910000000129
            ],
            [
              -63.807941,
              11.032700000000148
            ],
            [
              -63.808158999999876,
              11.032572
            ],
            [
              -63.808587,
              11.032397000000117
            ],
            [
              -63.808889,
              11.032349
            ],
            [
              -63.809162,
              11.03223800000012
            ],
            [
              -63.809725,
              11.031809000000123
            ],
            [
              -63.810042999999894,
              11.031616000000156
            ],
            [
              -63.810235,
              11.031614
            ],
            [
              -63.81051,
              11.031721000000175
            ],
            [
              -63.810749,
              11.031882000000166
            ],
            [
              -63.811032999999895,
              11.031916000000138
            ],
            [
              -63.81107775099997,
              11.031910624000034
            ],
            [
              -63.811599,
              11.031848
            ],
            [
              -63.8119099999999,
              11.031872
            ],
            [
              -63.81224999999989,
              11.031996000000163
            ],
            [
              -63.812507,
              11.032157000000154
            ],
            [
              -63.813479,
              11.032502000000136
            ],
            [
              -63.81378099999989,
              11.032535000000166
            ],
            [
              -63.814374,
              11.032404
            ],
            [
              -63.814792999999895,
              11.03228300000012
            ],
            [
              -63.814847,
              11.032192
            ],
            [
              -63.814864999999884,
              11.03211
            ],
            [
              -63.814789,
              11.031831000000182
            ],
            [
              -63.81478207699996,
              11.031774887999973
            ],
            [
              -63.81477,
              11.031677
            ],
            [
              -63.814787,
              11.031586000000175
            ],
            [
              -63.814858,
              11.03136000000012
            ],
            [
              -63.815256,
              11.030832000000146
            ],
            [
              -63.81553699999989,
              11.03057600000011
            ],
            [
              -63.815765,
              11.030475
            ],
            [
              -63.815976,
              11.030473
            ],
            [
              -63.81605,
              11.030509
            ],
            [
              -63.816482999999835,
              11.030885
            ],
            [
              -63.816666,
              11.030911000000117
            ],
            [
              -63.816908999999896,
              11.030953
            ],
            [
              -63.8172909999999,
              11.030573
            ],
            [
              -63.818172,
              11.029642
            ],
            [
              -63.818316,
              11.029274
            ],
            [
              -63.818457,
              11.029273000000103
            ],
            [
              -63.818618,
              11.029353000000128
            ],
            [
              -63.81872,
              11.029472
            ],
            [
              -63.819003,
              11.029611
            ],
            [
              -63.819084,
              11.02973
            ],
            [
              -63.819588,
              11.029848
            ],
            [
              -63.819728999999825,
              11.029808000000116
            ],
            [
              -63.820071,
              11.029428000000166
            ],
            [
              -63.820433,
              11.029208
            ],
            [
              -63.820594,
              11.029128000000185
            ],
            [
              -63.821058,
              11.028887000000168
            ],
            [
              -63.821561,
              11.028646
            ],
            [
              -63.821843,
              11.028526000000113
            ],
            [
              -63.822064,
              11.028246
            ],
            [
              -63.822587,
              11.027846000000181
            ],
            [
              -63.822889,
              11.027646000000118
            ],
            [
              -63.823252,
              11.027704000000142
            ],
            [
              -63.823515,
              11.027923000000158
            ],
            [
              -63.823979,
              11.027842
            ],
            [
              -63.824743999999896,
              11.027361
            ],
            [
              -63.82528699999989,
              11.027101000000187
            ],
            [
              -63.825711,
              11.02702
            ],
            [
              -63.826013,
              11.026779
            ],
            [
              -63.826274999999896,
              11.026739
            ],
            [
              -63.826496,
              11.026718
            ],
            [
              -63.826657999999895,
              11.026698
            ],
            [
              -63.826959,
              11.026298000000168
            ],
            [
              -63.827421,
              11.025818
            ],
            [
              -63.827723,
              11.025498
            ],
            [
              -63.827903999999876,
              11.025239000000113
            ],
            [
              -63.832027999999866,
              11.021997000000113
            ],
            [
              -63.833592,
              11.020978000000184
            ],
            [
              -63.834302,
              11.020515
            ],
            [
              -63.834864,
              11.019476
            ],
            [
              -63.835044,
              11.019296
            ],
            [
              -63.83530699999983,
              11.019256000000155
            ],
            [
              -63.83560899999986,
              11.019275000000107
            ],
            [
              -63.835689999999886,
              11.019195
            ],
            [
              -63.83587,
              11.018875
            ],
            [
              -63.83607099999989,
              11.018555
            ],
            [
              -63.836715,
              11.018274
            ],
            [
              -63.837319,
              11.017994
            ],
            [
              -63.83760199999989,
              11.017993000000104
            ],
            [
              -63.83794399999988,
              11.017792000000156
            ],
            [
              -63.838467,
              11.017452000000105
            ],
            [
              -63.838548,
              11.017372
            ],
            [
              -63.838767999999845,
              11.016792
            ],
            [
              -63.838949,
              11.01663200000013
            ],
            [
              -63.83935199999985,
              11.016571
            ],
            [
              -63.839958,
              11.016729000000112
            ],
            [
              -63.840221,
              11.016967000000136
            ],
            [
              -63.840667,
              11.017545000000155
            ],
            [
              -63.840789,
              11.017704000000151
            ],
            [
              -63.84180899999984,
              11.017467
            ],
            [
              -63.844458,
              11.017374
            ],
            [
              -63.8447,
              11.017413
            ],
            [
              -63.845002,
              11.017253000000153
            ],
            [
              -63.845587,
              11.017231
            ],
            [
              -63.84597,
              11.01705
            ],
            [
              -63.846351999999854,
              11.01671000000016
            ],
            [
              -63.846735,
              11.016629
            ],
            [
              -63.847078,
              11.016569
            ],
            [
              -63.84748,
              11.016388000000177
            ],
            [
              -63.84780199999983,
              11.016228
            ],
            [
              -63.848285,
              11.015748000000144
            ],
            [
              -63.848787,
              11.015108000000112
            ],
            [
              -63.849008,
              11.014868
            ],
            [
              -63.849168,
              11.014549
            ],
            [
              -63.849208,
              11.014389000000165
            ],
            [
              -63.849004,
              11.01347200000015
            ],
            [
              -63.84910799999989,
              11.013053
            ],
            [
              -63.849326,
              11.012198
            ],
            [
              -63.849723,
              11.011222000000146
            ],
            [
              -63.850395999999876,
              11.01021500000013
            ],
            [
              -63.85014399999989,
              11.009417000000155
            ],
            [
              -63.85021,
              11.009199
            ],
            [
              -63.851824,
              11.008572
            ],
            [
              -63.85233,
              11.00802
            ],
            [
              -63.853675,
              11.007788
            ],
            [
              -63.853947,
              11.008034000000123
            ],
            [
              -63.854047,
              11.007894
            ],
            [
              -63.854106999999885,
              11.007695000000126
            ],
            [
              -63.85450899999984,
              11.007095
            ],
            [
              -63.85493099999985,
              11.006675000000143
            ],
            [
              -63.855315,
              11.00683400000014
            ],
            [
              -63.855657,
              11.006753
            ],
            [
              -63.855717,
              11.006633
            ],
            [
              -63.855918,
              11.006354
            ],
            [
              -63.8563,
              11.006113
            ],
            [
              -63.85638,
              11.005794
            ],
            [
              -63.856499,
              11.005215000000135
            ],
            [
              -63.857041,
              11.004436000000169
            ],
            [
              -63.857362,
              11.003996
            ],
            [
              -63.857422,
              11.003697000000102
            ],
            [
              -63.85734,
              11.003458
            ],
            [
              -63.857256999999834,
              11.00278
            ],
            [
              -63.857317,
              11.002361
            ],
            [
              -63.857637999999895,
              11.002022
            ],
            [
              -63.857698,
              11.001702
            ],
            [
              -63.857575,
              11.001344000000131
            ],
            [
              -63.857169,
              11.000328
            ],
            [
              -63.857047,
              11.000009000000148
            ],
            [
              -63.857045,
              10.99963
            ],
            [
              -63.857205,
              10.999251000000129
            ],
            [
              -63.857568,
              10.99927
            ],
            [
              -63.857584,
              10.999260000000163
            ],
            [
              -63.857327,
              10.998063
            ],
            [
              -63.856623,
              10.997487
            ],
            [
              -63.855212,
              10.99712
            ],
            [
              -63.853588,
              10.997215
            ],
            [
              -63.852811,
              10.997426000000132
            ],
            [
              -63.851116,
              10.997522
            ],
            [
              -63.850198,
              10.997605
            ],
            [
              -63.84957,
              10.994998000000123
            ],
            [
              -63.847617,
              10.985675
            ],
            [
              -63.847658,
              10.98555
            ],
            [
              -63.846781,
              10.985827
            ],
            [
              -63.844096,
              10.98489000000012
            ],
            [
              -63.842454,
              10.984472000000153
            ],
            [
              -63.839682,
              10.984428
            ],
            [
              -63.837774,
              10.984476000000143
            ],
            [
              -63.833769,
              10.985357
            ],
            [
              -63.83181599999989,
              10.985475000000179
            ],
            [
              -63.828669,
              10.985348000000158
            ],
            [
              -63.826372,
              10.985658
            ],
            [
              -63.825973167999905,
              10.985555953000073
            ],
            [
              -63.8244959999999,
              10.985178000000133
            ],
            [
              -63.82256522699993,
              10.984191458000055
            ],
            [
              -63.821758,
              10.983779
            ],
            [
              -63.82060599999983,
              10.983395
            ],
            [
              -63.819190999999876,
              10.982697
            ],
            [
              -63.818488999999886,
              10.982554000000107
            ],
            [
              -63.81664,
              10.98221
            ],
            [
              -63.81595458099997,
              10.982060042000057
            ],
            [
              -63.81570299999987,
              10.982005000000129
            ],
            [
              -63.815038767999965,
              10.98166046100016
            ],
            [
              -63.814901,
              10.981589
            ],
            [
              -63.81471298099984,
              10.981361205000098
            ],
            [
              -63.81384246399995,
              10.981281181000043
            ],
            [
              -63.81280942199999,
              10.981653200000153
            ],
            [
              -63.81168837299998,
              10.981632205000096
            ],
            [
              -63.81161537299994,
              10.981577205000178
            ],
            [
              -63.81161394299994,
              10.981576407000091
            ],
            [
              -63.811529365999945,
              10.981529207000108
            ],
            [
              -63.811427357999946,
              10.981494204000171
            ],
            [
              -63.81136135999998,
              10.981484200000011
            ],
            [
              -63.81128935399988,
              10.981478204999974
            ],
            [
              -63.81117734299994,
              10.981492207000088
            ],
            [
              -63.81109834799997,
              10.981506208999974
            ],
            [
              -63.81095734099995,
              10.981549207000171
            ],
            [
              -63.81087533099992,
              10.981566212000075
            ],
            [
              -63.81077333499991,
              10.98158021400019
            ],
            [
              -63.8106723219999,
              10.98157121500003
            ],
            [
              -63.81055632499982,
              10.981571216000134
            ],
            [
              -63.810591314999954,
              10.981292208000127
            ],
            [
              -63.810564316999944,
              10.981289205000166
            ],
            [
              -63.81053332399995,
              10.981575213000042
            ],
            [
              -63.810491319999926,
              10.981565209000053
            ],
            [
              -63.810392315999934,
              10.981534215000181
            ],
            [
              -63.81022730199993,
              10.981480210000086
            ],
            [
              -63.81007529699997,
              10.981435215000147
            ],
            [
              -63.80996729399993,
              10.981403205000163
            ],
            [
              -63.80986128899997,
              10.981362207000132
            ],
            [
              -63.80976928599989,
              10.981311205
            ],
            [
              -63.80973228399995,
              10.981295205000094
            ],
            [
              -63.809683278999955,
              10.981246213000134
            ],
            [
              -63.80961627499994,
              10.981178206000095
            ],
            [
              -63.809537267999985,
              10.981059208000033
            ],
            [
              -63.80946727199995,
              10.98093920500014
            ],
            [
              -63.809410259999936,
              10.980796201000032
            ],
            [
              -63.809383261999926,
              10.980705193000176
            ],
            [
              -63.809376259999965,
              10.980640189000098
            ],
            [
              -63.809385258999896,
              10.980595194000045
            ],
            [
              -63.80940226399997,
              10.980562189000068
            ],
            [
              -63.809437267999954,
              10.980520185000103
            ],
            [
              -63.80949026899998,
              10.980461188000106
            ],
            [
              -63.80957127399995,
              10.980373184000143
            ],
            [
              -63.809643266999956,
              10.980284174000019
            ],
            [
              -63.80966927099996,
              10.980239178000033
            ],
            [
              -63.80968827499993,
              10.980183173000114
            ],
            [
              -63.809698278999974,
              10.980138178000061
            ],
            [
              -63.809704273999955,
              10.980073173999983
            ],
            [
              -63.80968726899994,
              10.980014166000103
            ],
            [
              -63.80966426799989,
              10.979972174000181
            ],
            [
              -63.809630268999854,
              10.979930171000149
            ],
            [
              -63.80958826399984,
              10.979904167000143
            ],
            [
              -63.80951826899991,
              10.979892165000024
            ],
            [
              -63.80942025899998,
              10.979880174000186
            ],
            [
              -63.80938025299986,
              10.979873174000147
            ],
            [
              -63.80933425199987,
              10.979854171000056
            ],
            [
              -63.80929125399996,
              10.97982816700005
            ],
            [
              -63.809235247999936,
              10.979793164000114
            ],
            [
              -63.809179241999914,
              10.979738165000072
            ],
            [
              -63.809119238999926,
              10.97968316600003
            ],
            [
              -63.80906623599998,
              10.979635167000083
            ],
            [
              -63.809010241999886,
              10.97958716800008
            ],
            [
              -63.808901233999904,
              10.979532157000108
            ],
            [
              -63.808805233999976,
              10.979497167000034
            ],
            [
              -63.80872622699991,
              10.97947516000005
            ],
            [
              -63.80865422099998,
              10.97945916100008
            ],
            [
              -63.80855221399992,
              10.97944715900013
            ],
            [
              -63.808456213999875,
              10.979448164000132
            ],
            [
              -63.8083642119999,
              10.979455165000104
            ],
            [
              -63.80826319799996,
              10.97948815899997
            ],
            [
              -63.80808219699992,
              10.97953516500013
            ],
            [
              -63.80784319099996,
              10.979615165000041
            ],
            [
              -63.807744175999915,
              10.979638166000086
            ],
            [
              -63.80762618099993,
              10.979678171999979
            ],
            [
              -63.807518166999955,
              10.97971418100002
            ],
            [
              -63.80739716799991,
              10.979764179000085
            ],
            [
              -63.80731116099997,
              10.979807176000179
            ],
            [
              -63.807181151999885,
              10.979892178000114
            ],
            [
              -63.807118156999934,
              10.97992918000017
            ],
            [
              -63.80708914899992,
              10.97994517900014
            ],
            [
              -63.80661012999997,
              10.979565175000175
            ],
            [
              -63.80359599699989,
              10.98114323699997
            ],
            [
              -63.803589002999956,
              10.98233527900004
            ],
            [
              -63.8030979909999,
              10.983625309
            ],
            [
              -63.803154,
              10.984289337000064
            ],
            [
              -63.80259398599998,
              10.9857183740001
            ],
            [
              -63.802697,
              10.988008446000038
            ],
            [
              -63.80234910899992,
              10.989090364
            ],
            [
              -63.8019419769999,
              10.99035651500003
            ],
            [
              -63.80141196599993,
              10.992197570000087
            ],
            [
              -63.80115695799998,
              10.993874619000167
            ],
            [
              -63.80052693699997,
              10.995212660000107
            ],
            [
              -63.79958490599995,
              10.995821682999974
            ],
            [
              -63.79885287299993,
              10.996450712000069
            ],
            [
              -63.798072840999964,
              10.9971877320001
            ],
            [
              -63.79666277799993,
              10.997729754000034
            ],
            [
              -63.795969754999874,
              10.998011769000186
            ],
            [
              -63.794259678999936,
              10.998601793000148
            ],
            [
              -63.79308062699994,
              10.999026814000047
            ],
            [
              -63.791965571999924,
              10.998831820000078
            ],
            [
              -63.791240531999904,
              10.998151796000116
            ],
            [
              -63.79123352699986,
              10.99737277800017
            ],
            [
              -63.79141253799992,
              10.99670575600004
            ],
            [
              -63.79110651399992,
              10.99625074200003
            ],
            [
              -63.79026747799986,
              10.995800734000113
            ],
            [
              -63.78919442399996,
              10.99514772000009
            ],
            [
              -63.787917370999935,
              10.994930721000173
            ],
            [
              -63.78717732999996,
              10.995213741000157
            ],
            [
              -63.786533301999896,
              10.995770754000148
            ],
            [
              -63.785839273999954,
              10.995914767000045
            ],
            [
              -63.7848652269999,
              10.995878775999984
            ],
            [
              -63.783982188999914,
              10.995750772000065
            ],
            [
              -63.78281513399992,
              10.99491475000002
            ],
            [
              -63.78185808899997,
              10.994282738000095
            ],
            [
              -63.78102004599998,
              10.993969738000146
            ],
            [
              -63.77998299699988,
              10.994645763000051
            ],
            [
              -63.779105969999875,
              10.995089786000108
            ],
            [
              -63.77728588399992,
              10.99632282500005
            ],
            [
              -63.77655086099986,
              10.997131849000027
            ],
            [
              -63.776424867999935,
              10.998531899000056
            ],
            [
              -63.77724490299988,
              10.999416915000097
            ],
            [
              -63.77848796599989,
              11.000916954000104
            ],
            [
              -63.77961503099988,
              11.002371984999968
            ],
            [
              -63.78095410699996,
              11.004215029000079
            ],
            [
              -63.7822191649999,
              11.005623065000066
            ],
            [
              -63.783507233999956,
              11.006939101000057
            ],
            [
              -63.78506231999995,
              11.00953516900006
            ],
            [
              -63.78618737399995,
              11.010807192000073
            ],
            [
              -63.78654739899997,
              11.012133237000114
            ],
            [
              -63.78720844099996,
              11.0132722620001
            ],
            [
              -63.788235493999935,
              11.014040277000163
            ],
            [
              -63.78919853799988,
              11.015314311000054
            ],
            [
              -63.789950577999946,
              11.01638334100005
            ],
            [
              -63.79007759099994,
              11.017573373000118
            ],
            [
              -63.79101064199989,
              11.018114377000074
            ],
            [
              -63.79174068599997,
              11.019252409000103
            ],
            [
              -63.79272373799995,
              11.020273427000063
            ],
            [
              -63.79401879999983,
              11.022300485000073
            ],
            [
              -63.79514186599994,
              11.023342504000027
            ],
            [
              -63.79643092999993,
              11.024796542000104
            ],
            [
              -63.79736897399982,
              11.025863572999981
            ],
            [
              -63.79817102599992,
              11.027276603000018
            ],
            [
              -63.79866505399997,
              11.028073628000186
            ],
            [
              -63.799371091999944,
              11.029097652000189
            ],
            [
              -63.79983911399984,
              11.029550665999977
            ],
            [
              -63.80009312699997,
              11.02947965400017
            ],
            [
              -63.79976010199994,
              11.028589633000138
            ],
            [
              -63.79914907199992,
              11.02777061300003
            ],
            [
              -63.798538040999915,
              11.026860585000065
            ],
            [
              -63.797739987999876,
              11.025905563000094
            ],
            [
              -63.796989959999905,
              11.025019541000177
            ],
            [
              -63.79656493399989,
              11.02422252700012
            ],
            [
              -63.7959079019999,
              11.023449508
            ],
            [
              -63.79543786799991,
              11.022812490999968
            ],
            [
              -63.794827842999894,
              11.02201747600003
            ],
            [
              -63.79442681099994,
              11.021356453000124
            ],
            [
              -63.7940497969999,
              11.020695442000033
            ],
            [
              -63.79378978599988,
              11.020148426999981
            ],
            [
              -63.79375978099989,
              11.01946139800009
            ],
            [
              -63.79500682799994,
              11.018898375000106
            ],
            [
              -63.79635388899993,
              11.019113375000131
            ],
            [
              -63.797917964999954,
              11.020106399999975
            ],
            [
              -63.79888102099994,
              11.021471430000133
            ],
            [
              -63.79972506199988,
              11.022356457000058
            ],
            [
              -63.80014808999982,
              11.023039475000132
            ],
            [
              -63.80032110399992,
              11.024160505000111
            ],
            [
              -63.80033110299996,
              11.025191533000168
            ],
            [
              -63.80082813699994,
              11.026286558000095
            ],
            [
              -63.80099715099982,
              11.02697258100011
            ],
            [
              -63.80132916999992,
              11.027771605000112
            ],
            [
              -63.801638186999924,
              11.028524618000176
            ],
            [
              -63.80194920499997,
              11.029483652000124
            ],
            [
              -63.80200421099994,
              11.030468679000023
            ],
            [
              -63.801989220999985,
              11.031270698000185
            ],
            [
              -63.80187521199997,
              11.031523702000186
            ],
            [
              -63.80131318799994,
              11.030910690999974
            ],
            [
              -63.80114517899989,
              11.030339681000157
            ],
            [
              -63.80076915899997,
              11.029770660000054
            ],
            [
              -63.80021513399993,
              11.030097669000043
            ],
            [
              -63.80059915299984,
              11.031513717000166
            ],
            [
              -63.80158720999998,
              11.03294774700015
            ],
            [
              -63.801605207999955,
              11.03297675500005
            ],
            [
              -63.801937203999955,
              11.032931545000054
            ],
            [
              -63.801987999999824,
              11.032888
            ],
            [
              -63.802107742999965,
              11.032823840000106
            ],
            [
              -63.80220866899998,
              11.032769762000044
            ],
            [
              -63.80303499999985,
              11.032327
            ],
            [
              -63.803336999999885,
              11.032187
            ],
            [
              -63.80364,
              11.032086000000163
            ],
            [
              -63.804261,
              11.032162
            ],
            [
              -63.80435,
              11.032154000000105
            ],
            [
              -63.80465799999985,
              11.03210700000011
            ],
            [
              -63.804908999999896,
              11.032115
            ]
          ]
        ]
      }
    }
  ]
}