{"type": "FeatureCollection", "features": [{"type": "Feature", "properties": {"Pais": "Venezuela", "Estado": "Yaracuy", "Municipio": "Manuel Monge", "Parroquia": "Manuel Monge"}, "geometry": {"type": "Polygon", "coordinates": [[[-68.64915563499994, 10.630879780000043], [-68.63107436599984, 10.71436264900018], [-68.6216516209999, 10.757868321000046], [-68.61955673799997, 10.767540587000099], [-68.61932219699992, 10.768623484999978], [-68.61836817799986, 10.77302827900013], [-68.61816564399999, 10.773963395000067], [-68.61815111099992, 10.774063650000073], [-68.62000626799994, 10.773398468000096], [-68.62146392599993, 10.772875812000052], [-68.62247495399993, 10.771987772000102], [-68.62353699899995, 10.771398758000032], [-68.62460003899997, 10.770878734000178], [-68.62615310399997, 10.770420718000082], [-68.62737415299983, 10.769575685000063], [-68.62916322299998, 10.767757627000094], [-68.62980511899997, 10.767190604000177], [-68.63015030099996, 10.76688568500009], [-68.63074927499991, 10.766356578000114], [-68.63081126499998, 10.766252844000064], [-68.6311279809999, 10.765722850000088], [-68.63188531599997, 10.764455522], [-68.63312236199982, 10.763058484000055], [-68.63422639799995, 10.76212345000016], [-68.63547244699993, 10.761370418000183], [-68.63629948299996, 10.76064639600014], [-68.63710651099996, 10.760106376000067], [-68.63750938399988, 10.759745966000082], [-68.6382545489999, 10.759079341000074], [-68.63919559299995, 10.758123318000116], [-68.64021263199999, 10.757672294000088], [-68.64163067699991, 10.755928241000106], [-68.64272871399999, 10.754602203], [-68.64358473799996, 10.752590144000067], [-68.64459976699999, 10.750345079], [-68.64591981199999, 10.748281010000028], [-68.64639082599996, 10.747054983000112], [-68.64729385599998, 10.74508791900007], [-68.64891390199989, 10.742858850000118], [-68.65021094599985, 10.740793788000133], [-68.65278404399993, 10.738504723000176], [-68.65355906899993, 10.737390679000043], [-68.65430309599992, 10.735724642000093], [-68.65559513599999, 10.73336157000017], [-68.65667316599985, 10.732219534000023], [-68.65791521699992, 10.73121350000008], [-68.65957728699988, 10.730340462000129], [-68.66138035299986, 10.729533432000153], [-68.66306542199999, 10.728567401000078], [-68.66463648399997, 10.727787370000101], [-68.66594553599992, 10.726573328000029], [-68.66718357699995, 10.725314291000188], [-68.66784259299993, 10.724201253000103], [-68.67012968699999, 10.723089210000012], [-68.67145775199992, 10.723209205000103], [-68.67322183099998, 10.724518233000083], [-68.67400987999997, 10.725979257000176], [-68.67460790299998, 10.7270982820001], [-68.67506293099996, 10.728011312000149], [-68.67554396399998, 10.72908633600008], [-68.67667702099993, 10.730220352000117], [-68.6779359759999, 10.730709570000101], [-68.67822108199988, 10.73082035900012], [-68.67936313099995, 10.73098835400009], [-68.68196323899997, 10.730538326000158], [-68.68316629199995, 10.730062314], [-68.68514337599993, 10.730080300000111], [-68.68619642799996, 10.730457296000054], [-68.68829251199992, 10.730589289000022], [-68.68967256599996, 10.72953525500003], [-68.69020058399997, 10.729045234000068], [-68.69141162499989, 10.727487195000037], [-68.69206164999991, 10.725754144000064], [-68.69338869899997, 10.724171093000109], [-68.69495375999998, 10.72463309900013], [-68.69604281499983, 10.725929122000025], [-68.69691885599991, 10.726997143000176], [-68.69772290199984, 10.727929162000123], [-68.69892195499995, 10.728786182000135], [-68.70027102099988, 10.7287221630001], [-68.70175708399995, 10.728494150000131], [-68.70335914299989, 10.728288131000056], [-68.70522222999995, 10.72842312900002], [-68.70696230399994, 10.72805411000013], [-68.70819135099993, 10.72780709500006], [-68.71067645599993, 10.727497067000172], [-68.71175650799995, 10.728195084999982], [-68.7140736049999, 10.729151088000151], [-68.71572268299991, 10.728945081000063], [-68.7173187439999, 10.728278052], [-68.71896181199997, 10.727658029000168], [-68.72062787999988, 10.727037001000099], [-68.72271396699995, 10.726478975000134], [-68.72567907799993, 10.725609926000061], [-68.72733415399995, 10.725816918000135], [-68.72971126099998, 10.726104920000182], [-68.73207835899996, 10.725681891000079], [-68.73417644399996, 10.724317840000083], [-68.73509847599985, 10.723776826000062], [-68.7368745419999, 10.722693782000022], [-68.73842160899989, 10.721890751000103], [-68.74043268499997, 10.721011716000078], [-68.74292079499992, 10.720861697000032], [-68.74469887099997, 10.72154970600019], [-68.74559289199988, 10.72192292300008], [-68.74624393699992, 10.722194708000075], [-68.74810702299999, 10.722306705000051], [-68.75031511699996, 10.722206685000117], [-68.75241220699985, 10.722384678000026], [-68.75441929499993, 10.72281668000005], [-68.75607836899997, 10.723298681000074], [-68.75974753699995, 10.72444369100009], [-68.76160062399998, 10.725475698000139], [-68.76368771599994, 10.7266187190001], [-68.76637283199994, 10.727248720000091], [-68.76788389399985, 10.727134702000114], [-68.77029499399993, 10.72659567800008], [-68.77243608499998, 10.726564659000076], [-68.77365615099995, 10.72728367700006], [-68.77529121999999, 10.727697671000044], [-68.77720430599999, 10.72808466600003], [-68.77889937299989, 10.72785366000005], [-68.77993341299992, 10.726965620000158], [-68.77995840299997, 10.725516594000169], [-68.77933136999997, 10.724030558000095], [-68.77806829799988, 10.721955508], [-68.77627621399995, 10.720324478000066], [-68.77482115099997, 10.719494468000164], [-68.77467066899999, 10.719414102000087], [-68.77301606299994, 10.718530445000056], [-68.77385609099997, 10.717139405000069], [-68.77608517599992, 10.715199342000062], [-68.7788562859999, 10.71382628800012], [-68.78076635699995, 10.712396242000125], [-68.78181138999997, 10.710657193000031], [-68.78212938799999, 10.708559133000165], [-68.78238338899996, 10.70687708800017], [-68.78332442199985, 10.705967065000095], [-68.78594453699992, 10.705355029999964], [-68.78738659899994, 10.705335024000078], [-68.78884265799991, 10.704692996000063], [-68.79127175299988, 10.703761950000171], [-68.79258680399988, 10.703007925], [-68.79356182999993, 10.701268877000189], [-68.79317480999998, 10.700285853000025], [-68.79281378399992, 10.699462838000045], [-68.79212275299994, 10.698345811000081], [-68.79191573899988, 10.696945779000089], [-68.79207973699994, 10.695402729000136], [-68.79261274899983, 10.693692691000024], [-68.79384679099996, 10.69220364], [-68.79547285599995, 10.692019628000082], [-68.79707991999987, 10.692180620000045], [-68.79875599699989, 10.69224961000009], [-68.80032206499999, 10.692755617000103], [-68.80144712299989, 10.693314616000123], [-68.80282918699993, 10.693939634000117], [-68.80437324699989, 10.694515636000176], [-68.80601532099996, 10.693894607000061], [-68.80835841299995, 10.693447584000069], [-68.80979847499998, 10.693288572000085], [-68.81047449499994, 10.691784531000053], [-68.81055149499991, 10.690702503000068], [-68.81090549599992, 10.68943246200007], [-68.81182553999992, 10.688775442000065], [-68.81272356499989, 10.688095410000074], [-68.81370960499993, 10.687161382000113], [-68.81446762799993, 10.686507367000047], [-68.81518166099988, 10.68599134200008], [-68.81593968399989, 10.685382322000123], [-68.81683572099996, 10.68458730000009], [-68.81789076299992, 10.683583266000142], [-68.81885179199998, 10.682489230000044], [-68.82026084599994, 10.68026116699997], [-68.82151688299996, 10.678702123000164], [-68.82251691999988, 10.677101076000099], [-68.82324293899995, 10.675826031000042], [-68.82376395299997, 10.674899006000146], [-68.82449598299996, 10.674083978000056], [-68.82554701399988, 10.672803941000097], [-68.82641205399995, 10.671526909000136], [-68.82741207899994, 10.669902850000142], [-68.82866512299995, 10.668113803000153], [-68.82958114099989, 10.666946987000074], [-68.82985216899993, 10.666601753000123], [-68.83088019999991, 10.66536872100005], [-68.83230324999988, 10.664060680000091], [-68.83392831199995, 10.662266616000124], [-68.8360862379999, 10.660047207000105], [-68.83659540799994, 10.65952353], [-68.83857947599995, 10.656999452999969], [-68.84010553299998, 10.654961387000128], [-68.84158057299993, 10.652535322], [-68.84347764299997, 10.650402249000024], [-68.84569973599997, 10.649936223000168], [-68.84799882799985, 10.649974216000032], [-68.85110596699997, 10.649748191000072], [-68.8544801079999, 10.650344177000022], [-68.85813826499998, 10.649607142000036], [-68.86153641199996, 10.65024813600013], [-68.86533957599994, 10.649967107000066], [-68.86932874399997, 10.64968407900011], [-68.87260088499988, 10.64957105600007], [-68.87378565599994, 10.649584693000065], [-68.873846, 10.649486000000138], [-68.873264, 10.648662000000172], [-68.87303, 10.647814], [-68.87286499999982, 10.646897], [-68.87279199999989, 10.64559], [-68.87216099999983, 10.643711000000167], [-68.871856, 10.642198], [-68.871133, 10.640548], [-68.87068630599993, 10.638800533000051], [-68.87038299999989, 10.637614], [-68.869635, 10.635139], [-68.86916699999989, 10.633787], [-68.868747, 10.632688], [-68.86772, 10.629983], [-68.867226, 10.627736], [-68.866058, 10.624529], [-68.864541, 10.62068], [-68.86300299999988, 10.61788600000017], [-68.861768, 10.615481000000102], [-68.860531, 10.61238800000018], [-68.859315, 10.608355], [-68.85866, 10.605971000000181], [-68.857818, 10.603221], [-68.856071, 10.600221000000147], [-68.85518651699994, 10.597703916000057], [-68.855137, 10.59756300000015], [-68.853436, 10.594472000000167], [-68.853061, 10.593005000000119], [-68.85270999999983, 10.591515000000129], [-68.851291, 10.589845000000139], [-68.84959199999986, 10.58806], [-68.848404, 10.585770000000139], [-68.847977, 10.582078], [-68.846602, 10.579123], [-68.84597, 10.576923], [-68.84496799999988, 10.574723], [-68.84368399999988, 10.571608], [-68.842659, 10.569546000000116], [-68.842167, 10.567667], [-68.841025, 10.565193], [-68.838674, 10.561668], [-68.832068, 10.553659000000152], [-68.831091, 10.552699000000132], [-68.830375, 10.553779000000134], [-68.830702, 10.555063000000132], [-68.831376, 10.555107], [-68.83138, 10.556758], [-68.83089299999989, 10.557058], [-68.829782, 10.558094], [-68.828903, 10.55945], [-68.828836, 10.560276000000158], [-68.827656, 10.561518], [-68.82522299999988, 10.562811000000124], [-68.822581, 10.563369000000137], [-68.822349, 10.5636], [-68.819822, 10.564112000000137], [-68.8187779999999, 10.563725], [-68.816851, 10.562882000000116], [-68.815991, 10.562243], [-68.814691, 10.561654000000146], [-68.8133, 10.561907000000133], [-68.812513, 10.562804], [-68.811402, 10.563610000000153], [-68.810453, 10.564462000000105], [-68.81010599999985, 10.565014000000133], [-68.810084, 10.565564], [-68.80867, 10.565867], [-68.808229, 10.565616], [-68.806839, 10.566285000000164], [-68.80491099999989, 10.56583200000017], [-68.80382099999986, 10.565859000000103], [-68.80236099999985, 10.566115000000138], [-68.801319, 10.566875], [-68.799813, 10.567843], [-68.798956, 10.568236000000127], [-68.798399, 10.56803100000019], [-68.79703199999989, 10.568678], [-68.796383, 10.56890900000019], [-68.796104, 10.568474], [-68.794851, 10.568248], [-68.79425, 10.569328], [-68.794645, 10.56983200000019], [-68.79515599999985, 10.570152000000178], [-68.794927, 10.571207], [-68.793977, 10.571600000000103], [-68.792518, 10.572843], [-68.790362, 10.573446], [-68.789714, 10.573723], [-68.78906599999982, 10.574736], [-68.788487, 10.574921], [-68.787839, 10.575657], [-68.786423, 10.575294], [-68.78612099999987, 10.574836000000118], [-68.784798, 10.574634000000117], [-68.78424499999988, 10.576012000000105], [-68.78278299999988, 10.57606200000015], [-68.781972, 10.57611], [-68.781644, 10.574827], [-68.781572, 10.573978], [-68.77946, 10.573296], [-68.77656, 10.573006], [-68.775447, 10.573124], [-68.77444999999983, 10.573334], [-68.772732, 10.572559], [-68.769901, 10.572292000000175], [-68.76920599999988, 10.572317000000112], [-68.768694, 10.57163], [-68.767395, 10.571680000000129], [-68.7660039999999, 10.571936], [-68.76317399999988, 10.571669], [-68.76229099999983, 10.571006000000125], [-68.760852, 10.570598000000132], [-68.7599239999999, 10.570692000000122], [-68.759042, 10.570052], [-68.757583, 10.571571000000176], [-68.756031, 10.572929000000101], [-68.754478, 10.573484000000178], [-68.754085, 10.573737000000165], [-68.753947, 10.574632000000122], [-68.752578, 10.573948], [-68.751046, 10.573838], [-68.750189, 10.574345], [-68.748657, 10.573799000000122], [-68.747695, 10.57362], [-68.74708, 10.573505000000125], [-68.745711, 10.573692000000165], [-68.74450499999983, 10.573443000000168], [-68.74244, 10.573426], [-68.741955, 10.573978], [-68.741099, 10.57517300000012], [-68.739964, 10.576003], [-68.7372749999999, 10.576721000000134], [-68.736696, 10.577296000000104], [-68.73576999999989, 10.578217000000109], [-68.734542, 10.57874800000019], [-68.73134, 10.578573], [-68.730459, 10.578966], [-68.729715, 10.578325000000177], [-68.72897299999988, 10.578006], [-68.728948, 10.577502], [-68.729433, 10.576445], [-68.729828, 10.576673], [-68.730778, 10.575983000000178], [-68.730708, 10.575799], [-68.73015, 10.575273], [-68.729385, 10.575252], [-68.728409, 10.574498], [-68.72847799999988, 10.574016000000142], [-68.728546, 10.573626], [-68.728546, 10.573282000000177], [-68.728846, 10.572822000000144], [-68.729101, 10.572799], [-68.729566, 10.573187000000132], [-68.730471, 10.573391000000129], [-68.730841, 10.572931], [-68.73097999999987, 10.572541000000172], [-68.730654, 10.572267], [-68.730514, 10.571533], [-68.7300259999999, 10.571443], [-68.72939899999989, 10.570687], [-68.729815, 10.569998], [-68.73072, 10.57052300000015], [-68.731115, 10.570889], [-68.73151, 10.570911], [-68.731553, 10.569167], [-68.731666, 10.567813000000115], [-68.73099, 10.566210000000183], [-68.730919, 10.565292], [-68.731611, 10.563593], [-68.732005, 10.56320200000016], [-68.732583, 10.562535], [-68.73286, 10.561983], [-68.733069, 10.561799], [-68.734365, 10.560716000000184], [-68.73464299999989, 10.560234], [-68.733877, 10.560144], [-68.733041, 10.559826], [-68.7323209999999, 10.559277000000122], [-68.731299, 10.558592], [-68.731043, 10.558088000000168], [-68.730601, 10.557126000000153], [-68.730599, 10.556254], [-68.730574, 10.555497000000173], [-68.73068699999988, 10.553684], [-68.731218, 10.552742000000137], [-68.732167, 10.551547], [-68.732467, 10.551133], [-68.732629, 10.550582000000134], [-68.732765, 10.549343], [-68.73216, 10.54819700000013], [-68.731834, 10.547740000000147], [-68.731368, 10.546433], [-68.731087, 10.545356], [-68.730412, 10.54405], [-68.729902, 10.544304], [-68.729091, 10.544696], [-68.728163, 10.54428600000017], [-68.728254, 10.543621], [-68.728693, 10.542518], [-68.729155, 10.541462000000138], [-68.72876, 10.541256000000146], [-68.72843299999988, 10.540248], [-68.7283159999999, 10.539422], [-68.728036, 10.538781000000142], [-68.728081, 10.538253000000168], [-68.72856699999988, 10.537586], [-68.72903, 10.537149000000113], [-68.729074, 10.536232], [-68.728818, 10.535705], [-68.7285619999999, 10.534925000000158], [-68.726846, 10.535320000000127], [-68.726129, 10.53612500000014], [-68.72526999999985, 10.535921000000144], [-68.725199, 10.534958], [-68.72563799999983, 10.534016], [-68.726147, 10.533579000000145], [-68.726888, 10.532843000000184], [-68.727187, 10.531947000000116], [-68.72665299999989, 10.531237], [-68.72602599999988, 10.53078], [-68.725468, 10.530277000000126], [-68.723913, 10.529731], [-68.7221019999999, 10.52891], [-68.720919, 10.528569], [-68.72001299999982, 10.527517], [-68.719059, 10.525936000000172], [-68.718707, 10.524056], [-68.718124, 10.523049000000185], [-68.717565, 10.521766], [-68.71719399999989, 10.521514], [-68.716822, 10.52137800000014], [-68.716005, 10.51865], [-68.71614199999988, 10.51741], [-68.71534999999983, 10.515761], [-68.71506699999986, 10.513467000000162], [-68.715089, 10.512641], [-68.7155269999999, 10.511424], [-68.715664, 10.510461000000134], [-68.71529, 10.508718000000158], [-68.714174, 10.507253000000105], [-68.71377599999988, 10.505144], [-68.713172, 10.504916], [-68.713285, 10.503425000000107], [-68.71390699999989, 10.501244], [-68.714275, 10.499751], [-68.715637, 10.496238000000176], [-68.716722, 10.494078000000115], [-68.718293, 10.490817000000163], [-68.720226, 10.490720000000124], [-68.721583, 10.489477000000136], [-68.72259799999983, 10.48679], [-68.723057, 10.484403], [-68.723124, 10.48321], [-68.723259, 10.481489000000181], [-68.72334699999988, 10.478643], [-68.72335499999986, 10.478595], [-68.723377, 10.478509], [-68.723401, 10.478309000000138], [-68.723621, 10.476945], [-68.723759, 10.475981000000104], [-68.723758, 10.47556800000018], [-68.72373199999987, 10.475517], [-68.72375, 10.47536300000013], [-68.723545, 10.475149000000158], [-68.72343199999983, 10.474927], [-68.72264199999984, 10.474126], [-68.72141, 10.472707], [-68.72076, 10.472067], [-68.7206149999999, 10.469360000000108], [-68.720242, 10.468100000000106], [-68.718637, 10.465856], [-68.71918899999986, 10.463515], [-68.71877099999989, 10.462874], [-68.717747, 10.461293000000182], [-68.717884, 10.459986], [-68.717905, 10.45897600000012], [-68.717368, 10.456867], [-68.716924, 10.45512500000018], [-68.71683, 10.454529], [-68.716573, 10.453841000000182], [-68.716131, 10.452764], [-68.715945, 10.452513], [-68.7135239999999, 10.453300000000183], [-68.711147, 10.454225000000122], [-68.708249, 10.454355], [-68.706257, 10.454564000000119], [-68.704501, 10.456856], [-68.703455, 10.456607], [-68.702645, 10.45732], [-68.702019, 10.457758], [-68.70114, 10.458701000000133], [-68.700654, 10.459092000000112], [-68.700075, 10.459644], [-68.700102, 10.461411000000169], [-68.70107799999988, 10.462394000000131], [-68.70189, 10.462874], [-68.702517, 10.463171000000102], [-68.702752, 10.464776], [-68.7030319999999, 10.465899], [-68.70289799999983, 10.468606], [-68.70294799999988, 10.469891000000132], [-68.703299, 10.471656000000166], [-68.70337099999989, 10.472757000000115], [-68.703211, 10.473790000000179], [-68.704421, 10.476104000000134], [-68.705025, 10.476562], [-68.705513, 10.477134], [-68.706587, 10.48114500000014], [-68.707262, 10.482589], [-68.707171, 10.483461], [-68.706202, 10.485964], [-68.705879, 10.486630000000105], [-68.705326, 10.488398000000188], [-68.70423899999986, 10.49009800000016], [-68.7028739999999, 10.491662], [-68.701764, 10.49320200000011], [-68.700908, 10.494489], [-68.700076, 10.495913], [-68.699801, 10.497153], [-68.69957199999988, 10.498897], [-68.699065, 10.500573], [-68.698419, 10.502433], [-68.697333, 10.504936], [-68.695876, 10.506706000000122], [-68.697218, 10.505372], [-68.696941, 10.506268000000148], [-68.696248, 10.507439], [-68.696646, 10.509457], [-68.696649, 10.510788], [-68.696255, 10.511362], [-68.695749, 10.51359], [-68.696939, 10.516867000000104], [-68.696964, 10.517532], [-68.696757, 10.51845], [-68.696552, 10.520538000000101], [-68.696669, 10.521226000000183], [-68.696786, 10.521799000000158], [-68.696301, 10.52274100000011], [-68.695512, 10.522957], [-68.69486299999988, 10.523135], [-68.6953309999999, 10.52457900000013], [-68.696308, 10.526067000000126], [-68.696496, 10.527398000000119], [-68.69519799999989, 10.52779100000015], [-68.693852, 10.528047000000186], [-68.6935739999999, 10.528048000000126], [-68.69236999999987, 10.529037], [-68.691582, 10.529406], [-68.6912109999999, 10.529614], [-68.690215, 10.530328000000111], [-68.689358, 10.530582000000152], [-68.688338, 10.530952], [-68.687087, 10.531506], [-68.68667, 10.53187400000013], [-68.68578899999989, 10.532198000000108], [-68.684445, 10.532821000000126], [-68.68370599999986, 10.534497000000101], [-68.682782, 10.536105], [-68.682783, 10.537046000000146], [-68.682785, 10.537941000000103], [-68.68311199999982, 10.539133000000163], [-68.68387799999988, 10.539612], [-68.683904, 10.54092], [-68.682931, 10.541611], [-68.682584, 10.541933], [-68.68216699999988, 10.542347000000177], [-68.6811699999999, 10.542648], [-68.681009, 10.54340500000012], [-68.680918, 10.543979], [-68.68092, 10.545103], [-68.680481, 10.545907], [-68.678184, 10.545362], [-68.67751, 10.544882], [-68.676653, 10.545573000000104], [-68.675935, 10.545988000000136], [-68.675101, 10.546127], [-68.674313, 10.546909000000142], [-68.674315, 10.547575000000165], [-68.67399199999983, 10.54854], [-68.67325099999988, 10.549482], [-68.673277, 10.551111], [-68.673733, 10.551397], [-68.67481, 10.552071], [-68.675785, 10.552779000000157], [-68.676389, 10.552915], [-68.67771099999987, 10.553325], [-68.678848, 10.55339], [-68.680891, 10.554578000000163], [-68.68207399999983, 10.554781000000105], [-68.68196099999989, 10.55645600000014], [-68.682079, 10.557488], [-68.682103, 10.557740000000138], [-68.681896, 10.558544], [-68.68083, 10.559212], [-68.680529, 10.559327000000167], [-68.68039, 10.559465], [-68.6799979999999, 10.560705000000155], [-68.679164, 10.561235000000124], [-68.67869999999988, 10.561397], [-68.678076, 10.562270000000126], [-68.677775, 10.562546], [-68.677335, 10.562983000000145], [-68.677405, 10.563579], [-68.677292, 10.565025000000162], [-68.677108, 10.565599], [-68.67711, 10.566861], [-68.677135, 10.568145], [-68.677858, 10.569841], [-68.678484, 10.570160000000158], [-68.67957599999988, 10.570708], [-68.680018, 10.571533], [-68.680737, 10.571875], [-68.681644, 10.572997], [-68.681437, 10.573938000000112], [-68.681298, 10.574167], [-68.68144, 10.575429], [-68.68153399999989, 10.57602500000013], [-68.68146499999989, 10.576621], [-68.681234, 10.577196000000185], [-68.681236, 10.577907], [-68.681608, 10.578777], [-68.682445, 10.579830000000186], [-68.683026, 10.580311000000165], [-68.683631, 10.581548], [-68.684421, 10.581981000000155], [-68.68521, 10.582507], [-68.686395, 10.583307000000104], [-68.68663, 10.58456800000016], [-68.687049, 10.585048], [-68.68675, 10.586563000000183], [-68.686148, 10.587299], [-68.68594, 10.588079], [-68.6845019999999, 10.588313], [-68.684479, 10.588405], [-68.68427, 10.588451], [-68.68315799999988, 10.588890000000163], [-68.68195399999985, 10.58988], [-68.682024, 10.590270000000146], [-68.68137599999989, 10.591189000000156], [-68.6804259999999, 10.591697], [-68.679986, 10.591996000000108], [-68.679453, 10.592296], [-68.678595, 10.592413], [-68.678015, 10.592414], [-68.67766799999987, 10.59321800000015], [-68.676927, 10.59335700000014], [-68.675142, 10.594027000000153], [-68.67500299999989, 10.594028], [-68.67432899999989, 10.5938230000001], [-68.673448, 10.593779], [-68.6725909999999, 10.594516000000112], [-68.67196599999988, 10.59516], [-68.671015, 10.595048], [-68.669136, 10.595374], [-68.66858, 10.595788], [-68.667327, 10.595585], [-68.66621199999986, 10.594601000000182], [-68.665397, 10.592883000000143], [-68.664585, 10.59261000000015], [-68.663193, 10.592407], [-68.662707, 10.593027000000177], [-68.661616, 10.593214], [-68.660526, 10.593285], [-68.6604095919999, 10.593314717000055], [-68.65934299999986, 10.593587000000127], [-68.65892699999989, 10.594459], [-68.65892799999989, 10.594482000000141], [-68.657653, 10.594944000000169], [-68.657189, 10.595427000000143], [-68.656078, 10.596531], [-68.65496599999989, 10.597131000000104], [-68.65408599999984, 10.598188000000164], [-68.653785, 10.598189], [-68.65213799999987, 10.598193], [-68.65199899999982, 10.598538000000133], [-68.651643, 10.599033], [-68.651421, 10.599342], [-68.65096999999986, 10.59914300000014], [-68.650747, 10.599045], [-68.649889, 10.599002], [-68.64963399999988, 10.598979], [-68.648381, 10.59873], [-68.648219, 10.598845000000154], [-68.647825, 10.598984], [-68.64678, 10.598803], [-68.645134, 10.59926600000017], [-68.643929, 10.599590000000148], [-68.642328, 10.599525], [-68.640124, 10.599325], [-68.639567, 10.599028], [-68.638406, 10.598755], [-68.636666, 10.59876], [-68.633695, 10.597804000000167], [-68.632674, 10.597531000000174], [-68.63118899999989, 10.596984000000191], [-68.630006, 10.597538], [-68.629427, 10.598067], [-68.628361, 10.598436], [-68.627618, 10.598186000000169], [-68.626506, 10.598624], [-68.625231, 10.599155], [-68.624627, 10.59904200000011], [-68.62414199999984, 10.59980000000013], [-68.62356199999988, 10.600169000000108], [-68.6232839999999, 10.600123], [-68.622635, 10.60024], [-68.62182299999989, 10.600609], [-68.62168499999984, 10.600976], [-68.62122099999982, 10.601115], [-68.620641, 10.600979000000166], [-68.619853, 10.601577], [-68.619158, 10.60203700000011], [-68.618717, 10.601993], [-68.618485, 10.601718], [-68.617418, 10.601996], [-68.617325, 10.60156], [-68.616744, 10.600896], [-68.616072, 10.601265000000183], [-68.615515, 10.601060000000132], [-68.614958, 10.601291], [-68.614542, 10.602140000000134], [-68.613917, 10.602784], [-68.613081, 10.602695], [-68.612222, 10.602421000000106], [-68.611434, 10.602607], [-68.6109469999999, 10.603227000000174], [-68.61099499999989, 10.603847000000144], [-68.611205, 10.604695000000106], [-68.611044, 10.605429000000129], [-68.610442, 10.606165], [-68.60988336999992, 10.606766563], [-68.6103254009999, 10.607591589000094], [-68.61213547799991, 10.608504598000025], [-68.61304051999991, 10.608479594000073], [-68.61129943099985, 10.605482527], [-68.61136542899999, 10.605523525000024], [-68.61359252899996, 10.605656522000118], [-68.61482358099994, 10.606410532000154], [-68.61515059999982, 10.60776256500003], [-68.61563963899994, 10.608862587999965], [-68.61719269099996, 10.608124561000125], [-68.61756169699999, 10.606770525000172], [-68.61783770999995, 10.605783500000143], [-68.61904375699999, 10.605597481000132], [-68.62018181199988, 10.60600748100012], [-68.62053183199998, 10.60747452600009], [-68.6211428869999, 10.61229064000014], [-68.62116790299996, 10.613138668000147], [-68.62230695699998, 10.614604692000114], [-68.6226539619999, 10.614190686000143], [-68.62383501599999, 10.613086644000077], [-68.62432303599996, 10.61375065600015], [-68.62490406099982, 10.614139670000156], [-68.6259001069999, 10.61344864], [-68.6261321099999, 10.613126635000128], [-68.62675713199985, 10.612597614000094], [-68.62787117999994, 10.612961614000028], [-68.62780519399996, 10.614751671000079], [-68.62865223299997, 10.61500166400009], [-68.62873321799992, 10.61183658400006], [-68.6517982439999, 10.6186786130001], [-68.64915563499994, 10.630879780000043]]]}}]}