{"type": "FeatureCollection", "features": [{"type": "Feature", "properties": {"Pais": "Venezuela", "Estado": "Nueva Esparta", "Municipio": "Marcano", "Parroquia": "Marcano"}, "geometry": {"type": "Polygon", "coordinates": [[[-63.97605901299988, 11.11032567500007], [-63.97603061199993, 11.110105987], [-63.976175618999946, 11.11048799200006], [-63.97693564399998, 11.10992898], [-63.976697639999884, 11.10935896400008], [-63.97720065799996, 11.108619936000082], [-63.97738788699991, 11.108446373], [-63.97801771699994, 11.10786251200011], [-63.97862571099989, 11.107298895000099], [-63.97863240499993, 11.10718893800015], [-63.97867971299996, 11.106411864000165], [-63.97842469099999, 11.105719846000113], [-63.97872839599995, 11.105061526000156], [-63.97876470699987, 11.104982818000053], [-63.97966373999998, 11.104376799000079], [-63.98063677999994, 11.104297788000054], [-63.981210811999915, 11.103672768000024], [-63.98152381599988, 11.10250073200001], [-63.982324833999826, 11.099100633000148], [-63.982239822999986, 11.097611586000141], [-63.98159677599989, 11.095968541], [-63.98141377399992, 11.095656542000029], [-63.98141276899986, 11.095656542000029], [-63.98110175399995, 11.095126520000065], [-63.980400721999956, 11.094698517000097], [-63.9794296689999, 11.09493853000015], [-63.97808361499989, 11.094952539000133], [-63.976902562999896, 11.095126544000038], [-63.975924517999886, 11.094770548000099], [-63.97563349599994, 11.093535510000038], [-63.975739493999924, 11.092457476], [-63.97589349299989, 11.091654451000124], [-63.976159500999984, 11.090436415000056], [-63.97686052099988, 11.08866435900012], [-63.977846562999844, 11.087485319000109], [-63.97871759099996, 11.086490282000113], [-63.97887358899982, 11.085778265999977], [-63.97867658799993, 11.085782264000159], [-63.97666949799998, 11.08582528400018], [-63.97578845899989, 11.085788288000117], [-63.97499741199982, 11.085591282000166], [-63.97393436899995, 11.085946297000135], [-63.973002324999925, 11.08556730000015], [-63.97267629199996, 11.083164226000065], [-63.97230726399988, 11.081037167000034], [-63.972848284999884, 11.07949612100009], [-63.97494737099993, 11.078281066000159], [-63.97577240999982, 11.077310035000039], [-63.97578340699994, 11.07730004200016], [-63.97733546599983, 11.07584899300008], [-63.97906254399999, 11.074661943000137], [-63.980843620999906, 11.074161921000155], [-63.98280470299983, 11.073062874000072], [-63.98384274599994, 11.072524851000026], [-63.98608383499999, 11.071652813000185], [-63.98758589999994, 11.071063796000033], [-63.990939049999895, 11.070064748000163], [-63.992461110999955, 11.069279713000128], [-63.992456119999986, 11.069263714000158], [-63.99375417099992, 11.068612686000108], [-63.99591027399998, 11.068451671], [-63.996930308999936, 11.068394655000077], [-63.99945542699993, 11.068092633000163], [-64.00024446299994, 11.06819863100003], [-64.00106350399994, 11.068830644000172], [-64.00153152599995, 11.069284664000065], [-64.0020205489999, 11.0694396560001], [-64.0027825919999, 11.070355678000055], [-64.0029445969999, 11.069501662000107], [-64.00394263099997, 11.068533622000132], [-64.00497467799983, 11.067931600000065], [-64.0064067369999, 11.067503585000054], [-64.00829583199999, 11.067568566000034], [-64.00885489699988, 11.067575150000039], [-64.00885881099993, 11.06757519700011], [-64.00948388499995, 11.067582560000119], [-64.01000890599988, 11.068027569000094], [-64.01058793599992, 11.06872458700019], [-64.01150198099998, 11.068906586000082], [-64.0123730119999, 11.068401567000137], [-64.01227200799991, 11.068015565000167], [-64.01225991899997, 11.067960444000107], [-64.01196875199997, 11.067894693000085], [-64.01109967199989, 11.067554331], [-64.008668, 11.06660200000016], [-64.008497, 11.066557], [-64.008496, 11.066557], [-64.00595199999987, 11.065891000000136], [-64.00523702799995, 11.06582416600014], [-64.004005, 11.065709], [-64.00108399999988, 11.064975], [-63.999878, 11.064327], [-63.99761699999988, 11.062276000000168], [-63.99700515799998, 11.061710981000033], [-63.99314368299997, 11.058145018000118], [-63.991579999999885, 11.056701], [-63.989696, 11.057777], [-63.9856309999999, 11.060399000000132], [-63.98044, 11.063167], [-63.977662, 11.064069000000188], [-63.97624, 11.064849], [-63.973907, 11.06613], [-63.971721999999886, 11.066821000000175], [-63.9681379999999, 11.066991], [-63.965193, 11.067083], [-63.963554, 11.066875], [-63.960967, 11.06677100000013], [-63.959379, 11.066611], [-63.95723, 11.067014000000142], [-63.954003, 11.066817000000185], [-63.953701, 11.06641], [-63.953475, 11.066025], [-63.954554, 11.067866000000151], [-63.954948, 11.069256], [-63.954845, 11.070513000000119], [-63.9545159999999, 11.071592], [-63.954542, 11.072758], [-63.95500177499997, 11.073566603000074], [-63.955002, 11.073567], [-63.95500792699994, 11.073568291000072], [-63.95504266599988, 11.073575860000062], [-63.95510716599989, 11.073589913000035], [-63.955109394999965, 11.073590399000125], [-63.95522242699991, 11.073615026000084], [-63.95523429299993, 11.073617611000032], [-63.95533109099995, 11.073638701], [-63.955340987999875, 11.073640856999987], [-63.95564380999997, 11.073706834000063], [-63.95578766499989, 11.073738176000177], [-63.95609051799988, 11.07380415900019], [-63.956535, 11.073901000000149], [-63.95771699999989, 11.074143000000106], [-63.95804907299993, 11.074217208], [-63.958876, 11.074402000000191], [-63.95948514899993, 11.075655793000124], [-63.95951490499988, 11.075717038000107], [-63.96011461299997, 11.076951399], [-63.96168771299989, 11.080189261000044], [-63.963090129999955, 11.083075811000128], [-63.97045924099996, 11.09824342100012], [-63.970642513999906, 11.09862064500004], [-63.97117321299993, 11.099712967000187], [-63.97233988399995, 11.102114289000099], [-63.9750939999999, 11.107783], [-63.97563802399998, 11.109216451000123], [-63.975889301999985, 11.109878544000082], [-63.97596499999986, 11.110078000000101], [-63.97605901299988, 11.11032567500007]]]}}, {"type": "Feature", "properties": {"Pais": "Venezuela", "Estado": "Nueva Esparta", "Municipio": "Marcano", "Parroquia": "Adrian"}, "geometry": {"type": "Polygon", "coordinates": [[[-64.008668, 11.06660200000016], [-64.01109967199989, 11.067554331], [-64.01196875199997, 11.067894693000085], [-64.01225991899997, 11.067960444000107], [-64.01217900899996, 11.067591544000152], [-64.01212699799999, 11.067121533999966], [-64.01240900899995, 11.06637951600004], [-64.01313903199997, 11.065808489000176], [-64.01404507599989, 11.064911461000179], [-64.0138650639999, 11.064296449000096], [-64.01332303899994, 11.06408144400018], [-64.01321602599995, 11.063579423000078], [-64.01356803299996, 11.062834401000089], [-64.01352702999992, 11.06219239100011], [-64.0131190109999, 11.061790379000058], [-64.01301300399996, 11.06131036500011], [-64.01383403599993, 11.060691339000073], [-64.0147010689999, 11.060048319000146], [-64.01505508599996, 11.0593732910001], [-64.01531309099983, 11.05858527200013], [-64.01526808999984, 11.057806254000184], [-64.01421703099999, 11.056892232000052], [-64.01387101099988, 11.056189205000067], [-64.01434502999984, 11.05482216900009], [-64.01469003399995, 11.053802136000172], [-64.01489403799997, 11.051936084000147], [-64.01528104599993, 11.050801049000086], [-64.0156940629999, 11.050560035000046], [-64.01550105799993, 11.050428030000035], [-64.01510020699988, 11.050170600000058], [-64.01471405799998, 11.049906798000109], [-64.01225658999988, 11.048227956000119], [-64.00670111199992, 11.044432678000135], [-64.00009804399991, 11.039921729000014], [-63.999712, 11.039658000000145], [-63.997682, 11.037703], [-63.996191, 11.035987000000148], [-63.99500399999988, 11.033492000000138], [-63.99428199999983, 11.031892], [-63.992356, 11.030763], [-63.991506, 11.030519], [-63.990947, 11.030359], [-63.988024, 11.029406000000108], [-63.985406, 11.027649], [-63.98325099999988, 11.026351], [-63.978324, 11.023394], [-63.976535, 11.024305], [-63.97354699999988, 11.026293000000123], [-63.97166, 11.028299000000175], [-63.969718999999884, 11.030037000000107], [-63.968236, 11.03065400000014], [-63.966981, 11.030395], [-63.965751, 11.030258], [-63.964756, 11.030328000000168], [-63.964138999999875, 11.030463000000168], [-63.963475, 11.030929000000185], [-63.96253, 11.031494], [-63.961507, 11.031865000000153], [-63.96042299999988, 11.031262], [-63.959994, 11.031146], [-63.959276, 11.030932], [-63.958383, 11.03114], [-63.956183999999894, 11.032557], [-63.955472, 11.033947000000126], [-63.953793, 11.037117], [-63.953591, 11.038077], [-63.95351699999986, 11.038431], [-63.953633, 11.042345], [-63.952923999999825, 11.044585000000154], [-63.952244, 11.047555], [-63.951714, 11.049649000000102], [-63.951643999999874, 11.05152], [-63.951367, 11.05278600000014], [-63.95060599999988, 11.054954], [-63.949894, 11.056174000000112], [-63.949468, 11.05885], [-63.949278, 11.060166], [-63.949162, 11.060094000000106], [-63.948692, 11.059586], [-63.950757, 11.06182100000018], [-63.952323, 11.0640590000001], [-63.953475, 11.066025], [-63.953701, 11.06641], [-63.954003, 11.066817000000185], [-63.95723, 11.067014000000142], [-63.959379, 11.066611], [-63.960967, 11.06677100000013], [-63.963554, 11.066875], [-63.965193, 11.067083], [-63.9681379999999, 11.066991], [-63.971721999999886, 11.066821000000175], [-63.973907, 11.06613], [-63.97624, 11.064849], [-63.977662, 11.064069000000188], [-63.98044, 11.063167], [-63.9856309999999, 11.060399000000132], [-63.989696, 11.057777], [-63.991579999999885, 11.056701], [-63.99314368299997, 11.058145018000118], [-63.99700515799998, 11.061710981000033], [-63.99761699999988, 11.062276000000168], [-63.999878, 11.064327], [-64.00108399999988, 11.064975], [-64.004005, 11.065709], [-64.00523702799995, 11.06582416600014], [-64.00595199999987, 11.065891000000136], [-64.008496, 11.066557], [-64.008497, 11.066557], [-64.008668, 11.06660200000016]]]}}]}