{"type": "FeatureCollection", "features": [{"type": "Feature", "properties": {"Pais": "Venezuela", "Estado": "Falc\u00f3n", "Municipio": "Mauroa"}, "geometry": {"type": "Polygon", "coordinates": [[[-70.940417, 11.084925000000112], [-70.94191099999989, 11.085808000000156], [-70.942821, 11.088835000000131], [-70.9443639999999, 11.08965], [-70.94569599999988, 11.090505000000121], [-70.94643, 11.092060000000174], [-70.947664, 11.094153000000176], [-70.949668, 11.095161], [-70.951921, 11.097529], [-70.95324099999988, 11.097857], [-70.954982, 11.099227], [-70.95527470399992, 11.100210201000152], [-70.955436, 11.100752000000114], [-70.957046, 11.10166], [-70.9576562879999, 11.101893434000033], [-70.958063, 11.102049000000136], [-70.960714, 11.103301000000158], [-70.960659, 11.104724000000147], [-70.96152099999989, 11.104742], [-70.96170790399992, 11.104921383000033], [-70.96318599999984, 11.10634], [-70.96402299999988, 11.106381000000113], [-70.965246, 11.10693600000019], [-70.96633, 11.108452], [-70.96726799999988, 11.11132], [-70.968701, 11.112843], [-70.97014799999988, 11.11377], [-70.97059999999988, 11.114400000000103], [-70.971994, 11.114568000000133], [-70.973145, 11.116224], [-70.974295, 11.116869000000122], [-70.975878, 11.119016000000101], [-70.97594454999995, 11.119041338999978], [-70.97918467999983, 11.117941292000012], [-70.98107275399991, 11.116812247000155], [-70.98386485399993, 11.115909213], [-70.98731198999991, 11.11488315500003], [-70.98989908499993, 11.112713089000067], [-70.99287919099987, 11.110689015000105], [-70.99465126399986, 11.110659002000034], [-70.99631433899998, 11.110189988000116], [-70.99762438199991, 11.108887942000024], [-70.99910643099997, 11.108230918], [-71.0040576419999, 11.107491863000064], [-71.00504666799986, 11.105903813000111], [-71.00736974999995, 11.104046752000045], [-71.01028685699998, 11.101513670000088], [-71.013992, 11.100214612000059], [-71.01840816999999, 11.098265536999975], [-71.02359835699997, 11.094999413000096], [-71.03057862099996, 11.09080726100018], [-71.03689386599996, 11.088163153000039], [-71.04238706899997, 11.084858039000153], [-71.04683622599987, 11.080425898000158], [-71.05060236799989, 11.079496842000026], [-71.05539455099995, 11.077347762000045], [-71.05958872499986, 11.075967698000056], [-71.06711501099988, 11.072223556000097], [-71.07294621099999, 11.067315391000136], [-71.07465226199992, 11.063836294000112], [-71.07443623799998, 11.06100421900004], [-71.0733972029999, 11.062751272000071], [-71.0716561299999, 11.06358730900007], [-71.06966006399995, 11.06448634100019], [-71.06793399299994, 11.064748366000117], [-71.06882901799986, 11.06320431800009], [-71.07052806699994, 11.061081252000065], [-71.07403719699994, 11.059111181000048], [-71.07940641399989, 11.058170123000025], [-71.08609068099997, 11.056682041000158], [-71.09152389299993, 11.055006963000096], [-71.09719713099986, 11.054002896999975], [-71.10181530599993, 11.052355827000156], [-71.10450140799998, 11.050781767000103], [-71.10826056199988, 11.050103726000032], [-71.11195570299992, 11.049102678000168], [-71.11769392099995, 11.046261564000133], [-71.12250009399997, 11.042411439000148], [-71.12442416699986, 11.041625398], [-71.12917935999991, 11.04112935400019], [-71.13168645799988, 11.03922929600003], [-71.13521458099996, 11.037398219000124], [-71.13858971499997, 11.035172143000125], [-71.14262783899994, 11.030248003000054], [-71.14535293699998, 11.027938918000018], [-71.15061312899985, 11.024580805000085], [-71.16140554999993, 11.019904607000058], [-71.16217557499988, 11.01928459000004], [-71.16485347499992, 11.018415318000052], [-71.16727028299988, 11.017630807000046], [-71.17099892199991, 11.016420467000103], [-71.17532309499995, 11.015386410000076], [-71.17835320699993, 11.012946323000051], [-71.18207934399993, 11.010566244000017], [-71.18677651399992, 11.007357134000074], [-71.19250173399996, 11.006031054000118], [-71.19820996699991, 11.005463011000131], [-71.20297915599991, 11.004299948999972], [-71.20676431299995, 11.003437895000104], [-71.21074046199993, 11.002372846000128], [-71.21593766399991, 10.999633741000082], [-71.2206448419999, 10.997021643000153], [-71.22128386699995, 10.996859633000042], [-71.22449297999998, 10.994189553000126], [-71.22761108999998, 10.992363482000087], [-71.23094722999997, 10.991093434], [-71.23372733999992, 10.99063340000015], [-71.23661644899988, 10.9904973780001], [-71.23981957999996, 10.989865341000097], [-71.24181565899994, 10.98913431200009], [-71.24437976099989, 10.988051263000102], [-71.24693085299992, 10.986555204000013], [-71.2484429189999, 10.986523194000029], [-71.25076301099995, 10.98678519200007], [-71.25274509299999, 10.98662716900003], [-71.25374112499998, 10.985895153000058], [-71.25477116499991, 10.98470611199997], [-71.25640422899994, 10.984539093000137], [-71.25894533599995, 10.984326078000151], [-71.26145343499991, 10.983608040999968], [-71.26537958199998, 10.982007969000108], [-71.26721265799995, 10.981249944000183], [-71.27330889399997, 10.980319879000092], [-71.27509997099997, 10.980317868000157], [-71.27791809199994, 10.980201843000089], [-71.28073419599997, 10.979261796000173], [-71.28264026999994, 10.978391772000123], [-71.2940067209999, 10.975114611000151], [-71.29791087199999, 10.973445537999964], [-71.29518275599997, 10.973700569000016], [-71.29703482499997, 10.973103545000185], [-71.29898990399994, 10.97216550200011], [-71.30102498499991, 10.971733475000178], [-71.30451112299988, 10.970924435000029], [-71.30749424299995, 10.97072040500018], [-71.30971733799998, 10.970224378000069], [-71.31074136499996, 10.968348336000133], [-71.31229041799998, 10.967812308000191], [-71.3150065019999, 10.963452185000108], [-71.3141994689999, 10.96309817700012], [-71.31359742099994, 10.96297960700008], [-71.31295041199996, 10.962852183000052], [-71.31113933799992, 10.962850197000023], [-71.30916326399995, 10.96302921], [-71.30798020599985, 10.963012213000127], [-71.30686356699994, 10.9633127030001], [-71.30627814299999, 10.963470242000085], [-71.30553411899996, 10.963574250000022], [-71.30420906099994, 10.963670257000047], [-71.30337102499988, 10.96379626099997], [-71.30233497799986, 10.963278261000085], [-71.30182995699988, 10.96292825900008], [-71.30124893499988, 10.962989258000107], [-71.30049590399994, 10.963642280000101], [-71.29994989099987, 10.964366299000062], [-71.29879184299989, 10.964213311000037], [-71.29771879999998, 10.96454232200017], [-71.2962267449999, 10.964956347000054], [-71.29508369599995, 10.965306360000113], [-71.29395565599987, 10.96611439000003], [-71.29352763599996, 10.966772411000022], [-71.29240459699997, 10.96730642600005], [-71.29149255899989, 10.967705441000135], [-71.29062552899984, 10.968219457000032], [-71.28989850099998, 10.968667475000132], [-71.28845544899997, 10.968876497000053], [-71.28750539999987, 10.968794495000168], [-71.28642036199989, 10.968413491000092], [-71.28587633599989, 10.967605484000103], [-71.28540030799996, 10.966935466000109], [-71.28517829199996, 10.966291450000085], [-71.28411024899998, 10.966345463000039], [-71.2824811829999, 10.966597471000114], [-71.28114813499985, 10.967173502000094], [-71.28023710199994, 10.967550511000127], [-71.27934906899992, 10.967926526000042], [-71.27824802499998, 10.968506552000065], [-71.27795701699995, 10.969257578000054], [-71.27773500999996, 10.970055598000158], [-71.27756101499995, 10.970785610000178], [-71.27678597599999, 10.971369631000073], [-71.2760359479999, 10.971793644000059], [-71.2754779259999, 10.971808654000085], [-71.27482790299996, 10.971845660000099], [-71.27410087499993, 10.972293678000085], [-71.27420389199995, 10.973095693000062], [-71.27375387699993, 10.973615713000129], [-71.27365086899994, 10.974254729000052], [-71.27313685199994, 10.974476729000116], [-71.27276583899987, 10.974425741000175], [-71.27249282099984, 10.974078729000041], [-71.2720568019999, 10.973797727999965], [-71.27159178799997, 10.973860724000076], [-71.27123177799996, 10.974541745000181], [-71.27073275899994, 10.975266769000143], [-71.27027073599993, 10.975123769], [-71.27009672999992, 10.974388757000156], [-71.27001971599992, 10.973449735000088], [-71.27003154999994, 10.972704916000168], [-71.27003970499999, 10.972191700000167], [-71.27002770899998, 10.97155068700016], [-71.26985369199997, 10.970838663000052], [-71.26972768599995, 10.97001364900018], [-71.26951466499997, 10.968820620000145], [-71.26936564599998, 10.96801760000011], [-71.26937564699995, 10.96740058000006], [-71.26943164799997, 10.966851566000116], [-71.2690726209999, 10.966068557000028], [-71.26887261299998, 10.965494546000059], [-71.26890861599992, 10.964739525000027], [-71.26916060899998, 10.96355349300012], [-71.26916060899998, 10.963530493], [-71.26924461099992, 10.962662468000076], [-71.26960561399994, 10.961889446000043], [-71.27017863499992, 10.960890418000133], [-71.27080064899997, 10.95977738099998], [-71.2711176599999, 10.958844363000082], [-71.27130766999994, 10.958595357000092], [-71.27161867699988, 10.957981337999968], [-71.27162867699991, 10.957386325000016], [-71.27159366899997, 10.956722310999965], [-71.27150866399995, 10.956241294000051], [-71.27094763099996, 10.955066265000085], [-71.27049260599989, 10.954488260000176], [-71.26983057399991, 10.953769239000053], [-71.2695675569999, 10.952873226000122], [-71.26924954299989, 10.952411214000051], [-71.26897952799993, 10.95188120600011], [-71.26866351199999, 10.951374198000053], [-71.26809247799991, 10.950817184000186], [-71.26773046099999, 10.950240171000132], [-71.26778545699989, 10.94971415700013], [-71.2680504629999, 10.94912313900005], [-71.26803546399998, 10.948596132999967], [-71.26769544199993, 10.948088121000069], [-71.2675364349999, 10.947880115000089], [-71.26685140399996, 10.94723010700011], [-71.26595736799999, 10.946531096000115], [-71.26534333599989, 10.94574507200008], [-71.26455930399987, 10.94543707600019], [-71.26398326999998, 10.94515406500011], [-71.26270921399998, 10.94499907900007], [-71.26177717799999, 10.945261087000063], [-71.2606191299999, 10.945107094000036], [-71.25952108899992, 10.945504112000037], [-71.2588490579999, 10.945426117000068], [-71.25836503899984, 10.945236111000156], [-71.2577380159999, 10.945250117000057], [-71.25688498199986, 10.944918115000121], [-71.25607093899998, 10.944975119000048], [-71.25563892699995, 10.944466113000033], [-71.25488588499991, 10.943655091999972], [-71.25422485899992, 10.942959084000108], [-71.25372282799998, 10.942380073000095], [-71.25312680799993, 10.941960066000092], [-71.2527817859999, 10.941749058000028], [-71.25258177799998, 10.941197055000089], [-71.25202974999996, 10.940892047999967], [-71.25140672299989, 10.940678050000031], [-71.25075769199992, 10.940623043000187], [-71.2500606619999, 10.940682056000185], [-71.24940563799998, 10.940970066000034], [-71.2479565829999, 10.941614093000112], [-71.24688654199991, 10.941713101000175], [-71.24667753799986, 10.941733099000032], [-71.2461435109999, 10.941771109000172], [-71.24556248899995, 10.941786108000088], [-71.24489345999996, 10.94157110500015], [-71.24413242899993, 10.941263108000157], [-71.24295837799997, 10.940629103000163], [-71.24238635199998, 10.940140095], [-71.24176532199994, 10.939811084000098], [-71.24089128399999, 10.939296087000173], [-71.23985322899989, 10.938961082999981], [-71.23862817599996, 10.93860007700016], [-71.23761413699992, 10.938174077000099], [-71.23671409699989, 10.937887071000148], [-71.23584105299994, 10.937326062000182], [-71.23496701499994, 10.93683305900015], [-71.23321093799996, 10.936351060000163], [-71.23205189699996, 10.93624306700002], [-71.23084583899998, 10.936181075000036], [-71.22987179599994, 10.936144080000076], [-71.22877475999996, 10.936518098000079], [-71.22761671199999, 10.936341093000124], [-71.22676567499991, 10.935918096000023], [-71.22593463699997, 10.935631090000072], [-71.22483158599994, 10.934952077000105], [-71.22449557199991, 10.934238068000127], [-71.22368652899996, 10.933998067000061], [-71.22302050299999, 10.933600056000046], [-71.22223646999998, 10.93326905900011], [-71.22163943399994, 10.932871047000049], [-71.22097241499995, 10.932519048000131], [-71.22044838699998, 10.931916033000107], [-71.22022937399998, 10.931135021000102], [-71.21996635699998, 10.930194001000075], [-71.21997535199995, 10.92962198700019], [-71.22013134699995, 10.928616955000166], [-71.22058735599995, 10.927753930000051], [-71.22106238099991, 10.927096913000128], [-71.22144838299994, 10.926186883000184], [-71.22206540799993, 10.925371868000127], [-71.22281841699998, 10.923346804000118], [-71.22286542299997, 10.923300804], [-71.22322543399991, 10.92261978199997], [-71.22279340999995, 10.922087777000115], [-71.22203637299992, 10.921527772000047], [-71.22119033699994, 10.920760753000081], [-71.22071131799999, 10.920250743000167], [-71.22004728899992, 10.919691730000181], [-71.21936325099983, 10.918973727000036], [-71.21890622799992, 10.91855471200006], [-71.21849720399996, 10.918022707000034], [-71.21814018699996, 10.91714869000009], [-71.21773016999998, 10.916684679000184], [-71.21750415899993, 10.916315672999986], [-71.2172561399999, 10.91585466500004], [-71.21749715099998, 10.91530864200007], [-71.21762614999989, 10.914509630000055], [-71.21759414399992, 10.91363960800004], [-71.21715410799999, 10.912237568000023], [-71.21720810199997, 10.91036252500004], [-71.21718509199991, 10.908966490000068], [-71.21717008199983, 10.90846247200011], [-71.21712107999986, 10.907180445000165], [-71.2170250609999, 10.905966413999977], [-71.21692505799996, 10.905050391000145], [-71.2168060379999, 10.90383536700017], [-71.21681803599989, 10.903057345000093], [-71.21692503899999, 10.902235321000092], [-71.21689102399989, 10.90148031100017], [-71.21664601899988, 10.90088129100019], [-71.21590698299985, 10.900642295000125], [-71.21526395799992, 10.900244283000063], [-71.21464292799988, 10.8998692830001], [-71.21444290799997, 10.899340268000117], [-71.21375587799997, 10.89878126800005], [-71.2132828529999, 10.897928241000102], [-71.21323284599993, 10.896760209999968], [-71.21270982399989, 10.89613519900007], [-71.21209178499993, 10.895600191000028], [-71.2116107679999, 10.895182182000156], [-71.21113473999998, 10.894511171000147], [-71.21095773299999, 10.894028168000034], [-71.20987667799989, 10.89341815500012], [-71.20939765899993, 10.892885145000093], [-71.20915264299992, 10.89231013], [-71.20891163399995, 10.891460118000055], [-71.20888162499989, 10.890453087000083], [-71.20863660899994, 10.889854079000088], [-71.20924962699996, 10.88926806], [-71.20966063899994, 10.888290035000182], [-71.20976463899996, 10.887582006000116], [-71.20942562199997, 10.88705100500016], [-71.20885259099998, 10.886584998000046], [-71.20811655799992, 10.886208994000071], [-71.20791654999988, 10.88570297900003], [-71.20702050499989, 10.885163976000115], [-71.20611846699995, 10.88492196600015], [-71.20530743899991, 10.884864973000106], [-71.2046194049999, 10.884374973000092], [-71.20395737299992, 10.883701953000184], [-71.20376136099998, 10.882920941000066], [-71.20379235199988, 10.88250992900015], [-71.20380135999983, 10.881937915000037], [-71.20346633799988, 10.88115489400019], [-71.20300430499998, 10.879614865000065], [-71.20255928099982, 10.878464834], [-71.20195724699994, 10.877037809000171], [-71.2013022139999, 10.875952783000116], [-71.20067018099991, 10.874868763000109], [-71.19984913099995, 10.873987748000161], [-71.19919210099994, 10.873062719000075], [-71.19903809299996, 10.87251170900015], [-71.19881607799988, 10.87191369300001], [-71.19829404799998, 10.871242682], [-71.19823904199995, 10.870372660000157], [-71.19817903599994, 10.86979965400019], [-71.19847304599995, 10.86884263100012], [-71.19899406199988, 10.868232608000028], [-71.19956208299988, 10.867530583000132], [-71.20043110999995, 10.866948560000026], [-71.20065311699994, 10.866127540000093], [-71.20119414199985, 10.86567752500008], [-71.20104112799999, 10.865126515000156], [-71.20084410999993, 10.864437503000147], [-71.20058309099983, 10.863380477000078], [-71.20054809399994, 10.862670463000143], [-71.20030407099983, 10.862026447000176], [-71.19991905299986, 10.861472435000167], [-71.19988105399989, 10.860922417000097], [-71.20007804999995, 10.860284406000176], [-71.19957403299998, 10.859865391000028], [-71.19947301399998, 10.858994376], [-71.19932200899984, 10.858260358000052], [-71.19917299099995, 10.857457338000188], [-71.1987379759999, 10.857108329000027], [-71.19797294899996, 10.85709733699997], [-71.19730091799994, 10.857019342], [-71.19722190599998, 10.856217327000024], [-71.19718689799993, 10.855507301000046], [-71.19698989199998, 10.854772290000085], [-71.19674287799995, 10.854334282000082], [-71.19661685999995, 10.85353126300015], [-71.19630784199995, 10.85254323800001], [-71.19608783499996, 10.851830221000114], [-71.19565980699997, 10.851092207000136], [-71.19532578999997, 10.850218190000021], [-71.19510977899995, 10.849254170000052], [-71.19449474199985, 10.84858114900004], [-71.19353669299988, 10.84758413000003], [-71.19254664799996, 10.847112128999981], [-71.19178761399996, 10.846690125000066], [-71.19095957799993, 10.846289123000133], [-71.19026754899994, 10.846004114000038], [-71.19023453799997, 10.845226093000065], [-71.19004152799988, 10.844262073000095], [-71.18977251799993, 10.843709065000155], [-71.18943150399997, 10.843315060000123], [-71.18921448799995, 10.842374040000095], [-71.18959649399994, 10.841762019000157], [-71.18945347999988, 10.840592995000065], [-71.18898045499992, 10.839761976000148], [-71.18851043199993, 10.838725953000164], [-71.18831740999997, 10.83778493300008], [-71.18793539399996, 10.837024912000174], [-71.18720236299998, 10.836441906000061], [-71.18698034699992, 10.835820890000036], [-71.18625030699991, 10.835078869000029], [-71.18551527899984, 10.834632872000157], [-71.18501525799996, 10.834008854000047], [-71.18444222699998, 10.833610854000142], [-71.18401919799987, 10.832506824000063], [-71.18352917699991, 10.831309800000156], [-71.18307915199989, 10.830456785000024], [-71.18248812099995, 10.829739774000132], [-71.18159007899999, 10.82933776699997], [-71.18064304399996, 10.829049768000061], [-71.1793499829999, 10.828710769000168], [-71.17835594299999, 10.82849076600013], [-71.17771090699989, 10.828206762000093], [-71.17688187799996, 10.82780576000016], [-71.17608283599992, 10.82701674700013], [-71.1752937949999, 10.825678719999985], [-71.17484177199992, 10.824939701000062], [-71.17417974099993, 10.824289692000036], [-71.1738187169999, 10.82368967900004], [-71.17341069799988, 10.823111662000088], [-71.17286066799994, 10.82271465499997], [-71.17202064599991, 10.822977667000089], [-71.17081258999997, 10.823051676999967], [-71.16937153599991, 10.82321369300007], [-71.16872150099988, 10.823227698999972], [-71.16811147599992, 10.822257674000127], [-71.16789746299997, 10.82115665800012], [-71.16752043599996, 10.820144628000037], [-71.16761844299998, 10.81982562800016], [-71.16688340299993, 10.81940261800014], [-71.1657743589999, 10.819089621999979], [-71.16439429599995, 10.81840661400014], [-71.16349825099996, 10.817844599000068], [-71.16281021699996, 10.817376594], [-71.16219918799987, 10.816475582000066], [-71.16183216999997, 10.816195573000073], [-71.16151915599994, 10.815504552], [-71.1612701439999, 10.815135545000146], [-71.16057210999998, 10.815262554000071], [-71.15952407699996, 10.815499575000047], [-71.15871103899991, 10.8155335780001], [-71.15755898499998, 10.815059569000027], [-71.15628152599999, 10.81477951800008], [-71.15621793599996, 10.81476557700006], [-71.15494787599994, 10.814426578000166], [-71.15374481999999, 10.814180572000055], [-71.15275178399997, 10.813892574000022], [-71.15204074999991, 10.813447569000061], [-71.15112371399982, 10.812747553000065], [-71.15062367999991, 10.812122542000111], [-71.15021465699994, 10.811613537000028], [-71.15004264999999, 10.810832513000094], [-71.14972663299994, 10.810324512000022], [-71.14952961599988, 10.809612489000187], [-71.14921660199985, 10.808921480000151], [-71.14882559099993, 10.808732479000014], [-71.14850157199993, 10.8086824720001], [-71.14805955899993, 10.80874447500014], [-71.1477745439999, 10.809106484000154], [-71.14730452999999, 10.809466497000187], [-71.14708752399997, 10.809943519000058], [-71.14652849799984, 10.810072525000066], [-71.14567146899998, 10.809969520000152], [-71.14528144999997, 10.809734519000187], [-71.1446334129999, 10.809656523000115], [-71.14416440399998, 10.809947535000049], [-71.14413339999999, 10.810358547000135], [-71.14398640099989, 10.81086055500009], [-71.14362738299997, 10.811472576000028], [-71.14263534099996, 10.81116157700012], [-71.14162230699998, 10.810711572000116], [-71.14105127299996, 10.810131557000147], [-71.14025422899994, 10.809250543000076], [-71.13959919699982, 10.80823451800012], [-71.13900517499997, 10.807676509000089], [-71.13774410999997, 10.806766502000187], [-71.13675506899995, 10.806248490000144], [-71.13567501999995, 10.805660484000157], [-71.13466098099997, 10.805257485000084], [-71.13334991899995, 10.804551476000029], [-71.13234086899996, 10.803873468000063], [-71.13170183799991, 10.803200447000108], [-71.13150582599997, 10.802465435000045], [-71.13135482199988, 10.801777417000096], [-71.13129881099997, 10.800998403000165], [-71.13105778999983, 10.800148378000074], [-71.13104878499996, 10.799324356000113], [-71.13108378399994, 10.798638347000065], [-71.1307207609999, 10.798129330000165], [-71.12992772399986, 10.797019306000152], [-71.12961770099997, 10.796145289000037], [-71.12935268699988, 10.79536427700009], [-71.12946168799994, 10.794381252], [-71.12947768099991, 10.793443222], [-71.12908465999982, 10.793369222000138], [-71.12870565599997, 10.793798234000121], [-71.12825863199993, 10.794204247000039], [-71.12778962299996, 10.794472258999974], [-71.12709259299993, 10.794530266000095], [-71.12644656499992, 10.7943382630001], [-71.12540951399995, 10.79391125900014], [-71.12452948299995, 10.793784261000098], [-71.12424246099994, 10.792956244000038], [-71.12365543699991, 10.792009231000122], [-71.12297139899982, 10.791290210000057], [-71.12244337599992, 10.790916215000095], [-71.12231735899996, 10.790136196000162], [-71.12190634899997, 10.78976418600007], [-71.12103430999997, 10.789225182999985], [-71.11992325699993, 10.789072183000144], [-71.1189342159999, 10.788531171000102], [-71.11872119599997, 10.787430154000049], [-71.11840717699994, 10.786762134000014], [-71.11844318099998, 10.786030112000049], [-71.1183811649999, 10.785595107], [-71.11762213099996, 10.78517209800009], [-71.11695210999994, 10.785048102000133], [-71.11580105999985, 10.784505092000188], [-71.11493101899998, 10.78382808800012], [-71.11442999199983, 10.783249078000154], [-71.11393995999998, 10.782075054000188], [-71.11360194699995, 10.781475041000022], [-71.11312791699999, 10.7807130220001], [-71.11218487799994, 10.78021901500017], [-71.11127684699989, 10.780389021000019], [-71.1109658289999, 10.780979046000084], [-71.10989379099993, 10.781261051000058], [-71.10936776599993, 10.780773048000128], [-71.10926875599989, 10.779811026000061], [-71.10857172699997, 10.77984603300007], [-71.10771768799998, 10.779605027000173], [-71.10684665299988, 10.778997024000034], [-71.10630061899991, 10.778349000999981], [-71.10524157199995, 10.777852996000092], [-71.10436253399996, 10.777702998000109], [-71.10331849699998, 10.777688011], [-71.10258046599995, 10.777425009000126], [-71.10199242599998, 10.776546997000139], [-71.10157241199994, 10.775304965000032], [-71.10178740899994, 10.774964951000129], [-71.10166039799992, 10.774253932000022], [-71.10143738899995, 10.773701929000083], [-71.10126538199995, 10.772920905000092], [-71.10034933899988, 10.772243901000081], [-71.09951830099999, 10.772002895000185], [-71.09852825599995, 10.771553895000181], [-71.09745220199989, 10.770714874000134], [-71.09702317999995, 10.769975866999971], [-71.0969701709999, 10.769036844000027], [-71.09714716999997, 10.768192813000041], [-71.0977611919999, 10.767514794000022], [-71.09830820999997, 10.766744774000074], [-71.09822919899989, 10.765919759000099], [-71.09770617699996, 10.765340749000188], [-71.09760716699992, 10.764309714000035], [-71.09773717099995, 10.763487702000077], [-71.09844319599995, 10.762925676000066], [-71.09908221699993, 10.76215666100012], [-71.09931321899995, 10.760855617000118], [-71.09935921199997, 10.759551595000062], [-71.09869718099998, 10.758924574000162], [-71.09803214799985, 10.758457574000033], [-71.0975831159999, 10.757603555000173], [-71.0975241139999, 10.756939541000122], [-71.09811313899996, 10.756444518000137], [-71.09853715099996, 10.756038506000095], [-71.0978321209999, 10.755227497000078], [-71.09723708299998, 10.754761489000032], [-71.09631804899993, 10.754198481000174], [-71.09554700799993, 10.75315745800009], [-71.09505398499988, 10.752166443000078], [-71.09553799499997, 10.751006402000144], [-71.09666403699998, 10.750245378000045], [-71.09760607399994, 10.749412350000057], [-71.09866210899992, 10.748718329000098], [-71.09957614499996, 10.748182306000047], [-71.10018516699989, 10.747824303000186], [-71.10082418899992, 10.747102270000028], [-71.10084718899998, 10.74712526999997], [-71.10076617999994, 10.74641426300002], [-71.1007981759999, 10.745911250000063], [-71.10032015099995, 10.745401240000149], [-71.09976912799993, 10.74502723300003], [-71.09894409499998, 10.74444322300019], [-71.09800505099992, 10.743742214], [-71.09724900799995, 10.743182197000124], [-71.09660898499993, 10.74262418900014], [-71.09596495499994, 10.74231718500016], [-71.09555693599992, 10.741762179000034], [-71.09512791499998, 10.741069161000098], [-71.0948148889999, 10.740332151000018], [-71.09462887699988, 10.739048115], [-71.09494587699993, 10.738114092000103], [-71.09480763299996, 10.73748510500019], [-71.09479487299996, 10.737427079000042], [-71.09589791299999, 10.73656104600002], [-71.0970358589999, 10.736071069000104], [-71.09710795299992, 10.736040027000172], [-71.09527988499985, 10.735910032000163], [-71.09550788699988, 10.735125020000055], [-71.09564088099995, 10.73409698800009], [-71.09563587199989, 10.733021962000123], [-71.0953278589999, 10.73207894400008], [-71.09486082699982, 10.73085892000006], [-71.09494682699983, 10.729944895000187], [-71.09332474999991, 10.72847987], [-71.0929897549999, 10.728113288000088], [-71.09293024299996, 10.728048164000029], [-71.0927097249999, 10.727806849000046], [-71.0927117139999, 10.726342819000024], [-71.09317171799995, 10.725181785000075], [-71.09356872499995, 10.723677747000124], [-71.09333070699995, 10.722689721000108], [-71.09278668199988, 10.721949710000104], [-71.09249967099993, 10.721076686000117], [-71.09314168299994, 10.720170663000033], [-71.09304267299984, 10.71918464700019], [-71.09268865899986, 10.718172617000107], [-71.0927356439999, 10.716823587000022], [-71.09325566599995, 10.716235571000084], [-71.09390868299988, 10.714689528000122], [-71.09426569099998, 10.71412251400011], [-71.09530672899996, 10.712924475000023], [-71.09597574799994, 10.711790437000161], [-71.09584073799988, 10.710209407999969], [-71.09614072999995, 10.708932369000138], [-71.09601772699995, 10.707969342000126], [-71.09545070099995, 10.707228337000174], [-71.09507266999992, 10.706308308000132], [-71.09460464399996, 10.705157284000109], [-71.09406761799983, 10.704027263000171], [-71.09363460099996, 10.703586253000083], [-71.09268355899997, 10.703573263000067], [-71.09145050399991, 10.703760276000025], [-71.09054846699996, 10.703656279000029], [-71.08971543099995, 10.703529281000158], [-71.09010344199999, 10.702505255000176], [-71.0904434549999, 10.70161822600005], [-71.09080746099988, 10.700708208000094], [-71.09102746999997, 10.70007018500013], [-71.09011441799993, 10.699187172000165], [-71.08940838299998, 10.698399151000046], [-71.08897235499995, 10.696813122000037], [-71.08878333999985, 10.695644087], [-71.08849931999998, 10.694610073000092], [-71.08884033799995, 10.69369903800009], [-71.09020138699992, 10.692781008], [-71.09178244199984, 10.692506994000098], [-71.09338751399997, 10.692277975000025], [-71.09410554699986, 10.692334980000055], [-71.09508157499994, 10.692188967000163], [-71.09591161099996, 10.691147932999968], [-71.09650062299994, 10.690584915000102], [-71.0964516219999, 10.689416884000025], [-71.09637316999988, 10.689314363000165], [-71.09588458499996, 10.688675880000176], [-71.09555157299997, 10.687778851000132], [-71.09531155699989, 10.686928838000028], [-71.09521045199995, 10.685628920000113], [-71.09519753799998, 10.68546279800006], [-71.09598456299989, 10.684192768000116], [-71.09628956799997, 10.68261772], [-71.09654256599998, 10.681385689000138], [-71.09669456499995, 10.680610670000021], [-71.09645954999985, 10.679439648000141], [-71.0959395299999, 10.678676624000047], [-71.09535349999999, 10.677684604000035], [-71.09478946499996, 10.676760591000061], [-71.09363541199986, 10.676400590000071], [-71.09243636399992, 10.676016583000148], [-71.09123731499994, 10.675587581], [-71.08995125299992, 10.674836577000065], [-71.08938521999983, 10.674072560000184], [-71.08884219999999, 10.673241541000039], [-71.08824217299991, 10.673095538000155], [-71.08763914399992, 10.673063543000069], [-71.08730113199994, 10.672509530000127], [-71.08731112099997, 10.671914517000062], [-71.08790514499992, 10.671099502], [-71.08820814099994, 10.669685454999978], [-71.08797612699993, 10.66833142500002], [-71.0871020809999, 10.666533395000158], [-71.08630404399997, 10.665744381000025], [-71.08542598399998, 10.663024309000036], [-71.08349590599988, 10.662485313000047], [-71.08332988899991, 10.660886274000177], [-71.08346687699998, 10.659313238000038], [-71.08322885599989, 10.657897208000122], [-71.08282183899996, 10.656936181000106], [-71.08293183099994, 10.65561414800004], [-71.08321083099992, 10.653905107000128], [-71.08329682999994, 10.652719077000029], [-71.08253779299991, 10.651870061000125], [-71.08163675699996, 10.651178051000102], [-71.08110972499998, 10.65046703500002], [-71.08159373299998, 10.64907900300011], [-71.08272477699995, 10.648266976000173], [-71.08308278999988, 10.647607950000179], [-71.08220474199999, 10.646939945000042], [-71.08146771399993, 10.646226932000161], [-71.08086867799994, 10.64567492000009], [-71.08059966599996, 10.644828904000121], [-71.08054665599991, 10.64355087500013], [-71.0811206699999, 10.642436845000134], [-71.0815566789999, 10.641231810000022], [-71.08192469099998, 10.639796773000057], [-71.08320073599998, 10.638597727000104], [-71.08428477399997, 10.63771670000017], [-71.08548081299989, 10.637269685000035], [-71.08573281599996, 10.635811648000072], [-71.08582081199995, 10.634420615000181], [-71.08586379999997, 10.632915574000094], [-71.08620681299993, 10.631663545000151], [-71.08613279999992, 10.630202507000035], [-71.0860337879999, 10.628855477000172], [-71.08651679199988, 10.627559445000031], [-71.08681080199989, 10.626512408000167], [-71.0867757929999, 10.625645390000045], [-71.08571174199989, 10.624906387000067], [-71.08467169599999, 10.624146370000176], [-71.08418368099996, 10.624028369000087], [-71.08374565099996, 10.62363736900005], [-71.08373264899984, 10.622815345000106], [-71.08367364599991, 10.621994326999982], [-71.08321261399988, 10.621557315000075], [-71.08368963799984, 10.620762297000056], [-71.08458566299998, 10.620062270000119], [-71.08400863399993, 10.619532264000156], [-71.08359962099985, 10.618754245000162], [-71.08358561399984, 10.618024223000134], [-71.08293857899997, 10.617517217000113], [-71.08271157399992, 10.617013213000178], [-71.08280857699992, 10.616763202000186], [-71.08225454899991, 10.616325197000094], [-71.08167951899998, 10.615659177000055], [-71.08131149499997, 10.615269181000087], [-71.08032945999997, 10.615443185000117], [-71.07936742299995, 10.615847202000054], [-71.07842538499983, 10.616569225000035], [-71.07746635099988, 10.616767234000122], [-71.07700732899991, 10.61617123000002], [-71.07653529399994, 10.614821199000176], [-71.07629928199987, 10.613245161000123], [-71.07629126799998, 10.61205913100008], [-71.07621025699996, 10.611123113000076], [-71.07581624199997, 10.610915107999972], [-71.07512521499996, 10.610270090000085], [-71.07400516399986, 10.610262104000128], [-71.07274311299994, 10.610412116000134], [-71.0718750769999, 10.610815126999967], [-71.07079204399992, 10.61153715100005], [-71.06971299499997, 10.612031172000172], [-71.06882495999997, 10.612115184000174], [-71.06801193199993, 10.61190317400002], [-71.06757990599988, 10.61103316599997], [-71.06766090399992, 10.610167140000101], [-71.06744188899984, 10.60909311000006], [-71.06724287299988, 10.608270093999977], [-71.0669788489999, 10.607059068000183], [-71.06657282499998, 10.605984045000127], [-71.06581878799994, 10.60476902500011], [-71.06482074899992, 10.604350014000033], [-71.06333468399998, 10.603882014000021], [-71.06076057299998, 10.604478049000022], [-71.05858748699995, 10.604712062000146], [-71.05707242799991, 10.604586073000064], [-71.05534835299994, 10.604459081000073], [-71.05437630499995, 10.60385806700009], [-71.0537582749999, 10.602964054999973], [-71.05330425299991, 10.602002035000169], [-71.05334124799992, 10.600976012999979], [-71.05334224099994, 10.59915096800006], [-71.05245018799985, 10.597797936], [-71.05113912099989, 10.596326913999974], [-71.04976005799995, 10.594810885000072], [-71.04849399999989, 10.593500851000044], [-71.04827698199995, 10.592266824000149], [-71.04797996999997, 10.59178582100003], [-71.04750893899984, 10.590344782000102], [-71.04722391199988, 10.588973759000112], [-71.04765892899997, 10.587813719000053], [-71.04849395299988, 10.586428688000069], [-71.04832493399994, 10.58505864600005], [-71.04794491399991, 10.583823627000129], [-71.04767789899995, 10.58281760400007], [-71.04663684999997, 10.582193590000145], [-71.0446427579999, 10.58131058500004], [-71.04348970699982, 10.58029756700006], [-71.04270166499998, 10.579881558000181], [-71.0414276059999, 10.579209559000105], [-71.04004154499995, 10.578171532000056], [-71.0396155229999, 10.576845505000051], [-71.03916349799988, 10.575746489000096], [-71.03828845299995, 10.574918464000064], [-71.03729340499996, 10.574317462000067], [-71.03727140899991, 10.574226455000087], [-71.03678338199995, 10.574108453000065], [-71.03543132599998, 10.574029469000095], [-71.03440528599992, 10.573998470000106], [-71.03353425999995, 10.574561489000075], [-71.03245421799994, 10.575146517000178], [-71.03147017299989, 10.575457529000118], [-71.0303271329999, 10.575448537000113], [-71.02970809799996, 10.574645521000093], [-71.02840303599999, 10.574498517], [-71.02783702399995, 10.575018538000165], [-71.02645696699989, 10.575281553000139], [-71.02560092799985, 10.574749551000025], [-71.02499890199994, 10.574402541000097], [-71.02477089199982, 10.574013538000145], [-71.02486687799995, 10.57207448500003], [-71.02503087399992, 10.57025143800007], [-71.02486785999992, 10.568493397000168], [-71.02506885099996, 10.567399367000064], [-71.02571387599994, 10.566195335000089], [-71.02733493299996, 10.565387302000147], [-71.02793595499998, 10.564046275000123], [-71.02813994799993, 10.562724241000126], [-71.02789494099994, 10.561833219000164], [-71.02779192299994, 10.560805188000074], [-71.02780291499994, 10.559961169000132], [-71.02760490299994, 10.559070147000114], [-71.0264188509999, 10.558787152000093], [-71.02572782499993, 10.558165146000135], [-71.02473378099995, 10.557496136], [-71.02341071799998, 10.556983128000013], [-71.02304869799997, 10.556114113000149], [-71.02320969199997, 10.554541065000024], [-71.02346069099997, 10.553197036000142], [-71.0236866919999, 10.551990003000185], [-71.0234226799999, 10.550800972000104], [-71.02287564999995, 10.549838952000073], [-71.02177160299982, 10.548688938000168], [-71.02086954999999, 10.548065928000142], [-71.02037252899999, 10.546920900000032], [-71.02002150199996, 10.545229862000099], [-71.02026750099998, 10.544250833000035], [-71.02065750899999, 10.542999809000094], [-71.02171054399992, 10.540954748000047], [-71.02202955299992, 10.539770715000088], [-71.02233454399993, 10.537925672000085], [-71.02134249699992, 10.537050654000154], [-71.02069446999997, 10.536703657000146], [-71.02078746599994, 10.534947613000156], [-71.02096646099989, 10.53376257500014], [-71.02079644899993, 10.532529553000074], [-71.02064744099988, 10.531455522000158], [-71.02036441199994, 10.529947492000076], [-71.01972338099989, 10.529007468000088], [-71.01900235599993, 10.528864470000144], [-71.01927335399995, 10.527840445000095], [-71.01900633999998, 10.526834422000036], [-71.01846130699994, 10.525757401000021], [-71.0178942789999, 10.524544378000087], [-71.01750726099993, 10.523811355000134], [-71.01780625899988, 10.522353318], [-71.01880428699997, 10.52099228000003], [-71.01966432099988, 10.519493241000077], [-71.01984331599988, 10.518286209000053], [-71.02051433199995, 10.516900174], [-71.02051032599991, 10.515439136000111], [-71.01996930099989, 10.51408910500004], [-71.01957728399998, 10.513539754000135], [-71.01939626799992, 10.513286088000143], [-71.01955425899996, 10.51198705500019], [-71.01872422299994, 10.511250050000058], [-71.01726415999997, 10.510509039000112], [-71.01805217899982, 10.509192004000113], [-71.01772015699999, 10.507842965000123], [-71.01698712399997, 10.506810953000013], [-71.01534005299993, 10.506158939999978], [-71.01385398799994, 10.505690939999965], [-71.01239092299994, 10.505244935000121], [-71.0112228719999, 10.505326950999972], [-71.00991382699993, 10.505567959000018], [-71.00906679499997, 10.506153979000032], [-71.00868578099994, 10.50676700400004], [-71.00784174999995, 10.507080013000063], [-71.00690771399991, 10.507163021], [-71.00609767699996, 10.50665501200018], [-71.00524163799992, 10.506146009000076], [-71.00408457999993, 10.505498002000024], [-71.00295053499997, 10.504872996000188], [-71.00114945099989, 10.504543992000151], [-70.99973840299992, 10.505441021000024], [-71.00025944699996, 10.509162117000074], [-70.99959143099994, 10.510034142000166], [-70.99890240099995, 10.510998168000185], [-70.99829938799996, 10.51172918800006], [-70.99721933999996, 10.51139918600012], [-70.99683432299992, 10.511022175000107], [-70.99623928599988, 10.510606176000067], [-70.99526025199998, 10.510525180000116], [-70.99477623099989, 10.5099451640001], [-70.99441620899995, 10.508924147000073], [-70.99375517399994, 10.508626142000026], [-70.9923171069999, 10.508009131000051], [-70.99127405899992, 10.507402121999974], [-70.99056303299989, 10.506325103000165], [-70.9908540319999, 10.505994099000134], [-70.99063002599985, 10.504854071000125], [-70.99109303699998, 10.504104049000034], [-70.99071301799995, 10.50315302600012], [-70.98914893699987, 10.502265016000024], [-70.98765387399999, 10.502041019000046], [-70.98701484199995, 10.50102999600017], [-70.98607880099996, 10.500143981000122], [-70.98496175299988, 10.50011299400012], [-70.98472374399984, 10.500626000000125], [-70.98398472699995, 10.501477035000107], [-70.98324169599994, 10.501479039000117], [-70.98248365599994, 10.501069025000106], [-70.98160262199997, 10.501145032000068], [-70.97993655299996, 10.501362049000022], [-70.97899652299998, 10.501761064000107], [-70.97811347799984, 10.50176807000014], [-70.97689443399997, 10.50146507800008], [-70.97559338099995, 10.501486088000092], [-70.97473634099993, 10.501561090000052], [-70.97401431099996, 10.501517092000142], [-70.97336027799992, 10.501424091], [-70.97305726899998, 10.500723078000021], [-70.97260024599984, 10.5002570690001], [-70.97203921999994, 10.500161075000108], [-70.97132019499998, 10.50020808500011], [-70.97088716699994, 10.499787072000174], [-70.97057215199999, 10.498696049000046], [-70.97065815299999, 10.497798024000076], [-70.97075014999996, 10.497061012000017], [-70.97028612599996, 10.496410991000175], [-70.97014811799988, 10.495750975000078], [-70.97028511099995, 10.494988964000186], [-70.97068212899995, 10.49502096100008], [-70.97118214799991, 10.495393963000026], [-70.9715231699999, 10.495152960999974], [-70.97105513099996, 10.493677925000156], [-70.97007809299998, 10.492976915999975], [-70.96915605099997, 10.491791886000158], [-70.96861501699988, 10.490914866000082], [-70.96854001499997, 10.490068850000057], [-70.96922203499992, 10.48960983500018], [-70.97041708099994, 10.489201820000119], [-70.97107410199993, 10.488674798000034], [-70.97115310599992, 10.48825879500015], [-70.97069408399994, 10.487746787000049], [-70.97014106099994, 10.48721476999998], [-70.96899500399996, 10.486978769000075], [-70.9674099419999, 10.48755980300001], [-70.96638989899998, 10.487639807000107], [-70.96542886399993, 10.487397809000129], [-70.96473983699997, 10.4869618030001], [-70.96445681199998, 10.486145777000104], [-70.96383978599994, 10.485064760000114], [-70.96300373799994, 10.483693729000095], [-70.96151067399995, 10.483537739000155], [-70.95979160199983, 10.483572753000033], [-70.95857655499992, 10.483361751000132], [-70.95730050199995, 10.483427756000026], [-70.95697248199997, 10.482658747000073], [-70.95766850199993, 10.481946718000017], [-70.95850053799995, 10.481092702000069], [-70.95830952699993, 10.480249679000053], [-70.95762249199993, 10.480548685000088], [-70.95662245199998, 10.47984767700018], [-70.95666243699998, 10.478423639000141], [-70.95636742199991, 10.477768627000103], [-70.95626441099984, 10.476096590000054], [-70.95673942699995, 10.475690578000012], [-70.95675342199996, 10.474726556], [-70.95685542099989, 10.473598529000014], [-70.95770245499989, 10.47320250700011], [-70.95822546599999, 10.472152477000122], [-70.95723842599995, 10.471841478000044], [-70.95754243099998, 10.471189465], [-70.95788343199996, 10.469571419999966], [-70.95765142399995, 10.468890403000046], [-70.9565723639999, 10.467894389000037], [-70.95540531699999, 10.467750388000127], [-70.95475829399999, 10.467176381000172], [-70.95377524599985, 10.46626837000008], [-70.95309421499996, 10.466062366000074], [-70.95277719399996, 10.465613362000056], [-70.95280619899995, 10.465108339000096], [-70.95259118599995, 10.46490833900009], [-70.95206316699995, 10.46511035399999], [-70.95182415399995, 10.465623360000166], [-70.95139214699992, 10.465913378000039], [-70.95105313099987, 10.465488368000024], [-70.95046910499997, 10.465416366999989], [-70.94979007699999, 10.465944383000021], [-70.94897503999994, 10.465902384000174], [-70.94901504899997, 10.466429402000074], [-70.94871403099995, 10.466462408000154], [-70.94809400999998, 10.466689410000072], [-70.94773399199994, 10.466334406000044], [-70.94733097799991, 10.46609640100013], [-70.9467899529999, 10.46661942500009], [-70.94597592099996, 10.466577427000175], [-70.94546989299994, 10.466067417000033], [-70.9453248929999, 10.466576426000188], [-70.94559490699999, 10.467003435000038], [-70.94553990899993, 10.467464444000086], [-70.94525089699994, 10.467841460000045], [-70.9445508739999, 10.467773457000021], [-70.94432885999993, 10.467390450000039], [-70.9440278379999, 10.466712437000126], [-70.94369183099997, 10.467113445999985], [-70.94296680199994, 10.467666472000133], [-70.94151974299996, 10.468173491000073], [-70.93992168199998, 10.468365508000034], [-70.93865962899991, 10.468132511000022], [-70.93740957599994, 10.467601504000072], [-70.93553449199999, 10.467825523000045], [-70.92949524399995, 10.467248546000178], [-70.92695912699992, 10.465773523000053], [-70.92531506999995, 10.46667855800007], [-70.92355999199998, 10.467012575000126], [-70.92205493899996, 10.467201588000023], [-70.92050786599992, 10.46679459500018], [-70.91902581299996, 10.466981609000015], [-70.91805576899998, 10.467152621000139], [-70.91653670499988, 10.467593631000057], [-70.91512464699997, 10.467778647000046], [-70.91397260099984, 10.466693637], [-70.91229952499998, 10.46599262000018], [-70.90899237799988, 10.465116624000188], [-70.90671928299992, 10.46523964500011], [-70.90485020699998, 10.465669660000117], [-70.90323415399996, 10.4667106980001], [-70.90222210199988, 10.466331692000153], [-70.9012390709999, 10.466112694000174], [-70.89953799199992, 10.465297694000071], [-70.89763590499996, 10.464695691999964], [-70.89621284699996, 10.464537692000079], [-70.89493678499997, 10.463203665000094], [-70.89351772099991, 10.462470660000065], [-70.89194465499997, 10.46199566000007], [-70.89084959299993, 10.46054162900009], [-70.88918552599995, 10.459403609000049], [-70.88813646999989, 10.45861360300006], [-70.88722643299991, 10.457817590000047], [-70.88664339199983, 10.45634555700019], [-70.88637738199992, 10.455344536000041], [-70.88644336599998, 10.453116474000069], [-70.88585333899994, 10.452150458000062], [-70.88484428599992, 10.451151440000046], [-70.88384124299995, 10.450358430000165], [-70.88241417599994, 10.450085429000012], [-70.88120613099989, 10.450080434000029], [-70.87938104999995, 10.449350423000112], [-70.87922600899992, 10.449322270000039], [-70.87907395699995, 10.449294660000078], [-70.87815299499988, 10.44912743000009], [-70.87710595399994, 10.449116439000136], [-70.87559189199999, 10.449717457000133], [-70.87440584199999, 10.449688469000023], [-70.87322679399995, 10.44986648300005], [-70.87161973699995, 10.450470505000112], [-70.8701776819999, 10.451161537000075], [-70.86904064199996, 10.451910558000122], [-70.86782359299991, 10.453053587000113], [-70.86710157299996, 10.45443162800018], [-70.86647855699982, 10.455966673000091], [-70.86589754399989, 10.457362712000076], [-70.8656015389999, 10.458978746000184], [-70.86466851499989, 10.460272794000161], [-70.86313445799988, 10.460989818000144], [-70.8619314039999, 10.461144832000173], [-70.8611143679999, 10.461033833000158], [-70.86039033999992, 10.460920835000024], [-70.85898927799991, 10.460737836000078], [-70.85771122099987, 10.460046832999979], [-70.85641616099991, 10.459539820000089], [-70.85481708999987, 10.458995819000108], [-70.85383505299995, 10.458799821000014], [-70.85321002799992, 10.45888982800011], [-70.85224398999986, 10.458508823000102], [-70.85179596299992, 10.457605811000178], [-70.85103392399992, 10.457034796000073], [-70.84996987499989, 10.456496787999981], [-70.8486978219999, 10.455276769000022], [-70.84768677599999, 10.454943763000188], [-70.84641772499998, 10.455215777000149], [-70.84573969299993, 10.454389761000186], [-70.84509465599996, 10.45386076], [-70.84434861699992, 10.45320575], [-70.84285755999991, 10.452555735000146], [-70.84076349099996, 10.4564378500001], [-70.83856741799997, 10.45891992200012], [-70.83523829399996, 10.460889989000123], [-70.83271220099994, 10.46251204500004], [-70.83034811399989, 10.463440085000116], [-70.82750199199995, 10.463811110000165], [-70.82420085799993, 10.463806129000034], [-70.82171674799991, 10.463912147000087], [-70.82034169199994, 10.464048158000026], [-70.81890775299985, 10.464189157000078], [-70.81819561399988, 10.464259182000092], [-70.81468446399998, 10.464950215000158], [-70.81183535399998, 10.465940259000035], [-70.81067331499992, 10.466667285000142], [-70.80958827699993, 10.46828632800009], [-70.80918626499982, 10.469493362000094], [-70.80860224799989, 10.47082040000015], [-70.80672318199993, 10.47164043700002], [-70.80518429699998, 10.470981880000181], [-70.805304, 10.471477000000107], [-70.805234, 10.471545], [-70.80158742399993, 10.477054871], [-70.79968208199995, 10.479933787], [-70.79730399999988, 10.483527], [-70.79763291899991, 10.495601582000063], [-70.801327, 10.631211000000121], [-70.801844, 10.63134900000017], [-70.802266, 10.631478000000186], [-70.80254599999984, 10.632226], [-70.802695, 10.633207], [-70.802508, 10.633879], [-70.801994, 10.63451600000019], [-70.801773, 10.635579], [-70.802452, 10.636428], [-70.802686, 10.637177], [-70.80273, 10.637239], [-70.802599, 10.637179], [-70.803355, 10.663687], [-70.806043, 10.727561], [-70.806231, 10.7592], [-70.807366, 10.758635], [-70.80934599999989, 10.759015], [-70.811646, 10.758451], [-70.81446499999987, 10.759124000000156], [-70.8174279999999, 10.760622], [-70.819943, 10.761021], [-70.821761, 10.761608000000138], [-70.823643, 10.760886], [-70.825226, 10.760992000000158], [-70.826808, 10.761098], [-70.828302, 10.7618930000001], [-70.830261, 10.762777], [-70.832891, 10.762900000000116], [-70.83544399999982, 10.76167], [-70.83753199999984, 10.760579], [-70.839436, 10.759812], [-70.8411579999999, 10.759917], [-70.845882, 10.764181], [-70.84607199999988, 10.76496], [-70.84724299999988, 10.766376], [-70.848245, 10.766623], [-70.849387, 10.766937000000155], [-70.85021, 10.768493000000149], [-70.851913, 10.769447000000184], [-70.853019, 10.771575], [-70.854709, 10.774318000000164], [-70.855441, 10.776333], [-70.857756, 10.778385], [-70.85924199999988, 10.777895000000171], [-70.860877, 10.778918], [-70.86240199999986, 10.781227000000172], [-70.864339, 10.782363], [-70.865238, 10.784951], [-70.86766, 10.787763], [-70.866867, 10.80192000000011], [-70.86997599999984, 10.866395], [-70.87997799999988, 10.953505000000177], [-70.892417, 10.99673700000011], [-70.904033, 11.037263], [-70.903666, 11.037929], [-70.9028909999999, 11.03935], [-70.902459, 11.040970000000186], [-70.904311, 11.042504], [-70.905029, 11.044747], [-70.906415, 11.046270000000106], [-70.908358, 11.047897], [-70.909952, 11.049539], [-70.91138299999989, 11.053198000000123], [-70.913981, 11.053669000000184], [-70.915694, 11.05519900000013], [-70.916014, 11.056492000000162], [-70.915682, 11.05777], [-70.91608199999985, 11.058628000000112], [-70.9176379999999, 11.059857], [-70.91845199999983, 11.062011], [-70.919906, 11.063696], [-70.919726, 11.064426], [-70.92012099999988, 11.066547], [-70.921719, 11.066973000000132], [-70.923446, 11.067838000000108], [-70.924194, 11.068772000000138], [-70.925893, 11.069866], [-70.926559, 11.069215], [-70.928674, 11.071535], [-70.92811399999982, 11.072601], [-70.928887, 11.074478000000113], [-70.930349, 11.07577300000014], [-70.931473, 11.077565], [-70.933616, 11.079656], [-70.935797, 11.082091000000105], [-70.936653, 11.083419], [-70.937597, 11.083876], [-70.938619, 11.082980000000134], [-70.940417, 11.084925000000112]]]}}]}