{"type": "FeatureCollection", "features": [{"type": "Feature", "properties": {"Pais": "Venezuela", "Estado": "Trujillo", "Municipio": "Miranda"}, "geometry": {"type": "Polygon", "coordinates": [[[-70.556562, 9.717828000000111], [-70.55686199999985, 9.718471], [-70.556861, 9.719435], [-70.55790199999984, 9.719965], [-70.558503, 9.720608], [-70.558801, 9.72226], [-70.55975, 9.722904], [-70.560165, 9.723753000000102], [-70.560049, 9.72428], [-70.5594, 9.724393000000134], [-70.56006999999988, 9.72538100000014], [-70.5615269999999, 9.726461000000143], [-70.562537, 9.727094000000136], [-70.63346399999989, 9.694213], [-70.64861599999989, 9.624523], [-70.661822, 9.55699], [-70.66232799999989, 9.557352], [-70.662408, 9.556647000000112], [-70.7075119999999, 9.560044000000175], [-70.802824, 9.566536000000156], [-70.805424, 9.565426000000173], [-70.80441799999983, 9.535931], [-70.80369, 9.51461], [-70.79030099999989, 9.500125], [-70.771431, 9.48281], [-70.77073599999989, 9.481985], [-70.76997199999983, 9.481046000000163], [-70.769553, 9.478387], [-70.768369, 9.47575200000017], [-70.767558, 9.4744], [-70.766098, 9.472521], [-70.765518, 9.470779000000107], [-70.764497, 9.468281], [-70.76289999999989, 9.467457], [-70.760886, 9.466267000000187], [-70.760167, 9.465144000000123], [-70.75882499999989, 9.464641], [-70.758661, 9.462875000000167], [-70.758289, 9.460858], [-70.757501, 9.459804], [-70.7555349999999, 9.460012], [-70.755083, 9.459667000000138], [-70.754215, 9.459004000000164], [-70.75178399999987, 9.457791000000157], [-70.751343, 9.456393000000105], [-70.750323, 9.45412400000015], [-70.74932799999988, 9.453736], [-70.747845, 9.453164000000129], [-70.745508, 9.453441000000112], [-70.744837, 9.453556], [-70.743819, 9.453007000000127], [-70.742592, 9.452114000000108], [-70.740786, 9.450831], [-70.738193, 9.450192], [-70.736365, 9.449207000000115], [-70.734512, 9.448017], [-70.734049, 9.44753500000013], [-70.732636, 9.446069], [-70.73295899999988, 9.444602], [-70.7311289999999, 9.442333000000133], [-70.729647, 9.44020300000011], [-70.729113, 9.438162], [-70.727723, 9.43635200000017], [-70.726703, 9.435642], [-70.724505, 9.435300000000154], [-70.72332399999982, 9.43459], [-70.722444, 9.433376000000123], [-70.721149, 9.43395], [-70.72101, 9.434707000000117], [-70.719366, 9.432553], [-70.718161, 9.430009], [-70.717487, 9.427144000000169], [-70.715519, 9.42432500000018], [-70.713158, 9.4238], [-70.712393, 9.421462], [-70.710124, 9.4205], [-70.709199, 9.419905], [-70.707926, 9.420227000000182], [-70.707325, 9.421053000000143], [-70.706354, 9.422085], [-70.705383, 9.423278], [-70.70475899999985, 9.423668], [-70.703902, 9.424265000000162], [-70.701287, 9.423900000000174], [-70.699644, 9.423512], [-70.6983489999999, 9.423742], [-70.697145, 9.423032], [-70.69513099999983, 9.421085000000119], [-70.692446, 9.41994], [-70.69110399999988, 9.42017], [-70.689762, 9.420767000000126], [-70.688582, 9.420447], [-70.687147, 9.41976000000011], [-70.686128, 9.419027], [-70.685828, 9.418982], [-70.65397899999982, 9.413833000000125], [-70.650583, 9.413593], [-70.651718, 9.41554200000013], [-70.651765, 9.416527000000144], [-70.65132599999987, 9.418110000000183], [-70.650702, 9.41889], [-70.649916, 9.420082], [-70.649593, 9.421412], [-70.64862199999988, 9.422903], [-70.646725, 9.424005000000136], [-70.645592, 9.424625000000106], [-70.643741, 9.425428000000124], [-70.64295399999986, 9.425933000000157], [-70.64145099999985, 9.426713], [-70.641012, 9.428181000000166], [-70.639393, 9.429879000000142], [-70.63754299999988, 9.431760000000168], [-70.635253, 9.432426], [-70.633703, 9.433092000000102], [-70.632431, 9.434492], [-70.63083499999988, 9.435846], [-70.630489, 9.437382000000127], [-70.62979399999989, 9.437979000000155], [-70.62833599999988, 9.438346000000138], [-70.62729599999989, 9.44041], [-70.626648, 9.44064], [-70.62387099999984, 9.440733], [-70.622993, 9.441651], [-70.6229, 9.442362], [-70.623109, 9.443943000000104], [-70.6229709999999, 9.445434], [-70.623181, 9.447153000000128], [-70.622487, 9.447704000000101], [-70.62220999999988, 9.449149], [-70.621817, 9.451281000000108], [-70.621471, 9.452061000000185], [-70.619319, 9.452200000000119], [-70.618209, 9.45341500000012], [-70.61871799999989, 9.454103], [-70.61858, 9.455479], [-70.618071, 9.456878000000131], [-70.618142, 9.458758], [-70.617888, 9.460019000000102], [-70.61862899999988, 9.460982], [-70.620065, 9.46320500000013], [-70.62117599999988, 9.464098], [-70.62194, 9.465176000000156], [-70.624231, 9.46512900000016], [-70.626014, 9.465815], [-70.62832899999984, 9.465516], [-70.63045899999986, 9.467258], [-70.627844, 9.468405000000132], [-70.628679, 9.470377], [-70.62932699999988, 9.471179000000177], [-70.62911999999989, 9.474137], [-70.629236, 9.4751], [-70.6297469999999, 9.476728], [-70.62937699999986, 9.478563], [-70.629864, 9.480580000000145], [-70.629842, 9.482116], [-70.631971, 9.482505], [-70.633592, 9.482687], [-70.634287, 9.484751], [-70.633617, 9.486264], [-70.63220499999989, 9.486792], [-70.630725, 9.488329], [-70.630865, 9.49053], [-70.631144, 9.493121], [-70.630984, 9.495414], [-70.631517, 9.497409], [-70.63094, 9.499289], [-70.632329, 9.500389], [-70.633949, 9.501374], [-70.633511, 9.503002], [-70.633211, 9.504469], [-70.63341899999989, 9.505524], [-70.63420799999989, 9.507931], [-70.63420899999988, 9.509949], [-70.634187, 9.512104], [-70.634628, 9.513686000000178], [-70.635277, 9.515084], [-70.635648, 9.516001], [-70.635486, 9.517583], [-70.635859, 9.520563], [-70.635975, 9.522238], [-70.635953, 9.523935000000165], [-70.63625499999989, 9.526365000000112], [-70.636095, 9.52852], [-70.636049, 9.529483], [-70.635263, 9.530699], [-70.633944, 9.531502000000103], [-70.63376, 9.533497000000125], [-70.634386, 9.534506000000135], [-70.633415, 9.536478], [-70.63283699999988, 9.537946], [-70.633324, 9.539115], [-70.632862, 9.540881], [-70.63263099999989, 9.542807], [-70.63249299999984, 9.543953], [-70.632077, 9.544916000000114], [-70.630805, 9.545903], [-70.62920799999989, 9.546431], [-70.627958, 9.547303], [-70.626802, 9.549322000000132], [-70.625812, 9.551397], [-70.624194, 9.550998000000106], [-70.621969, 9.55241800000016], [-70.621018, 9.554585], [-70.620346, 9.557002000000182], [-70.61971099999988, 9.558316], [-70.618618, 9.560093000000165], [-70.617473, 9.561], [-70.61637, 9.56156], [-70.60550299999983, 9.56234], [-70.556233, 9.60957900000011], [-70.538917, 9.653525], [-70.516696, 9.66672], [-70.528542, 9.666667000000132], [-70.531219, 9.673414], [-70.535306, 9.682887000000107], [-70.536122, 9.68361700000014], [-70.537165, 9.683633], [-70.53800299999989, 9.684087], [-70.53786899999989, 9.684777000000167], [-70.5382039999999, 9.686512], [-70.538899, 9.686445000000163], [-70.540267, 9.68598900000012], [-70.540961, 9.686426], [-70.541424, 9.686725], [-70.54158499999988, 9.687528], [-70.541144, 9.688009], [-70.540841, 9.688604000000112], [-70.540585, 9.689131], [-70.540723, 9.689705], [-70.541836, 9.689409], [-70.542438, 9.689433000000122], [-70.5424129999999, 9.690626], [-70.54220299999986, 9.691382], [-70.54178499999989, 9.691656], [-70.540835, 9.69170000000014], [-70.539793, 9.69156], [-70.538564, 9.691971], [-70.538079, 9.691328], [-70.537477, 9.691189000000122], [-70.53712899999988, 9.691463], [-70.537267, 9.691991], [-70.53749699999986, 9.692565000000116], [-70.53789, 9.692887], [-70.53847, 9.69256700000011], [-70.5386309999999, 9.693209], [-70.538653, 9.693920000000105], [-70.539232, 9.694013], [-70.540321, 9.693694], [-70.540761, 9.694016], [-70.54143, 9.695233], [-70.541127, 9.696310000000153], [-70.54101, 9.69679100000019], [-70.54066199999988, 9.697272000000169], [-70.540014, 9.696835], [-70.540386, 9.696377], [-70.540596, 9.695621000000187], [-70.53978499999988, 9.695298], [-70.53887999999989, 9.696512], [-70.53832299999988, 9.696809], [-70.537904, 9.697611000000165], [-70.538505, 9.698621], [-70.53998799999982, 9.698440000000176], [-70.54096, 9.699039], [-70.54132699999985, 9.700897000000111], [-70.541695, 9.702296], [-70.542713, 9.702711], [-70.543477, 9.703011], [-70.54403199999985, 9.703723000000139], [-70.542986, 9.705303000000129], [-70.543609, 9.706474], [-70.544949, 9.708884000000126], [-70.54552599999982, 9.709963], [-70.546938, 9.710929], [-70.547353, 9.711779], [-70.548137, 9.713454], [-70.5488299999999, 9.714648], [-70.549802, 9.715246], [-70.551885, 9.716512000000137], [-70.553436, 9.716997000000106], [-70.556078, 9.716979], [-70.556562, 9.717828000000111]]]}}]}