{"type": "FeatureCollection", "features": [{"type": "Feature", "properties": {"Pais": "Venezuela", "Estado": "Falc\u00f3n", "Municipio": "Miranda", "Parroquia": "San Gabriel"}, "geometry": {"type": "Polygon", "coordinates": [[[-69.67347475499997, 11.521073548000174], [-69.68606850299989, 11.538705640000103], [-69.68959667099989, 11.53698053700009], [-69.69854424399989, 11.532605605000128], [-69.70418489599996, 11.52984759900005], [-69.71935522399991, 11.522430040000131], [-69.72587367599994, 11.5192428310001], [-69.73622199999988, 11.514183], [-69.73632304499989, 11.513347890000034], [-69.73493329799999, 11.512975910000023], [-69.73318222599988, 11.513047926000127], [-69.73163516299996, 11.512702933000071], [-69.73053310699999, 11.51237392500002], [-69.72891203899997, 11.511800928000127], [-69.7275059729999, 11.51149992500018], [-69.72626893099988, 11.511540931000013], [-69.72498186499996, 11.511352941000098], [-69.72489986199992, 11.510595921000174], [-69.72764396599996, 11.508374835999973], [-69.72963103199999, 11.507014793000167], [-69.73087007499998, 11.505641747000084], [-69.73149010499998, 11.504989730000034], [-69.73215412499991, 11.504153700000131], [-69.73295915199992, 11.50333867], [-69.73071304999996, 11.503095687000098], [-69.7290549839999, 11.503096691000167], [-69.72732691099992, 11.503075702000103], [-69.7257198499999, 11.503328727], [-69.72536382999994, 11.503012721000175], [-69.72985638099988, 11.49934104800019], [-69.73142805499998, 11.498056549000069], [-69.73216007099995, 11.49712751200019], [-69.73368813299993, 11.496278479000011], [-69.73087700599996, 11.495699483000067], [-69.7285299099999, 11.494952481999974], [-69.72649181699995, 11.494523486000048], [-69.72466974299988, 11.494480501000112], [-69.72384970199988, 11.494332501000144], [-69.72435572399996, 11.493865481000057], [-69.72494073299993, 11.492410443000097], [-69.72582776599995, 11.490951394000035], [-69.72528373099988, 11.490499387000057], [-69.72357466299997, 11.490728407000177], [-69.72340076999996, 11.49052357], [-69.7227979939999, 11.48952424700019], [-69.72154798899999, 11.487451904000068], [-69.72094373599998, 11.48645013200013], [-69.71704399299989, 11.47998487600006], [-69.71082529799997, 11.469675105000135], [-69.71025888399998, 11.46873606500003], [-69.67748299999988, 11.41439800000012], [-69.67610899999988, 11.409007000000145], [-69.676051, 11.408315], [-69.675634, 11.40766], [-69.67516199999989, 11.406947], [-69.67482199999989, 11.406395], [-69.674246, 11.405158], [-69.674155, 11.404996], [-69.664091, 11.407658], [-69.65771199999989, 11.407726], [-69.653279, 11.408403], [-69.650473, 11.408868], [-69.64753999999988, 11.409382], [-69.64483799999988, 11.409998], [-69.64208399999984, 11.410766], [-69.63817099999989, 11.411130000000128], [-69.637604, 11.410801], [-69.632328, 11.411727], [-69.627534, 11.410691], [-69.628276, 11.411344], [-69.628544, 11.41286], [-69.628542, 11.413066], [-69.629322, 11.414494000000104], [-69.630161, 11.414478], [-69.631024, 11.414257000000191], [-69.632026, 11.414288000000113], [-69.632438, 11.415071], [-69.63233599999984, 11.416263], [-69.632032, 11.416795], [-69.632033, 11.416795], [-69.631816, 11.417175], [-69.630457, 11.418173], [-69.63042699999988, 11.419044000000156], [-69.630815, 11.419919], [-69.63018199999988, 11.420441], [-69.629226, 11.420570000000112], [-69.629384, 11.421282], [-69.63008, 11.421586000000161], [-69.63101399999988, 11.421227000000101], [-69.631697, 11.420385], [-69.632418, 11.42046], [-69.633346, 11.420903000000123], [-69.633573, 11.421685], [-69.63280999999989, 11.423857000000112], [-69.632359, 11.424931000000186], [-69.631165, 11.42563100000018], [-69.6302639999999, 11.424752], [-69.629614, 11.42449500000015], [-69.6290949999999, 11.425247000000184], [-69.62885099999988, 11.426598], [-69.629311, 11.427404000000138], [-69.629905, 11.428831], [-69.630245, 11.430003], [-69.629187, 11.431141], [-69.627648, 11.431403000000103], [-69.62544, 11.430742000000123], [-69.623942, 11.431669], [-69.623607, 11.43283600000018], [-69.62271, 11.43431900000013], [-69.621381, 11.434445], [-69.6205599999999, 11.435149], [-69.620667, 11.436342], [-69.62109599999985, 11.437974], [-69.62131099999988, 11.440224], [-69.6199759999999, 11.441107000000102], [-69.61872199999988, 11.440569000000153], [-69.617753, 11.43946], [-69.616876, 11.438465000000178], [-69.615919, 11.43855], [-69.615115, 11.440102], [-69.615377, 11.44226], [-69.613975, 11.442729], [-69.613283, 11.441875], [-69.61108, 11.440687000000139], [-69.611068, 11.439265], [-69.61029988299998, 11.44094128200004], [-69.60981199999986, 11.442006], [-69.60942399999982, 11.443883], [-69.6096419999999, 11.445627000000172], [-69.61028, 11.447444], [-69.60922699999986, 11.447986000000128], [-69.6082689999999, 11.448344], [-69.606661, 11.448468], [-69.60505499999988, 11.448225], [-69.604503, 11.447464], [-69.602782, 11.447105], [-69.602153, 11.447122], [-69.601889, 11.448037], [-69.60134, 11.449638], [-69.59945, 11.450103000000126], [-69.59814099999983, 11.450596], [-69.597804, 11.451900000000137], [-69.598101, 11.452614], [-69.5988579999999, 11.454111000000125], [-69.59910299999984, 11.455489], [-69.598765, 11.456885000000113], [-69.598742, 11.457525000000146], [-69.59874068699997, 11.457529562000161], [-69.59880814599995, 11.457551383000123], [-69.60052322299993, 11.457656368000187], [-69.60503342399988, 11.459407382999984], [-69.60761454699986, 11.460243392000166], [-69.61073067899991, 11.460957383], [-69.61346080699997, 11.46231940399997], [-69.61619192999996, 11.46379642700009], [-69.61906205999998, 11.465156437000132], [-69.62372527699995, 11.467799480999986], [-69.62808547699996, 11.470424518000016], [-69.63350774099996, 11.47523861400009], [-69.63663289899989, 11.478040661000023], [-69.63847097999997, 11.479094674000123], [-69.64134713099997, 11.482359742000085], [-69.65271669199996, 11.494275976000154], [-69.6544027729999, 11.496065016000045], [-69.65481880299996, 11.497277049000047], [-69.65672589599984, 11.499775099000146], [-69.67347475499997, 11.521073548000174]]]}}, {"type": "Feature", "properties": {"Pais": "Venezuela", "Estado": "Falc\u00f3n", "Municipio": "Miranda", "Parroquia": "Santa Ana"}, "geometry": {"type": "Polygon", "coordinates": [[[-69.72094373599998, 11.48645013200013], [-69.72154798899999, 11.487451904000068], [-69.7227979939999, 11.48952424700019], [-69.72340076999996, 11.49052357], [-69.72357466299997, 11.490728407000177], [-69.72341264999989, 11.490276398000162], [-69.72449869999997, 11.48959236700017], [-69.72520872099989, 11.488709342], [-69.72790581899994, 11.486489263000067], [-69.73108294299993, 11.485088201000167], [-69.73460633999997, 11.48427315000015], [-69.73552712599985, 11.484060149000186], [-69.73742719399996, 11.483091111000135], [-69.73934226499995, 11.48163905600012], [-69.74022129899993, 11.481121042000098], [-69.7384722249999, 11.48128405400007], [-69.73875723499992, 11.48013201800012], [-69.73786519899994, 11.479778021000072], [-69.7373721699999, 11.479670024000086], [-69.73646612699991, 11.478465989000028], [-69.7352960749999, 11.478299993000178], [-69.73427003499995, 11.478384007000045], [-69.73307898299998, 11.478401020000092], [-69.73411401399989, 11.47735298200007], [-69.73501705399991, 11.476902964000146], [-69.73614309399994, 11.475715919000038], [-69.73796616299995, 11.474380876000168], [-69.74073926699998, 11.472548809000045], [-69.74289235099997, 11.471369762999984], [-69.74428639799993, 11.470890745000133], [-69.74485342399993, 11.469894707000151], [-69.74628647899993, 11.468932673000154], [-69.74761152399998, 11.468568657000048], [-69.74882257199982, 11.468367642000032], [-69.74899958399982, 11.467721624000035], [-69.74813354199983, 11.46759662400018], [-69.74599144899997, 11.467972648], [-69.74517642499995, 11.468121665000183], [-69.74428738299991, 11.468020670999977], [-69.74498940599995, 11.466655623], [-69.74703048199996, 11.465752592], [-69.74800452199997, 11.46537157400013], [-69.74907455299996, 11.463656518000107], [-69.75098461899984, 11.461883464000152], [-69.7525966959999, 11.461929454000028], [-69.75410874999994, 11.461585433000096], [-69.7557558129999, 11.460895403000052], [-69.75665584699993, 11.460239376], [-69.75783989599995, 11.459786364000024], [-69.75928595399995, 11.459673340000052], [-69.760486, 11.45880631099999], [-69.7613130339999, 11.457944287000089], [-69.76331010899992, 11.457272253000099], [-69.7644071599999, 11.457233246000158], [-69.76527019699995, 11.457197244000042], [-69.76626623199991, 11.456701224000028], [-69.76693125699995, 11.455887189000066], [-69.76698725699998, 11.455014173000109], [-69.7664862389999, 11.455802191000146], [-69.76583620499997, 11.456064209000147], [-69.76519717499991, 11.45549920000002], [-69.76601720499991, 11.454225159000032], [-69.76747826599984, 11.45360612900015], [-69.76914233099995, 11.45252608800007], [-69.7710213979999, 11.451763059000086], [-69.77325048799986, 11.450996018000126], [-69.77487654999993, 11.450444002000097], [-69.77671162799999, 11.44986596800004], [-69.77698363499991, 11.449379957000076], [-69.77693962299992, 11.448048923999977], [-69.77833168199999, 11.447477893999974], [-69.77958772599999, 11.447206885000014], [-69.78066377599993, 11.447305879000055], [-69.78088978199997, 11.446865857000091], [-69.78134579299996, 11.446192840000094], [-69.78220383599984, 11.445790821000116], [-69.7828068529999, 11.445528815000102], [-69.78300785899984, 11.444974798000032], [-69.78370088899999, 11.444482777000076], [-69.78472392299989, 11.444214762000172], [-69.78579896799994, 11.444290767000155], [-69.78676400499995, 11.443312725000055], [-69.78775903699994, 11.44132267100008], [-69.78825805399998, 11.440374644000087], [-69.78818903099989, 11.43897461000006], [-69.78899705399994, 11.436965543000156], [-69.78877204299988, 11.436004525000044], [-69.78703295599996, 11.435340522000104], [-69.78557289099996, 11.43451251200014], [-69.78513185099996, 11.431741442000032], [-69.78642090599988, 11.430574393000029], [-69.78848598799993, 11.42980936400005], [-69.78969801999995, 11.428207309000072], [-69.79199710699993, 11.425992235000137], [-69.79356516999991, 11.426198233000093], [-69.79562026599996, 11.426260220000188], [-69.79714032899994, 11.426398211000162], [-69.79859439599994, 11.426836222000077], [-69.80029846299988, 11.426834200000087], [-69.80181452699998, 11.426696189000097], [-69.80283556199998, 11.426314177000108], [-69.80416162499995, 11.426065162000043], [-69.80635169599998, 11.424310093000031], [-69.80838777899993, 11.423132054000178], [-69.80910679299984, 11.421377007], [-69.81137388699995, 11.420125956000163], [-69.81323895699995, 11.419937933000142], [-69.81462502799997, 11.420514939999975], [-69.81580006199994, 11.4195329100001], [-69.81783716099994, 11.41989290600003], [-69.82018826799992, 11.420936912000116], [-69.82290738099994, 11.421585914000161], [-69.82498448199993, 11.42300193400007], [-69.82639154199995, 11.423416933000055], [-69.82772760099988, 11.423741943000095], [-69.82838062899992, 11.423662934000049], [-69.8284856219999, 11.422949914000014], [-69.82959766599998, 11.422450890000107], [-69.83149874999998, 11.42306590000004], [-69.83272081199993, 11.423552905000065], [-69.83408187199996, 11.423991898999986], [-69.83521390999988, 11.42323987200001], [-69.83647496999998, 11.423243861000117], [-69.83714799299997, 11.423004855000045], [-69.83799802799996, 11.422165831000086], [-69.83925807099996, 11.422123819000149], [-69.84203520499995, 11.423505836], [-69.84289323699988, 11.42312582400018], [-69.84584736199997, 11.422461777000024], [-69.85384373099998, 11.427511865000099], [-69.85410506399995, 11.427944363000165], [-69.860595, 11.425315000000126], [-69.860927, 11.424377000000163], [-69.86287099999987, 11.422924], [-69.865253, 11.422117], [-69.865563, 11.421087], [-69.86541739499995, 11.420600907000107], [-69.86504, 11.419341], [-69.865587, 11.417786000000149], [-69.867057, 11.417384], [-69.867463, 11.416012], [-69.86845099999988, 11.414621000000125], [-69.868364, 11.41377100000011], [-69.867649, 11.412803000000167], [-69.86794480599991, 11.412270549000084], [-69.86833399999989, 11.41157], [-69.86840699999988, 11.411043000000177], [-69.8667099999999, 11.410663], [-69.866644, 11.410135], [-69.86670099999986, 11.408668000000148], [-69.866895, 11.407661000000132], [-69.86815799999988, 11.406937], [-69.868304, 11.40602100000018], [-69.86689, 11.40513900000019], [-69.8659909999999, 11.403848000000153], [-69.8673, 11.403147], [-69.86804099999989, 11.403749000000118], [-69.869199, 11.404606000000115], [-69.869809, 11.404083], [-69.86938, 11.4022], [-69.8701999999999, 11.401473], [-69.869928, 11.400462000000118], [-69.869212, 11.399699], [-69.869428, 11.398761], [-69.870802, 11.398726000000181], [-69.872246, 11.398760000000152], [-69.873297, 11.398355], [-69.874136, 11.398224], [-69.872253, 11.397843000000137], [-69.872495, 11.396537], [-69.873251, 11.395099], [-69.875189, 11.394311], [-69.876334, 11.39377], [-69.87718599999982, 11.391873], [-69.8772, 11.389993], [-69.878993, 11.390053], [-69.880019, 11.389762000000133], [-69.88023499999986, 11.388939], [-69.880084, 11.387308000000132], [-69.879626, 11.386158], [-69.8804439999999, 11.385798], [-69.88002999999986, 11.38513], [-69.880572, 11.384217000000149], [-69.88081199999988, 11.383278], [-69.880798, 11.381971000000135], [-69.881521, 11.381816], [-69.882056, 11.381821000000173], [-69.882589, 11.382191], [-69.883126, 11.382012000000145], [-69.883247, 11.381417000000113], [-69.88269099999985, 11.380954], [-69.881551, 11.380785], [-69.88114599999983, 11.378924], [-69.882081, 11.3784500000001], [-69.883435, 11.377933000000155], [-69.884603, 11.377415], [-69.88607599999989, 11.376601], [-69.887455, 11.37599200000011], [-69.8876929999999, 11.375375], [-69.888124, 11.373612], [-69.88867, 11.372264], [-69.889492, 11.37121500000012], [-69.8887299999999, 11.370407], [-69.8885279999999, 11.369374], [-69.888303, 11.368271], [-69.8893149999999, 11.366697], [-69.88985699999989, 11.365807000000132], [-69.890634, 11.364689000000169], [-69.890833, 11.362856], [-69.8915, 11.360844], [-69.89027499999986, 11.359596000000124], [-69.890884, 11.359118], [-69.892536, 11.356037000000185], [-69.89314299999984, 11.355743000000189], [-69.894149, 11.35504], [-69.894084, 11.354375000000175], [-69.89334, 11.354208], [-69.89269699999988, 11.353057], [-69.89318599999984, 11.352968], [-69.892727, 11.352116000000137], [-69.893034, 11.351431000000105], [-69.892483, 11.350417], [-69.893273, 11.350561], [-69.89401799999985, 11.350567], [-69.894634, 11.34919600000012], [-69.894714, 11.347729], [-69.8947409999999, 11.347225], [-69.894211, 11.346395000000143], [-69.894152, 11.344904], [-69.894421, 11.343187000000114], [-69.89541, 11.341681], [-69.895636, 11.33939], [-69.889005, 11.329925], [-69.89015099999989, 11.329147], [-69.890555, 11.328451000000143], [-69.890674, 11.327463], [-69.890388, 11.326024], [-69.89116, 11.325161], [-69.890493, 11.3243930000001], [-69.890143, 11.323483000000124], [-69.855555, 11.341831000000184], [-69.854598, 11.341801], [-69.852655, 11.341880000000174], [-69.848946, 11.342389], [-69.846619, 11.342088000000103], [-69.840385, 11.340471], [-69.838448, 11.340389], [-69.837327, 11.340355000000102], [-69.835139, 11.340794000000187], [-69.834788, 11.3408060000001], [-69.834483, 11.34086600000012], [-69.833153, 11.341515000000129], [-69.831418, 11.342405], [-69.828806, 11.342946], [-69.82492899999988, 11.344299], [-69.820753, 11.346218], [-69.81727199999989, 11.347560000000101], [-69.81559599999986, 11.348796], [-69.804603, 11.354024], [-69.80102399999987, 11.35557], [-69.795457, 11.357837], [-69.780769, 11.363803], [-69.765747, 11.369963], [-69.753882, 11.376083], [-69.750348, 11.377653], [-69.748107, 11.37825], [-69.745812, 11.379099000000167], [-69.743406, 11.379025], [-69.730483, 11.380373], [-69.72766, 11.380907], [-69.72446699999989, 11.381337], [-69.71717699999988, 11.381939000000159], [-69.705043, 11.383567], [-69.704967, 11.383640000000185], [-69.704871, 11.383714000000111], [-69.70476699999989, 11.383794000000137], [-69.704718, 11.383837000000142], [-69.704658, 11.383890000000122], [-69.7045619999999, 11.383976000000132], [-69.704437, 11.384113], [-69.70438999999988, 11.384174000000144], [-69.704298, 11.384286], [-69.704188, 11.384447], [-69.704129, 11.384563000000185], [-69.704116, 11.384632], [-69.704093, 11.384782], [-69.704065, 11.385020000000168], [-69.704028, 11.385435], [-69.703988, 11.38582], [-69.703909, 11.386564], [-69.703872, 11.386878], [-69.70381099999986, 11.387459], [-69.703748, 11.388055000000122], [-69.703675, 11.38873400000017], [-69.703628, 11.389234000000101], [-69.703588, 11.389574], [-69.703525, 11.390162], [-69.703452, 11.39088900000013], [-69.7033919999999, 11.39147], [-69.703333, 11.391999000000112], [-69.7032329999999, 11.392983000000186], [-69.703204, 11.393276], [-69.70314999999988, 11.393745], [-69.703128, 11.393992], [-69.703109, 11.394141], [-69.703077, 11.394503000000157], [-69.703036, 11.39492300000012], [-69.70299, 11.395397], [-69.70293, 11.395998], [-69.702881, 11.396420000000148], [-69.693719, 11.39904], [-69.69211399999989, 11.399404000000118], [-69.691156, 11.39965500000011], [-69.688907, 11.400284000000113], [-69.68864699999989, 11.400352], [-69.688546, 11.400385000000142], [-69.688272, 11.400461], [-69.68752499999988, 11.400716000000159], [-69.68722, 11.40080200000017], [-69.686535, 11.401035], [-69.686425, 11.401082], [-69.686118, 11.401191], [-69.68560799999989, 11.401361], [-69.68523599999986, 11.401485], [-69.683611, 11.402043000000162], [-69.682957, 11.402261], [-69.68285699999984, 11.402284], [-69.682654, 11.40232600000013], [-69.6816649999999, 11.402479], [-69.681638, 11.402478], [-69.6816189999999, 11.402477], [-69.681601, 11.402474000000154], [-69.6815749999999, 11.40246800000017], [-69.68153499999988, 11.40246800000017], [-69.68148799999989, 11.402475], [-69.681414, 11.402491000000111], [-69.680504, 11.402691000000118], [-69.680396, 11.402713000000176], [-69.680288, 11.402731], [-69.68015299999985, 11.402753000000132], [-69.679978, 11.402776], [-69.679635, 11.402831], [-69.679403, 11.402844000000186], [-69.67915099999988, 11.402879], [-69.678584, 11.402968000000158], [-69.678036, 11.403042], [-69.677435, 11.403116000000125], [-69.67708, 11.403177], [-69.676775, 11.403225], [-69.676554, 11.403261], [-69.67585999999989, 11.40337], [-69.675673, 11.403403], [-69.675646, 11.403402], [-69.675623, 11.403398], [-69.675597, 11.403395000000103], [-69.67556, 11.4034], [-69.675221, 11.403458], [-69.674966, 11.403504000000112], [-69.674682, 11.403558], [-69.674391, 11.403607], [-69.674342, 11.403613], [-69.674275, 11.403617], [-69.674234, 11.403613], [-69.674189, 11.403610000000128], [-69.67415099999988, 11.403613], [-69.673844, 11.403669], [-69.673552, 11.40372], [-69.673941, 11.40456300000011], [-69.674155, 11.404996], [-69.674246, 11.405158], [-69.67482199999989, 11.406395], [-69.67516199999989, 11.406947], [-69.675634, 11.40766], [-69.676051, 11.408315], [-69.67610899999988, 11.409007000000145], [-69.67748299999988, 11.41439800000012], [-69.71025888399998, 11.46873606500003], [-69.71082529799997, 11.469675105000135], [-69.71704399299989, 11.47998487600006], [-69.72094373599998, 11.48645013200013]]]}}, {"type": "Feature", "properties": {"Pais": "Venezuela", "Estado": "Falc\u00f3n", "Municipio": "Miranda", "Parroquia": "Guzm\u00e1n Guillermo"}, "geometry": {"type": "Polygon", "coordinates": [[[-69.551841, 11.38346], [-69.60406499999988, 11.37341], [-69.62610099999989, 11.357916], [-69.630328, 11.358916], [-69.63362499999982, 11.359046], [-69.637537, 11.358318], [-69.64176, 11.35823900000014], [-69.643201, 11.357493], [-69.651429, 11.353666], [-69.654623, 11.353256000000101], [-69.657608, 11.352737000000161], [-69.66162099999985, 11.351038], [-69.665942, 11.34923300000014], [-69.66964999999982, 11.349259000000131], [-69.675416, 11.348543], [-69.679228, 11.34803], [-69.68252, 11.346649], [-69.68705, 11.345817000000125], [-69.6895229999999, 11.346266000000128], [-69.69385099999988, 11.346296000000109], [-69.696628, 11.345344], [-69.696831, 11.344266], [-69.69589699999989, 11.341776], [-69.695583, 11.340155], [-69.698566, 11.338773000000117], [-69.699696, 11.337917000000175], [-69.701645, 11.335341], [-69.702775, 11.334161], [-69.70689499999986, 11.33365], [-69.709361, 11.331724], [-69.70976699999989, 11.329677000000174], [-69.710068, 11.326981], [-69.710574, 11.324178], [-69.71713199999988, 11.312999000000104], [-69.71918099999988, 11.309452], [-69.72575199999983, 11.302266], [-69.72863299999989, 11.30088300000017], [-69.73172199999988, 11.300472], [-69.73512099999982, 11.30028], [-69.738417, 11.29987100000011], [-69.740168, 11.299775000000182], [-69.743981, 11.300449000000128], [-69.74563399999988, 11.301864], [-69.748939, 11.304801000000168], [-69.7542, 11.307103], [-69.75781, 11.308099], [-69.759868, 11.307681], [-69.764287, 11.304151], [-69.77066599999989, 11.30171300000012], [-69.774371, 11.300443], [-69.776014, 11.29862], [-69.776313, 11.295492], [-69.777843, 11.290538], [-69.780094, 11.285697], [-69.784824, 11.282491], [-69.787088, 11.281536], [-69.7902749999999, 11.279938000000186], [-69.795826, 11.275876], [-69.798089, 11.274704], [-69.80117899999988, 11.274618], [-69.804577, 11.274102000000141], [-69.806841, 11.273469000000148], [-69.810443, 11.271983000000148], [-69.82350999999989, 11.266894], [-69.828036, 11.264982000000145], [-69.830708, 11.262734000000137], [-69.831829, 11.258856], [-69.833474, 11.257572], [-69.83677, 11.257379], [-69.84057899999988, 11.256434], [-69.842018, 11.255473000000109], [-69.85095299999989, 11.24589600000013], [-69.85166499999985, 11.245133], [-69.833513, 11.167572], [-69.830115, 11.168820000000153], [-69.824749, 11.169667], [-69.822371, 11.169839], [-69.8145219999999, 11.174045], [-69.812238, 11.17396600000012], [-69.807483, 11.17371500000013], [-69.801755, 11.172267], [-69.797066, 11.172934000000168], [-69.79232, 11.174919000000102], [-69.792798, 11.17899000000017], [-69.793129, 11.183577], [-69.790988, 11.188245000000109], [-69.78303199999988, 11.20100200000013], [-69.778239, 11.209992], [-69.775393, 11.215963], [-69.77366299999989, 11.21928], [-69.772478, 11.215995], [-69.7718339999999, 11.213883], [-69.770768, 11.212502], [-69.7682539999999, 11.211298], [-69.76672, 11.210075000000131], [-69.765885, 11.20908500000013], [-69.76278699999989, 11.208474], [-69.75992, 11.20846100000017], [-69.757358, 11.207783], [-69.755804, 11.20587300000011], [-69.755226, 11.204746000000114], [-69.754114, 11.203159], [-69.755846, 11.201401], [-69.754968, 11.199654000000123], [-69.753482, 11.198133], [-69.751789, 11.19617600000015], [-69.747534, 11.192271000000176], [-69.74581, 11.192382000000123], [-69.744646, 11.19199], [-69.743436, 11.191367000000128], [-69.742434, 11.191342], [-69.74180399999989, 11.191823], [-69.74059099999988, 11.19251], [-69.739473, 11.192485], [-69.7384239999999, 11.192598], [-69.73732799999982, 11.192917000000136], [-69.73579099999984, 11.192684], [-69.73525599999988, 11.19250000000011], [-69.733323, 11.192381], [-69.73166899999984, 11.19224], [-69.730643, 11.192536], [-69.72917599999988, 11.192511000000138], [-69.72794, 11.192692], [-69.72689, 11.193425000000104], [-69.72556, 11.194204], [-69.723951, 11.194683], [-69.722785, 11.195278], [-69.7218979999999, 11.196103000000164], [-69.72075399999983, 11.19695], [-69.719659, 11.197109], [-69.718191, 11.197359000000176], [-69.716278, 11.198205], [-69.714787, 11.198408], [-69.713554, 11.197579], [-69.711761, 11.197346000000152], [-69.710992, 11.197367], [-69.70938399999983, 11.197387000000163], [-69.708128, 11.196465000000103], [-69.706989, 11.195613], [-69.705615, 11.195450000000108], [-69.704171, 11.19530900000018], [-69.70361, 11.195721000000162], [-69.700276, 11.196725], [-69.69864199999984, 11.197686], [-69.6973129999999, 11.198235000000182], [-69.693924, 11.200032], [-69.682787, 11.204941], [-69.668875, 11.20842400000015], [-69.664836, 11.209505], [-69.662697, 11.208232], [-69.65979, 11.20661200000012], [-69.656649, 11.205358000000103], [-69.652522, 11.205199000000107], [-69.648972, 11.206603], [-69.645839, 11.208513], [-69.642237, 11.210971], [-69.640527, 11.212774], [-69.637484, 11.215258000000176], [-69.63425199999983, 11.218383], [-69.631422, 11.220225], [-69.627986, 11.222088], [-69.6225199999999, 11.223962], [-69.61783, 11.224786000000165], [-69.61186, 11.225053], [-69.607124, 11.22567000000015], [-69.60306099999985, 11.226978], [-69.599789, 11.228268000000128], [-69.59872499999983, 11.22963], [-69.588444, 11.236004], [-69.580959, 11.240826], [-69.570293, 11.247327], [-69.563732, 11.253918], [-69.55685, 11.264062], [-69.54829099999989, 11.2735780000001], [-69.53643099999988, 11.285322000000178], [-69.530669, 11.290289], [-69.51676399999985, 11.295944], [-69.509238, 11.299045000000149], [-69.502001, 11.300472], [-69.496714, 11.30578400000013], [-69.496336, 11.306622], [-69.47790599999985, 11.347416], [-69.496878, 11.400741], [-69.551841, 11.38346]]]}}, {"type": "Feature", "properties": {"Pais": "Venezuela", "Estado": "Falc\u00f3n", "Municipio": "Miranda", "Parroquia": "Mitare"}, "geometry": {"type": "Polygon", "coordinates": [[[-70.1363626079999, 11.56579154200017], [-70.13729365699993, 11.566185543000188], [-70.13843570599994, 11.56634954100008], [-70.13936774499996, 11.566420533000041], [-70.13971775399989, 11.566214522000166], [-70.13890271499997, 11.565867526000034], [-70.13778567399999, 11.565380520000076], [-70.13680662899998, 11.565286527000012], [-70.13624760099998, 11.565123519000053], [-70.13524655699996, 11.564614517000052], [-70.13608659099998, 11.564363507000053], [-70.13713463899995, 11.56448150500006], [-70.13781165799992, 11.564114490000122], [-70.13725363299994, 11.563676472000111], [-70.13660160799998, 11.56330647500016], [-70.13716362099996, 11.562571445000117], [-70.13728162299992, 11.561903432000179], [-70.13686260799989, 11.561603427000136], [-70.13625657399996, 11.561417431000166], [-70.13595456099989, 11.561301426000057], [-70.13562954599985, 11.560840419000044], [-70.13495251399996, 11.56102341999997], [-70.13453251099992, 11.56148243400014], [-70.13441849299983, 11.560423406999973], [-70.13365144999995, 11.559569401000033], [-70.13269740899989, 11.558692383000107], [-70.13169835899998, 11.557492357000115], [-70.13088432199999, 11.556800345000056], [-70.13053530399998, 11.556845343000077], [-70.13030229299994, 11.556637337000097], [-70.13051429599989, 11.555924317000063], [-70.12935123799997, 11.554862305000142], [-70.12837319599993, 11.554468293000014], [-70.1272561429999, 11.553890291000187], [-70.12606909499982, 11.553334285000176], [-70.12502203699995, 11.552756282000018], [-70.12380999399994, 11.552615286000105], [-70.12264593599991, 11.55231228200006], [-70.12171489799988, 11.551619266000102], [-70.12125087099997, 11.550789251000083], [-70.12092684599997, 11.549868226000171], [-70.11990080899989, 11.550233245000072], [-70.11833774199988, 11.550782270000127], [-70.11854875299991, 11.550322252000115], [-70.11936578399985, 11.549702233000062], [-70.11999680099984, 11.54924422300013], [-70.11922777599989, 11.549081216000104], [-70.11689567199994, 11.549466253000048], [-70.11545061999993, 11.549554255000032], [-70.1171076849999, 11.548661219000053], [-70.1182277229999, 11.548272206000092], [-70.11878774199988, 11.548113199], [-70.11902175199998, 11.547446179000076], [-70.11904775199991, 11.546755167000072], [-70.11846771399996, 11.545534136000072], [-70.11749067399995, 11.544818120000116], [-70.11567558299998, 11.543846104000181], [-70.11495554599998, 11.54301509700008], [-70.11439652799999, 11.542599086000052], [-70.11283545399988, 11.54241108600013], [-70.11388649899999, 11.541700070000047], [-70.11183839599983, 11.540383040000165], [-70.11072035199993, 11.540173042000049], [-70.10927528999991, 11.54049107000003], [-70.10715320599996, 11.54073808000004], [-70.1054061289999, 11.54064110100012], [-70.10440309099994, 11.540800111000124], [-70.10354205099992, 11.540521111000146], [-70.10205098199992, 11.540080108000154], [-70.10000488699995, 11.538463081000032], [-70.09837880699996, 11.536502030000065], [-70.09733176099991, 11.535785021000152], [-70.09567568499995, 11.53619505200004], [-70.09544367699993, 11.535734032000107], [-70.09635571199988, 11.534770002000073], [-70.09556467699997, 11.534283999000081], [-70.0944936269999, 11.533935999000107], [-70.0943756229999, 11.534258003000105], [-70.09304956599988, 11.533655998000086], [-70.09200151599987, 11.533261997000125], [-70.0905594489999, 11.532290983000053], [-70.08876737099996, 11.531456968000043], [-70.08718329499999, 11.531130966999967], [-70.08557622899997, 11.530550970000036], [-70.08450318499985, 11.530892989], [-70.08357114899991, 11.531165995000038], [-70.08282411099992, 11.531648012000062], [-70.08203108299995, 11.531853033000061], [-70.08093702899993, 11.531067012000108], [-70.0818720659999, 11.530309983999985], [-70.08366814099992, 11.529462948000116], [-70.08469517099991, 11.529051941000091], [-70.08602422499985, 11.528663919000167], [-70.08695726699995, 11.528436902000124], [-70.0884713349999, 11.528716903000088], [-70.08989239399989, 11.528720891000091], [-70.09122144999998, 11.528632878000167], [-70.09203648699992, 11.52868087100012], [-70.09285251699993, 11.528567863000035], [-70.09352854499991, 11.52850085600005], [-70.09406356899996, 11.528962867000189], [-70.09462259799994, 11.529148875000146], [-70.09564764399994, 11.529197860000181], [-70.09671968399988, 11.529108856000107], [-70.09765172499993, 11.529317850000155], [-70.09835075399985, 11.529319844000156], [-70.09963380599987, 11.528885834000107], [-70.10103186299989, 11.528797820000136], [-70.10215090899993, 11.52863980300009], [-70.10289793699985, 11.528457794000076], [-70.1038539789999, 11.528114783000035], [-70.10450700499996, 11.52795577500018], [-70.10480702499996, 11.528900793000048], [-70.10566806799989, 11.52947780300019], [-70.10748514199997, 11.529897802], [-70.10848519299992, 11.530498805000093], [-70.11072527999994, 11.5296067700001], [-70.1146174409999, 11.529387739000185], [-70.11594250799993, 11.530518762000042], [-70.11741156599999, 11.530430748000072], [-70.11904462699994, 11.529744714000117], [-70.12044467699997, 11.528758687000163], [-70.12117070699998, 11.527655652000135], [-70.12119570199991, 11.526942633000033], [-70.12066067599994, 11.526296620000096], [-70.12045266199988, 11.525881612000092], [-70.11989363299983, 11.52548860100012], [-70.11889259099996, 11.525301603000116], [-70.11796055099995, 11.525114604], [-70.11835855699991, 11.524402587000168], [-70.11838455499992, 11.523596562000023], [-70.11815353799983, 11.522813538000037], [-70.11778151599987, 11.52230653100014], [-70.11703748699995, 11.521682514000076], [-70.11783151599991, 11.520810486000073], [-70.11829952999983, 11.520259471000031], [-70.11902256199994, 11.519869455000105], [-70.11969858999993, 11.51987144900005], [-70.12079363299995, 11.520081447000052], [-70.12177167299996, 11.520130445000177], [-70.12256371199993, 11.520408452000027], [-70.12286671699997, 11.520386443000064], [-70.12335774399992, 11.519904428000075], [-70.12298471799988, 11.519673423000029], [-70.12242570299998, 11.519579428000156], [-70.12137765399996, 11.519323429000053], [-70.12063262199996, 11.519137434000186], [-70.12005059299992, 11.518859425000187], [-70.11944556299989, 11.51867342800017], [-70.11816450499992, 11.518486432000145], [-70.11720747099997, 11.518921444000057], [-70.1166014499999, 11.519011451000154], [-70.11411233599995, 11.517439435000085], [-70.11292328199988, 11.517390439000167], [-70.11255027299984, 11.517757452000069], [-70.11171223299993, 11.517479444000116], [-70.11066418399992, 11.517246446000058], [-70.10954513799999, 11.517334457000118], [-70.10833108999998, 11.518160487000102], [-70.10669903199994, 11.518547506000061], [-70.10494895699998, 11.519140534000087], [-70.10364390699993, 11.51929855200018], [-70.10257185499995, 11.519295556000145], [-70.10203483699985, 11.51961657000004], [-70.10180182899995, 11.519776580000155], [-70.10096279599998, 11.519613573000072], [-70.09951972799985, 11.519287583000107], [-70.09847068699992, 11.519123584999988], [-70.09763264799994, 11.51895958600005], [-70.0970506189999, 11.518796578000035], [-70.09611857899989, 11.518587584000159], [-70.09502353599999, 11.518376580000108], [-70.0943015069999, 11.518420587000094], [-70.09334546399987, 11.51874061], [-70.09320346799984, 11.519292617000133], [-70.09292246199993, 11.51979863600019], [-70.09208442399989, 11.519772638000177], [-70.09054835699999, 11.518985626000074], [-70.08882427799995, 11.518566632000045], [-70.0878682359999, 11.518932644000131], [-70.08758723099993, 11.519530664000058], [-70.08723722199994, 11.519782674999988], [-70.08565215499988, 11.519731684000135], [-70.08423009199998, 11.5199116980001], [-70.08301904199988, 11.519816702000071], [-70.08168998499997, 11.519766714000014], [-70.0806179459999, 11.520016732000101], [-70.07931089099992, 11.520841758000131], [-70.07888988299999, 11.521300772000131], [-70.07821285299985, 11.52182878900004], [-70.07807384099988, 11.521390780000104], [-70.07840185299995, 11.520885766000049], [-70.07933688899993, 11.519852736000018], [-70.08013091799984, 11.51904870300001], [-70.08059792699993, 11.518589689000066], [-70.08260401199993, 11.517835658000138], [-70.08377105599993, 11.517470638000134], [-70.0844020699999, 11.516505605000134], [-70.08442707699993, 11.515976600000158], [-70.08533810799992, 11.515081571000053], [-70.08603913099984, 11.514461541000117], [-70.08655513999997, 11.513312508000126], [-70.08651013999997, 11.512782497000103], [-70.0859521139999, 11.51206748400017], [-70.08422902899997, 11.511694490000025], [-70.0830869809999, 11.511668494], [-70.08173492699996, 11.512032510000097], [-70.08049788799991, 11.512535532000186], [-70.07989185699995, 11.512879546000022], [-70.07986586999994, 11.513661566000053], [-70.07984086499982, 11.514490591000026], [-70.07944185499991, 11.515363610000065], [-70.07862582699994, 11.515614631000119], [-70.07738977899999, 11.515772638000158], [-70.07608272399989, 11.516643676000058], [-70.07498468499983, 11.517468700000109], [-70.07367863399986, 11.518178724000109], [-70.07146255099991, 11.51867876100016], [-70.07006349099998, 11.519158771999969], [-70.06889744099993, 11.51961579300007], [-70.06810440999988, 11.519543806000058], [-70.06796640199991, 11.518921783], [-70.06901743599991, 11.518188760000044], [-70.07048849699987, 11.51720272000017], [-70.07177154899989, 11.51674670400007], [-70.0732885999999, 11.51564566200011], [-70.07413261999994, 11.513875608000035], [-70.07481164399996, 11.512703573000124], [-70.0753956669999, 11.51226755800019], [-70.07740173999997, 11.511536527000032], [-70.07866079799999, 11.511057510000114], [-70.07975783399996, 11.510530484000185], [-70.08066787299992, 11.509934458000089], [-70.08066986699993, 11.509221439000157], [-70.08041485799998, 11.508737431000043], [-70.0799278319999, 11.508022417000063], [-70.07985981699994, 11.50719339200009], [-70.07986281499996, 11.506387379000103], [-70.07599365399989, 11.506537409000089], [-70.07564163799992, 11.507319431000155], [-70.07531362799995, 11.508170454000151], [-70.07507862399996, 11.508745473000033], [-70.07421558999988, 11.50908749100006], [-70.07232253199999, 11.51129255799998], [-70.07166750999988, 11.511911582000039], [-70.07080447599998, 11.512392595000165], [-70.06998943799988, 11.512275601000056], [-70.06826436899996, 11.512247610000145], [-70.0669133049999, 11.512151622000033], [-70.06504922699997, 11.512077632000114], [-70.06385918299998, 11.512603653000042], [-70.06162109299999, 11.513126679000152], [-70.05845196299998, 11.512886694000088], [-70.05647087299991, 11.512972713000181], [-70.05563184199997, 11.513085722000028], [-70.0546297969999, 11.513105725000173], [-70.05430377799985, 11.512897720000126], [-70.05423577699997, 11.51229870900005], [-70.05344573399998, 11.511629697999979], [-70.05253769899991, 11.511235696000085], [-70.05158165499995, 11.511370701000146], [-70.05064862399985, 11.511551717000032], [-70.04913755499996, 11.510580692000076], [-70.04713545499993, 11.509607683000127], [-70.04597140899983, 11.509236684000086], [-70.0452733709999, 11.508957682000073], [-70.04480636099998, 11.50923269499998], [-70.04492436299995, 11.508634675999986], [-70.04401631799988, 11.508539678000147], [-70.04387730599996, 11.508194676000187], [-70.0451383599999, 11.507277638000176], [-70.04574737599995, 11.506104598000093], [-70.04633538699994, 11.504380558000094], [-70.04645338899991, 11.503690538], [-70.04612737099995, 11.503551534000053], [-70.04690039499997, 11.50231049700011], [-70.04704139799998, 11.501689478000173], [-70.04690338999995, 11.501044468000089], [-70.04702238499993, 11.500377448000165], [-70.04700038599998, 11.49980142600009], [-70.04683837399989, 11.49940941799997], [-70.04611634199983, 11.499108421000074], [-70.04602433699995, 11.498785413000121], [-70.04658634999998, 11.497935382000094], [-70.04705436299997, 11.497292366000181], [-70.04740837299988, 11.495774324000138], [-70.04762236699992, 11.494140278000145], [-70.0479043769999, 11.49342826200018], [-70.04821037699998, 11.49230122500012], [-70.04851538499997, 11.491289200000097], [-70.04882039599994, 11.490622180000173], [-70.04905539999999, 11.490001160000133], [-70.0490564029999, 11.489794158000052], [-70.04898739899988, 11.489403143000118], [-70.04784634099997, 11.488893137000048], [-70.04588826499997, 11.489232158000107], [-70.04437120099993, 11.490125192000107], [-70.04348417299991, 11.490583216000175], [-70.04271314399989, 11.49131823600004], [-70.0410570819999, 11.491957264000177], [-70.04047404999989, 11.49218627700003], [-70.03877298699985, 11.492158286000063], [-70.0349278189999, 11.49214631000018], [-70.03192169399989, 11.492252332000078], [-70.03045363099994, 11.492478348000077], [-70.02956759399996, 11.492613362999975], [-70.02877556899989, 11.492496369000094], [-70.02856655099993, 11.49221936300006], [-70.02856755199991, 11.49171334600004], [-70.0285695479999, 11.491252336000116], [-70.0287575459999, 11.490723317000118], [-70.02882954599994, 11.489964297000029], [-70.02827152099985, 11.489571287], [-70.02671344399988, 11.488346266000178], [-70.0257594059999, 11.487860264000119], [-70.02426834199991, 11.488017279000019], [-70.0226592709999, 11.488334303000158], [-70.02154022599996, 11.488538309000148], [-70.02056119299988, 11.48865032499998], [-70.01997815999994, 11.488602319000108], [-70.01928113799994, 11.488186321000171], [-70.01907312399993, 11.487609306000138], [-70.0189341119999, 11.487218290999976], [-70.01916911499995, 11.486528271000111], [-70.01968313099997, 11.486069256000064], [-70.02050016399988, 11.485634244000096], [-70.02092017899992, 11.48522123100014], [-70.02129419399995, 11.48496921900005], [-70.02159820099996, 11.484487205000164], [-70.02153019999992, 11.483865194000145], [-70.02066915999984, 11.483586182000124], [-70.01990112699997, 11.483331186000157], [-70.01952910599994, 11.482984175000126], [-70.01957710299996, 11.482570170000088], [-70.01976909999996, 11.48070612100014], [-70.01981908899995, 11.4793480780001], [-70.02012510299994, 11.478428055000109], [-70.02036010599994, 11.477715034000028], [-70.02026909099993, 11.4769090100001], [-70.0193860519999, 11.476124004000155], [-70.01892103499995, 11.475661993000017], [-70.01815298999992, 11.475383985000121], [-70.01731595399997, 11.474989983000057], [-70.01738695199998, 11.47466797900006], [-70.01841499499994, 11.473657949000142], [-70.01844099199997, 11.472575921000157], [-70.01860798199993, 11.471195882000075], [-70.01858697599994, 11.470596859000182], [-70.01844896699998, 11.469928848000052], [-70.01845096199997, 11.46930783], [-70.01863897099997, 11.468709811000167], [-70.01861796399993, 11.467995798000175], [-70.01868896099995, 11.467558782000083], [-70.01922597899988, 11.46730676900006], [-70.02027003899985, 11.468668801000149], [-70.02178010699998, 11.47019282500014], [-70.02291916799993, 11.470978846000094], [-70.02347818599998, 11.471348844000147], [-70.02363920499982, 11.471831860000123], [-70.02534026999996, 11.471998857000187], [-70.02664333599995, 11.472324848000085], [-70.02729436899989, 11.472855860000095], [-70.02806240299998, 11.473272862000158], [-70.02906244199994, 11.473804876000145], [-70.02961947599994, 11.474566895], [-70.0301764969999, 11.475304909000158], [-70.03152556899988, 11.476206923000177], [-70.03212959599995, 11.476783935000128], [-70.03245461099993, 11.477222936000146], [-70.03292063199996, 11.47738493900016], [-70.03345665599988, 11.477179932000126], [-70.03378366499993, 11.476880927000025], [-70.03466970199997, 11.476814912000123], [-70.03546073599995, 11.47713892000013], [-70.0359947689999, 11.47796994000015], [-70.03673979899992, 11.477902933], [-70.03790583999995, 11.477721915000132], [-70.0385118719999, 11.477562908000039], [-70.03909489299991, 11.4775189020001], [-70.03942091099998, 11.477657906000047], [-70.04007194099995, 11.47779790100003], [-70.04072795299993, 11.47662586600012], [-70.04143197299993, 11.475062827000045], [-70.04203899499998, 11.47446579900003], [-70.04278702499994, 11.47382378499998], [-70.04441509399993, 11.474633796000148], [-70.0452971439999, 11.475902812000186], [-70.04601717999998, 11.47659483600006], [-70.04645720199994, 11.477540858000168], [-70.04708523399995, 11.478025857000034], [-70.04801727199998, 11.478004849000115], [-70.04885730699993, 11.477777844000059], [-70.0500923599999, 11.477481825000154], [-70.05116540399996, 11.477070805000096], [-70.05200642799991, 11.476359779000063], [-70.05273344999995, 11.474865740000155], [-70.05287445199997, 11.474129720000178], [-70.05271344299996, 11.47343869700012], [-70.05262142499998, 11.47295468800013], [-70.0524604179999, 11.472516679000023], [-70.05215840299996, 11.472055671000078], [-70.05269541899997, 11.471550656000147], [-70.0537464649999, 11.47084063300008], [-70.05444948099989, 11.469414591000032], [-70.05468748099997, 11.46773553700001], [-70.05462046999992, 11.466630509000083], [-70.05436645199995, 11.46584649200014], [-70.05329441099991, 11.465728495000064], [-70.05236336299998, 11.465449495000087], [-70.05161833099999, 11.46519449900012], [-70.05038327599993, 11.46519049900013], [-70.04956625599982, 11.465763523000135], [-70.04882121399999, 11.465784530000178], [-70.04777018099998, 11.46661055900006], [-70.04723117099996, 11.467736593000097], [-70.04683315299997, 11.468471610000108], [-70.04694815999989, 11.469024631000138], [-70.04764718899992, 11.469003625000141], [-70.04860323099996, 11.468684607000057], [-70.04935025699996, 11.468249596000021], [-70.04993328799998, 11.467928582000127], [-70.04965127899999, 11.468802604000132], [-70.04874024899993, 11.469720633000122], [-70.0475041919999, 11.4701776550001], [-70.0464541479999, 11.47049667300007], [-70.04542810999999, 11.470723679000173], [-70.04454406899993, 11.47042167800015], [-70.0439370439999, 11.470627691000061], [-70.04335502799995, 11.470533696000189], [-70.04314600999999, 11.470210689], [-70.04282298999993, 11.469403661000058], [-70.04235696899991, 11.469103656000186], [-70.0412159259999, 11.46914566700002], [-70.04049389599993, 11.469074672999966], [-70.03977186599997, 11.469003678999968], [-70.03900182599995, 11.469185687000106], [-70.03825580299997, 11.469251689999965], [-70.03788378399997, 11.46920469800017], [-70.03688274099994, 11.468879686000093], [-70.03620671299996, 11.46885469199998], [-70.0356006799999, 11.468944699000076], [-70.03534567099996, 11.468437690000144], [-70.03492964299988, 11.467400673000043], [-70.03583968399988, 11.467011649000028], [-70.03665671499988, 11.466461636000076], [-70.03642569999994, 11.465839615], [-70.03570366799988, 11.465538618000096], [-70.03505163399996, 11.465605625000023], [-70.0350766389999, 11.464799600000049], [-70.03475460899989, 11.463302564000173], [-70.03498961199989, 11.462635544000022], [-70.03545762499988, 11.461877515000083], [-70.03573963299993, 11.46102649300002], [-70.03578863399991, 11.460405474000083], [-70.03567362799998, 11.459990466000022], [-70.03513760099997, 11.459989476000146], [-70.03436856599984, 11.460078479000117], [-70.03397055799996, 11.460514492000016], [-70.03431957699996, 11.46063149000014], [-70.03399255699998, 11.461044503000096], [-70.03338653599985, 11.461111509000148], [-70.03266350399997, 11.461477531000071], [-70.0321024939999, 11.461982547000105], [-70.03142646699996, 11.462210555000127], [-70.03063542099994, 11.461863547], [-70.0299823929999, 11.461815552000019], [-70.02940037699989, 11.461790558000132], [-70.02928436799988, 11.461559551000107], [-70.02947236699998, 11.46116854600018], [-70.03017239799993, 11.460825524000029], [-70.03122243899992, 11.460138502], [-70.03229348799994, 11.460279499000023], [-70.03325052299988, 11.459983482000155], [-70.03404355099997, 11.45959447100006], [-70.03495358999993, 11.459067446000063], [-70.03537759499994, 11.45754940400019], [-70.03591660399985, 11.456331369000054], [-70.03599059799984, 11.454858337000019], [-70.03620360299988, 11.453708300000187], [-70.03636960199992, 11.452741273000186], [-70.03681461299988, 11.451822242000105], [-70.03740063099997, 11.450880222000137], [-70.03786864399996, 11.450145192000036], [-70.03940969799993, 11.448722148000115], [-70.04048573699998, 11.447229100000186], [-70.04095275899988, 11.446885087000055], [-70.0418397869999, 11.446520080000141], [-70.04375585999992, 11.444569009000077], [-70.04441087899994, 11.443580976000135], [-70.04478588399996, 11.442752954000014], [-70.04555691399997, 11.442110940000191], [-70.0457009129999, 11.440522895000186], [-70.04582090899999, 11.439119856000161], [-70.04582389399997, 11.438198830000147], [-70.04589589499989, 11.437600811000152], [-70.04671392899996, 11.436520776000066], [-70.04715793799994, 11.436153763000164], [-70.04797297499988, 11.436110761000123], [-70.04904402599993, 11.43652776099998], [-70.04985805899997, 11.436783762000118], [-70.05302021499995, 11.439071808000108], [-70.05499330599997, 11.441724862000058], [-70.05689840699995, 11.443525891000093], [-70.05873349099988, 11.445556935000127], [-70.06056558999995, 11.448555006000106], [-70.06181666299983, 11.451044060000186], [-70.06244369199993, 11.451944080000032], [-70.0626957149999, 11.45323410200001], [-70.06322974799997, 11.454064128000141], [-70.06502581099988, 11.453102092000108], [-70.06598384799992, 11.452299064000101], [-70.06693988899997, 11.451773043], [-70.06808292799997, 11.451523025000085], [-70.06931798199992, 11.451319018], [-70.07022701999989, 11.451276003000089], [-70.07102004799998, 11.450932993000151], [-70.07220909799986, 11.450429971000062], [-70.07349114799996, 11.450479960000052], [-70.07451519199998, 11.450758959000154], [-70.07528322399992, 11.45092196600001], [-70.07570324199997, 11.450922956000113], [-70.07668328899996, 11.450442937000105], [-70.07831534499996, 11.44975691600007], [-70.0796443989999, 11.44948389600006], [-70.08206750199992, 11.449283877000141], [-70.08344156799996, 11.44958686800004], [-70.08549265199991, 11.449201845000061], [-70.08710271299998, 11.448538813000084], [-70.08824475899996, 11.448334807000094], [-70.08912978999996, 11.448129797000036], [-70.08938779499988, 11.447647784000026], [-70.08799073999984, 11.447297776000028], [-70.08640766999997, 11.447040787000162], [-70.0854776239999, 11.446254765000106], [-70.08468858399982, 11.445262745000093], [-70.08410854799996, 11.444248729000037], [-70.08336552099996, 11.44316470700005], [-70.08292548899993, 11.442472693000184], [-70.08332549899984, 11.440839639000103], [-70.08461353899992, 11.438449569000056], [-70.08603758099997, 11.437210526000115], [-70.08650659599988, 11.436037500000054], [-70.08723361599988, 11.434405448000177], [-70.08833066199998, 11.433602419000067], [-70.0893806919999, 11.433099399000014], [-70.09036372099996, 11.431214343000022], [-70.09111275299995, 11.430158314000153], [-70.09249079099993, 11.428573262999976], [-70.09368283999999, 11.42724121599997], [-70.0958759159999, 11.425867171000107], [-70.09748697899988, 11.424651128000107], [-70.10058311499989, 11.425626127000044], [-70.10325524499984, 11.427959172000044], [-70.10485832199998, 11.429667209000058], [-70.1091105299999, 11.433983289000139], [-70.11326874099996, 11.438667384000041], [-70.11784497299988, 11.44369748600019], [-70.12283921699992, 11.449235588000136], [-70.12660041299989, 11.454470698000023], [-70.13043360899997, 11.458762787000126], [-70.1334287659999, 11.463051878000044], [-70.13538086199998, 11.464921919000119], [-70.13640291299998, 11.466144933000066], [-70.13712293899994, 11.466997959000139], [-70.13842699699995, 11.467185949000054], [-70.13903303099988, 11.467302956000026], [-70.13994206699988, 11.467005933000053], [-70.14061809499987, 11.466938927], [-70.14213015699983, 11.467724945000043], [-70.14552930999997, 11.46874694800016], [-70.14746239099986, 11.469027939000057], [-70.14881345499998, 11.469192928000098], [-70.15063052599999, 11.469197918000134], [-70.15240160799988, 11.469155902000068], [-70.15354365399998, 11.468951896000021], [-70.15622275999993, 11.469372883000176], [-70.15797083899997, 11.469147870000086], [-70.15922988599988, 11.468782850000082], [-70.16025493099994, 11.468669840000132], [-70.16135196599998, 11.467889811000191], [-70.16282002999992, 11.467755797000109], [-70.16393807199995, 11.46782779400013], [-70.16521912999991, 11.468037790000096], [-70.16636316899996, 11.466958758000146], [-70.16718219399996, 11.46567271500004], [-70.1676032119999, 11.464982692999968], [-70.16774421599996, 11.464499675000184], [-70.1673731979999, 11.463784660999977], [-70.16683517799999, 11.464497683], [-70.16650817099998, 11.464956697000162], [-70.16601714599994, 11.465761720000046], [-70.16555013499993, 11.465921731000037], [-70.16555112499992, 11.465483722000158], [-70.16536612399983, 11.465160714999968], [-70.16506210599988, 11.465574733000153], [-70.16473409399993, 11.466218742000024], [-70.16347504899994, 11.466790764000109], [-70.16284502199994, 11.466834770000048], [-70.16259001599997, 11.466695778000087], [-70.16238099599991, 11.46609675600007], [-70.1619869779999, 11.465428747000146], [-70.1613579559999, 11.465449753000087], [-70.16119394999993, 11.465748757000142], [-70.16047091799999, 11.466115772000023], [-70.16000390799996, 11.46657478700007], [-70.15974689499996, 11.466849798], [-70.15953688699989, 11.46703380100007], [-70.15878986099989, 11.46739982400004], [-70.15860384499996, 11.467215811000187], [-70.15804482999988, 11.467282817000068], [-70.15655276199988, 11.467693840000038], [-70.15582973999994, 11.467760847000022], [-70.15494469599997, 11.467781855000112], [-70.15384865099998, 11.468100874000129], [-70.15263759999993, 11.467844876000129], [-70.1531286149999, 11.467293848000168], [-70.15343263299991, 11.466856842000084], [-70.15364363199996, 11.466373824000073], [-70.15341162499988, 11.466004817], [-70.15285159399997, 11.46614182900015], [-70.15175655499996, 11.466414835000023], [-70.15135953899988, 11.466759853000156], [-70.15079952199994, 11.467125862000103], [-70.15016949599993, 11.467377876], [-70.14919145599993, 11.467282878000162], [-70.1487264249999, 11.466614869000011], [-70.14863542299992, 11.46599284700011], [-70.14821739999996, 11.46539283300018], [-70.14768336599991, 11.464608819000148], [-70.14679833299988, 11.46451482499998], [-70.14581928799998, 11.46446582800013], [-70.14484124799998, 11.464486836999981], [-70.14404721799997, 11.46517486199997], [-70.14330019399989, 11.465794880000146], [-70.1423201589999, 11.466274900000087], [-70.14134211699991, 11.4660199060001], [-70.14062008599996, 11.465902899000127], [-70.13989805699998, 11.465946906000113], [-70.13994605299996, 11.465348888], [-70.14006504699995, 11.46461187500006], [-70.14008904899998, 11.463967856000124], [-70.14041905399989, 11.462702818000082], [-70.14037404099992, 11.462034806000077], [-70.14042204899988, 11.461413788000186], [-70.14116907299996, 11.460770769000021], [-70.14261612899998, 11.45978473000008], [-70.14369116499995, 11.458636697000031], [-70.14338914899997, 11.457968676000064], [-70.14339213399995, 11.45704765000005], [-70.14290510699982, 11.456263635000141], [-70.14253309899993, 11.455963629000166], [-70.14265108899986, 11.455365610000172], [-70.1424660859999, 11.454628599000046], [-70.14165104799997, 11.454557606000094], [-70.1396419809999, 11.456600667000146], [-70.13898895599988, 11.456990681999969], [-70.13854394399993, 11.457679698000163], [-70.13786791699994, 11.457999720000146], [-70.13700488199993, 11.458273730000087], [-70.13591083299991, 11.458063732000141], [-70.13595982999982, 11.45702770400004], [-70.13628782999996, 11.456338688000017], [-70.13712786199983, 11.455788663000078], [-70.13808290099996, 11.4557906550001], [-70.13882793199997, 11.455861649000099], [-70.13929396299989, 11.455862651000189], [-70.13999498599998, 11.45524362700013], [-70.14083600899994, 11.454209592000097], [-70.14030098599983, 11.45397859999997], [-70.13885791599995, 11.453375590000178], [-70.1382538879999, 11.452683577000016], [-70.13734585399999, 11.452497571000094], [-70.13597079699991, 11.452631585000177], [-70.13457173799998, 11.45320360900007], [-70.13370771299998, 11.453868635000049], [-70.13272766699998, 11.45453366099997], [-70.13576278399995, 11.452216577000115], [-70.13655581099994, 11.451850567], [-70.13651081099994, 11.45120554400006], [-70.13576676799994, 11.450421530000028], [-70.13506874099988, 11.449982532000092], [-70.1343227079999, 11.450325542000087], [-70.13373868499997, 11.450738557000022], [-70.13301566399991, 11.451058567000075], [-70.13245663899994, 11.45121857900017], [-70.1322016179999, 11.450641565000183], [-70.13252962699994, 11.449745535000147], [-70.13302264799995, 11.448595508000096], [-70.13314363199993, 11.446593447000112], [-70.13425669799994, 11.448621492000086], [-70.1348627189999, 11.448554496999975], [-70.13617176699995, 11.446900435000089], [-70.13640278399998, 11.447706458000084], [-70.13677279899991, 11.448766489000093], [-70.1368638159999, 11.449802515000044], [-70.1378178519999, 11.450127516], [-70.1386768989999, 11.45116553500003], [-70.13923393399989, 11.45208755100009], [-70.14063198999986, 11.451861536000138], [-70.14207903599993, 11.45105951000005], [-70.14329308099997, 11.449957466000171], [-70.14416010299993, 11.448164423000037], [-70.14469912299995, 11.446739375000107], [-70.14537814599998, 11.445474334000153], [-70.14556714499997, 11.444416310000179], [-70.14554812999984, 11.44275926500012], [-70.14548111799996, 11.441493236000042], [-70.14578811999996, 11.43992818900017], [-70.14588312099994, 11.439169169000081], [-70.14618712699996, 11.438525149000043], [-70.14674814699998, 11.437836131000097], [-70.14707615699996, 11.436985109000034], [-70.14714914899997, 11.436019087000034], [-70.14712713599994, 11.435259062000114], [-70.14687313199994, 11.434591040999976], [-70.14533406899989, 11.435001070000055], [-70.14458803599996, 11.43529808000011], [-70.14349199299988, 11.43575610500011], [-70.14253495899999, 11.436352119000048], [-70.1423009479999, 11.436858138000048], [-70.14183393899992, 11.43734015200016], [-70.14155392499993, 11.437684164000018], [-70.14108591099995, 11.43821218], [-70.14220395499996, 11.438515184000039], [-70.14096790899993, 11.438857192000114], [-70.13970785899994, 11.439544227], [-70.13914784299988, 11.440164244000073], [-70.13795779899993, 11.440667266000105], [-70.13518467499989, 11.441074300000025], [-70.13821979099993, 11.438665215000128], [-70.13917682299996, 11.437793185999965], [-70.14022686499999, 11.43731216100008], [-70.14141690599996, 11.4364181360001], [-70.14258494799998, 11.434948088000112], [-70.14347297599988, 11.433822052000039], [-70.14459501699992, 11.432513006000079], [-70.14569204999992, 11.431525975000056], [-70.1466030919999, 11.430584946000067], [-70.14774713099996, 11.42950590200013], [-70.14823913499998, 11.42851788300004], [-70.14856714599995, 11.427781861000028], [-70.14903515799995, 11.426908831000105], [-70.14864113799996, 11.426009814000054], [-70.14810711699982, 11.425363801000174], [-70.14775909999997, 11.424718780000035], [-70.14766708199994, 11.424188770000058], [-70.14725106599997, 11.423220753000123], [-70.14629602399998, 11.422918741000046], [-70.14524697599995, 11.42344576700009], [-70.14405793599997, 11.423764787000039], [-70.14284588399988, 11.424083806000056], [-70.14356891399996, 11.42344077600012], [-70.14454993999993, 11.42266175400016], [-70.1456929879999, 11.421927725000103], [-70.1460459939999, 11.420708687000115], [-70.14595398699993, 11.420017676000043], [-70.14632899199995, 11.419282647000102], [-70.14681901299991, 11.418753638999988], [-70.14742603699995, 11.418295616000023], [-70.14805705199996, 11.417468597000095], [-70.14829505099993, 11.415673549000076], [-70.14871606799994, 11.414730513000052], [-70.14897407099988, 11.414017492000085], [-70.14906907199992, 11.413212472000112], [-70.14874504899996, 11.412613463000184], [-70.1490260519999, 11.411785441000063], [-70.14963307499994, 11.411188424000159], [-70.15049610899996, 11.410753401000136], [-70.1512661349999, 11.410271384000112], [-70.15194316499998, 11.40976737300008], [-70.15280720099997, 11.40894134500013], [-70.15346121699997, 11.408298316000128], [-70.15397523199988, 11.407609299000057], [-70.15467526199996, 11.40708128200015], [-70.15530528699998, 11.40678326799997], [-70.15633033299997, 11.406648251000092], [-70.15723836499996, 11.406650255999978], [-70.15840341299997, 11.406607239000095], [-70.15954246399997, 11.407554261000087], [-70.16005349699998, 11.40831527600011], [-70.16058851999992, 11.408685274000163], [-70.1614285519999, 11.408042255000169], [-70.16254659199996, 11.407769248000022], [-70.1634566319999, 11.407334225], [-70.16352762799994, 11.406690206000121], [-70.1638556389999, 11.406046185000037], [-70.16432364999997, 11.405057160000183], [-70.16390562799995, 11.404665154000043], [-70.16360461599999, 11.403813131000163], [-70.16330359299997, 11.403144115999964], [-70.16333059399989, 11.40190108600018], [-70.16400960099992, 11.40010803400014], [-70.16441060199998, 11.398151983], [-70.16462360499992, 11.396794944000078], [-70.16495161599988, 11.396058923000055], [-70.16632866499998, 11.395026883000071], [-70.16618965399994, 11.39472687600005], [-70.16544363199995, 11.39500189000006], [-70.16574963099993, 11.393597857000145], [-70.16617163899997, 11.39244781900004], [-70.16652464499992, 11.391113780000069], [-70.16703865799991, 11.39024076100003], [-70.1673456609999, 11.388745721000134], [-70.16746565499989, 11.387111675000142], [-70.16763365899993, 11.385385628000051], [-70.16868568899997, 11.383431571000074], [-70.16927269599995, 11.381821527000113], [-70.16974070699996, 11.38083349600015], [-70.17090774499997, 11.379570450000074], [-70.1723788029999, 11.378123412000093], [-70.17403387499996, 11.377851384000166], [-70.17552492699997, 11.37762536800011], [-70.17645796699998, 11.37700635400006], [-70.1775089979999, 11.375904311000056], [-70.17879304899992, 11.374595276000036], [-70.17965807299998, 11.373101225000141], [-70.18031309099985, 11.371837189000189], [-70.18068909599998, 11.37041114900012], [-70.18092510299994, 11.369375120000143], [-70.18053108299995, 11.368523097000036], [-70.1799970489999, 11.367739083], [-70.18014004499992, 11.366220050000038], [-70.18058704999993, 11.364702008], [-70.18187109999997, 11.363346961000047], [-70.18336415799996, 11.362429922000103], [-70.18536823199997, 11.361675891000175], [-70.18655105099992, 11.36128178100006], [-70.18655399599999, 11.361288166000179], [-70.1874663189999, 11.36098985500007], [-70.18972640599986, 11.360604831000046], [-70.19112179899986, 11.360052468000049], [-70.19110499999988, 11.360007], [-70.19095656599995, 11.359765127000173], [-70.18975041399989, 11.35779970100009], [-70.18852199999986, 11.355798000000107], [-70.18718, 11.35261400000013], [-70.18716874299997, 11.351430424000057], [-70.18712001799986, 11.346307356000182], [-70.18711, 11.345254], [-70.186163, 11.336745000000178], [-70.18606699999987, 11.330401], [-70.185828, 11.324564], [-70.18294999999989, 11.32073], [-70.17899094999996, 11.318792422000172], [-70.1789859999999, 11.31879000000015], [-70.176085, 11.315844], [-70.17486899999989, 11.312788], [-70.174698, 11.309361], [-70.172971, 11.306045], [-70.17268, 11.302237000000105], [-70.169718, 11.296627000000115], [-70.167289, 11.295462000000157], [-70.16656399999982, 11.293425], [-70.161443, 11.29122000000018], [-70.159852, 11.287653], [-70.156937, 11.285215], [-70.148987, 11.279557000000125], [-70.10954999999984, 11.267952], [-70.048288, 11.299823], [-69.96889, 11.308627000000172], [-69.964951, 11.310958000000142], [-69.892686, 11.357803000000104], [-69.890884, 11.359118], [-69.89027499999986, 11.359596000000124], [-69.8915, 11.360844], [-69.890833, 11.362856], [-69.890634, 11.364689000000169], [-69.88985699999989, 11.365807000000132], [-69.8893149999999, 11.366697], [-69.888303, 11.368271], [-69.8885279999999, 11.369374], [-69.8887299999999, 11.370407], [-69.889492, 11.37121500000012], [-69.88867, 11.372264], [-69.888124, 11.373612], [-69.8876929999999, 11.375375], [-69.887455, 11.37599200000011], [-69.88607599999989, 11.376601], [-69.884603, 11.377415], [-69.883435, 11.377933000000155], [-69.882081, 11.3784500000001], [-69.88114599999983, 11.378924], [-69.881551, 11.380785], [-69.88269099999985, 11.380954], [-69.883247, 11.381417000000113], [-69.883126, 11.382012000000145], [-69.882589, 11.382191], [-69.882056, 11.381821000000173], [-69.881521, 11.381816], [-69.880798, 11.381971000000135], [-69.88081199999988, 11.383278], [-69.880572, 11.384217000000149], [-69.88002999999986, 11.38513], [-69.8804439999999, 11.385798], [-69.879626, 11.386158], [-69.880084, 11.387308000000132], [-69.88023499999986, 11.388939], [-69.880019, 11.389762000000133], [-69.878993, 11.390053], [-69.8772, 11.389993], [-69.87718599999982, 11.391873], [-69.876334, 11.39377], [-69.875189, 11.394311], [-69.873251, 11.395099], [-69.872495, 11.396537], [-69.872253, 11.397843000000137], [-69.874136, 11.398224], [-69.873297, 11.398355], [-69.872246, 11.398760000000152], [-69.870802, 11.398726000000181], [-69.869428, 11.398761], [-69.869212, 11.399699], [-69.869928, 11.400462000000118], [-69.8701999999999, 11.401473], [-69.86938, 11.4022], [-69.869809, 11.404083], [-69.869199, 11.404606000000115], [-69.86804099999989, 11.403749000000118], [-69.8673, 11.403147], [-69.8659909999999, 11.403848000000153], [-69.86689, 11.40513900000019], [-69.868304, 11.40602100000018], [-69.86815799999988, 11.406937], [-69.866895, 11.407661000000132], [-69.86670099999986, 11.408668000000148], [-69.866644, 11.410135], [-69.8667099999999, 11.410663], [-69.86840699999988, 11.411043000000177], [-69.86833399999989, 11.41157], [-69.86794480599991, 11.412270549000084], [-69.867649, 11.412803000000167], [-69.868364, 11.41377100000011], [-69.86845099999988, 11.414621000000125], [-69.867463, 11.416012], [-69.867057, 11.417384], [-69.865587, 11.417786000000149], [-69.86504, 11.419341], [-69.86541739499995, 11.420600907000107], [-69.865563, 11.421087], [-69.865253, 11.422117], [-69.86287099999987, 11.422924], [-69.860927, 11.424377000000163], [-69.860595, 11.425315000000126], [-69.85410506399995, 11.427944363000165], [-69.85412751699994, 11.42798152100005], [-69.85413075099996, 11.427986874000055], [-69.85725287999998, 11.428995871000154], [-69.85800932199987, 11.428998242999967], [-69.86234210399988, 11.429011836000143], [-69.8650472199999, 11.430233857000076], [-69.86802835299989, 11.431268859000113], [-69.87203753699998, 11.432310867000126], [-69.87839382699991, 11.435544905000029], [-69.8806489299999, 11.437783941000191], [-69.88474113299992, 11.441052004000142], [-69.88862631899997, 11.444483069000114], [-69.89133745499993, 11.44751912800001], [-69.89435960499998, 11.45100919500004], [-69.89641070999994, 11.453687260000038], [-69.89760077799997, 11.456516315999977], [-69.89758341599997, 11.457046972], [-69.89749179399996, 11.459847412999977], [-69.89621576199988, 11.463150503000122], [-69.8952897449999, 11.465115558000036], [-69.8945117259999, 11.467492628000116], [-69.89506477299994, 11.471341728000084], [-69.89475680399994, 11.476787867000098], [-69.89454281599984, 11.479385937000131], [-69.89343778699998, 11.481767007000144], [-69.89208173999987, 11.484543090999978], [-69.89102071299999, 11.486786159000133], [-69.88904164499996, 11.48856122300009], [-69.88744258199989, 11.489296248000073], [-69.88722058499991, 11.491458308000063], [-69.88632956299989, 11.494066387000146], [-69.88689860799991, 11.496009424000079], [-69.88750164499999, 11.498617492], [-69.88920072899998, 11.499717507000184], [-69.88997477899989, 11.501358548000155], [-69.88946176299999, 11.502835592000167], [-69.88909076099992, 11.504448638000042], [-69.89115285799994, 11.50630066900004], [-69.89288893799994, 11.508202712000127], [-69.89587607099992, 11.508088684000143], [-69.89786614199994, 11.506979645000115], [-69.89900318599996, 11.505102581000074], [-69.90011021499998, 11.50283551900003], [-69.90086123199995, 11.501607479000029], [-69.9027383109999, 11.50072944800013], [-69.90453726399988, 11.499531383000033], [-69.90467838199993, 11.49943740100008], [-69.90694845899998, 11.496877312000095], [-69.90932454499995, 11.495142250000072], [-69.91196965399996, 11.494046203000039], [-69.91439875499987, 11.494124186000022], [-69.91647683799994, 11.494093177000025], [-69.91810191599984, 11.494941183000037], [-69.91745791199992, 11.498394286], [-69.91658488699989, 11.500704343000109], [-69.91635689099996, 11.502406397000073], [-69.91770395299994, 11.503396415000111], [-69.91880601899999, 11.50510145200002], [-69.91936905399996, 11.506677491000175], [-69.92112212699988, 11.506788471000107], [-69.92283219299998, 11.505683431000136], [-69.92508828199993, 11.505143401000055], [-69.92653633899994, 11.505121396000106], [-69.92882643299998, 11.503824344000066], [-69.93170053099993, 11.50107125], [-69.93393560899995, 11.499269187000039], [-69.93416860899987, 11.497819153000137], [-69.93362757999995, 11.496151114000043], [-69.93352656499997, 11.494270062], [-69.93487760599999, 11.49266501500017], [-69.93792873599995, 11.492159982000032], [-69.9401848249999, 11.491619952000121], [-69.9439279799999, 11.490667894000069], [-69.94624606699995, 11.489644858000133], [-69.94870516099996, 11.488642812000023], [-69.95091125099998, 11.487897778], [-69.95294432899993, 11.486557732000165], [-69.95421538599987, 11.487204733000112], [-69.95507342799988, 11.488270756000134], [-69.95681949699997, 11.487944744000174], [-69.95866457199992, 11.486516682000115], [-69.96147468399994, 11.485623651000026], [-69.96326475399997, 11.485114618000125], [-69.96587385899994, 11.484775592000119], [-69.96726593799991, 11.487027643000033], [-69.96892601299999, 11.488609669000027], [-69.97044833399997, 11.489928720000023], [-69.9705140929999, 11.489985698999988], [-69.97069311199988, 11.492324756000187], [-69.97068811799994, 11.493449793000082], [-69.97273121499995, 11.494152794000115], [-69.97442328499989, 11.493369757000039], [-69.97647135499994, 11.491546694000135], [-69.98003349899983, 11.490941663000058], [-69.9817175799999, 11.492499684000109], [-69.98266563399983, 11.494757744000026], [-69.98366768899996, 11.496028769000134], [-69.9851657669999, 11.497635795000065], [-69.98669783999992, 11.50049361900011], [-69.98793691999998, 11.502804916000116], [-69.98991703199994, 11.508101035000152], [-69.99098710399994, 11.510656099000187], [-69.99187414499994, 11.512043132000088], [-69.99265419199992, 11.514005170000075], [-69.99296821099995, 11.514620191000063], [-69.99472327199999, 11.513399144000061], [-69.99702236899986, 11.512629111000024], [-69.99849643099998, 11.512813103000155], [-69.99964948099989, 11.513369110000042], [-70.0020725999999, 11.515480148000108], [-70.00328165699995, 11.516335157000071], [-70.00393269099999, 11.516913174000024], [-70.0043257189999, 11.517950192000171], [-70.00472072899998, 11.518319210000186], [-70.00595678599996, 11.517840182000157], [-70.00679682099991, 11.517658173000086], [-70.00747383899989, 11.517131149000022], [-70.00861787999997, 11.516398126000183], [-70.00917791099994, 11.516216118000045], [-70.01011094199993, 11.515988108000045], [-70.01120599599994, 11.516084098000135], [-70.01211503199994, 11.515833087999965], [-70.01279305599991, 11.515375076999987], [-70.01442511499994, 11.515127054000175], [-70.01533315999995, 11.515176052000129], [-70.01654320999995, 11.515893059000064], [-70.01759226099989, 11.51573505400006], [-70.01959833399997, 11.51500401100003], [-70.02139441099996, 11.514433983000117], [-70.02389050799991, 11.513589946000025], [-70.02629359699989, 11.512699910000094], [-70.02834767899992, 11.511577861999967], [-70.0296997349999, 11.511489849000043], [-70.03240185199991, 11.511589836999974], [-70.03846410499995, 11.510572771000056], [-70.04100520199995, 11.510211739], [-70.04247226399985, 11.510468740000022], [-70.04540839499998, 11.510707721000188], [-70.04708446199999, 11.511103728000023], [-70.04908555899993, 11.51235273900005], [-70.05182969199996, 11.51424877900007], [-70.05392478599993, 11.515060785000117], [-70.05538985599992, 11.5162158010001], [-70.05631990199993, 11.517069817999982], [-70.05717893899998, 11.51829284500019], [-70.05808698399994, 11.51831783800003], [-70.0591370279999, 11.51815982100004], [-70.06185814899999, 11.520101861000114], [-70.06306820899982, 11.520703868000112], [-70.06429628199999, 11.523215923000066], [-70.0666203859999, 11.525294962000032], [-70.06841247699998, 11.526335979000066], [-70.06920151799994, 11.527420000000177], [-70.07050556599995, 11.527861005000148], [-70.07176162999997, 11.528739014000053], [-70.07266867399994, 11.529340029000139], [-70.07322569699994, 11.53033205100013], [-70.07382973699993, 11.531070064], [-70.07559881199984, 11.531581059000132], [-70.07701787999991, 11.532575085000133], [-70.07864695499995, 11.533431097000062], [-70.0805570359999, 11.533736082000132], [-70.0833521649999, 11.534596094000108], [-70.08560925899997, 11.535684102000062], [-70.08786736799993, 11.536611107999988], [-70.09012646899998, 11.537262111000132], [-70.09268557899998, 11.53894914], [-70.09382663499997, 11.539182138000115], [-70.09517769099995, 11.539716137000141], [-70.09687876499999, 11.539674133000062], [-70.09866985199994, 11.540899152000065], [-70.10062493399988, 11.541940168000053], [-70.10292705399996, 11.543834200999981], [-70.10474213399993, 11.544944207000185], [-70.10683622699992, 11.546262230000082], [-70.10881331899998, 11.547763262000103], [-70.10999937799988, 11.548825274000023], [-70.11130343699995, 11.549174277000077], [-70.11211747499993, 11.549936295000066], [-70.1133015389999, 11.55164333000016], [-70.11416257999991, 11.552105339000093], [-70.11560265599996, 11.553974378000134], [-70.11739374399991, 11.555290393], [-70.1186258059999, 11.556767426000079], [-70.11978886199995, 11.557553434000113], [-70.1211849149999, 11.558316453000089], [-70.12313901799996, 11.559794473000181], [-70.12453408199991, 11.561156503000063], [-70.12593014799995, 11.56201151100015], [-70.12735120999986, 11.56245352000019], [-70.12874826599989, 11.562940512000182], [-70.13140139999996, 11.564604540000175], [-70.13305446799995, 11.565253549000147], [-70.13407951499994, 11.565417547000038], [-70.13517556099993, 11.565281536000043], [-70.1363626079999, 11.56579154200017]]]}}, {"type": "Feature", "properties": {"Pais": "Venezuela", "Estado": "Falc\u00f3n", "Municipio": "Miranda", "Parroquia": "Rio Seco"}, "geometry": {"type": "Polygon", "coordinates": [[[-70.18852199999986, 11.355798000000107], [-70.18975041399989, 11.35779970100009], [-70.19095656599995, 11.359765127000173], [-70.19110499999988, 11.360007], [-70.19112179899986, 11.360052468000049], [-70.19117146699995, 11.360032807000096], [-70.19191949399993, 11.359113787000126], [-70.19341154699993, 11.358219747000021], [-70.19469558599997, 11.356841700000132], [-70.19709668899986, 11.356065671000124], [-70.20352594899998, 11.35550560500019], [-70.20660108599986, 11.355214586000159], [-70.20711509899985, 11.35440955100006], [-70.20753610599996, 11.353697535000151], [-70.20879216699996, 11.354229535000115], [-70.20935218399995, 11.353862533000097], [-70.20993720799993, 11.35278249999999], [-70.2104522119999, 11.351563461000126], [-70.21241029499993, 11.350555422000127], [-70.21553341399988, 11.349550380000096], [-70.21793450499996, 11.348727334000046], [-70.22101062899998, 11.347607291000031], [-70.22546180999996, 11.346375229000046], [-70.22960997399997, 11.34516516399998], [-70.23280770399998, 11.344002346000082], [-70.23294311299998, 11.343953106000072], [-70.2343161629999, 11.344393117000152], [-70.23487619199989, 11.34391110100006], [-70.23580921699983, 11.342947060000142], [-70.23711627099988, 11.341937028000075], [-70.23903493899991, 11.341620152000132], [-70.23903, 11.341584000000182], [-70.23863633199988, 11.340671750000183], [-70.234142, 11.330257000000188], [-70.2318544819999, 11.326620316], [-70.21591265399996, 11.301276079000104], [-70.202119, 11.279347000000143], [-70.154311, 11.236134000000106], [-70.136241, 11.236876], [-70.148987, 11.279557000000125], [-70.156937, 11.285215], [-70.159852, 11.287653], [-70.161443, 11.29122000000018], [-70.16656399999982, 11.293425], [-70.167289, 11.295462000000157], [-70.169718, 11.296627000000115], [-70.17268, 11.302237000000105], [-70.172971, 11.306045], [-70.174698, 11.309361], [-70.17486899999989, 11.312788], [-70.176085, 11.315844], [-70.1789859999999, 11.31879000000015], [-70.17899094999996, 11.318792422000172], [-70.18294999999989, 11.32073], [-70.185828, 11.324564], [-70.18606699999987, 11.330401], [-70.186163, 11.336745000000178], [-70.18711, 11.345254], [-70.18712001799986, 11.346307356000182], [-70.18716874299997, 11.351430424000057], [-70.18718, 11.35261400000013], [-70.18852199999986, 11.355798000000107]]]}}, {"type": "Feature", "properties": {"Pais": "Venezuela", "Estado": "Falc\u00f3n", "Municipio": "Miranda", "Parroquia": "Sabaneta"}, "geometry": {"type": "Polygon", "coordinates": [[[-69.833513, 11.167572], [-69.85166499999985, 11.245133], [-69.85095299999989, 11.24589600000013], [-69.851678, 11.249152], [-69.853567, 11.24826800000011], [-69.853572, 11.24742], [-69.853432, 11.246276000000137], [-69.855277, 11.245553], [-69.856796, 11.244814000000133], [-69.858033, 11.243943], [-69.85915299999982, 11.243005], [-69.860241, 11.243879], [-69.861057, 11.245057], [-69.8626589999999, 11.246036000000174], [-69.864141, 11.245734], [-69.86664999999982, 11.244517], [-69.868852, 11.243123], [-69.870214, 11.242617], [-69.871162, 11.24237], [-69.87339899999984, 11.241502], [-69.874558, 11.239119000000187], [-69.875666, 11.238754], [-69.877536, 11.2381], [-69.8797, 11.237051000000179], [-69.881562, 11.23607600000014], [-69.88291, 11.236005], [-69.88423799999987, 11.236164000000144], [-69.885868, 11.235102], [-69.888721, 11.234773000000132], [-69.8899899999999, 11.235438000000102], [-69.89177499999988, 11.236299], [-69.89386499999989, 11.236168], [-69.89538, 11.23632300000014], [-69.896314, 11.237636], [-69.897303, 11.238191000000143], [-69.898383, 11.237621], [-69.899392, 11.238061], [-69.90102599999989, 11.238351], [-69.902345, 11.239152000000104], [-69.903865, 11.240661], [-69.90476999999987, 11.239451000000145], [-69.9056829999999, 11.239778], [-69.907091, 11.241495000000157], [-69.905874, 11.242183], [-69.90565, 11.243723000000102], [-69.904712, 11.244429], [-69.9048499999999, 11.245481], [-69.904815, 11.246033000000125], [-69.905514, 11.247189], [-69.902906, 11.248109000000113], [-69.902877, 11.248935], [-69.903513, 11.250437000000147], [-69.902592, 11.250844], [-69.901162, 11.251399000000163], [-69.90097499999985, 11.252457000000163], [-69.901955, 11.253700000000151], [-69.900878, 11.25445400000018], [-69.900405, 11.25519700000018], [-69.90005699999989, 11.256327], [-69.90026199999983, 11.257218], [-69.900913, 11.258352000000116], [-69.900861, 11.259179000000131], [-69.900813, 11.260189], [-69.900721, 11.263539], [-69.90157, 11.266344], [-69.903447, 11.268213000000117], [-69.905086, 11.268687000000114], [-69.906588, 11.269347000000153], [-69.90628, 11.271279000000163], [-69.90664299999986, 11.27196], [-69.906917, 11.272827000000177], [-69.90509, 11.274420000000134], [-69.90327699999989, 11.274454000000105], [-69.901848, 11.275100000000123], [-69.900416, 11.276640000000157], [-69.899483, 11.276520000000176], [-69.897579, 11.278873], [-69.893413, 11.2809], [-69.891079, 11.288237], [-69.891544, 11.289306000000124], [-69.89181699999989, 11.29125], [-69.892819, 11.292447], [-69.893951, 11.293160000000114], [-69.894709, 11.293857], [-69.894822, 11.294772], [-69.89389099999988, 11.296945000000107], [-69.892757, 11.298297000000105], [-69.892463, 11.30091700000014], [-69.891678, 11.302307], [-69.89222699999988, 11.302939], [-69.89281599999987, 11.304419000000166], [-69.893816, 11.304423000000156], [-69.894963, 11.304769], [-69.897291, 11.305987], [-69.897644, 11.307288], [-69.896262, 11.30901], [-69.89490199999989, 11.309586000000138], [-69.894787, 11.310758000000135], [-69.894423, 11.311155], [-69.893522, 11.312525000000107], [-69.89268699999985, 11.313756000000183], [-69.891452, 11.314743000000135], [-69.892351, 11.316561], [-69.8922419999999, 11.318008], [-69.890676, 11.318748], [-69.88962, 11.319387000000177], [-69.88992, 11.321491000000151], [-69.889828, 11.322663000000148], [-69.890143, 11.323483000000124], [-69.890493, 11.3243930000001], [-69.89116, 11.325161], [-69.890388, 11.326024], [-69.890674, 11.327463], [-69.890555, 11.328451000000143], [-69.89015099999989, 11.329147], [-69.889005, 11.329925], [-69.895636, 11.33939], [-69.89541, 11.341681], [-69.894421, 11.343187000000114], [-69.894152, 11.344904], [-69.894211, 11.346395000000143], [-69.8947409999999, 11.347225], [-69.894714, 11.347729], [-69.894634, 11.34919600000012], [-69.89401799999985, 11.350567], [-69.893273, 11.350561], [-69.892483, 11.350417], [-69.893034, 11.351431000000105], [-69.892727, 11.352116000000137], [-69.89318599999984, 11.352968], [-69.89269699999988, 11.353057], [-69.89334, 11.354208], [-69.894084, 11.354375000000175], [-69.894149, 11.35504], [-69.89314299999984, 11.355743000000189], [-69.892536, 11.356037000000185], [-69.890884, 11.359118], [-69.892686, 11.357803000000104], [-69.964951, 11.310958000000142], [-69.96889, 11.308627000000172], [-70.048288, 11.299823], [-70.10954999999984, 11.267952], [-70.148987, 11.279557000000125], [-70.136241, 11.236876], [-70.154311, 11.236134000000106], [-70.12084, 11.106955000000141], [-70.023132, 11.181], [-70.002242, 11.187489], [-69.990906, 11.190878], [-69.988246, 11.191716], [-69.984253, 11.193190000000186], [-69.979909, 11.195603000000176], [-69.97698799999989, 11.197563000000173], [-69.974181, 11.200486], [-69.97, 11.202556], [-69.96622, 11.203526], [-69.941759, 11.211657000000116], [-69.938395, 11.213684000000171], [-69.935126, 11.21461], [-69.932442, 11.215471], [-69.92959699999989, 11.215688], [-69.927082, 11.216581], [-69.919734, 11.216059], [-69.917897, 11.214859], [-69.915761, 11.212351000000183], [-69.90906499999988, 11.201041000000146], [-69.908045, 11.199408], [-69.907187, 11.198418], [-69.90597799999989, 11.19745], [-69.904653, 11.196435], [-69.903538, 11.195353], [-69.902844, 11.19386], [-69.902292, 11.191954], [-69.901704, 11.187114000000179], [-69.90183, 11.18473], [-69.90228, 11.182737], [-69.902451, 11.180651], [-69.902155, 11.178838], [-69.902044, 11.177256], [-69.900817, 11.175187], [-69.89896, 11.173069000000169], [-69.897028, 11.172350000000165], [-69.895234, 11.171677000000102], [-69.89393299999983, 11.170732], [-69.892427, 11.168111], [-69.891249, 11.165492], [-69.889439, 11.163192], [-69.886553, 11.162033], [-69.884249, 11.161197000000186], [-69.883159, 11.159839], [-69.881208, 11.157836], [-69.87944599999986, 11.155329000000165], [-69.877425, 11.151621000000148], [-69.873367, 11.152382], [-69.870898, 11.153595], [-69.868427, 11.153675], [-69.8651579999999, 11.155083], [-69.863706, 11.156750000000102], [-69.862138, 11.158371000000159], [-69.860271, 11.158959], [-69.857891, 11.159774], [-69.855561, 11.159534], [-69.853233, 11.158606], [-69.849896, 11.159440000000131], [-69.8452989999999, 11.160588], [-69.833513, 11.167572]]]}}, {"type": "Feature", "properties": {"Pais": "Venezuela", "Estado": "Falc\u00f3n", "Municipio": "Miranda", "Parroquia": "San Antonio"}, "geometry": {"type": "Polygon", "coordinates": [[[-69.673844, 11.403669], [-69.67415099999988, 11.403613], [-69.674189, 11.403610000000128], [-69.674234, 11.403613], [-69.674275, 11.403617], [-69.674342, 11.403613], [-69.674391, 11.403607], [-69.674682, 11.403558], [-69.674966, 11.403504000000112], [-69.675221, 11.403458], [-69.67556, 11.4034], [-69.675597, 11.403395000000103], [-69.675623, 11.403398], [-69.675646, 11.403402], [-69.675673, 11.403403], [-69.67585999999989, 11.40337], [-69.676554, 11.403261], [-69.676775, 11.403225], [-69.67708, 11.403177], [-69.677435, 11.403116000000125], [-69.678036, 11.403042], [-69.678584, 11.402968000000158], [-69.67915099999988, 11.402879], [-69.679403, 11.402844000000186], [-69.679635, 11.402831], [-69.679978, 11.402776], [-69.68015299999985, 11.402753000000132], [-69.680288, 11.402731], [-69.680396, 11.402713000000176], [-69.680504, 11.402691000000118], [-69.681414, 11.402491000000111], [-69.68148799999989, 11.402475], [-69.68153499999988, 11.40246800000017], [-69.6815749999999, 11.40246800000017], [-69.681601, 11.402474000000154], [-69.6816189999999, 11.402477], [-69.681638, 11.402478], [-69.6816649999999, 11.402479], [-69.682654, 11.40232600000013], [-69.68285699999984, 11.402284], [-69.682957, 11.402261], [-69.683611, 11.402043000000162], [-69.68523599999986, 11.401485], [-69.68560799999989, 11.401361], [-69.686118, 11.401191], [-69.686425, 11.401082], [-69.686535, 11.401035], [-69.68722, 11.40080200000017], [-69.68752499999988, 11.400716000000159], [-69.688272, 11.400461], [-69.688546, 11.400385000000142], [-69.68864699999989, 11.400352], [-69.688907, 11.400284000000113], [-69.691156, 11.39965500000011], [-69.69211399999989, 11.399404000000118], [-69.693719, 11.39904], [-69.702881, 11.396420000000148], [-69.70293, 11.395998], [-69.70299, 11.395397], [-69.703036, 11.39492300000012], [-69.703077, 11.394503000000157], [-69.703109, 11.394141], [-69.703128, 11.393992], [-69.70314999999988, 11.393745], [-69.703204, 11.393276], [-69.7032329999999, 11.392983000000186], [-69.703333, 11.391999000000112], [-69.7033919999999, 11.39147], [-69.703452, 11.39088900000013], [-69.703525, 11.390162], [-69.703588, 11.389574], [-69.703628, 11.389234000000101], [-69.703675, 11.38873400000017], [-69.703748, 11.388055000000122], [-69.70381099999986, 11.387459], [-69.703872, 11.386878], [-69.703909, 11.386564], [-69.703988, 11.38582], [-69.704028, 11.385435], [-69.704065, 11.385020000000168], [-69.704093, 11.384782], [-69.704116, 11.384632], [-69.704129, 11.384563000000185], [-69.704188, 11.384447], [-69.704298, 11.384286], [-69.70438999999988, 11.384174000000144], [-69.704437, 11.384113], [-69.7045619999999, 11.383976000000132], [-69.704658, 11.383890000000122], [-69.704718, 11.383837000000142], [-69.70476699999989, 11.383794000000137], [-69.704871, 11.383714000000111], [-69.704967, 11.383640000000185], [-69.705043, 11.383567], [-69.71717699999988, 11.381939000000159], [-69.72446699999989, 11.381337], [-69.72766, 11.380907], [-69.730483, 11.380373], [-69.743406, 11.379025], [-69.745812, 11.379099000000167], [-69.748107, 11.37825], [-69.750348, 11.377653], [-69.753882, 11.376083], [-69.765747, 11.369963], [-69.780769, 11.363803], [-69.795457, 11.357837], [-69.80102399999987, 11.35557], [-69.804603, 11.354024], [-69.81559599999986, 11.348796], [-69.81727199999989, 11.347560000000101], [-69.820753, 11.346218], [-69.82492899999988, 11.344299], [-69.828806, 11.342946], [-69.831418, 11.342405], [-69.833153, 11.341515000000129], [-69.834483, 11.34086600000012], [-69.834788, 11.3408060000001], [-69.835139, 11.340794000000187], [-69.837327, 11.340355000000102], [-69.838448, 11.340389], [-69.840385, 11.340471], [-69.846619, 11.342088000000103], [-69.848946, 11.342389], [-69.852655, 11.341880000000174], [-69.854598, 11.341801], [-69.855555, 11.341831000000184], [-69.890143, 11.323483000000124], [-69.889828, 11.322663000000148], [-69.88992, 11.321491000000151], [-69.88962, 11.319387000000177], [-69.890676, 11.318748], [-69.8922419999999, 11.318008], [-69.892351, 11.316561], [-69.891452, 11.314743000000135], [-69.89268699999985, 11.313756000000183], [-69.893522, 11.312525000000107], [-69.894423, 11.311155], [-69.894787, 11.310758000000135], [-69.89490199999989, 11.309586000000138], [-69.896262, 11.30901], [-69.897644, 11.307288], [-69.897291, 11.305987], [-69.894963, 11.304769], [-69.893816, 11.304423000000156], [-69.89281599999987, 11.304419000000166], [-69.89222699999988, 11.302939], [-69.891678, 11.302307], [-69.892463, 11.30091700000014], [-69.892757, 11.298297000000105], [-69.89389099999988, 11.296945000000107], [-69.894822, 11.294772], [-69.894709, 11.293857], [-69.893951, 11.293160000000114], [-69.892819, 11.292447], [-69.89181699999989, 11.29125], [-69.891544, 11.289306000000124], [-69.891079, 11.288237], [-69.893413, 11.2809], [-69.897579, 11.278873], [-69.899483, 11.276520000000176], [-69.900416, 11.276640000000157], [-69.901848, 11.275100000000123], [-69.90327699999989, 11.274454000000105], [-69.90509, 11.274420000000134], [-69.906917, 11.272827000000177], [-69.90664299999986, 11.27196], [-69.90628, 11.271279000000163], [-69.906588, 11.269347000000153], [-69.905086, 11.268687000000114], [-69.903447, 11.268213000000117], [-69.90157, 11.266344], [-69.900721, 11.263539], [-69.900813, 11.260189], [-69.900861, 11.259179000000131], [-69.900913, 11.258352000000116], [-69.90026199999983, 11.257218], [-69.90005699999989, 11.256327], [-69.900405, 11.25519700000018], [-69.900878, 11.25445400000018], [-69.901955, 11.253700000000151], [-69.90097499999985, 11.252457000000163], [-69.901162, 11.251399000000163], [-69.902592, 11.250844], [-69.903513, 11.250437000000147], [-69.902877, 11.248935], [-69.902906, 11.248109000000113], [-69.905514, 11.247189], [-69.904815, 11.246033000000125], [-69.9048499999999, 11.245481], [-69.904712, 11.244429], [-69.90565, 11.243723000000102], [-69.905874, 11.242183], [-69.907091, 11.241495000000157], [-69.9056829999999, 11.239778], [-69.90476999999987, 11.239451000000145], [-69.903865, 11.240661], [-69.902345, 11.239152000000104], [-69.90102599999989, 11.238351], [-69.899392, 11.238061], [-69.898383, 11.237621], [-69.897303, 11.238191000000143], [-69.896314, 11.237636], [-69.89538, 11.23632300000014], [-69.89386499999989, 11.236168], [-69.89177499999988, 11.236299], [-69.8899899999999, 11.235438000000102], [-69.888721, 11.234773000000132], [-69.885868, 11.235102], [-69.88423799999987, 11.236164000000144], [-69.88291, 11.236005], [-69.881562, 11.23607600000014], [-69.8797, 11.237051000000179], [-69.877536, 11.2381], [-69.875666, 11.238754], [-69.874558, 11.239119000000187], [-69.87339899999984, 11.241502], [-69.871162, 11.24237], [-69.870214, 11.242617], [-69.868852, 11.243123], [-69.86664999999982, 11.244517], [-69.864141, 11.245734], [-69.8626589999999, 11.246036000000174], [-69.861057, 11.245057], [-69.860241, 11.243879], [-69.85915299999982, 11.243005], [-69.858033, 11.243943], [-69.856796, 11.244814000000133], [-69.855277, 11.245553], [-69.853432, 11.246276000000137], [-69.853572, 11.24742], [-69.853567, 11.24826800000011], [-69.851678, 11.249152], [-69.85095299999989, 11.24589600000013], [-69.842018, 11.255473000000109], [-69.84057899999988, 11.256434], [-69.83677, 11.257379], [-69.833474, 11.257572], [-69.831829, 11.258856], [-69.830708, 11.262734000000137], [-69.828036, 11.264982000000145], [-69.82350999999989, 11.266894], [-69.810443, 11.271983000000148], [-69.806841, 11.273469000000148], [-69.804577, 11.274102000000141], [-69.80117899999988, 11.274618], [-69.798089, 11.274704], [-69.795826, 11.275876], [-69.7902749999999, 11.279938000000186], [-69.787088, 11.281536], [-69.784824, 11.282491], [-69.780094, 11.285697], [-69.777843, 11.290538], [-69.776313, 11.295492], [-69.776014, 11.29862], [-69.774371, 11.300443], [-69.77066599999989, 11.30171300000012], [-69.764287, 11.304151], [-69.759868, 11.307681], [-69.75781, 11.308099], [-69.7542, 11.307103], [-69.748939, 11.304801000000168], [-69.74563399999988, 11.301864], [-69.743981, 11.300449000000128], [-69.740168, 11.299775000000182], [-69.738417, 11.29987100000011], [-69.73512099999982, 11.30028], [-69.73172199999988, 11.300472], [-69.72863299999989, 11.30088300000017], [-69.72575199999983, 11.302266], [-69.71918099999988, 11.309452], [-69.71713199999988, 11.312999000000104], [-69.710574, 11.324178], [-69.710068, 11.326981], [-69.70976699999989, 11.329677000000174], [-69.709361, 11.331724], [-69.70689499999986, 11.33365], [-69.702775, 11.334161], [-69.701645, 11.335341], [-69.699696, 11.337917000000175], [-69.698566, 11.338773000000117], [-69.695583, 11.340155], [-69.69589699999989, 11.341776], [-69.696831, 11.344266], [-69.696628, 11.345344], [-69.69385099999988, 11.346296000000109], [-69.6895229999999, 11.346266000000128], [-69.68705, 11.345817000000125], [-69.68252, 11.346649], [-69.679228, 11.34803], [-69.675416, 11.348543], [-69.66964999999982, 11.349259000000131], [-69.665942, 11.34923300000014], [-69.66162099999985, 11.351038], [-69.657608, 11.352737000000161], [-69.654623, 11.353256000000101], [-69.651429, 11.353666], [-69.643201, 11.357493], [-69.64176, 11.35823900000014], [-69.637537, 11.358318], [-69.63362499999982, 11.359046], [-69.630328, 11.358916], [-69.62610099999989, 11.357916], [-69.60406499999988, 11.37341], [-69.60406599999988, 11.373863], [-69.627534, 11.410691], [-69.632328, 11.411727], [-69.637604, 11.410801], [-69.63817099999989, 11.411130000000128], [-69.64208399999984, 11.410766], [-69.64483799999988, 11.409998], [-69.64753999999988, 11.409382], [-69.650473, 11.408868], [-69.653279, 11.408403], [-69.65771199999989, 11.407726], [-69.664091, 11.407658], [-69.674155, 11.404996], [-69.673941, 11.40456300000011], [-69.673552, 11.40372], [-69.673844, 11.403669]]]}}]}