{"type": "FeatureCollection", "features": [{"type": "Feature", "properties": {"Pais": "Venezuela", "Estado": "Portuguesa", "Municipio": "Monse\u00f1or Jos\u00e9 Vicente de Und", "Parroquia": "Monse\u00f1or Jos\u00e9 Vicente de Unda"}, "geometry": {"type": "Polygon", "coordinates": [[[-69.84021292699998, 9.505855985000096], [-69.8396559169999, 9.507029021000164], [-69.83863487599996, 9.508455061000177], [-69.83754583399991, 9.50905407700003], [-69.83675680999994, 9.51059511700015], [-69.83589878299989, 9.511975157000109], [-69.83448372499998, 9.512781188000133], [-69.83348670399988, 9.514621232000138], [-69.83285968499996, 9.5175183], [-69.8320236749999, 9.520552377000172], [-69.83167467199996, 9.523058441000046], [-69.83220570799995, 9.525218492000135], [-69.83387180999995, 9.530616607000127], [-69.83373181499991, 9.533857693000073], [-69.8333828239999, 9.536385752000058], [-69.83405286299995, 9.539556829000162], [-69.83390126899991, 9.542612503000043], [-69.83386587599983, 9.543325915000082], [-69.83351687899989, 9.54486695200012], [-69.83189381499989, 9.546568998999987], [-69.82952872199996, 9.547791049000068], [-69.82778865799997, 9.549563102000036], [-69.82667562199998, 9.55032212600014], [-69.82635062199984, 9.552414174000035], [-69.82913074999993, 9.554479207999975], [-69.83154085599995, 9.556153229000017], [-69.8326989169999, 9.558542284999987], [-69.83281194699993, 9.562954393000041], [-69.83281772699996, 9.562983133999978], [-69.83299778999987, 9.563878562000184], [-69.8333439939999, 9.565895457000181], [-69.8354835959999, 9.56741189600018], [-69.836613, 9.562963000000138], [-69.83679599999988, 9.562548], [-69.837256, 9.561925], [-69.838197, 9.560333000000128], [-69.83924, 9.560073000000102], [-69.84062099999983, 9.558410000000151], [-69.840849, 9.557673000000136], [-69.840883, 9.555697], [-69.84095799999989, 9.552756], [-69.84108, 9.551884], [-69.841158, 9.55133], [-69.841074, 9.548988], [-69.84123, 9.547929000000181], [-69.841017, 9.547264], [-69.841727, 9.545766], [-69.844398, 9.54253100000011], [-69.845846, 9.540500000000122], [-69.847549, 9.538214000000153], [-69.84854, 9.53715], [-69.848769, 9.536666000000139], [-69.848513, 9.536484], [-69.848557, 9.536093000000164], [-69.848557, 9.53604700000011], [-69.848482, 9.535359], [-69.84852, 9.534049000000152], [-69.848492, 9.533130000000142], [-69.847814, 9.532308000000171], [-69.848693, 9.531934000000149], [-69.849272, 9.531563000000176], [-69.84982599999984, 9.531214], [-69.85086599999983, 9.530587], [-69.852524, 9.528738], [-69.853279, 9.527055], [-69.853814, 9.523704], [-69.854059, 9.521835000000124], [-69.854351, 9.520248], [-69.854228, 9.519192000000146], [-69.853058, 9.517339000000106], [-69.852698, 9.515389], [-69.8525029999999, 9.513851000000159], [-69.852522, 9.513208], [-69.85249, 9.511692], [-69.85246299999989, 9.511049000000128], [-69.853011, 9.509713], [-69.853516, 9.508836], [-69.85451, 9.5083], [-69.856591, 9.5073900000001], [-69.858257, 9.506827], [-69.859298, 9.506406], [-69.86045599999989, 9.506100000000117], [-69.862425, 9.505741], [-69.863556, 9.504952000000173], [-69.865713, 9.50496], [-69.865852, 9.504959], [-69.86615299999988, 9.504911000000163], [-69.866128, 9.504659], [-69.865842, 9.50339700000012], [-69.867094, 9.503297], [-69.86736799999989, 9.502537000000189], [-69.866809, 9.502196], [-69.86687399999988, 9.501483000000178], [-69.86846, 9.499129], [-69.869565, 9.497812], [-69.870512, 9.49730000000011], [-69.871387, 9.496214000000123], [-69.87202999999988, 9.49529100000018], [-69.874435, 9.494217000000106], [-69.875913, 9.493196000000182], [-69.876446, 9.493032000000142], [-69.877252, 9.492199000000141], [-69.878012, 9.491298], [-69.87927299999984, 9.4889], [-69.881591, 9.488769], [-69.881707, 9.488676000000112], [-69.88222799999983, 9.486743], [-69.88218, 9.486467000000118], [-69.8821999999999, 9.486054], [-69.88335499999988, 9.485265], [-69.88418699999988, 9.484753], [-69.885133, 9.483989000000122], [-69.885585, 9.48224000000016], [-69.886048, 9.482098000000121], [-69.886576, 9.481199000000174], [-69.886828, 9.480738], [-69.8879879999999, 9.480775000000108], [-69.88882399999989, 9.481045], [-69.891006, 9.481420000000185], [-69.89246, 9.48223], [-69.8932339999999, 9.481772], [-69.893973, 9.48117], [-69.894735, 9.480728000000113], [-69.895405, 9.480241000000149], [-69.896467, 9.47959], [-69.897297, 9.478872], [-69.8977359999999, 9.47847800000011], [-69.89860499999986, 9.476658000000157], [-69.899296, 9.475871], [-69.8999419999999, 9.475338], [-69.900798, 9.47496400000017], [-69.901325, 9.47399600000017], [-69.90210499999989, 9.472727000000134], [-69.902546, 9.472815], [-69.90293999999989, 9.472767], [-69.904045, 9.471472], [-69.903625, 9.471039000000133], [-69.903313, 9.469341000000156], [-69.904117, 9.468095], [-69.904786, 9.467585000000156], [-69.90492399999982, 9.46737700000017], [-69.905569, 9.466637], [-69.9063579999999, 9.466632000000175], [-69.907375, 9.466188], [-69.907788, 9.465404], [-69.90901699999989, 9.465419000000168], [-69.90913299999983, 9.465418], [-69.909457, 9.46543800000012], [-69.908825, 9.464395], [-69.93657999999988, 9.483393], [-69.955563, 9.48874700000016], [-69.954756, 9.48942], [-69.95432199999988, 9.49048], [-69.954325, 9.490871], [-69.953778, 9.492322000000172], [-69.953274, 9.493336], [-69.952906, 9.493844], [-69.951613, 9.494681000000128], [-69.950735, 9.495215], [-69.95699199999984, 9.501484000000119], [-69.96040099999982, 9.503695], [-69.962542, 9.504268], [-69.965951, 9.506286], [-69.966914, 9.506862], [-69.96769999999987, 9.506676], [-69.968992, 9.505828000000179], [-69.96969799999988, 9.50497700000011], [-69.97165399999989, 9.504893], [-69.9738, 9.505096], [-69.97543899999988, 9.505961000000127], [-69.97649499999989, 9.506727000000126], [-69.978425, 9.507689000000141], [-69.982377, 9.509804000000145], [-69.98436253799997, 9.51088336200013], [-69.984498, 9.51095700000019], [-69.98919913899994, 9.514637431000153], [-69.989615, 9.514963], [-69.98962935399993, 9.515047474000028], [-69.98999925899989, 9.514664735000053], [-69.99002636299991, 9.514636461000066], [-69.99193133299997, 9.51264928200004], [-69.99360037899999, 9.509727209000118], [-69.99570945299996, 9.506943135000142], [-69.99918560199995, 9.506431104000171], [-70.00094065099995, 9.502762998000037], [-70.00438179299994, 9.501498950000098], [-70.00562083599993, 9.49990091], [-70.0073419019999, 9.499107884000125], [-70.00961599299995, 9.499028867000106], [-70.01123906599992, 9.498946849000049], [-70.01233410299994, 9.498265825000033], [-70.01296710699984, 9.493682720000152], [-70.01226705699997, 9.490857652000159], [-70.01239604999984, 9.488863613000092], [-70.01340443399994, 9.486457224000048], [-70.01352708399997, 9.486164533000078], [-70.01396208099999, 9.483415471000171], [-70.01452410599995, 9.482502450000027], [-70.01453577599995, 9.482493571000077], [-70.0153457969999, 9.48187729000017], [-70.01850024699996, 9.47947735400004], [-70.01935926899989, 9.476406276000091], [-70.01952824399996, 9.470355124000037], [-70.01876719399996, 9.466740045000108], [-70.01781915099991, 9.465929037000024], [-70.01592706499997, 9.464944025000023], [-70.00965879299991, 9.464737047000142], [-70.00662767099993, 9.46504507700007], [-70.00414057399996, 9.466108113000075], [-70.00191347399988, 9.465447116000178], [-70.00082342299993, 9.463365069000133], [-70.00006637399991, 9.460578007000095], [-69.99958434299992, 9.458612967000022], [-69.99796427099989, 9.458195970000077], [-69.99546915899987, 9.457730966000156], [-69.99257604399992, 9.45861000300016], [-69.99142799899988, 9.458248002000119], [-69.99108397499992, 9.456853969000178], [-69.99201099499999, 9.453844890000141], [-69.99361204399997, 9.451015824000024], [-69.99522210199996, 9.449713781000014], [-69.99831823899996, 9.449021748000064], [-69.99979429099989, 9.44784971200005], [-70.00016200399995, 9.447550592000027], [-70.00187436299996, 9.446157656000025], [-70.00616953099995, 9.443025564000038], [-70.00690254899996, 9.44142151900013], [-70.01421581899996, 9.435753348], [-70.01783795099988, 9.432569252000178], [-70.01991702899994, 9.430814190999968], [-70.02145708899991, 9.429004144999965], [-70.02272813199994, 9.427453099000047], [-70.02503903099989, 9.426098608000189], [-70.02501299999989, 9.42605], [-70.02196599999985, 9.426197000000172], [-70.01526437099994, 9.424939300000176], [-70.006961, 9.423381], [-70.006882, 9.42494], [-70.00160099999988, 9.424037000000112], [-69.998031, 9.419881], [-69.985335, 9.413124], [-69.98336499999988, 9.411335], [-69.9806549999999, 9.408282], [-69.979543, 9.40594], [-69.97877899999986, 9.404057], [-69.97778299999987, 9.40339200000011], [-69.976439, 9.402544], [-69.97498, 9.401374], [-69.97361299999989, 9.399148000000139], [-69.972409, 9.396484000000157], [-69.97220099999987, 9.39409400000011], [-69.972479, 9.391795000000172], [-69.972085, 9.390096], [-69.97120499999988, 9.388419], [-69.970976, 9.388205000000141], [-69.970395, 9.387662000000148], [-69.970163, 9.386973000000125], [-69.96949099999989, 9.387388], [-69.96798499999989, 9.387873000000184], [-69.966433, 9.387899], [-69.964555, 9.388358000000153], [-69.96402399999982, 9.388394000000119], [-69.963475, 9.388300000000186], [-69.962963, 9.387982000000136], [-69.962101, 9.387208], [-69.961683, 9.387096], [-69.96091599999988, 9.386780000000158], [-69.960449, 9.386255], [-69.959933, 9.385294000000158], [-69.959256, 9.384678000000122], [-69.958976, 9.384244000000137], [-69.958649, 9.383993000000146], [-69.958067, 9.383538000000158], [-69.95641599999988, 9.382792], [-69.955948, 9.382037000000139], [-69.955176, 9.380963], [-69.954799, 9.379978000000108], [-69.954795, 9.379289000000142], [-69.954468, 9.37903800000015], [-69.953793, 9.378515], [-69.953163, 9.377945000000125], [-69.952213, 9.37786], [-69.950469, 9.377], [-69.949399, 9.37645600000019], [-69.94842099999988, 9.375820000000147], [-69.948118, 9.375500000000159], [-69.947135, 9.37399100000016], [-69.946433, 9.373008], [-69.94603399999983, 9.372184], [-69.945403, 9.371385], [-69.945029, 9.370974000000103], [-69.94493, 9.369964], [-69.944714, 9.368748000000153], [-69.944404, 9.367418], [-69.944112, 9.366781000000117], [-69.943932, 9.36648700000012], [-69.94337499999989, 9.366024], [-69.94305, 9.365059], [-69.942927, 9.364695], [-69.942459, 9.36426100000017], [-69.941943, 9.363208], [-69.941589, 9.362315], [-69.94116899999989, 9.361767], [-69.940769, 9.360920000000135], [-69.940208, 9.360142], [-69.939696, 9.35973300000012], [-69.939277, 9.359552], [-69.9390499999999, 9.359622], [-69.938745, 9.359716000000162], [-69.938348, 9.35926], [-69.938138, 9.35894], [-69.937948, 9.358321], [-69.937693, 9.3582770000001], [-69.936992, 9.357432000000188], [-69.936318, 9.357138], [-69.93532713299999, 9.356540579000068], [-69.93531353799983, 9.356532382000182], [-69.93531055899996, 9.35653058600019], [-69.93528696699985, 9.356516362000093], [-69.935225, 9.356479], [-69.93522037899993, 9.35649660200005], [-69.934607, 9.358833000000118], [-69.933888, 9.361385], [-69.933656, 9.364833], [-69.933191, 9.367844000000161], [-69.932657, 9.371361], [-69.9318459999999, 9.374879], [-69.930733, 9.378006], [-69.92887799999988, 9.380951000000152], [-69.92646799999989, 9.383391], [-69.924683, 9.384755], [-69.92405799999989, 9.385233], [-69.923725, 9.385911], [-69.9231769999999, 9.38702700000016], [-69.92266699999982, 9.38971700000019], [-69.921392, 9.392913], [-69.919838, 9.396685000000105], [-69.92, 9.397536000000173], [-69.92025399999983, 9.40084400000012], [-69.920249, 9.400946], [-69.920207, 9.401787000000184], [-69.91925699999985, 9.4033510000001], [-69.91863099999983, 9.404708], [-69.918978, 9.406063000000131], [-69.917356, 9.408042], [-69.916773, 9.408526000000165], [-69.915525, 9.409562000000108], [-69.912581, 9.411359], [-69.909638, 9.412559000000101], [-69.9077955169999, 9.413262133999979], [-69.905165, 9.414266000000111], [-69.90172372799998, 9.41551406400015], [-69.90173199399993, 9.415560502000062], [-69.90045994699994, 9.417244547000053], [-69.90020193999999, 9.41758555400014], [-69.89876489299996, 9.419495606000055], [-69.89651680899993, 9.422095679000165], [-69.89579679399992, 9.424900758000035], [-69.8949387749999, 9.42761382600014], [-69.89433477499995, 9.431636921], [-69.89387076799994, 9.43409597900012], [-69.89539885399995, 9.437289046000046], [-69.89518886499991, 9.440759129000014], [-69.89375081899993, 9.443910220000078], [-69.89136273699995, 9.447062299000038], [-69.88916066999985, 9.450375389000044], [-69.88795462099989, 9.452123445000097], [-69.88535753399992, 9.45516152800019], [-69.88310846299993, 9.45884162900012], [-69.87766027099997, 9.465767822999965], [-69.87527217399992, 9.46641385100014], [-69.87293207599993, 9.466968884000153], [-69.87172603699997, 9.468395918999988], [-69.87014997799997, 9.469799956000088], [-69.86790089399994, 9.471205013000088], [-69.86662585199997, 9.472448047000057], [-69.86602283399998, 9.474471096000059], [-69.8653028149999, 9.476541152000095], [-69.86286972399995, 9.477418188000172], [-69.86050561699989, 9.477490194000097], [-69.85790950599994, 9.477470212000014], [-69.85522139399995, 9.477681237000184], [-69.8547573919999, 9.478969262000078], [-69.85420037799992, 9.481429326000068], [-69.85373537699991, 9.48372738300003], [-69.85315535699988, 9.485268422000104], [-69.85160129499991, 9.48697147300004], [-69.84907421799988, 9.49046856700005], [-69.84691614499997, 9.494240667000042], [-69.84485208299998, 9.497805766000056], [-69.8439829219999, 9.499020778000045], [-69.84292701399994, 9.500496845000043], [-69.84155896499988, 9.501877880000166], [-69.84121095899997, 9.503096916000118], [-69.84114095999996, 9.504360944000098], [-69.84021292699998, 9.505855985000096]]]}}, {"type": "Feature", "properties": {"Pais": "Venezuela", "Estado": "Portuguesa", "Municipio": "Monse\u00f1or Jos\u00e9 Vicente de Und", "Parroquia": "Pe\u00f1a Blanca"}, "geometry": {"type": "Polygon", "coordinates": [[[-69.8354835959999, 9.56741189600018], [-69.83554509499993, 9.567455483000117], [-69.83962526099992, 9.567817467000054], [-69.84412244999999, 9.567555429000038], [-69.84859663399982, 9.566564385000106], [-69.85066105399983, 9.565680126000018], [-69.85161075699989, 9.565273331000071], [-69.85374483199996, 9.562834271000042], [-69.85675893399997, 9.55991118500009], [-69.86065508899992, 9.557101085000113], [-69.86387821299996, 9.555327025000054], [-69.86663829999992, 9.551806929000122], [-69.86796033399997, 9.54815083900013], [-69.87002442199997, 9.54709079700018], [-69.87366357499997, 9.546602771000153], [-69.87901027199996, 9.546316426000146], [-69.88068686699995, 9.546224712000026], [-69.88414100999984, 9.545851687000152], [-69.88926321899999, 9.546808678000048], [-69.8945254489999, 9.546846655000081], [-69.89772358199991, 9.546543625000027], [-69.90210476699997, 9.546950615000128], [-69.90643893699985, 9.546047564000105], [-69.90669971599993, 9.546004623000044], [-69.91151615199993, 9.545211523000148], [-69.91552631399998, 9.544033464999984], [-69.91937447399988, 9.544142449000162], [-69.92396366799989, 9.544456431000185], [-69.92964191299995, 9.545573427000079], [-69.93337308199995, 9.547497451000083], [-69.93689623699987, 9.548779457000137], [-69.94088341199989, 9.54999046200004], [-69.94327051599998, 9.55159549400014], [-69.94614365099994, 9.553612516000044], [-69.94962080399995, 9.55477952200016], [-69.9503825669999, 9.554688723000027], [-69.95039030099991, 9.554687754000042], [-69.95115086899989, 9.554592520000142], [-69.95212489199992, 9.553166480000073], [-69.95386295999992, 9.55180743699998], [-69.95448998299986, 9.551617425000074], [-69.95471541399996, 9.551467392], [-69.95479200499989, 9.551416417000155], [-69.95632505999998, 9.550953401000015], [-69.95767010599997, 9.549319352000111], [-69.96119324099982, 9.547244278], [-69.96578341899993, 9.54376617600019], [-69.96738594199991, 9.542612503000043], [-69.96898253399985, 9.541463101000147], [-69.97419774499997, 9.539431026000159], [-69.97744285399995, 9.535908917000143], [-69.97978492899995, 9.531607800000131], [-69.98845420799995, 9.516263392000099], [-69.98962935399993, 9.515047474000028], [-69.989615, 9.514963], [-69.98919913899994, 9.514637431000153], [-69.984498, 9.51095700000019], [-69.98436253799997, 9.51088336200013], [-69.982377, 9.509804000000145], [-69.978425, 9.507689000000141], [-69.97649499999989, 9.506727000000126], [-69.97543899999988, 9.505961000000127], [-69.9738, 9.505096], [-69.97165399999989, 9.504893], [-69.96969799999988, 9.50497700000011], [-69.968992, 9.505828000000179], [-69.96769999999987, 9.506676], [-69.966914, 9.506862], [-69.965951, 9.506286], [-69.962542, 9.504268], [-69.96040099999982, 9.503695], [-69.95699199999984, 9.501484000000119], [-69.950735, 9.495215], [-69.951613, 9.494681000000128], [-69.952906, 9.493844], [-69.953274, 9.493336], [-69.953778, 9.492322000000172], [-69.954325, 9.490871], [-69.95432199999988, 9.49048], [-69.954756, 9.48942], [-69.955563, 9.48874700000016], [-69.93657999999988, 9.483393], [-69.908825, 9.464395], [-69.909457, 9.46543800000012], [-69.90913299999983, 9.465418], [-69.90901699999989, 9.465419000000168], [-69.907788, 9.465404], [-69.907375, 9.466188], [-69.9063579999999, 9.466632000000175], [-69.905569, 9.466637], [-69.90492399999982, 9.46737700000017], [-69.904786, 9.467585000000156], [-69.904117, 9.468095], [-69.903313, 9.469341000000156], [-69.903625, 9.471039000000133], [-69.904045, 9.471472], [-69.90293999999989, 9.472767], [-69.902546, 9.472815], [-69.90210499999989, 9.472727000000134], [-69.901325, 9.47399600000017], [-69.900798, 9.47496400000017], [-69.8999419999999, 9.475338], [-69.899296, 9.475871], [-69.89860499999986, 9.476658000000157], [-69.8977359999999, 9.47847800000011], [-69.897297, 9.478872], [-69.896467, 9.47959], [-69.895405, 9.480241000000149], [-69.894735, 9.480728000000113], [-69.893973, 9.48117], [-69.8932339999999, 9.481772], [-69.89246, 9.48223], [-69.891006, 9.481420000000185], [-69.88882399999989, 9.481045], [-69.8879879999999, 9.480775000000108], [-69.886828, 9.480738], [-69.886576, 9.481199000000174], [-69.886048, 9.482098000000121], [-69.885585, 9.48224000000016], [-69.885133, 9.483989000000122], [-69.88418699999988, 9.484753], [-69.88335499999988, 9.485265], [-69.8821999999999, 9.486054], [-69.88218, 9.486467000000118], [-69.88222799999983, 9.486743], [-69.881707, 9.488676000000112], [-69.881591, 9.488769], [-69.87927299999984, 9.4889], [-69.878012, 9.491298], [-69.877252, 9.492199000000141], [-69.876446, 9.493032000000142], [-69.875913, 9.493196000000182], [-69.874435, 9.494217000000106], [-69.87202999999988, 9.49529100000018], [-69.871387, 9.496214000000123], [-69.870512, 9.49730000000011], [-69.869565, 9.497812], [-69.86846, 9.499129], [-69.86687399999988, 9.501483000000178], [-69.866809, 9.502196], [-69.86736799999989, 9.502537000000189], [-69.867094, 9.503297], [-69.865842, 9.50339700000012], [-69.866128, 9.504659], [-69.86615299999988, 9.504911000000163], [-69.865852, 9.504959], [-69.865713, 9.50496], [-69.863556, 9.504952000000173], [-69.862425, 9.505741], [-69.86045599999989, 9.506100000000117], [-69.859298, 9.506406], [-69.858257, 9.506827], [-69.856591, 9.5073900000001], [-69.85451, 9.5083], [-69.853516, 9.508836], [-69.853011, 9.509713], [-69.85246299999989, 9.511049000000128], [-69.85249, 9.511692], [-69.852522, 9.513208], [-69.8525029999999, 9.513851000000159], [-69.852698, 9.515389], [-69.853058, 9.517339000000106], [-69.854228, 9.519192000000146], [-69.854351, 9.520248], [-69.854059, 9.521835000000124], [-69.853814, 9.523704], [-69.853279, 9.527055], [-69.852524, 9.528738], [-69.85086599999983, 9.530587], [-69.84982599999984, 9.531214], [-69.849272, 9.531563000000176], [-69.848693, 9.531934000000149], [-69.847814, 9.532308000000171], [-69.848492, 9.533130000000142], [-69.84852, 9.534049000000152], [-69.848482, 9.535359], [-69.848557, 9.53604700000011], [-69.848557, 9.536093000000164], [-69.848513, 9.536484], [-69.848769, 9.536666000000139], [-69.84854, 9.53715], [-69.847549, 9.538214000000153], [-69.845846, 9.540500000000122], [-69.844398, 9.54253100000011], [-69.841727, 9.545766], [-69.841017, 9.547264], [-69.84123, 9.547929000000181], [-69.841074, 9.548988], [-69.841158, 9.55133], [-69.84108, 9.551884], [-69.84095799999989, 9.552756], [-69.840883, 9.555697], [-69.840849, 9.557673000000136], [-69.84062099999983, 9.558410000000151], [-69.83924, 9.560073000000102], [-69.838197, 9.560333000000128], [-69.837256, 9.561925], [-69.83679599999988, 9.562548], [-69.836613, 9.562963000000138], [-69.8354835959999, 9.56741189600018]]]}}]}