{
  "type": "FeatureCollection",
  "features": [
    {
      "type": "Feature",
      "properties": {
        "Pais": "Venezuela",
        "Estado": "Carabobo",
        "Municipio": "Montalbán"
      },
      "geometry": {
        "type": "Polygon",
        "coordinates": [
          [
            [
              -68.23526799999985,
              10.26438300000018
            ],
            [
              -68.236753,
              10.266111000000137
            ],
            [
              -68.239705,
              10.267515000000117
            ],
            [
              -68.241464,
              10.268843
            ],
            [
              -68.24413899999985,
              10.270071
            ],
            [
              -68.247623,
              10.269942
            ],
            [
              -68.251373,
              10.269001000000173
            ],
            [
              -68.253744,
              10.267806
            ],
            [
              -68.25692599999985,
              10.265434
            ],
            [
              -68.258106,
              10.264343
            ],
            [
              -68.259198,
              10.263612000000137
            ],
            [
              -68.261857,
              10.263492000000156
            ],
            [
              -68.264156,
              10.263915000000168
            ],
            [
              -68.266805,
              10.262987000000123
            ],
            [
              -68.26899999999983,
              10.262423000000183
            ],
            [
              -68.2746,
              10.262809000000118
            ],
            [
              -68.278822,
              10.263031
            ],
            [
              -68.284612,
              10.263954000000183
            ],
            [
              -68.28892499999989,
              10.264085
            ],
            [
              -68.294965,
              10.262847
            ],
            [
              -68.30120099999988,
              10.262687
            ],
            [
              -68.302942,
              10.26257800000019
            ],
            [
              -68.307918,
              10.264498
            ],
            [
              -68.310869,
              10.265723
            ],
            [
              -68.3152879999999,
              10.26711
            ],
            [
              -68.316116,
              10.267281000000139
            ],
            [
              -68.31860399999988,
              10.26824100000016
            ],
            [
              -68.321357,
              10.26839
            ],
            [
              -68.325951,
              10.269056
            ],
            [
              -68.328703,
              10.269025
            ],
            [
              -68.33098299999989,
              10.267922
            ],
            [
              -68.332242,
              10.265751
            ],
            [
              -68.334038,
              10.26249600000017
            ],
            [
              -68.33676899999989,
              10.260668
            ],
            [
              -68.339789,
              10.260005
            ],
            [
              -68.343358,
              10.25933600000019
            ],
            [
              -68.34709886299999,
              10.257612190000032
            ],
            [
              -68.34755499999989,
              10.257402
            ],
            [
              -68.349642,
              10.255492000000118
            ],
            [
              -68.351545,
              10.25349400000016
            ],
            [
              -68.35178703599996,
              10.25325143100008
            ],
            [
              -68.352905,
              10.25213100000019
            ],
            [
              -68.354908,
              10.25085
            ],
            [
              -68.358206,
              10.250332000000185
            ],
            [
              -68.36368661499995,
              10.246881077000012
            ],
            [
              -68.36434899999989,
              10.246464
            ],
            [
              -68.36459142299998,
              10.24666931400003
            ],
            [
              -68.36467163799995,
              10.246132786000032
            ],
            [
              -68.36615868299998,
              10.244067724000047
            ],
            [
              -68.3679347609999,
              10.242773670000076
            ],
            [
              -68.36879377399993,
              10.240260610000178
            ],
            [
              -68.3702018159999,
              10.236626508000029
            ],
            [
              -68.3713748589999,
              10.234542444999988
            ],
            [
              -68.37324192699992,
              10.234005423000156
            ],
            [
              -68.37503600199994,
              10.232614378000108
            ],
            [
              -68.37549301999991,
              10.232260360999987
            ],
            [
              -68.37683106499998,
              10.230286308000188
            ],
            [
              -68.37726776499994,
              10.229117632000111
            ],
            [
              -68.37750107599999,
              10.228493257000082
            ],
            [
              -68.37851911199994,
              10.226667199000133
            ],
            [
              -68.37928713299988,
              10.225056162000158
            ],
            [
              -68.37913778999996,
              10.223091605999969
            ],
            [
              -68.37895265199984,
              10.218778745000066
            ],
            [
              -68.37892299999987,
              10.218088
            ],
            [
              -68.378115,
              10.216170000000147
            ],
            [
              -68.376988,
              10.214723000000163
            ],
            [
              -68.37596972599994,
              10.212253607000036
            ],
            [
              -68.3737579999999,
              10.20689
            ],
            [
              -68.373108,
              10.202909
            ],
            [
              -68.373741,
              10.1984700000001
            ],
            [
              -68.373898,
              10.196884000000125
            ],
            [
              -68.372931,
              10.195122
            ],
            [
              -68.371479,
              10.192241
            ],
            [
              -68.371312,
              10.189538
            ],
            [
              -68.372115,
              10.189073
            ],
            [
              -68.372272,
              10.187646000000143
            ],
            [
              -68.37146299999989,
              10.184774000000175
            ],
            [
              -68.369531,
              10.182521000000122
            ],
            [
              -68.36759399999988,
              10.17852
            ],
            [
              -68.3674299999999,
              10.177088
            ],
            [
              -68.366295,
              10.171988000000113
            ],
            [
              -68.363076,
              10.169397000000117
            ],
            [
              -68.359373,
              10.16521100000017
            ],
            [
              -68.358243,
              10.16265200000015
            ],
            [
              -68.356952,
              10.159773
            ],
            [
              -68.355021,
              10.158473
            ],
            [
              -68.353574,
              10.157816
            ],
            [
              -68.351963,
              10.155884
            ],
            [
              -68.349873,
              10.154899000000114
            ],
            [
              -68.347783,
              10.15455
            ],
            [
              -68.346332,
              10.152145000000132
            ],
            [
              -68.34360199999986,
              10.15273900000011
            ],
            [
              -68.333163,
              10.154329
            ],
            [
              -68.3269,
              10.15534600000018
            ],
            [
              -68.321121,
              10.15780000000018
            ],
            [
              -68.31694599999986,
              10.158689
            ],
            [
              -68.310684,
              10.160342000000185
            ],
            [
              -68.307474,
              10.161722000000111
            ],
            [
              -68.299925,
              10.163038000000142
            ],
            [
              -68.299673,
              10.162496
            ],
            [
              -68.299904,
              10.161828000000185
            ],
            [
              -68.301221,
              10.159888
            ],
            [
              -68.30231,
              10.158433000000116
            ],
            [
              -68.302771,
              10.157326
            ],
            [
              -68.302646,
              10.154678000000104
            ],
            [
              -68.302197,
              10.15282100000013
            ],
            [
              -68.301065,
              10.152544000000148
            ],
            [
              -68.30057799999986,
              10.15262300000012
            ],
            [
              -68.300193,
              10.153113000000133
            ],
            [
              -68.29958099999988,
              10.15393
            ],
            [
              -68.299154,
              10.154652000000112
            ],
            [
              -68.29882,
              10.155394
            ],
            [
              -68.298508,
              10.156067000000121
            ],
            [
              -68.29803,
              10.156583000000182
            ],
            [
              -68.29723,
              10.157289000000162
            ],
            [
              -68.296525,
              10.158108
            ],
            [
              -68.296144,
              10.158828000000142
            ],
            [
              -68.292605,
              10.159704000000147
            ],
            [
              -68.2899139999999,
              10.160701
            ],
            [
              -68.287785,
              10.161844
            ],
            [
              -68.284946,
              10.164205
            ],
            [
              -68.2841729999999,
              10.165655000000129
            ],
            [
              -68.283264,
              10.167225
            ],
            [
              -68.282033,
              10.16894200000013
            ],
            [
              -68.281187,
              10.170279000000107
            ],
            [
              -68.27949599999988,
              10.172124000000167
            ],
            [
              -68.279023,
              10.173519000000113
            ],
            [
              -68.279457,
              10.174913000000174
            ],
            [
              -68.279713,
              10.176565
            ],
            [
              -68.27899699999983,
              10.178428
            ],
            [
              -68.27746599999989,
              10.180178
            ],
            [
              -68.27595899999989,
              10.181971
            ],
            [
              -68.275023,
              10.184279
            ],
            [
              -68.274199,
              10.186422000000107
            ],
            [
              -68.27413399999989,
              10.188267
            ],
            [
              -68.274153,
              10.189741
            ],
            [
              -68.273599,
              10.191577000000166
            ],
            [
              -68.272266,
              10.192121
            ],
            [
              -68.271442,
              10.193412
            ],
            [
              -68.271993,
              10.194825
            ],
            [
              -68.273017,
              10.196571000000176
            ],
            [
              -68.2738379999999,
              10.198460000000125
            ],
            [
              -68.2732529999999,
              10.199998
            ],
            [
              -68.272516,
              10.20105500000011
            ],
            [
              -68.27189,
              10.202847
            ],
            [
              -68.27150399999988,
              10.204840000000104
            ],
            [
              -68.27075199999985,
              10.206197
            ],
            [
              -68.269328,
              10.208495
            ],
            [
              -68.267936,
              10.20941
            ],
            [
              -68.266442,
              10.210857
            ],
            [
              -68.26629799999989,
              10.212359000000163
            ],
            [
              -68.266371,
              10.214154000000178
            ],
            [
              -68.265731,
              10.216223000000127
            ],
            [
              -68.264708,
              10.217889000000127
            ],
            [
              -68.262795,
              10.219302000000141
            ],
            [
              -68.26062799999983,
              10.219939
            ],
            [
              -68.258774,
              10.220152
            ],
            [
              -68.25751099999985,
              10.221524000000102
            ],
            [
              -68.2558489999999,
              10.22193900000019
            ],
            [
              -68.25415,
              10.223553000000152
            ],
            [
              -68.253322,
              10.224705
            ],
            [
              -68.252209,
              10.225612000000126
            ],
            [
              -68.250712,
              10.226138000000162
            ],
            [
              -68.250212,
              10.227373
            ],
            [
              -68.249647,
              10.228771
            ],
            [
              -68.24914299999989,
              10.229892
            ],
            [
              -68.248152,
              10.231878000000108
            ],
            [
              -68.24751499999985,
              10.234062000000108
            ],
            [
              -68.247123,
              10.235847
            ],
            [
              -68.246429,
              10.237618
            ],
            [
              -68.245159,
              10.239612
            ],
            [
              -68.24347399999988,
              10.241756
            ],
            [
              -68.241986,
              10.243410000000154
            ],
            [
              -68.23997,
              10.245310000000188
            ],
            [
              -68.2377709999999,
              10.2465
            ],
            [
              -68.2359909999999,
              10.248532000000125
            ],
            [
              -68.234139,
              10.250474
            ],
            [
              -68.23279,
              10.252124000000151
            ],
            [
              -68.232691,
              10.253254
            ],
            [
              -68.232576,
              10.253441
            ],
            [
              -68.23352199999988,
              10.256131
            ],
            [
              -68.234204,
              10.259551
            ],
            [
              -68.23526799999985,
              10.26438300000018
            ]
          ]
        ]
      }
    }
  ]
}