{"type": "FeatureCollection", "features": [{"type": "Feature", "properties": {"Pais": "Venezuela", "Estado": "Trujillo", "Municipio": "Monte Carmelo", "Parroquia": "Monte Carmelo (Capital)"}, "geometry": {"type": "Polygon", "coordinates": [[[-70.82123, 9.257822], [-70.822155, 9.259069000000125], [-70.82201, 9.261437000000114], [-70.822144, 9.262468000000183], [-70.822153, 9.264282], [-70.82369, 9.264714], [-70.824157, 9.26629], [-70.824215, 9.268263], [-70.82324199999982, 9.26828], [-70.82286, 9.268953000000124], [-70.823023, 9.270328], [-70.822809, 9.271342], [-70.82321699999989, 9.272161000000153], [-70.823005, 9.273313], [-70.822985, 9.274783], [-70.8247899999999, 9.274728], [-70.82528999999988, 9.274719], [-70.839762, 9.249260000000163], [-70.848779, 9.233411000000103], [-70.861971, 9.232891], [-70.88482161299999, 9.250414505000037], [-70.89024022699988, 9.25456989100013], [-70.90032918799994, 9.262306837000096], [-70.900851, 9.262707], [-70.90091690299988, 9.262730412000053], [-70.90105969799998, 9.261388294000028], [-70.90104067499993, 9.257957214000157], [-70.90027262699988, 9.254829149999978], [-70.89934856899998, 9.250358043000176], [-70.89887752699991, 9.246630968000034], [-70.89886551099988, 9.244392917000084], [-70.89643638399997, 9.239333818000091], [-70.89536931899988, 9.236504757000034], [-70.89460527099999, 9.233972699000162], [-70.89338220799988, 9.22995161600005], [-70.89232114299995, 9.228017574999967], [-70.89426821699993, 9.227112552000165], [-70.89770634399991, 9.224110462000112], [-70.89920240499998, 9.22320742900007], [-70.90057774999997, 9.222077902000137], [-70.90084746499991, 9.221856394000099], [-70.90249252599995, 9.220653352000056], [-70.90443959999993, 9.219748318000143], [-70.90683669299995, 9.21884028900007], [-70.90772271399999, 9.21600121299997], [-70.90666065499994, 9.213918174000014], [-70.90514658799992, 9.211539127000094], [-70.90408452899999, 9.209606091000012], [-70.9022694439999, 9.20707904000011], [-70.89910630299994, 9.205156020000175], [-70.8984972699999, 9.203667990000156], [-70.89848325299988, 9.200982931999988], [-70.89952528299995, 9.199335879000046], [-70.89846222799991, 9.196954830000152], [-70.898459, 9.196377836000181], [-70.89845550199988, 9.195752553000034], [-70.89844720699995, 9.194269772000041], [-70.8982181909999, 9.193631763999974], [-70.89738015199993, 9.19129070800011], [-70.89824816499998, 9.188938656000175], [-70.89830017199995, 9.188683644000037], [-70.89811415899999, 9.186824606000073], [-70.89788835199994, 9.185549774000094], [-70.89778912399998, 9.184989562000112], [-70.89730309899994, 9.183336533000045], [-70.89649481699996, 9.181715311000175], [-70.8964450549999, 9.18161550000002], [-70.89773279099995, 9.178570431000026], [-70.89776408899996, 9.178496423000126], [-70.89739407399992, 9.177348392000056], [-70.89690704799995, 9.17640737500011], [-70.89528596299994, 9.174433344000136], [-70.89382589399992, 9.172551301000112], [-70.8923208139999, 9.16998025900017], [-70.89141676499997, 9.167502207000098], [-70.89055972199992, 9.165092150000135], [-70.89125374199989, 9.16394612400012], [-70.89238778099985, 9.163671109000063], [-70.89255609599991, 9.163194574000158], [-70.89287380099984, 9.162295082000128], [-70.89266578099995, 9.160482044000048], [-70.89157672699997, 9.159036009000033], [-70.8909746949999, 9.157497982000052], [-70.89095067899996, 9.155777937000096], [-70.89046465599989, 9.154469911000092], [-70.88986162299983, 9.153872904000139], [-70.8881945579999, 9.15343490500004], [-70.88622647799997, 9.153640924000115], [-70.88504542799996, 9.153157915000065], [-70.88374836499992, 9.151940889000059], [-70.88124825299991, 9.15152589500019], [-70.88009020099992, 9.150630882000144], [-70.8781221189999, 9.150513894000028], [-70.8745099809999, 9.151474930000177], [-70.87415295499994, 9.15150080300009], [-70.87105983599997, 9.151724960000081], [-70.86800270799989, 9.151515977000088], [-70.86733167699998, 9.150505948000102], [-70.86712266299992, 9.14869391600007], [-70.86811768599989, 9.147064873000033], [-70.86862670699992, 9.14571183400011], [-70.86772365999997, 9.144839820000072], [-70.86675160699986, 9.143232794000141], [-70.86691260999993, 9.140938738000045], [-70.86723660599995, 9.138919689000033], [-70.86614856199998, 9.138230684000177], [-70.86533751399992, 9.136669646000144], [-70.86499011499996, 9.13630387700016], [-70.86420346599988, 9.13547563100019], [-70.86401744399996, 9.134190603000093], [-70.86336940999996, 9.132629565000059], [-70.86209534399995, 9.130724532000102], [-70.8613303009999, 9.127879470000096], [-70.86026525299997, 9.126226444999986], [-70.8600969279999, 9.125849157000061], [-70.85929219199994, 9.124045397000032], [-70.85892216999997, 9.121613343000035], [-70.85806511299995, 9.118721288000131], [-70.85630501599996, 9.113994181000066], [-70.85320084699998, 9.107567057000097], [-70.85123274899996, 9.10442199500011], [-70.85005168499993, 9.101575942000125], [-70.84988966299994, 9.099258887000133], [-70.84873159899996, 9.096251822000113], [-70.8479120479999, 9.094105401999968], [-70.84743452499998, 9.09285476000008], [-70.84650348499997, 9.091658733000145], [-70.84636348399994, 9.091776738000021], [-70.84508441599996, 9.089836703], [-70.84461038799992, 9.089227692000179], [-70.84457939199996, 9.089069683000162], [-70.84261930799994, 9.08966171500009], [-70.84111425299994, 9.089476715999979], [-70.83956317899992, 9.088259692000179], [-70.83701607199987, 9.0877296970001], [-70.83497898999997, 9.087888711000119], [-70.83183085299999, 9.087563723000073], [-70.82965376899989, 9.087837738000076], [-70.8275476799999, 9.086986732000014], [-70.82649689899984, 9.086208623000061], [-70.82581351399995, 9.085702572000173], [-70.82435252499994, 9.084620702], [-70.82224543499996, 9.082461656000078], [-70.81856426299993, 9.079911627], [-70.81740721799997, 9.079290618000073], [-70.81411907199993, 9.077796595000166], [-70.80916484999983, 9.07506156800008], [-70.80742876799997, 9.074233560000152], [-70.80557669699994, 9.074507573000176], [-70.80402064599997, 9.075642607000134], [-70.80375362799992, 9.075964611000131], [-70.80345361699995, 9.07625462700014], [-70.80235858399993, 9.077647662], [-70.80130633699991, 9.079250110000089], [-70.80080752999999, 9.080009721000124], [-70.80073568499995, 9.079953447000094], [-70.800742, 9.079985000000136], [-70.80055423499988, 9.08043541500001], [-70.800065, 9.081609], [-70.79801199999986, 9.08262800000017], [-70.79662899999983, 9.083299], [-70.794622, 9.083699000000138], [-70.792616, 9.083745], [-70.788916, 9.083212000000174], [-70.78688, 9.082854], [-70.784787, 9.08320300000014], [-70.78417599999983, 9.084399000000133], [-70.783195, 9.085322000000133], [-70.782214, 9.086307], [-70.781355, 9.08723], [-70.78125145799999, 9.087301505000028], [-70.77939, 9.088587], [-70.778043, 9.090309000000104], [-70.773801, 9.092474], [-70.771965, 9.095755], [-70.770703, 9.098101], [-70.769997, 9.100856], [-70.7694029999999, 9.1026710000001], [-70.768832, 9.104577], [-70.767628, 9.108511], [-70.7666129999999, 9.110505000000103], [-70.766087, 9.111884], [-70.765423, 9.113631000000112], [-70.764713, 9.115400000000136], [-70.76402499999989, 9.116710000000126], [-70.763498, 9.117906000000175], [-70.76258, 9.119469], [-70.761844, 9.120436], [-70.761431, 9.121057000000121], [-70.760926, 9.122092000000123], [-70.76044499999989, 9.123218], [-70.759804, 9.124597000000108], [-70.758841, 9.126712000000111], [-70.758271, 9.128824], [-70.7566609999999, 9.130781000000184], [-70.756297, 9.132320000000163], [-70.75586399999986, 9.133904], [-70.755796, 9.134409000000119], [-70.756452, 9.137066], [-70.75677999999988, 9.138487], [-70.75731799999988, 9.139391], [-70.757644, 9.141067], [-70.7577419999999, 9.142725], [-70.75648, 9.144956], [-70.756372, 9.147296], [-70.754924, 9.149092000000167], [-70.753308, 9.149397], [-70.752596, 9.150433], [-70.751703, 9.152639], [-70.751686, 9.154452000000106], [-70.75148399999983, 9.156356], [-70.75038, 9.157600000000173], [-70.748723, 9.159351], [-70.748316, 9.162063000000103], [-70.748343, 9.164298000000144], [-70.745925, 9.164647], [-70.74420099999986, 9.16508400000015], [-70.74328199999985, 9.166314000000114], [-70.740418, 9.16867800000017], [-70.739385, 9.170587000000182], [-70.73909, 9.172125], [-70.73894599999983, 9.1722], [-70.737314, 9.17305], [-70.736003, 9.174662], [-70.733573, 9.176755000000185], [-70.733659, 9.177815000000123], [-70.732928, 9.1806160000001], [-70.731526, 9.182458], [-70.730722, 9.183677], [-70.730219, 9.185239000000138], [-70.728928, 9.186025000000143], [-70.727107, 9.187157], [-70.72507799999988, 9.188290000000165], [-70.72319, 9.189813], [-70.721714, 9.190623], [-70.719779, 9.192032000000154], [-70.718742, 9.192816], [-70.717568, 9.194014], [-70.717105, 9.19564], [-70.71483299999989, 9.197949000000165], [-70.714167, 9.199190000000158], [-70.714055, 9.20031500000016], [-70.71268, 9.203440000000114], [-70.714618, 9.202812], [-70.716116, 9.201681], [-70.71812299999988, 9.200938], [-70.721193, 9.200328000000184], [-70.723409, 9.199904000000117], [-70.724771, 9.199669], [-70.72641, 9.199317], [-70.728648, 9.198756000000117], [-70.729594, 9.198408000000143], [-70.731137, 9.19707000000011], [-70.732197, 9.1964], [-70.73296099999988, 9.196718], [-70.733772, 9.197471], [-70.73453599999988, 9.197949000000165], [-70.736224, 9.198331000000167], [-70.73728799999986, 9.19873900000016], [-70.73886, 9.199053], [-70.740201, 9.19929900000011], [-70.7429499999999, 9.199515], [-70.743967, 9.19978500000019], [-70.74473, 9.199782000000141], [-70.745838, 9.199685000000102], [-70.74673899999988, 9.199818000000107], [-70.747755, 9.199768], [-70.749556, 9.199553], [-70.750872, 9.199179000000129], [-70.75193, 9.198051], [-70.752046, 9.198004], [-70.752438, 9.198025], [-70.753318, 9.198526000000129], [-70.753805, 9.199028000000112], [-70.754756, 9.200239000000124], [-70.75711699999988, 9.201575000000162], [-70.759415, 9.201764], [-70.76136799999989, 9.202212], [-70.76314499999984, 9.201882000000126], [-70.765176, 9.201433000000122], [-70.76801399999982, 9.202164], [-70.7693589999999, 9.202301], [-70.770721, 9.202047000000107], [-70.772368, 9.202156], [-70.773239, 9.201634], [-70.774792, 9.201722], [-70.7758639999999, 9.20211600000016], [-70.778127, 9.203086], [-70.77981499999987, 9.202896], [-70.78155699999985, 9.201832], [-70.783168, 9.201183], [-70.78488899999985, 9.200280000000134], [-70.785711, 9.1996], [-70.787037, 9.19861200000014], [-70.788502, 9.197599], [-70.79011, 9.196836], [-70.791613, 9.196671], [-70.793086, 9.196625], [-70.794822, 9.199763000000132], [-70.79509999999988, 9.20071200000018], [-70.795106, 9.20193300000011], [-70.795112, 9.203019], [-70.794832, 9.204215], [-70.795131, 9.205955000000188], [-70.79476199999988, 9.20874], [-70.794957, 9.210643000000118], [-70.795562, 9.212148000000127], [-70.796072, 9.21351600000014], [-70.796366, 9.214452000000165], [-70.796069, 9.21601900000013], [-70.796632, 9.217754000000127], [-70.797268, 9.219718000000114], [-70.7977709999999, 9.220673], [-70.798512, 9.222038], [-70.799104, 9.224117], [-70.80017, 9.226807000000122], [-70.800599, 9.228843000000154], [-70.802062, 9.230448], [-70.803281, 9.23319000000015], [-70.805406, 9.233557000000133], [-70.8065069999999, 9.234249], [-70.80759199999989, 9.23537800000014], [-70.80866, 9.236875], [-70.809048, 9.237878], [-70.810286, 9.238499000000104], [-70.81141799999989, 9.239673], [-70.812168, 9.240142000000162], [-70.812845, 9.241783], [-70.813844, 9.243327], [-70.814985, 9.245029], [-70.8152199999999, 9.246563], [-70.815161, 9.248470000000168], [-70.815012, 9.250562], [-70.81575399999986, 9.251972], [-70.815985, 9.253231], [-70.81463699999989, 9.254334], [-70.81382, 9.255313], [-70.813791, 9.256324], [-70.814329, 9.258449], [-70.817899, 9.258089], [-70.81999999999988, 9.257683], [-70.82123, 9.257822]]]}}, {"type": "Feature", "properties": {"Pais": "Venezuela", "Estado": "Trujillo", "Municipio": "Monte Carmelo", "Parroquia": "Buena Vista"}, "geometry": {"type": "Polygon", "coordinates": [[[-70.846081, 9.322591000000102], [-70.845625, 9.324344], [-70.84519199999983, 9.326074000000176], [-70.846587, 9.326347000000169], [-70.847561, 9.326444], [-70.847672, 9.327499000000103], [-70.848153, 9.328477], [-70.848478, 9.329849], [-70.848479, 9.329895000000135], [-70.853013, 9.33095], [-70.855082, 9.331619000000103], [-70.869469, 9.320349], [-70.869757, 9.321179000000143], [-70.873375, 9.322744000000114], [-70.873989, 9.322957], [-70.876009, 9.323661000000186], [-70.877531, 9.324552000000153], [-70.87900999999982, 9.325696000000164], [-70.881284, 9.325885000000142], [-70.883161, 9.327252000000101], [-70.885491, 9.328013000000169], [-70.88738199999983, 9.3287830000001], [-70.890742, 9.32746], [-70.893859, 9.328207], [-70.896663, 9.32958], [-70.89662, 9.329824], [-70.89834899999988, 9.330484000000183], [-70.90091699999982, 9.330871], [-70.901228, 9.330916], [-70.90388799999988, 9.328408], [-70.91487999999987, 9.321874], [-70.916155, 9.320195], [-70.919704, 9.316913000000113], [-70.922694, 9.313872], [-70.925562, 9.310512], [-70.9295931719999, 9.305757814000174], [-70.93417621399993, 9.300352777000114], [-70.935124, 9.299235000000124], [-70.94169899999986, 9.291436], [-70.94491710299985, 9.288623547999975], [-70.94513562999998, 9.288432567000086], [-70.94189853399985, 9.287574659000143], [-70.94174151999982, 9.28638163100004], [-70.94037845399993, 9.28415159399998], [-70.9384193649999, 9.282968569000047], [-70.93465720699993, 9.281497561000037], [-70.93210310099994, 9.281362567000087], [-70.92969999499996, 9.281375588000174], [-70.92699688899995, 9.281389605000186], [-70.92534080599995, 9.280503593000049], [-70.92383374899998, 9.27961657600008], [-70.92277469699991, 9.278130548000092], [-70.92022058999999, 9.27784556100005], [-70.91796448399998, 9.27726155900001], [-70.91525836999989, 9.276678565000111], [-70.91193922199989, 9.273862513000154], [-70.9107241509999, 9.271481464999965], [-70.91061060599992, 9.271332745000109], [-70.90981711699999, 9.270293444000174], [-70.90679996999995, 9.267773401000113], [-70.90634194999996, 9.266433375000076], [-70.90488834299998, 9.265541332000112], [-70.90393183499987, 9.264954354], [-70.9015247399999, 9.264220350000016], [-70.90091669999998, 9.26273232], [-70.90091690299988, 9.262730412000053], [-70.900851, 9.262707], [-70.90032918799994, 9.262306837000096], [-70.89024022699988, 9.25456989100013], [-70.88482161299999, 9.250414505000037], [-70.861971, 9.232891], [-70.848779, 9.233411000000103], [-70.839762, 9.249260000000163], [-70.82528999999988, 9.274719], [-70.825902, 9.274708], [-70.82653999999985, 9.275455], [-70.826542, 9.276878000000181], [-70.82652999999982, 9.277544], [-70.826595, 9.278599], [-70.82608399999987, 9.279871000000185], [-70.8267479999999, 9.280732], [-70.827705, 9.279819000000145], [-70.828314, 9.278844000000106], [-70.829055, 9.278877], [-70.8292029999999, 9.279356], [-70.829892, 9.280377000000158], [-70.831302, 9.278837], [-70.831328, 9.277711000000181], [-70.832883, 9.277844000000186], [-70.833146, 9.279677000000106], [-70.834281, 9.281011], [-70.835504, 9.282045000000153], [-70.836595, 9.28221], [-70.837424, 9.28320500000018], [-70.836715, 9.283746000000178], [-70.836865, 9.284386], [-70.83775, 9.284646], [-70.83795199999986, 9.28563], [-70.837853, 9.286573000000146], [-70.83807799999988, 9.287556000000109], [-70.838919, 9.287931], [-70.839322, 9.28712000000013], [-70.83986799999985, 9.286583], [-70.840518, 9.286617], [-70.840809, 9.287392], [-70.840439, 9.288754], [-70.839941, 9.289429], [-70.83987699999989, 9.289751], [-70.840594, 9.291024], [-70.840693, 9.29136700000015], [-70.840435, 9.292496000000142], [-70.841017, 9.294002], [-70.842212, 9.294807], [-70.843503, 9.295702000000176], [-70.845259, 9.298082], [-70.8450749999999, 9.299509], [-70.843924, 9.301228000000151], [-70.84473699999984, 9.302660000000174], [-70.845737, 9.30422700000014], [-70.845671, 9.30576600000012], [-70.845055, 9.306328], [-70.844928, 9.30830600000013], [-70.84494199999983, 9.309133], [-70.846055, 9.310513000000128], [-70.84714, 9.31164200000012], [-70.848059, 9.312498], [-70.84836799999988, 9.314261000000101], [-70.848312, 9.31501900000012], [-70.847189, 9.31706], [-70.847512, 9.31831700000015], [-70.847333, 9.319996000000117], [-70.846081, 9.322591000000102]]]}}, {"type": "Feature", "properties": {"Pais": "Venezuela", "Estado": "Trujillo", "Municipio": "Monte Carmelo", "Parroquia": "Santa Mar\u00eda del Horcon"}, "geometry": {"type": "Polygon", "coordinates": [[[-71.03665399999988, 9.374536000000148], [-71.03737399999989, 9.37474600000013], [-71.038811, 9.375023000000112], [-71.040174, 9.37487300000015], [-71.042182, 9.374505], [-71.043421, 9.374463000000162], [-71.04440699999986, 9.374809], [-71.0460379999999, 9.373495000000162], [-71.047095, 9.373774], [-71.047344, 9.3731140000001], [-71.046776, 9.371791], [-71.0470289999999, 9.370993000000112], [-71.04756711499994, 9.369861785000012], [-71.047763, 9.369450000000143], [-71.04796897499989, 9.369225134000033], [-71.048668, 9.368462000000136], [-71.04966, 9.366787000000102], [-71.04995, 9.366335000000163], [-71.05223899999987, 9.366415], [-71.05310336299988, 9.36576972600011], [-71.05351689299982, 9.365461014000118], [-71.05360799999988, 9.365393], [-71.054676, 9.364386], [-71.054956, 9.363405], [-71.055441, 9.362544000000184], [-71.05644404099996, 9.361909814000114], [-71.0566407689999, 9.361799594000047], [-71.05332851699995, 9.354778558000021], [-71.0528995059999, 9.355883585000072], [-71.0523294869999, 9.356693608], [-71.05233749699994, 9.357497632000104], [-71.05173947199995, 9.357779633000064], [-71.0511434469999, 9.358360659000027], [-71.05098644299989, 9.35886766800013], [-71.05017640799991, 9.358807672000125], [-71.04967039799988, 9.359203679000132], [-71.04930138399999, 9.359322691000045], [-71.04881636199991, 9.359350684000106], [-71.04837734099993, 9.35947069000008], [-71.04782432299999, 9.359729702000038], [-71.04743430899998, 9.360009715000047], [-71.04691627599993, 9.3591197], [-71.04651426399994, 9.358365676000176], [-71.04620323599988, 9.357335661000093], [-71.04573622099997, 9.356950656000151], [-71.04543420999994, 9.356861649000166], [-71.04496318399998, 9.356040635000056], [-71.04462715599988, 9.354895607], [-71.04417413699997, 9.353591589000132], [-71.04317109499993, 9.352867569000068], [-71.04229204699993, 9.352854578000176], [-71.04097400199993, 9.352960587000155], [-71.03947592799989, 9.351392565000083], [-71.03880090299998, 9.35100956000008], [-71.03795886399996, 9.350169544000039], [-71.0370728229999, 9.349513531000014], [-71.03628778899997, 9.349659542000097], [-71.03571076499992, 9.349803541000028], [-71.03499473199992, 9.349949552000112], [-71.03360468099993, 9.349803553000072], [-71.0324406229999, 9.349127545000044], [-71.03111856699985, 9.348866556000075], [-71.02998452499997, 9.34883355900007], [-71.02880847099993, 9.349259571000175], [-71.02678838999987, 9.348615566000092], [-71.02557233199997, 9.347457548000023], [-71.02546932599995, 9.346402533], [-71.02464928199998, 9.34547050499998], [-71.02404725799988, 9.34543051500009], [-71.02344823899989, 9.345666527000049], [-71.02335622499999, 9.345759522000037], [-71.02275020199994, 9.345307516000105], [-71.02235618799995, 9.345265515000108], [-71.02186816099999, 9.34508751200002], [-71.02154415399991, 9.345021516999964], [-71.02116912999998, 9.34463550700002], [-71.02165315799988, 9.344446500000117], [-71.0212541389999, 9.34385348900014], [-71.02069010499997, 9.34305648000003], [-71.01991807299993, 9.342214466000144], [-71.01912903999994, 9.342039468000053], [-71.01871001399996, 9.341791459000035], [-71.01815499599996, 9.341774457999975], [-71.01761596299997, 9.341160457000058], [-71.01686793799996, 9.340456443999983], [-71.01644590599994, 9.33986442600002], [-71.01602388699996, 9.339340415000095], [-71.01564086399998, 9.338081392000106], [-71.01489984299997, 9.338066402000152], [-71.01407080699994, 9.338466407999988], [-71.01368178699988, 9.338884422000149], [-71.01335877399998, 9.339002428000128], [-71.01240473799999, 9.338507416000027], [-71.01177170299985, 9.337710407999964], [-71.01104967099997, 9.33725939600015], [-71.01026164299998, 9.337130398000113], [-71.00988861899998, 9.33690439600008], [-71.00930959499988, 9.33679639900015], [-71.00904457999997, 9.335834379000119], [-71.00865656499985, 9.336389389000033], [-71.00781753099989, 9.335733386000186], [-71.00726451299994, 9.336014393000085], [-71.0068024919999, 9.33613439900006], [-71.00613146599989, 9.336118403000171], [-71.00555244199995, 9.336033406000126], [-71.0051534239999, 9.335555396000018], [-71.00510041799987, 9.334867378000126], [-71.00491440299993, 9.334777377000023], [-71.00438137999998, 9.334668373999989], [-71.00403237299997, 9.334511372000179], [-71.00356934599995, 9.33447037700006], [-71.00315233199996, 9.334451376000175], [-71.00269230999993, 9.334732394000127], [-71.00088423799997, 9.334537394000165], [-70.99953418299992, 9.33484341600007], [-70.99713508999992, 9.335454442000014], [-70.99518201499995, 9.335465450000072], [-70.99458498499996, 9.336065468000129], [-70.99293491799995, 9.336521484], [-70.99098584299998, 9.3369805050001], [-70.98992979899998, 9.33624049700012], [-70.9890227539999, 9.33520147400003], [-70.98721767299986, 9.334763476000035], [-70.98511158399992, 9.334029470000075], [-70.9839025259999, 9.332693446], [-70.98314548799988, 9.331653429000028], [-70.98253645499994, 9.33016539900018], [-70.98282745899996, 9.32867236200019], [-70.9819174189999, 9.327036329000123], [-70.98088117799995, 9.325950733000184], [-70.9796513099999, 9.32466228800007], [-70.97784222799993, 9.323478269000077], [-70.97513410299996, 9.32259827100006], [-70.9724209819999, 9.320823242000188], [-70.97105892299993, 9.319041216000187], [-70.96848779399994, 9.315773151000087], [-70.96562266699993, 9.313849124000114], [-70.96475808599996, 9.31356817800014], [-70.9615604849999, 9.312529115000075], [-70.95899136899993, 9.309709062000024], [-70.95748029699996, 9.307927037000127], [-70.9555172069999, 9.305998997000131], [-70.95501672299997, 9.305754093000132], [-70.95418320299996, 9.305346223000129], [-70.95415413799992, 9.305332], [-70.95371012499999, 9.305113991999974], [-70.9524920589999, 9.302136927000163], [-70.95248104999996, 9.300196884000115], [-70.95142599899998, 9.299456875999965], [-70.95021393399998, 9.297524835000104], [-70.94914987499993, 9.295292797000172], [-70.94884085399997, 9.29365375599997], [-70.94791879899998, 9.289928682000152], [-70.94520767799997, 9.288451661000067], [-70.94513562999998, 9.288432567000086], [-70.94491710299985, 9.288623547999975], [-70.94169899999986, 9.291436], [-70.935124, 9.299235000000124], [-70.93417621399993, 9.300352777000114], [-70.9295931719999, 9.305757814000174], [-70.925562, 9.310512], [-70.922694, 9.313872], [-70.919704, 9.316913000000113], [-70.916155, 9.320195], [-70.91487999999987, 9.321874], [-70.90388799999988, 9.328408], [-70.901228, 9.330916], [-70.90325299999984, 9.331212], [-70.904709, 9.330545], [-70.90662799999984, 9.329901], [-70.90755399999989, 9.32994500000018], [-70.909983, 9.33037800000011], [-70.912391, 9.331704], [-70.91329499999989, 9.333491], [-70.91454599999986, 9.334888], [-70.916328, 9.335436], [-70.919035, 9.3362580000001], [-70.922136, 9.337469000000112], [-70.923225, 9.338774], [-70.924405, 9.339529], [-70.92702, 9.340122], [-70.928316, 9.340578000000107], [-70.928988, 9.341655], [-70.930261, 9.342433000000142], [-70.932551, 9.342361], [-70.934379, 9.342427000000157], [-70.935722, 9.343274], [-70.938639, 9.345058], [-70.940814, 9.345697], [-70.942039, 9.345007000000123], [-70.943216, 9.343401], [-70.944788, 9.342826000000116], [-70.948094, 9.341767], [-70.95031299999982, 9.340709000000118], [-70.953458, 9.340086], [-70.955171, 9.341206], [-70.958504, 9.342233], [-70.962368, 9.34342], [-70.966163, 9.344698000000108], [-70.968384, 9.345062], [-70.97044299999988, 9.344852], [-70.972549, 9.346019000000183], [-70.975325, 9.34631300000018], [-70.978077, 9.346194], [-70.980135, 9.345503000000122], [-70.98178, 9.346899000000178], [-70.982914, 9.347150000000113], [-70.98384, 9.347996000000137], [-70.985533, 9.350538000000142], [-70.986669, 9.352852], [-70.98806, 9.354821000000129], [-70.990261, 9.357271], [-70.992765, 9.36066000000011], [-70.994316, 9.361506000000134], [-70.996561, 9.363015], [-70.999925, 9.36518000000018], [-71.001528, 9.364847000000168], [-71.00191799999988, 9.36494800000014], [-71.002813, 9.365246000000127], [-71.003211, 9.365991000000122], [-71.003392, 9.367029], [-71.004812, 9.36759300000017], [-71.006426, 9.368713], [-71.00738699999988, 9.369151000000102], [-71.008341, 9.369841000000179], [-71.00971, 9.368819], [-71.01129, 9.36856], [-71.012646, 9.368938], [-71.013472, 9.368316000000107], [-71.014278, 9.367578000000151], [-71.015111, 9.368472], [-71.015474, 9.369629], [-71.016089, 9.370885], [-71.017352, 9.371284], [-71.018536, 9.37113], [-71.020112, 9.371928], [-71.020604, 9.37258300000019], [-71.02137599999986, 9.372258000000159], [-71.02235, 9.371695000000102], [-71.023355, 9.371618000000126], [-71.024648, 9.371753], [-71.02558299999987, 9.372175], [-71.027167, 9.372737000000143], [-71.029753, 9.372936], [-71.030832, 9.373286000000121], [-71.032482, 9.373888], [-71.033564, 9.374055000000112], [-71.034714, 9.374120000000175], [-71.03586299999984, 9.374184000000128], [-71.03665399999988, 9.374536000000148]]]}}]}