{"type": "FeatureCollection", "features": [{"type": "Feature", "properties": {"Pais": "Venezuela", "Estado": "Apure", "Municipio": "Mu\u00f1oz"}, "geometry": {"type": "Polygon", "coordinates": [[[-69.41598252599982, 8.067113078999967], [-69.41698357099995, 8.068047093000189], [-69.41813461899989, 8.068204090999984], [-69.42076672699989, 8.068223082000088], [-69.42141075699988, 8.068371084000034], [-69.42339083699994, 8.067277048000108], [-69.42552591799995, 8.06703203000012], [-69.42554865299996, 8.067029429000172], [-69.42690698199988, 8.066874026], [-69.42896506799991, 8.066678013000057], [-69.43095415199991, 8.066479989000186], [-69.43331624599995, 8.066057969000099], [-69.43456429699995, 8.065962971000033], [-69.43463635999996, 8.065918675000091], [-69.43489130699999, 8.06576196399999], [-69.43724640799996, 8.06435191900016], [-69.43792342699987, 8.063880904000143], [-69.43980050399995, 8.06209585900018], [-69.44099654099995, 8.060920824], [-69.44314862099992, 8.059255781], [-69.44463168399989, 8.057533730999978], [-69.44560171099994, 8.05612469800019], [-69.44610073199993, 8.055282677999969], [-69.44685975699986, 8.054054644000189], [-69.4480217929999, 8.052166592999981], [-69.44913582999999, 8.050462555000024], [-69.45023487599997, 8.049606530000176], [-69.45142192899993, 8.049028506000127], [-69.45249515799992, 8.047884631000102], [-69.45298699299985, 8.047360418000153], [-69.45303198599993, 8.047312463000026], [-69.45472004399988, 8.045513418000098], [-69.45996024299995, 8.040635281000164], [-69.45996582099997, 8.040631877000067], [-69.46210532299989, 8.039326238000115], [-69.46520244599998, 8.036946175000082], [-69.46627348799996, 8.035875144000045], [-69.46889458899994, 8.033733091000158], [-69.46996562999993, 8.032544055000187], [-69.47207070599995, 8.031339015000128], [-69.47413377899994, 8.028142931], [-69.47865794499995, 8.023502817000121], [-69.4825860929999, 8.018626686000175], [-69.48588320799996, 8.013641564000181], [-69.49008435599995, 8.008160415000077], [-69.49103336899992, 8.00423832500013], [-69.4922234199999, 8.00245427700014], [-69.49853665899991, 7.99876316700005], [-69.5025888269999, 7.997689130000083], [-69.50723702699992, 7.997326096000108], [-69.51343628599994, 7.997319066000045], [-69.5190405269999, 7.998738072000037], [-69.52154362999988, 7.998616058000039], [-69.52615882099985, 7.997183003999965], [-69.52710285999996, 7.996720986000128], [-69.52751686899995, 7.996421982000072], [-69.52843790799994, 7.995936965000169], [-69.52926694399997, 7.99540695200011], [-69.53018697599998, 7.994669926000029], [-69.53196003899996, 7.993586901000072], [-69.53232805799996, 7.993011884000168], [-69.53336309299988, 7.99234385800014], [-69.53472115199997, 7.991169828000181], [-69.53635520699999, 7.990361799000027], [-69.5371142329999, 7.989188777000152], [-69.53807926699983, 7.987143723000031], [-69.54023934199995, 7.983419629000082], [-69.5410203589999, 7.981305587000179], [-69.54127236799997, 7.980363562000093], [-69.54216840199996, 7.978662517000146], [-69.54256041599996, 7.978478514000074], [-69.54368746599994, 7.977740494000159], [-69.54440047899988, 7.976614465000125], [-69.5449515059999, 7.975350436000099], [-69.54600854099988, 7.973006380000129], [-69.54598352199997, 7.971468339000126], [-69.54570450299997, 7.969632302000036], [-69.54491846299993, 7.96738525700016], [-69.54473344999991, 7.966743241000188], [-69.54472944199995, 7.964401188000068], [-69.54518945999996, 7.963207165000142], [-69.5456254739999, 7.962379146000103], [-69.54675149999997, 7.96035608700015], [-69.54803954999988, 7.958815048000076], [-69.54861356599997, 7.957735032000073], [-69.54983362299993, 7.956996999000069], [-69.55190570699995, 7.956003975000101], [-69.55501282499989, 7.95429791700019], [-69.55669388699982, 7.953466888999969], [-69.55837395399993, 7.95231486400013], [-69.55945399199993, 7.950681813000131], [-69.55979699199997, 7.948454771000058], [-69.56067002599991, 7.946867734000136], [-69.56089802799994, 7.945673700999976], [-69.56156304699982, 7.943284651000056], [-69.56243507099992, 7.940803588], [-69.5627310729999, 7.937887524000132], [-69.56293506499992, 7.935798472000158], [-69.56380809799992, 7.933959426], [-69.56493513399994, 7.932877398000016], [-69.56829627899987, 7.931904364000161], [-69.5697933379999, 7.93137235], [-69.5720744329999, 7.932101355000043], [-69.57433353599998, 7.933587378000141], [-69.5744025379999, 7.933609372000035], [-69.57550858899992, 7.933629364000069], [-69.57619961199998, 7.933650362000037], [-69.57823943799991, 7.933578337000029], [-69.57829570499996, 7.933576350000124], [-69.57983775799994, 7.932814334000113], [-69.58103581299991, 7.933086333000176], [-69.58306290399997, 7.933012321000092], [-69.58310890499996, 7.93298932100015], [-69.5844449619999, 7.93291731100004], [-69.58617202699992, 7.932499291000113], [-69.58686205599997, 7.932428289000086], [-69.58939616699996, 7.932536277000111], [-69.59112323199997, 7.9322332590001], [-69.5920212719999, 7.932093255000098], [-69.59409335499993, 7.931146231000071], [-69.59538240299992, 7.930614205999973], [-69.59639444899989, 7.929762179000136], [-69.59722146999997, 7.92831414800014], [-69.59816450099999, 7.927118113000176], [-69.60050959099993, 7.924403045000076], [-69.60076159699992, 7.92297901000012], [-69.60126560299989, 7.921163972000045], [-69.60123960399994, 7.919694943000081], [-69.60172060799988, 7.917696897000155], [-69.6018356109999, 7.917535895000128], [-69.60183461499997, 7.917007874000035], [-69.60185761299994, 7.916387863000182], [-69.60249962299986, 7.914687825000044], [-69.60291263499994, 7.913699798000096], [-69.60355566299984, 7.912067767000167], [-69.60392067099991, 7.910000708999974], [-69.60437968499997, 7.909058695000056], [-69.6046076849999, 7.907405652000136], [-69.60522770099988, 7.90602662200007], [-69.60610172999998, 7.904899588000092], [-69.60729777999995, 7.90397756599998], [-69.60971487099988, 7.902754527000127], [-69.61178596099995, 7.901830503000099], [-69.61378904499992, 7.901480478000167], [-69.6151690879999, 7.90044444800003], [-69.61618212999997, 7.900234438999973], [-69.61857623399999, 7.899424409000119], [-69.62131734799993, 7.899026393000042], [-69.62136334899992, 7.898957392000113], [-69.6217773589999, 7.898795384000039], [-69.62405745599983, 7.89862836500015], [-69.62576152399998, 7.899014369000099], [-69.6271895939999, 7.89884936500016], [-69.6304347169999, 7.897394310000095], [-69.63308081899999, 7.895757267000079], [-69.63402385099994, 7.894813240000076], [-69.63710798199997, 7.893519199000025], [-69.63786600299989, 7.892346165000106], [-69.64302020199995, 7.889026068000135], [-69.6435492249999, 7.888382050000132], [-69.64630933299992, 7.88610199600015], [-69.64780438999992, 7.884926960000087], [-69.65017246999992, 7.882463889000121], [-69.65169153399995, 7.881563861000075], [-69.65343959699999, 7.880388836000122], [-69.65495665799989, 7.878478788000166], [-69.65612970499996, 7.877167752000048], [-69.65817677499996, 7.875738706000107], [-69.66125989799997, 7.87366365400004], [-69.66254694499997, 7.872557619000077], [-69.66355998699999, 7.872325603000093], [-69.66692111999998, 7.871420576000048], [-69.66837118399997, 7.870888551000178], [-69.67120229699998, 7.869617511000172], [-69.67243293999996, 7.869319473000019], [-69.67292836899998, 7.869199492000121], [-69.67435442399994, 7.867955467000172], [-69.67529846399998, 7.867654451000135], [-69.67667850799995, 7.866893430000118], [-69.6775765459999, 7.86650041300004], [-69.67837478699988, 7.865738577000059], [-69.67854158499983, 7.865579386000093], [-69.68095867899996, 7.865021364000143], [-69.68197171999998, 7.864605359000052], [-69.68250074499986, 7.864374350000048], [-69.6835587789999, 7.863338322000118], [-69.68440881399988, 7.862073286999987], [-69.68558186199988, 7.860968258000128], [-69.68638388099998, 7.858739204000074], [-69.68693590599992, 7.858439194000141], [-69.68762593399998, 7.858161191000136], [-69.68852396099993, 7.857837175000157], [-69.68976501499998, 7.856135135000045], [-69.69093805299985, 7.855122107000057], [-69.69222509999992, 7.854085073000022], [-69.69365216299997, 7.85353005900015], [-69.69406617199996, 7.853276050000147], [-69.69758931899997, 7.853082029000177], [-69.69892337199991, 7.852090995000083], [-69.70106245599999, 7.850569960000087], [-69.70159247499998, 7.850705960000141], [-69.70292753699994, 7.850380948000065], [-69.70368555899995, 7.849459922000051], [-69.70529662699994, 7.848835896000139], [-69.70603164699992, 7.847639874000095], [-69.70731969899998, 7.846625840000058], [-69.70842474399996, 7.846553830000119], [-69.70943678899994, 7.845448802000021], [-69.71058482399997, 7.843838764], [-69.7110198289999, 7.842115727000021], [-69.71320491499995, 7.840754688000118], [-69.71435395599991, 7.839236650000089], [-69.71575801799997, 7.838658625000164], [-69.71686005199996, 7.837025586000095], [-69.71867812399995, 7.836078564000104], [-69.71955116099997, 7.835158531000104], [-69.72051619699994, 7.833640494000178], [-69.72074519499989, 7.833111488999975], [-69.72170922499998, 7.831180443000108], [-69.72205223999987, 7.829779408000093], [-69.72292526499996, 7.828904382000133], [-69.72294826599995, 7.82888138200002], [-69.72366229999994, 7.828604372000029], [-69.72432832099997, 7.827982360000078], [-69.72552336199993, 7.826234309000142], [-69.72715542699996, 7.824668270000132], [-69.72789044899991, 7.823885245000099], [-69.72952451699996, 7.823192230000018], [-69.73495975399999, 7.823497214000042], [-69.73746985899999, 7.823627197000064], [-69.73970294999992, 7.823505185000101], [-69.74274207699995, 7.823060163000036], [-69.74391612499994, 7.82307916100018], [-69.74578119499989, 7.823142145000077], [-69.74748527299994, 7.823137147000182], [-69.7512174279999, 7.823929138000096], [-69.75149344699992, 7.823905143000161], [-69.75209246699984, 7.823834130000023], [-69.7535885339999, 7.823600125000155], [-69.75471657799989, 7.823321114000066], [-69.75612062999988, 7.82299509700016], [-69.75685665999993, 7.822810087000107], [-69.75770869799999, 7.822508078000112], [-69.75897375299996, 7.822252067000136], [-69.76026379499996, 7.822041063000086], [-69.76150584999993, 7.821716040000126], [-69.76265790099995, 7.821690043], [-69.76426896999993, 7.821294019000106], [-69.76488898999992, 7.820742013000086], [-69.76691206299995, 7.818646957000112], [-69.7682681089999, 7.817149920000134], [-69.76911914099998, 7.81668889700012], [-69.77160324599998, 7.815326863000053], [-69.77408834599998, 7.81421682600012], [-69.77588341799992, 7.813683806000085], [-69.77811650899997, 7.813423782000029], [-69.77836951499984, 7.813330787000098], [-69.77931355599998, 7.81328278400008], [-69.78055660499996, 7.813232769000138], [-69.78223768299995, 7.813364767000053], [-69.78387274799996, 7.813497758000096], [-69.78557681399985, 7.813583755000025], [-69.78714188199996, 7.813280737000184], [-69.78826992699999, 7.812932726000099], [-69.79048001699982, 7.812718714000141], [-69.79238909799994, 7.811978692000025], [-69.79420716999994, 7.811306666], [-69.79611724499995, 7.81054364400012], [-69.79717529399994, 7.810034621], [-69.79883135499989, 7.809042592000083], [-69.80078843799998, 7.808760586], [-69.80260350299989, 7.807079534000025], [-69.80388954099982, 7.805354494000142], [-69.80427149999997, 7.804731292000042], [-69.80549660199989, 7.802732425000158], [-69.80531059499998, 7.801883407000048], [-69.80597661399992, 7.800940387000026], [-69.80636562099994, 7.799791360000086], [-69.80677964199992, 7.799537351000083], [-69.80719164599992, 7.797837315000152], [-69.80852369999991, 7.796502284000098], [-69.80994975399994, 7.795258247999982], [-69.81192682999995, 7.794058211000106], [-69.81316787299994, 7.792539168000076], [-69.81452392299997, 7.791639141000132], [-69.81581197699995, 7.790992128000141], [-69.81733104299997, 7.790712110000072], [-69.81956512799991, 7.790728099999967], [-69.82133921599996, 7.791342106000172], [-69.82253926299995, 7.792830132000176], [-69.82440634799997, 7.793857147000153], [-69.82671045699993, 7.794951163000064], [-69.82673445099988, 7.794974163], [-69.8275644869999, 7.796027174000187], [-69.82821152299988, 7.796828191000145], [-69.82918257099993, 7.798776233000183], [-69.83128067199988, 7.800674260000108], [-69.83185769899995, 7.80101626700008], [-69.83331076199983, 7.802182290000189], [-69.83384078199998, 7.80250229100011], [-69.8351088469999, 7.803508308000119], [-69.83644690799997, 7.80481233200004], [-69.83918902099998, 7.805835334000108], [-69.8410771049999, 7.805990331000032], [-69.84315018699994, 7.806281329000171], [-69.84430124399995, 7.806094319000124], [-69.84752336999992, 7.805464290000145], [-69.84890443299997, 7.805046272000027], [-69.85023948299994, 7.804720267000107], [-69.85217155199985, 7.803933240000106], [-69.85350560599989, 7.803034206000177], [-69.85564569899998, 7.802407186000153], [-69.85978785899994, 7.801544147000072], [-69.85999487599992, 7.801474152000026], [-69.86151293399996, 7.800505124000154], [-69.86367601599994, 7.799970092000137], [-69.86646113199998, 7.799479071000064], [-69.86864822099994, 7.799311059000047], [-69.87067430699989, 7.799327049000112], [-69.87161834899996, 7.799461049], [-69.87350742599995, 7.799593045000108], [-69.87670656499995, 7.799329020000187], [-69.87985968699996, 7.798354982000092], [-69.88149375799998, 7.798348979000025], [-69.88538491299988, 7.798014955999975], [-69.88865305299993, 7.797658930000011], [-69.89090814899993, 7.797100909000108], [-69.89284021799983, 7.796106880000025], [-69.89493530399989, 7.795686861000036], [-69.89714439999989, 7.795403837000038], [-69.89783442699996, 7.794987833000107], [-69.89863845099995, 7.794204808000075], [-69.89916646699993, 7.793307788000106], [-69.90157856099995, 7.790751723000085], [-69.90156406199998, 7.790741638000043], [-69.90033766599987, 7.789939508000089], [-69.89924788399992, 7.789068235000059], [-69.898223, 7.787995000000137], [-69.88883029299996, 7.77816451700005], [-69.88093218299997, 7.769898291], [-69.80952599999989, 7.695164], [-69.769482, 7.652168], [-69.746786, 7.628092], [-69.687515, 7.564767], [-69.67736199999985, 7.554367000000184], [-69.66912699999989, 7.52987700000017], [-69.656849, 7.491181000000154], [-69.644115, 7.450959000000182], [-69.63751599999989, 7.428867000000139], [-69.628929, 7.403729000000112], [-69.622792, 7.383007000000134], [-69.61801299999985, 7.367132], [-69.610847, 7.356807], [-69.581936, 7.315537], [-69.569548, 7.297567000000186], [-69.567637, 7.295074000000113], [-69.493233, 7.188636], [-69.493027, 7.188594000000137], [-69.492876, 7.188836], [-69.487356, 7.191931000000181], [-69.48577199999983, 7.194502000000114], [-69.485173, 7.196668000000102], [-69.48468999999983, 7.198412000000133], [-69.48422, 7.200445000000116], [-69.48199399999987, 7.203907], [-69.479771, 7.205165], [-69.477555, 7.205873], [-69.474691, 7.205796], [-69.47193, 7.206037], [-69.468848, 7.207091], [-69.465904, 7.208163000000127], [-69.463306, 7.209204000000113], [-69.459863, 7.210567], [-69.456518, 7.212087], [-69.453728, 7.213683000000174], [-69.451178, 7.214033000000143], [-69.448602, 7.215095], [-69.446103, 7.216384000000176], [-69.4441369999999, 7.21775], [-69.442958, 7.218427], [-69.441706, 7.217453000000148], [-69.422328, 7.213317], [-69.421666, 7.213176000000146], [-69.335853, 7.194933], [-69.28551, 7.184182000000135], [-69.255215, 7.17771], [-69.18648, 7.162936000000116], [-69.161678, 7.157644000000118], [-69.131781, 7.151298000000111], [-69.12705899999986, 7.15029], [-69.126242, 7.14994600000017], [-69.12559799999985, 7.150813000000142], [-69.125285, 7.151924], [-69.1233, 7.154252], [-69.12150999999983, 7.156185], [-69.1193, 7.15712], [-69.117164, 7.158236], [-69.114297, 7.161164], [-69.11147, 7.163103], [-69.108291, 7.163239000000146], [-69.105586, 7.161411], [-69.104068, 7.159962], [-69.101003, 7.159269000000108], [-69.098756, 7.159746], [-69.09624699999989, 7.161515000000122], [-69.09343699999982, 7.163248000000181], [-69.09235499999983, 7.165711], [-69.092429, 7.168257], [-69.09211499999986, 7.170951000000173], [-69.09086099999985, 7.173832000000118], [-69.089435, 7.176351000000182], [-69.087386, 7.177259], [-69.084971, 7.178314], [-69.08228199999985, 7.179423], [-69.080018, 7.180107], [-69.076773, 7.181140000000141], [-69.075002, 7.182109], [-69.073492, 7.183322], [-69.071011, 7.182933000000162], [-69.068116, 7.183314], [-69.065976, 7.184269], [-69.06429, 7.185809], [-69.06263399999989, 7.187554], [-69.060051, 7.189142000000174], [-69.0592999999999, 7.190311], [-69.058483, 7.192376], [-69.05838199999988, 7.194445], [-69.057976, 7.197165], [-69.05646499999989, 7.200742], [-69.055683, 7.202393], [-69.054197, 7.203675], [-69.052498, 7.204733], [-69.049852, 7.205748000000142], [-69.04779699999989, 7.205669000000171], [-69.04583699999984, 7.204944], [-69.043989, 7.204055], [-69.042044, 7.203008000000125], [-69.040463, 7.201768000000186], [-69.038444, 7.200562], [-69.03510099999988, 7.199808000000189], [-69.033494, 7.200082000000123], [-69.030734, 7.200367], [-69.028356, 7.201077], [-69.02676999999989, 7.202062000000183], [-69.024538, 7.203044], [-69.021811, 7.203694], [-69.0192679999999, 7.204317], [-69.016628, 7.204735], [-69.014758, 7.206303], [-69.014035, 7.208412000000123], [-69.014372, 7.21129400000018], [-69.015838, 7.214144], [-69.01581, 7.217175], [-69.014428, 7.219647000000123], [-69.01115, 7.221163000000161], [-69.00772599999988, 7.221604], [-69.00515499999989, 7.221240000000137], [-69.002225, 7.221231000000103], [-69.001073, 7.221774], [-68.998831, 7.222542], [-68.996432, 7.223567000000116], [-68.99678499999987, 7.225738000000149], [-68.999016, 7.2273110000001], [-69.000276, 7.228817], [-69.001289, 7.229686000000129], [-69.003247, 7.231851], [-69.00461299999989, 7.233626000000186], [-69.005285, 7.234548], [-69.005664, 7.235662], [-69.005173, 7.237856], [-69.003835, 7.239454000000137], [-69.002128, 7.240236000000152], [-68.998217, 7.241790000000151], [-68.994579, 7.243099], [-68.991213, 7.245067], [-68.989924, 7.248037], [-68.98982899999987, 7.250771000000157], [-68.990736, 7.252974], [-68.991051, 7.254504000000111], [-68.990141, 7.255973], [-68.987225, 7.256575], [-68.984611, 7.256274], [-68.98219399999982, 7.257483], [-68.980083, 7.259833000000185], [-68.979304, 7.261941000000149], [-68.979193, 7.264009], [-68.979982, 7.266124], [-68.981024, 7.268163000000186], [-68.98128899999989, 7.270497], [-68.978977, 7.271267000000137], [-68.97532699999988, 7.272026], [-68.972002, 7.271904], [-68.969517, 7.274101000000144], [-68.96745, 7.276426000000129], [-68.967113, 7.278683000000171], [-68.96691599999986, 7.281993000000114], [-68.96653899999984, 7.284504], [-68.964144, 7.287549000000126], [-68.961886, 7.285770000000184], [-68.959828, 7.285593000000119], [-68.957825, 7.286699000000112], [-68.956769, 7.287735], [-68.955409, 7.288872], [-68.9544719999999, 7.299416], [-68.95326099999988, 7.308146], [-68.94008899999983, 7.360641000000157], [-68.922559, 7.428859], [-68.917788, 7.461984], [-68.917958, 7.462526000000139], [-68.87677999999983, 7.645370000000185], [-68.82311574599998, 7.881405202], [-68.82226812199991, 7.885133368000083], [-68.82088857499991, 7.891201124000133], [-68.82080878899995, 7.891552053000169], [-68.82047067299999, 7.892991961000121], [-68.82055355199998, 7.892987985000104], [-68.82088356899993, 7.893530988], [-68.82240863699991, 7.894261996000125], [-68.82252001599988, 7.894285919000026], [-68.82477373999996, 7.894769998000015], [-68.82586878499995, 7.895302012000172], [-68.82700584299988, 7.895548008000105], [-68.82811888499998, 7.89579000700013], [-68.82975495399995, 7.895577003000085], [-68.83225706699994, 7.895991999000159], [-68.83506718999996, 7.896882996000102], [-68.83727628099996, 7.89769201200005], [-68.83982239599993, 7.897968002000141], [-68.84190548299989, 7.898184005000189], [-68.8451346199999, 7.899205007000091], [-68.84702270799988, 7.90020402100015], [-68.84928681299994, 7.901495034000106], [-68.85136990099988, 7.901756032000037], [-68.85386200699992, 7.901574016999973], [-68.85552807999994, 7.901751022000155], [-68.85872920599996, 7.901211988000171], [-68.86041127599992, 7.900998972000082], [-68.86223336099988, 7.900828963000151], [-68.86392842499998, 7.900017943000023], [-68.86568748799994, 7.898931902000129], [-68.86800159199993, 7.89792687400012], [-68.87049668499998, 7.896642827], [-68.87217776199998, 7.89636082200002], [-68.87515687899997, 7.896353808000185], [-68.87733297399984, 7.896589795000068], [-68.87813100899996, 7.897122803000116], [-68.87941592899995, 7.896500954000089], [-68.87993776999997, 7.896862520000184], [-68.88002909599999, 7.896925797000165], [-68.88414627599991, 7.89969983300017], [-68.88611236999998, 7.901649869000039], [-68.88694641899997, 7.903439904000095], [-68.88828847799994, 7.904747938000128], [-68.89037157799999, 7.907684993999965], [-68.89215366599996, 7.909337023000148], [-68.89382074199989, 7.911769059000108], [-68.89523181599992, 7.913306089000116], [-68.89738089999992, 7.913258080000105], [-68.90059303899994, 7.913347062000014], [-68.90195709999995, 7.913552071000026], [-68.90595526999982, 7.914168066000116], [-68.90720433099995, 7.914947073000178], [-68.90928441599993, 7.915473074999966], [-68.91272855999989, 7.915860065000061], [-68.91337559299996, 7.915928069000131], [-68.91707374999999, 7.916406065000103], [-68.9180207959999, 7.916451055000095], [-68.92070090399994, 7.916311044000111], [-68.92190295499995, 7.916447041000083], [-68.92442106399994, 7.916031016000034], [-68.92571511499989, 7.915639002000148], [-68.92765719699997, 7.916188004999981], [-68.92909026099989, 7.916715015000079], [-68.92999230299995, 7.91758703], [-68.9317503819999, 7.91868704400008], [-68.9330234389999, 7.919948061000071], [-68.93478252799997, 7.922059099000137], [-68.93626359699994, 7.923550129000034], [-68.93776667199995, 7.924903157000074], [-68.93836969499995, 7.925890174000131], [-68.93904072499987, 7.926831189999973], [-68.93980577099984, 7.928277216000083], [-68.93985377799999, 7.92970025700015], [-68.93976177899992, 7.930527268999981], [-68.93928076599991, 7.933329340000114], [-68.93845174899997, 7.935419389000117], [-68.93653667799998, 7.937718443000108], [-68.93609966299988, 7.939349481000022], [-68.93524663699998, 7.940957520000154], [-68.93469362299999, 7.94199154800009], [-68.93361058199997, 7.944174604000068], [-68.93333757999994, 7.946929668000109], [-68.93315458699993, 7.948353703000066], [-68.93359661099998, 7.950741755000138], [-68.93401463999993, 7.952578797000058], [-68.93864084799998, 7.955075823000072], [-68.94155498099997, 7.957070862000023], [-68.94273502699991, 7.95766686200011], [-68.94555515399992, 7.958650877000082], [-68.94837928599992, 7.961242915000184], [-68.94837928599992, 7.961264922000112], [-68.94840228699996, 7.961264922000112], [-68.94955834099994, 7.962182936000033], [-68.95143342499995, 7.96399497200008], [-68.95293649799993, 7.964910986000177], [-68.95515759399996, 7.966309999000032], [-68.95677767199999, 7.967869023000048], [-68.95680067299992, 7.967892023], [-68.9572416989999, 7.969223062000083], [-68.95735870599998, 7.970234074000075], [-68.95722171199986, 7.971336107000013], [-68.95731471099998, 7.972002117999978], [-68.95798775499992, 7.973608152000168], [-68.95812776299994, 7.974756172000127], [-68.95803776799988, 7.976708217000066], [-68.95815578199995, 7.978293252000071], [-68.95808978199983, 7.980291297000065], [-68.95829979899997, 7.981967338000118], [-68.95834881299993, 7.98401037800005], [-68.95855882699993, 7.985066409000126], [-68.95909386199997, 7.98786747000014], [-68.9593948829999, 7.988487479000185], [-68.9599069119999, 7.990300515000115], [-68.96106396199997, 7.991860547000044], [-68.96178199899998, 7.99264056200019], [-68.9625240449999, 7.994270589000166], [-68.96284805499988, 7.99493560500008], [-68.96370609799999, 7.996565643000167], [-68.96407611999996, 7.996955651000064], [-68.96495316099998, 7.997443652000072], [-68.9655951929999, 7.997911657000145], [-68.96644722099995, 7.998083664000092], [-68.96667623499991, 7.998247667000044], [-68.96769578099997, 7.998938684000109], [-68.96871532499995, 7.999629689000187], [-68.96944536399997, 8.000374701000169], [-68.96983038199994, 8.001022712000065], [-68.97143445799998, 8.00212373200003], [-68.97204348799983, 8.003234749000057], [-68.97251550799996, 8.004251766999971], [-68.9740795759999, 8.004892784000162], [-68.97492762099989, 8.005455793000124], [-68.9760806669999, 8.005631783000126], [-68.97776074299992, 8.006181792000064], [-68.97816375299993, 8.006223835000071], [-68.97826876699992, 8.006234790000178], [-68.98088487399997, 8.005854773000124], [-68.98120988599993, 8.005790761000128], [-68.98292795199995, 8.00519274900006], [-68.98450801299998, 8.004523715000119], [-68.98482202199995, 8.00344769700007], [-68.98650208999993, 8.002183663000096], [-68.98872117199994, 8.000350605000165], [-68.98997922499996, 7.999562587000128], [-68.99085026199998, 7.998379548000059], [-68.99183729499993, 7.997105524000119], [-68.99235231699993, 7.996606507000138], [-68.99310534099988, 7.996368497000162], [-68.99384437299994, 7.995862478000163], [-68.99474540399996, 7.995448471000088], [-68.99698550399995, 7.994297436000124], [-68.99864856899995, 7.993836420000036], [-69.00068264999993, 7.993787407000127], [-69.00157445699995, 7.994064049000087], [-69.00254273399992, 7.994364411999982], [-69.00272673899997, 7.994525411999973], [-69.00332676599999, 7.994573408000065], [-69.00461982699994, 7.99482841400004], [-69.00573851399986, 7.995310455000038], [-69.00595887899988, 7.99540541000016], [-69.00842998299998, 7.99541140600013], [-69.00930702299996, 7.995688408000149], [-69.00986104899988, 7.995850412000038], [-69.01078409099989, 7.99642641700018], [-69.01131511699992, 7.996840429000144], [-69.01220315799998, 7.997750438000025], [-69.0125631759999, 7.998284454000157], [-69.01304119999986, 7.998660459000121], [-69.01346921499999, 7.999265462000153], [-69.01527930099996, 8.000053477000051], [-69.01637835399993, 8.000577485000065], [-69.01861944699982, 8.00174149500009], [-69.02139557099991, 8.002730512000142], [-69.02153258199996, 8.002778510000041], [-69.02496871899996, 8.002975491000086], [-69.02604476499994, 8.002189473000044], [-69.02754682899996, 8.002123469000082], [-69.03071595499989, 8.001740445000053], [-69.03275904499998, 8.001086415000088], [-69.0333900629999, 8.000637407000056], [-69.03413909999995, 8.00003038900013], [-69.0345431149999, 7.999370371000055], [-69.03527214199994, 7.998648352999965], [-69.03608416799995, 7.997077314000137], [-69.03621416299995, 7.996463299000027], [-69.03633016899988, 7.995982282000114], [-69.03607715899983, 7.995316272000082], [-69.03598614599991, 7.994513254000083], [-69.03654117499985, 7.994216247999987], [-69.03679617799997, 7.993827231000068], [-69.03714418499999, 7.992543206000107], [-69.03714518699991, 7.991992196000183], [-69.03728618899993, 7.990846173000136], [-69.03740418799993, 7.989080127000022], [-69.03740517999995, 7.98882712600016], [-69.03745517999988, 7.986786072000029], [-69.03759616799994, 7.985227040000154], [-69.03755217299994, 7.98417102000019], [-69.03762415799991, 7.982519976], [-69.03783416099998, 7.981097951000038], [-69.03813616699995, 7.979905915000188], [-69.03827617699994, 7.979057900999976], [-69.03878519099999, 7.978416886000161], [-69.03920220199996, 7.977774867000051], [-69.03994223999996, 7.977340852000111], [-69.04033625099999, 7.976745838000113], [-69.04093826999997, 7.975507801000049], [-69.04149428799997, 7.974408782000182], [-69.04283534399997, 7.973562748000177], [-69.04466141099982, 7.972878731000151], [-69.04574746499998, 7.972812729000168], [-69.04641649399997, 7.972951720000026], [-69.04743252999987, 7.973252727000158], [-69.04937161899988, 7.973623724000049], [-69.0513577019999, 7.974018726000054], [-69.05225774399997, 7.974456730000043], [-69.05373380599997, 7.975170745000071], [-69.05490985799992, 7.976228758000104], [-69.05613391699995, 7.976644765000174], [-69.05774899099998, 7.977748776000112], [-69.05860103499998, 7.978737790000082], [-69.06104813799993, 7.979706800000145], [-69.0625472029999, 7.98078782400006], [-69.06476330799995, 7.981939843000077], [-69.06667739099993, 7.983480868000129], [-69.0684994849999, 7.985205893999989], [-69.06916751099993, 7.986032914000077], [-69.0702975619999, 7.987296936000178], [-69.07098959399997, 7.987894948000132], [-69.07248866899994, 7.988746952000099], [-69.07338871099995, 7.989184954999985], [-69.07468176099991, 7.989715963000037], [-69.07599682099993, 7.990681987000073], [-69.07707987599991, 7.991740000000107], [-69.07823492099993, 7.991971995000029], [-69.07936397999998, 7.993351028000177], [-69.07834493799999, 7.995321076000096], [-69.07894496599988, 7.99573507499997], [-69.07931298999995, 7.996241089000137], [-69.08028302699984, 7.996839100000102], [-69.08069705499997, 7.997872118000146], [-69.08085706799989, 7.998446128000012], [-69.08275014499986, 7.999024138000095], [-69.08383519599994, 7.999462140999981], [-69.08697633499986, 7.99983613500001], [-69.08900841799993, 7.999932123000178], [-69.09009546199991, 7.999201104000178], [-69.09222055199996, 7.998976095000103], [-69.09367560699985, 7.998589070000151], [-69.0944846349999, 7.998247068000069], [-69.09513166799996, 7.998248058000172], [-69.09584869399998, 7.997929056000089], [-69.09679573699998, 7.99747204099998], [-69.09802078699994, 7.997108018000176], [-69.09875980899994, 7.99688001100003], [-69.09986886199988, 7.99658399600014], [-69.10035487799996, 7.996424991000026], [-69.10227295999994, 7.995832974], [-69.10236496099992, 7.995671972000025], [-69.10375300999993, 7.994573942000102], [-69.10430803699984, 7.994001928000046], [-69.10571809399988, 7.992995898000117], [-69.10604209899998, 7.992560881000088], [-69.10696813799996, 7.99164485600005], [-69.10823818299997, 7.991349845000059], [-69.10930222699994, 7.990571820000071], [-69.11089629199995, 7.990437808000024], [-69.11214335099993, 7.990577814000062], [-69.11334439599995, 7.990511798999989], [-69.11502947299982, 7.990950805000068], [-69.11588351399996, 7.991526809000163], [-69.1166675479999, 7.992170822000048], [-69.11770559399991, 7.992883833000178], [-69.11812061299997, 7.993503842000052], [-69.11883564599998, 7.994399863000183], [-69.11927267199997, 7.995065872000112], [-69.12000770499998, 7.996356904000038], [-69.12014271699996, 7.996565902999976], [-69.12068573599993, 7.997194922000062], [-69.12134177099995, 7.997940927000059], [-69.12138777799993, 7.99931996600003], [-69.12138077999998, 7.999709976000133], [-69.12133678299989, 8.000926997000022], [-69.12121978799996, 8.002326032999974], [-69.12141380099996, 8.003087047000065], [-69.12130080199995, 8.004303076000042], [-69.12124780199997, 8.00471508000004], [-69.1213188079999, 8.005888111], [-69.12163782599993, 8.006169113000169], [-69.12233385599995, 8.0073061330001], [-69.12296188999994, 8.00830415900009], [-69.12339991299996, 8.009713185000123], [-69.12356693599992, 8.012013234000108], [-69.12330492699994, 8.013823282000146], [-69.12311392299995, 8.01418728900012], [-69.1230039329999, 8.016528337000011], [-69.12273792199989, 8.017190353000103], [-69.12268793099986, 8.018774395000037], [-69.12281994699993, 8.0204534290001], [-69.12291794999999, 8.021442446000094], [-69.12302296899998, 8.023419489000162], [-69.12362099199999, 8.024854518000154], [-69.12423502799999, 8.026724563000073], [-69.12483905599993, 8.027814578000118], [-69.12635913799994, 8.029356609000047], [-69.12707816899984, 8.030493628999977], [-69.12798620599995, 8.031358642999976], [-69.12906326399997, 8.031836651000106], [-69.1314853699999, 8.033254678000105], [-69.13302243999988, 8.03380867300001], [-69.13465751199982, 8.035398703000112], [-69.13550955799997, 8.036813734000077], [-69.13586057999999, 8.037899753000147], [-69.13644459899996, 8.038850774000025], [-69.13701664099995, 8.040445811000097], [-69.13874371599996, 8.042012839999984], [-69.14030678899996, 8.042429839000135], [-69.14122984199997, 8.045132890000048], [-69.14106583399996, 8.045221900000115], [-69.14351993799988, 8.046158910000031], [-69.1444099759999, 8.046793911000066], [-69.14525401199995, 8.047358931000133], [-69.14604805099992, 8.048153940000077], [-69.14776412499998, 8.049054946000012], [-69.1478341319999, 8.04900995100013], [-69.1493231959999, 8.048345931000085], [-69.15006422899995, 8.04822092300003], [-69.15052623899999, 8.04820492100015], [-69.15206430799998, 8.04740389300008], [-69.15302234699993, 8.046707877000074], [-69.15441540099988, 8.046248861000095], [-69.1549564149999, 8.04570684700019], [-69.15664548599995, 8.045481828000163], [-69.16012163599999, 8.044689791000053], [-69.16138868099989, 8.044871787000034], [-69.16309576299994, 8.044923787000073], [-69.16377579299996, 8.045692804], [-69.16591388099994, 8.04621080000004], [-69.16634890699999, 8.046424800000182], [-69.16781496499988, 8.047046814000112], [-69.1696220479999, 8.048017826000034], [-69.17040307699995, 8.048237831], [-69.17080610499983, 8.04900284100006], [-69.1708811069999, 8.050014859000157], [-69.17120912799993, 8.051053885000101], [-69.17224618399996, 8.052494907000153], [-69.17306421699988, 8.05322092700004], [-69.17440328399994, 8.054574950000074], [-69.17623135899998, 8.055684967000161], [-69.17807144399995, 8.056082962000119], [-69.18086455699995, 8.056129954000085], [-69.18192360299997, 8.056284954000148], [-69.1836036769999, 8.056588950000048], [-69.18376268299983, 8.056705949000047], [-69.18596078899998, 8.057776965000016], [-69.18672481699997, 8.059029990000056], [-69.1895119539999, 8.060730013000125], [-69.19193133699997, 8.061283159000084], [-69.19211005599993, 8.061324019999972], [-69.1944081559999, 8.06198201400008], [-69.19646925099994, 8.062912026000106], [-69.19893135799998, 8.063390027000139], [-69.20147446699997, 8.063202017000037], [-69.20524662899999, 8.06402201100019], [-69.20557763499994, 8.063591002000123], [-69.20846677099996, 8.066074046000097], [-69.21000884099993, 8.066398039000148], [-69.21053385999994, 8.066728044000172], [-69.21346298999998, 8.066869035000025], [-69.21462303499999, 8.066589031000149], [-69.21652511699995, 8.066024010000035], [-69.21854419999994, 8.065413983000099], [-69.22072828399985, 8.06464595600005], [-69.22343639299999, 8.06420793600006], [-69.22703054899995, 8.063325895000162], [-69.22842560099997, 8.062774879000017], [-69.23242676999985, 8.0623358470001], [-69.23374781899997, 8.062035832999982], [-69.23765998099992, 8.060101768000095], [-69.24143813099982, 8.059244738000075], [-69.24366822699994, 8.058431705000032], [-69.24595731199997, 8.058193687000085], [-69.24694935399992, 8.058279687000095], [-69.24802340899998, 8.05891669700003], [-69.24829642499998, 8.059128699000155], [-69.24925246799995, 8.061279747000128], [-69.25011550899995, 8.062121761000185], [-69.25161257799994, 8.06368478200011], [-69.25257461999996, 8.064159787000051], [-69.25378968099994, 8.064616792000095], [-69.25658079599987, 8.064776786000039], [-69.25747382999992, 8.063849764000054], [-69.25999893199997, 8.06198470600009], [-69.26136297299996, 8.06056066500014], [-69.26438609699989, 8.059277621000035], [-69.26675919899986, 8.058191589000046], [-69.26787523999991, 8.057750572000089], [-69.2696613139999, 8.057228561000159], [-69.27209440899998, 8.056716527000049], [-69.27396748499996, 8.056563523000023], [-69.2759795689999, 8.05636751000003], [-69.2783316739999, 8.056520494000097], [-69.27893470299989, 8.056369494000023], [-69.27991974599996, 8.056799492000096], [-69.28112778999997, 8.056336479000038], [-69.28204082199994, 8.05563945800003], [-69.28281685399992, 8.05475643800014], [-69.28318786699998, 8.054670431000034], [-69.28459592999997, 8.054716425000095], [-69.28603899199999, 8.05402841200015], [-69.28822107799988, 8.053282381000145], [-69.29155321799988, 8.052832355000021], [-69.29407631799995, 8.052482338000118], [-69.2962024119999, 8.052356317999966], [-69.30078859799994, 8.051443279000182], [-69.30166963199991, 8.051228268000102], [-69.30231565899999, 8.051262263000126], [-69.30321969399989, 8.0510472630001], [-69.30591781299995, 8.05125225300003], [-69.30702086199994, 8.051499254000134], [-69.30960896699992, 8.051404238000089], [-69.31185706299993, 8.050843213000121], [-69.31345012399993, 8.050892209000096], [-69.31542521099993, 8.05147621400016], [-69.31757730299995, 8.052567227000111], [-69.31930538799992, 8.052756222000028], [-69.3220255029999, 8.05298421200007], [-69.32400158299998, 8.053567212000132], [-69.32707471099997, 8.053411198000049], [-69.32792674999996, 8.053517196000087], [-69.33269494299986, 8.052767156000016], [-69.33345998099992, 8.052619147000144], [-69.33565207499993, 8.052677140000071], [-69.33758815199997, 8.051468103000104], [-69.33949122699988, 8.050902078000092], [-69.34183532799995, 8.051537083000142], [-69.34312137699993, 8.051949093000133], [-69.34330039299994, 8.05227309300011], [-69.3459945109999, 8.054040118000046], [-69.34866763199994, 8.054382116000056], [-69.35067271799983, 8.05455210600013], [-69.3539918539999, 8.05488110500005], [-69.35661696299996, 8.055268098], [-69.36330823999998, 8.054113045000122], [-69.36453629399989, 8.05385802700016], [-69.36689538499996, 8.053620008999985], [-69.36774942299985, 8.05365700600015], [-69.36932948499992, 8.053015986000048], [-69.37115356199996, 8.051644944000088], [-69.37174258599993, 8.05094192900009], [-69.37283562699997, 8.050431912000079], [-69.3737656649999, 8.050055900000075], [-69.37511171299997, 8.04964088600019], [-69.37720980599994, 8.049789874000055], [-69.37852786399992, 8.049673874000064], [-69.3819210019999, 8.049704851000058], [-69.38400709599995, 8.05058886300003], [-69.38547316599994, 8.051278872000182], [-69.38656520799998, 8.052237884000135], [-69.38627720099993, 8.05289890600011], [-69.38817128599999, 8.054192924000063], [-69.38937634599995, 8.055314947000056], [-69.38970535999988, 8.05635396100007], [-69.3919244679999, 8.057537979000188], [-69.39248949399996, 8.058304999000029], [-69.39373454899993, 8.059772023999983], [-69.39627566599995, 8.06105403600003], [-69.39778072699988, 8.062157054000181], [-69.39891178299996, 8.063531086000182], [-69.40132089099995, 8.064442093000139], [-69.40307097199997, 8.064746088000163], [-69.40504005199995, 8.06569609700017], [-69.40728214299997, 8.065572087000021], [-69.40947423699998, 8.065630079000186], [-69.41067128599991, 8.065833078000026], [-69.41267838099998, 8.065911068000105], [-69.41334140299995, 8.066289071000028], [-69.41524348499996, 8.065769058000058], [-69.41598252599982, 8.067113078999967]]]}}]}