{
  "type": "FeatureCollection",
  "features": [
    {
      "type": "Feature",
      "properties": {
        "Pais": "Venezuela",
        "Estado": "Mérida",
        "Municipio": "Padre Noguera"
      },
      "geometry": {
        "type": "Polygon",
        "coordinates": [
          [
            [
              -71.436786,
              7.907674000000156
            ],
            [
              -71.439022,
              7.907935
            ],
            [
              -71.44206899999989,
              7.907488
            ],
            [
              -71.44464,
              7.905157
            ],
            [
              -71.446294,
              7.901445
            ],
            [
              -71.44763,
              7.896837000000176
            ],
            [
              -71.448226,
              7.892433
            ],
            [
              -71.447824,
              7.889516000000185
            ],
            [
              -71.448758,
              7.886903000000132
            ],
            [
              -71.451449,
              7.883425000000159
            ],
            [
              -71.45427599999988,
              7.880705
            ],
            [
              -71.458838,
              7.876522
            ],
            [
              -71.462812,
              7.870110000000182
            ],
            [
              -71.46581099999986,
              7.864613
            ],
            [
              -71.467902,
              7.861316000000159
            ],
            [
              -71.47126999999989,
              7.855797
            ],
            [
              -71.474626,
              7.853308000000141
            ],
            [
              -71.480455,
              7.854616
            ],
            [
              -71.48284799999988,
              7.855749000000117
            ],
            [
              -71.486234,
              7.85684
            ],
            [
              -71.48846399999985,
              7.858547
            ],
            [
              -71.489996,
              7.861674000000107
            ],
            [
              -71.490933,
              7.863537
            ],
            [
              -71.492413,
              7.867811000000188
            ],
            [
              -71.492533,
              7.872057000000154
            ],
            [
              -71.49283799999989,
              7.876212
            ],
            [
              -71.495014,
              7.879571000000112
            ],
            [
              -71.49826658099994,
              7.882762704000072
            ],
            [
              -71.50024999999988,
              7.884709000000157
            ],
            [
              -71.50226736499991,
              7.885456053999974
            ],
            [
              -71.504036,
              7.886111
            ],
            [
              -71.50684334599998,
              7.888315772000169
            ],
            [
              -71.50857424499998,
              7.889392961000055
            ],
            [
              -71.50979635699991,
              7.889738865000027
            ],
            [
              -71.50985839499998,
              7.889659159000018
            ],
            [
              -71.51157245199994,
              7.887389105000125
            ],
            [
              -71.51102341699993,
              7.884634049000113
            ],
            [
              -71.51027437899995,
              7.882290004000026
            ],
            [
              -71.51055237299994,
              7.880035956000029
            ],
            [
              -71.51103938499989,
              7.878086916000086
            ],
            [
              -71.51008733899994,
              7.875847868999983
            ],
            [
              -71.51011334299994,
              7.875772873000187
            ],
            [
              -71.51034034199989,
              7.875109854000129
            ],
            [
              -71.5103523439999,
              7.874873846000128
            ],
            [
              -71.51044934799995,
              7.874794841000096
            ],
            [
              -71.51058135399995,
              7.874409834000119
            ],
            [
              -71.51190540299996,
              7.873677821000058
            ],
            [
              -71.51374947999994,
              7.873553800000025
            ],
            [
              -71.5150745229999,
              7.872924785000066
            ],
            [
              -71.5170045999999,
              7.871469750000074
            ],
            [
              -71.51860865499992,
              7.868688680000162
            ],
            [
              -71.5185806419999,
              7.866540635000149
            ],
            [
              -71.51854261999989,
              7.863677577000033
            ],
            [
              -71.51892762499995,
              7.861729531000151
            ],
            [
              -71.51725855399997,
              7.859600498000134
            ],
            [
              -71.51620450199988,
              7.857465454000021
            ],
            [
              -71.51638048999996,
              7.855213405000143
            ],
            [
              -71.51758353399993,
              7.853153358000156
            ],
            [
              -71.51642947499994,
              7.851120320000121
            ],
            [
              -71.5172375059999,
              7.850190307
            ],
            [
              -71.51906856999989,
              7.84904327300012
            ],
            [
              -71.51966259199992,
              7.847400235000066
            ],
            [
              -71.51893055399984,
              7.846386211000038
            ],
            [
              -71.51788150599998,
              7.844557181000027
            ],
            [
              -71.51598841399993,
              7.842619150000189
            ],
            [
              -71.51366531599984,
              7.841603136000117
            ],
            [
              -71.51425133499993,
              7.84072612600005
            ],
            [
              -71.51413067599998,
              7.840744540000173
            ],
            [
              -71.51325529899992,
              7.840878132
            ],
            [
              -71.51295328499998,
              7.840344117000143
            ],
            [
              -71.51418831099994,
              7.837020046000021
            ],
            [
              -71.51411630199993,
              7.833858980000116
            ],
            [
              -71.51427429299997,
              7.83186493400018
            ],
            [
              -71.51505231899995,
              7.830282902000022
            ],
            [
              -71.51656437499997,
              7.828263851000031
            ],
            [
              -71.51865044299984,
              7.82686280900009
            ],
            [
              -71.51944946299994,
              7.823493733000021
            ],
            [
              -71.52107652399985,
              7.821955698000068
            ],
            [
              -71.52279558699996,
              7.82021064900016
            ],
            [
              -71.52318359599991,
              7.818445611000129
            ],
            [
              -71.52315758099991,
              7.81629257600008
            ],
            [
              -71.52264210899989,
              7.814551308000091
            ],
            [
              -71.52239853799989,
              7.813728523000123
            ],
            [
              -71.52283154199995,
              7.811642476000088
            ],
            [
              -71.52301153399998,
              7.808572416000118
            ],
            [
              -71.52041742499995,
              7.80617237600012
            ],
            [
              -71.51902392399984,
              7.804751299000031
            ],
            [
              -71.51759229099997,
              7.803291334000107
            ],
            [
              -71.51720026499993,
              7.801069289000054
            ],
            [
              -71.51625821799996,
              7.79997127200005
            ],
            [
              -71.51444412999996,
              7.797569229000146
            ],
            [
              -71.5159311779999,
              7.793809136000164
            ],
            [
              -71.5194133039999,
              7.790046042000029
            ],
            [
              -71.52239241299992,
              7.787061973000107
            ],
            [
              -71.52367143599997,
              7.782591870000033
            ],
            [
              -71.52410343899999,
              7.778879792
            ],
            [
              -71.5244424259999,
              7.773495684000068
            ],
            [
              -71.52466741099994,
              7.76971560100003
            ],
            [
              -71.52647647299989,
              7.767076540000062
            ],
            [
              -71.52874355699998,
              7.763911466000025
            ],
            [
              -71.52940757299996,
              7.762054414000033
            ],
            [
              -71.53153664199988,
              7.759072348000188
            ],
            [
              -71.53279568999994,
              7.75661829600017
            ],
            [
              -71.53361870899994,
              7.754417247000049
            ],
            [
              -71.53396171399999,
              7.753225213000178
            ],
            [
              -71.53274466199991,
              7.751510191000023
            ],
            [
              -71.52836146199996,
              7.748860150000041
            ],
            [
              -71.52485031299989,
              7.747080136000022
            ],
            [
              -71.52048812099991,
              7.743240074000084
            ],
            [
              -71.51832800999989,
              7.738821994000148
            ],
            [
              -71.51575488299989,
              7.734863919000077
            ],
            [
              -71.5137347939999,
              7.732278882000173
            ],
            [
              -71.51292874299992,
              7.729324821000091
            ],
            [
              -71.51331474599988,
              7.725933752000117
            ],
            [
              -71.51473378799994,
              7.722631675000173
            ],
            [
              -71.51475377199995,
              7.719791617
            ],
            [
              -71.51220767199993,
              7.719474618000163
            ],
            [
              -71.50950055399994,
              7.718632614000114
            ],
            [
              -71.50821348999995,
              7.715633560000128
            ],
            [
              -71.50768244899996,
              7.712014493000083
            ],
            [
              -71.50662640299998,
              7.710779469000045
            ],
            [
              -71.50469931799995,
              7.7098214560001
            ],
            [
              -71.5023542209999,
              7.710567487000105
            ],
            [
              -71.50004798299994,
              7.709672791000173
            ],
            [
              -71.49954710599991,
              7.709478478000165
            ],
            [
              -71.49806202199994,
              7.706282416000022
            ],
            [
              -71.49799200399985,
              7.701370315000133
            ],
            [
              -71.49787496799996,
              7.696757228000081
            ],
            [
              -71.49673088999998,
              7.689638080000066
            ],
            [
              -71.49546082299986,
              7.685111996000046
            ],
            [
              -71.49378830999996,
              7.680414570000039
            ],
            [
              -71.49302078999995,
              7.678258912000047
            ],
            [
              -71.49295668299987,
              7.678078860000085
            ],
            [
              -71.49260764499996,
              7.673693776000164
            ],
            [
              -71.49263557099994,
              7.672933106000073
            ],
            [
              -71.49286962799994,
              7.666557629000067
            ],
            [
              -71.49254459599996,
              7.662249539000129
            ],
            [
              -71.4910615259999,
              7.662028544000066
            ],
            [
              -71.48729538399988,
              7.662688576000107
            ],
            [
              -71.48455326899995,
              7.663311601999965
            ],
            [
              -71.4848472949999,
              7.665140635000057
            ],
            [
              -71.48578434299998,
              7.666840664000119
            ],
            [
              -71.48538033199998,
              7.668409699
            ],
            [
              -71.48454230399989,
              7.670079735000172
            ],
            [
              -71.48285623199985,
              7.668900718000032
            ],
            [
              -71.48127215699998,
              7.668154718000153
            ],
            [
              -71.47964409199989,
              7.667455712000049
            ],
            [
              -71.47886305499992,
              7.667586716000017
            ],
            [
              -71.47765500899999,
              7.667176717000132
            ],
            [
              -71.47786102499998,
              7.668136725000181
            ],
            [
              -71.47793802699988,
              7.669534764000105
            ],
            [
              -71.47701599899995,
              7.670563790000188
            ],
            [
              -71.47677099399993,
              7.672014820000129
            ],
            [
              -71.47688000999989,
              7.673801850000018
            ],
            [
              -71.47679901199996,
              7.675340883000104
            ],
            [
              -71.47602298799995,
              7.677766943000108
            ],
            [
              -71.47483312699984,
              7.678734255
            ],
            [
              -71.47457393399998,
              7.678944969000042
            ],
            [
              -71.47233785299994,
              7.678947983000114
            ],
            [
              -71.47113336899997,
              7.678438589000052
            ],
            [
              -71.46975574099991,
              7.677855969000177
            ],
            [
              -71.46787965699997,
              7.676404949000016
            ],
            [
              -71.46605857399999,
              7.675365932000147
            ],
            [
              -71.46359647299994,
              7.675533945000097
            ],
            [
              -71.46175940699999,
              7.677937010000051
            ],
            [
              -71.46059437299988,
              7.680532066000183
            ],
            [
              -71.45994636199998,
              7.683528137
            ],
            [
              -71.45978736699982,
              7.685734173000128
            ],
            [
              -71.4596123689999,
              7.687184210000112
            ],
            [
              -71.45617223699992,
              7.689024258000074
            ],
            [
              -71.45452517399997,
              7.689565283000036
            ],
            [
              -71.45215007799993,
              7.690602309000042
            ],
            [
              -71.44921795899995,
              7.69036732
            ],
            [
              -71.44639185199998,
              7.691828366000095
            ],
            [
              -71.44360373899997,
              7.692897405
            ],
            [
              -71.44263071599994,
              7.695809472000178
            ],
            [
              -71.4429287399999,
              7.697822506000136
            ],
            [
              -71.4437187769999,
              7.700214549000066
            ],
            [
              -71.4450618439999,
              7.702617598000018
            ],
            [
              -71.4467029249999,
              7.704899638000029
            ],
            [
              -71.44773098199994,
              7.706575661000045
            ],
            [
              -71.44923505299988,
              7.708929706000049
            ],
            [
              -71.45036609999994,
              7.711061746000041
            ],
            [
              -71.45145915999996,
              7.712575774000072
            ],
            [
              -71.45310623799998,
              7.715132810999989
            ],
            [
              -71.45439529699996,
              7.717124850000062
            ],
            [
              -71.45637038599989,
              7.718871879000119
            ],
            [
              -71.45823446499992,
              7.719817890000172
            ],
            [
              -71.45943252199993,
              7.720801899000094
            ],
            [
              -71.4599215479999,
              7.722098925000125
            ],
            [
              -71.46152461299994,
              7.722637936000069
            ],
            [
              -71.46323367999986,
              7.722784927000077
            ],
            [
              -71.46452474499984,
              7.72383593700016
            ],
            [
              -71.46546078699993,
              7.72551296600011
            ],
            [
              -71.46533779899994,
              7.727260005000119
            ],
            [
              -71.46482978599994,
              7.729313048000108
            ],
            [
              -71.46462978099999,
              7.731726109000022
            ],
            [
              -71.46467479799998,
              7.733767146000048
            ],
            [
              -71.46450480299995,
              7.735469179000063
            ],
            [
              -71.46416779599997,
              7.736899208000182
            ],
            [
              -71.46392278999986,
              7.73835023800018
            ],
            [
              -71.46361178799998,
              7.739916280000045
            ],
            [
              -71.4634617889999,
              7.741480311999965
            ],
            [
              -71.4635917949999,
              7.743175342000086
            ],
            [
              -71.46452084699996,
              7.74453236800008
            ],
            [
              -71.4656248899999,
              7.745449387
            ],
            [
              -71.46607191299995,
              7.746884414000021
            ],
            [
              -71.46510488899997,
              7.747984439000163
            ],
            [
              -71.46538689699992,
              7.749285462999978
            ],
            [
              -71.46656595099995,
              7.750499485000091
            ],
            [
              -71.46739999199997,
              7.750687478000089
            ],
            [
              -71.46856203699991,
              7.751098483000078
            ],
            [
              -71.46892205499995,
              7.751756496999974
            ],
            [
              -71.46806503099992,
              7.752577517000077
            ],
            [
              -71.46682897399995,
              7.752971528000046
            ],
            [
              -71.46525191799998,
              7.753602554000054
            ],
            [
              -71.46383186199995,
              7.755055588
            ],
            [
              -71.46374186399999,
              7.756204613000136
            ],
            [
              -71.46347986599989,
              7.757931644000109
            ],
            [
              -71.46315084899993,
              7.758672663000084
            ],
            [
              -71.46233682199988,
              7.759401682000089
            ],
            [
              -71.46064376299995,
              7.76099872500015
            ],
            [
              -71.45930371999992,
              7.76297777000002
            ],
            [
              -71.45914771299994,
              7.764265800000032
            ],
            [
              -71.46012375999993,
              7.765621820000149
            ],
            [
              -71.46192284699993,
              7.766729837000071
            ],
            [
              -71.46303589199994,
              7.768059865000168
            ],
            [
              -71.46363091899997,
              7.768918872000086
            ],
            [
              -71.46310490399986,
              7.770145909000064
            ],
            [
              -71.46235888399997,
              7.770804921999968
            ],
            [
              -71.46124884199986,
              7.771677950000083
            ],
            [
              -71.46095583599993,
              7.773014973000159
            ],
            [
              -71.4605968219999,
              7.774537003000148
            ],
            [
              -71.46008881599988,
              7.775511027000107
            ],
            [
              -71.45865376599988,
              7.77735507500006
            ],
            [
              -71.45774872999988,
              7.778132093000067
            ],
            [
              -71.45652868799993,
              7.779259128000149
            ],
            [
              -71.45552265399994,
              7.780658154000093
            ],
            [
              -71.45465662099991,
              7.782168195000054
            ],
            [
              -71.45397359999998,
              7.783605226000191
            ],
            [
              -71.45263355199995,
              7.784506258000135
            ],
            [
              -71.45106648599989,
              7.784540263000054
            ],
            [
              -71.44962943299998,
              7.785236280000163
            ],
            [
              -71.44743135499994,
              7.786982324
            ],
            [
              -71.44537028099995,
              7.789665388000174
            ],
            [
              -71.44291318799992,
              7.79114043400017
            ],
            [
              -71.44087811399987,
              7.792951480999989
            ],
            [
              -71.43943005399996,
              7.794198520000066
            ],
            [
              -71.43761298099997,
              7.793342510000116
            ],
            [
              -71.43574189899988,
              7.792167492000033
            ],
            [
              -71.43374481299992,
              7.792531506000159
            ],
            [
              -71.43210176499997,
              7.794356552000181
            ],
            [
              -71.43073071399994,
              7.795969593000166
            ],
            [
              -71.42980067299999,
              7.795622598000136
            ],
            [
              -71.42853061599999,
              7.79553460000011
            ],
            [
              -71.42750458499984,
              7.797071628000083
            ],
            [
              -71.42593852899995,
              7.798183658000085
            ],
            [
              -71.42255539399997,
              7.799518709000154
            ],
            [
              -71.42089132799993,
              7.800379737000185
            ],
            [
              -71.41877025899993,
              7.802490791000025
            ],
            [
              -71.41695718299997,
              7.803906826000059
            ],
            [
              -71.41557113399995,
              7.804853858000058
            ],
            [
              -71.41297403899989,
              7.806263889000149
            ],
            [
              -71.41045093799994,
              7.80787893500019
            ],
            [
              -71.40732582399994,
              7.809413986000095
            ],
            [
              -71.40486373299996,
              7.811739042000113
            ],
            [
              -71.40239464099994,
              7.813765098000033
            ],
            [
              -71.40106559299994,
              7.815170133000038
            ],
            [
              -71.40025556799998,
              7.81713817800005
            ],
            [
              -71.39869650999992,
              7.817516191000152
            ],
            [
              -71.39682143999994,
              7.818221222000147
            ],
            [
              -71.39490136399996,
              7.819020251000097
            ],
            [
              -71.39296428299991,
              7.820048277000069
            ],
            [
              -71.39035018499999,
              7.821756328000049
            ],
            [
              -71.38794609599995,
              7.823552371000062
            ],
            [
              -71.38567501899996,
              7.825138420000144
            ],
            [
              -71.38418696599996,
              7.826684459999967
            ],
            [
              -71.38401396699993,
              7.828248492000057
            ],
            [
              -71.38441898599996,
              7.829869519000169
            ],
            [
              -71.38378396999991,
              7.832475582000029
            ],
            [
              -71.3827749479999,
              7.834814633000065
            ],
            [
              -71.38238293099982,
              7.836911678000092
            ],
            [
              -71.38162890899997,
              7.838258708000183
            ],
            [
              -71.38013584799995,
              7.838542722000057
            ],
            [
              -71.3782287819999,
              7.839891755000053
            ],
            [
              -71.37700674199988,
              7.840950783000096
            ],
            [
              -71.37638971799998,
              7.842248821
            ],
            [
              -71.37601970799994,
              7.844321860000036
            ],
            [
              -71.37473167199994,
              7.845899898000027
            ],
            [
              -71.37555870199998,
              7.846459913999979
            ],
            [
              -71.37494268099988,
              7.84720692999997
            ],
            [
              -71.37491061299988,
              7.847231984000132
            ],
            [
              -71.375449,
              7.848241
            ],
            [
              -71.37497799999989,
              7.850327
            ],
            [
              -71.37382436199994,
              7.85309855600002
            ],
            [
              -71.373671,
              7.853467000000137
            ],
            [
              -71.372761,
              7.855736000000149
            ],
            [
              -71.37360720699996,
              7.857339747000026
            ],
            [
              -71.373744,
              7.857599000000107
            ],
            [
              -71.376986,
              7.859885
            ],
            [
              -71.379193,
              7.861317
            ],
            [
              -71.382457,
              7.863854000000174
            ],
            [
              -71.3839,
              7.865880000000118
            ],
            [
              -71.385668,
              7.867654000000186
            ],
            [
              -71.387576,
              7.868970000000161
            ],
            [
              -71.389235,
              7.86950400000012
            ],
            [
              -71.391521,
              7.869031
            ],
            [
              -71.394162,
              7.866609
            ],
            [
              -71.39729099999988,
              7.863178
            ],
            [
              -71.399725,
              7.860618000000102
            ],
            [
              -71.401575,
              7.859637000000134
            ],
            [
              -71.403649,
              7.859920000000102
            ],
            [
              -71.40575599999988,
              7.86312
            ],
            [
              -71.409165,
              7.869262000000163
            ],
            [
              -71.411285,
              7.87464000000017
            ],
            [
              -71.411153,
              7.878289000000109
            ],
            [
              -71.411318,
              7.88272
            ],
            [
              -71.411394,
              7.886369
            ],
            [
              -71.411858,
              7.890709000000129
            ],
            [
              -71.411846,
              7.893302
            ],
            [
              -71.41178899999989,
              7.895781
            ],
            [
              -71.413584,
              7.896614
            ],
            [
              -71.41482599999983,
              7.897422
            ],
            [
              -71.41798,
              7.898835000000133
            ],
            [
              -71.421754,
              7.900754
            ],
            [
              -71.4261259999999,
              7.903181000000188
            ],
            [
              -71.43089,
              7.905517
            ],
            [
              -71.43434,
              7.907803000000172
            ],
            [
              -71.43540199999984,
              7.9076
            ],
            [
              -71.436786,
              7.907674000000156
            ]
          ]
        ]
      }
    }
  ]
}