{
  "type": "FeatureCollection",
  "features": [
    {
      "type": "Feature",
      "properties": {
        "Pais": "Venezuela",
        "Estado": "Trujillo",
        "Municipio": "Pampanito"
      },
      "geometry": {
        "type": "Polygon",
        "coordinates": [
          [
            [
              -70.55132,
              9.499646
            ],
            [
              -70.554051,
              9.50015
            ],
            [
              -70.557014,
              9.499576000000161
            ],
            [
              -70.558611,
              9.499690000000157
            ],
            [
              -70.559814,
              9.499024000000134
            ],
            [
              -70.562475,
              9.498152000000118
            ],
            [
              -70.563632,
              9.498014
            ],
            [
              -70.56594699999988,
              9.49854
            ],
            [
              -70.567961,
              9.498631000000103
            ],
            [
              -70.570368,
              9.498378000000116
            ],
            [
              -70.572798,
              9.49895
            ],
            [
              -70.572705,
              9.498704
            ],
            [
              -70.572172,
              9.49730000000011
            ],
            [
              -70.5723569999999,
              9.495213
            ],
            [
              -70.57182299999988,
              9.492554
            ],
            [
              -70.57048,
              9.490238
            ],
            [
              -70.569739,
              9.48785400000014
            ],
            [
              -70.57036299999987,
              9.486341
            ],
            [
              -70.570524,
              9.484093
            ],
            [
              -70.57015299999989,
              9.481915
            ],
            [
              -70.56989799999985,
              9.480035000000157
            ],
            [
              -70.569295,
              9.476573
            ],
            [
              -70.569248,
              9.474670000000174
            ],
            [
              -70.568784,
              9.472354
            ],
            [
              -70.569431,
              9.47052
            ],
            [
              -70.56873599999989,
              9.468984
            ],
            [
              -70.567324,
              9.467563
            ],
            [
              -70.567139,
              9.466692
            ],
            [
              -70.56665199999986,
              9.464881
            ],
            [
              -70.566073,
              9.463551000000166
            ],
            [
              -70.56549399999989,
              9.46176300000019
            ],
            [
              -70.56519199999985,
              9.459767
            ],
            [
              -70.56502899999987,
              9.45768
            ],
            [
              -70.56514999999985,
              9.455807000000163
            ],
            [
              -70.564664,
              9.455833000000155
            ],
            [
              -70.563778,
              9.453806000000156
            ],
            [
              -70.562829,
              9.451972
            ],
            [
              -70.561949,
              9.450849
            ],
            [
              -70.561694,
              9.45000000000016
            ],
            [
              -70.5605369999999,
              9.449428
            ],
            [
              -70.55907899999988,
              9.448213000000123
            ],
            [
              -70.558824,
              9.447181000000171
            ],
            [
              -70.557088,
              9.446219000000156
            ],
            [
              -70.557457,
              9.44433800000013
            ],
            [
              -70.555998,
              9.443468
            ],
            [
              -70.555928,
              9.442046
            ],
            [
              -70.555766,
              9.44069300000018
            ],
            [
              -70.555673,
              9.43973
            ],
            [
              -70.555002,
              9.43819400000018
            ],
            [
              -70.55349699999988,
              9.436934000000178
            ],
            [
              -70.552085,
              9.435237
            ],
            [
              -70.551298,
              9.434481
            ],
            [
              -70.55021,
              9.432486
            ],
            [
              -70.5491219999999,
              9.431845000000123
            ],
            [
              -70.547594,
              9.430767
            ],
            [
              -70.54757099999983,
              9.428841
            ],
            [
              -70.547292,
              9.426755000000128
            ],
            [
              -70.54678299999989,
              9.425884
            ],
            [
              -70.546458,
              9.423637
            ],
            [
              -70.545371,
              9.422422
            ],
            [
              -70.54412,
              9.420336000000134
            ],
            [
              -70.544212,
              9.4186160000001
            ],
            [
              -70.543633,
              9.415337
            ],
            [
              -70.544859,
              9.41348
            ],
            [
              -70.54478899999987,
              9.411851000000127
            ],
            [
              -70.5444179999999,
              9.410475000000133
            ],
            [
              -70.544163,
              9.408985000000143
            ],
            [
              -70.5443709999999,
              9.407494
            ],
            [
              -70.543561,
              9.406417
            ],
            [
              -70.54302899999988,
              9.406165
            ],
            [
              -70.541987,
              9.404743000000167
            ],
            [
              -70.5410849999999,
              9.403368
            ],
            [
              -70.540899,
              9.401557000000139
            ],
            [
              -70.539903,
              9.399012
            ],
            [
              -70.538885,
              9.398691000000156
            ],
            [
              -70.538352,
              9.397797
            ],
            [
              -70.53907,
              9.396581
            ],
            [
              -70.53811999999988,
              9.395366
            ],
            [
              -70.536963,
              9.394862
            ],
            [
              -70.537726,
              9.393349000000114
            ],
            [
              -70.53916,
              9.392592
            ],
            [
              -70.53953,
              9.391491
            ],
            [
              -70.53920599999987,
              9.390826
            ],
            [
              -70.539368,
              9.389381
            ],
            [
              -70.53978399999988,
              9.387226000000112
            ],
            [
              -70.538858,
              9.385919000000172
            ],
            [
              -70.53774699999985,
              9.385255
            ],
            [
              -70.538487,
              9.38397
            ],
            [
              -70.540292,
              9.383465000000172
            ],
            [
              -70.540361,
              9.382801
            ],
            [
              -70.54008299999987,
              9.382204
            ],
            [
              -70.540129,
              9.379866000000106
            ],
            [
              -70.540198,
              9.378398000000118
            ],
            [
              -70.540105,
              9.377298
            ],
            [
              -70.540429,
              9.376541000000145
            ],
            [
              -70.540637,
              9.375417
            ],
            [
              -70.541678,
              9.374293000000137
            ],
            [
              -70.541214,
              9.372528000000102
            ],
            [
              -70.53982599999989,
              9.370969
            ],
            [
              -70.542301,
              9.370303
            ],
            [
              -70.54179199999987,
              9.368538000000171
            ],
            [
              -70.542254,
              9.367757
            ],
            [
              -70.543065,
              9.366863000000137
            ],
            [
              -70.543944,
              9.365281
            ],
            [
              -70.54491499999989,
              9.364845000000173
            ],
            [
              -70.544753,
              9.36418
            ],
            [
              -70.54495,
              9.363811
            ],
            [
              -70.54448999999988,
              9.362791
            ],
            [
              -70.514494,
              9.373952000000145
            ],
            [
              -70.50446999999986,
              9.372006
            ],
            [
              -70.462551,
              9.363139
            ],
            [
              -70.452031,
              9.386958000000163
            ],
            [
              -70.45190899999989,
              9.387235000000146
            ],
            [
              -70.484945,
              9.413082
            ],
            [
              -70.484336,
              9.413022000000183
            ],
            [
              -70.482947,
              9.412858000000142
            ],
            [
              -70.480855,
              9.414311000000112
            ],
            [
              -70.478336,
              9.415044
            ],
            [
              -70.477285,
              9.415392000000168
            ],
            [
              -70.47574,
              9.414857000000154
            ],
            [
              -70.474244,
              9.415472
            ],
            [
              -70.473343,
              9.416534000000183
            ],
            [
              -70.47268599999984,
              9.416935000000137
            ],
            [
              -70.471547,
              9.417051000000129
            ],
            [
              -70.470207,
              9.417967
            ],
            [
              -70.468764,
              9.416975
            ],
            [
              -70.467951,
              9.418246
            ],
            [
              -70.467112,
              9.4197
            ],
            [
              -70.465711,
              9.42015600000019
            ],
            [
              -70.462046,
              9.420063000000141
            ],
            [
              -70.460263,
              9.419868000000179
            ],
            [
              -70.458979,
              9.420303000000104
            ],
            [
              -70.457411,
              9.421031
            ],
            [
              -70.455087,
              9.420997000000114
            ],
            [
              -70.452958,
              9.420506
            ],
            [
              -70.45181999999988,
              9.422100000000114
            ],
            [
              -70.4517479999999,
              9.4230510000001
            ],
            [
              -70.451683,
              9.424142000000131
            ],
            [
              -70.451494,
              9.424775
            ],
            [
              -70.451233,
              9.425153
            ],
            [
              -70.451094,
              9.425569
            ],
            [
              -70.451142,
              9.426066000000162
            ],
            [
              -70.451215,
              9.426677
            ],
            [
              -70.45113,
              9.427437
            ],
            [
              -70.450972,
              9.427968000000135
            ],
            [
              -70.450935,
              9.428223000000116
            ],
            [
              -70.451046,
              9.428675
            ],
            [
              -70.451446,
              9.429296
            ],
            [
              -70.451717,
              9.429814
            ],
            [
              -70.451725,
              9.430141000000162
            ],
            [
              -70.45186799999988,
              9.430776
            ],
            [
              -70.45215999999988,
              9.431737
            ],
            [
              -70.452533,
              9.432287
            ],
            [
              -70.455205,
              9.435327
            ],
            [
              -70.459502,
              9.435918000000129
            ],
            [
              -70.4611149999999,
              9.436071
            ],
            [
              -70.46241,
              9.437186
            ],
            [
              -70.464832,
              9.438297000000148
            ],
            [
              -70.4686999999999,
              9.43812
            ],
            [
              -70.471761,
              9.437787
            ],
            [
              -70.474659,
              9.436814
            ],
            [
              -70.476585,
              9.434885000000122
            ],
            [
              -70.479481,
              9.433753
            ],
            [
              -70.48172999999986,
              9.431983000000173
            ],
            [
              -70.484294,
              9.430441
            ],
            [
              -70.487851,
              9.430677000000117
            ],
            [
              -70.490598,
              9.43226600000014
            ],
            [
              -70.4917339999999,
              9.434021
            ],
            [
              -70.492063,
              9.43562
            ],
            [
              -70.493359,
              9.437215000000151
            ],
            [
              -70.495832,
              9.438049
            ],
            [
              -70.508906,
              9.450956
            ],
            [
              -70.50849,
              9.452401
            ],
            [
              -70.508166,
              9.455060000000174
            ],
            [
              -70.508028,
              9.456574
            ],
            [
              -70.508028,
              9.456597000000158
            ],
            [
              -70.507612,
              9.457629
            ],
            [
              -70.507982,
              9.459784
            ],
            [
              -70.508631,
              9.461848
            ],
            [
              -70.50992699999989,
              9.4632
            ],
            [
              -70.511362,
              9.46563
            ],
            [
              -70.512404,
              9.46547
            ],
            [
              -70.512959,
              9.463933000000111
            ],
            [
              -70.5132129999999,
              9.462855000000104
            ],
            [
              -70.51312,
              9.46097500000019
            ],
            [
              -70.513004,
              9.459003
            ],
            [
              -70.51580399999989,
              9.458269
            ],
            [
              -70.518512,
              9.457489
            ],
            [
              -70.52078,
              9.457924000000162
            ],
            [
              -70.52300199999985,
              9.45907000000011
            ],
            [
              -70.523812,
              9.459712000000138
            ],
            [
              -70.525363,
              9.460651
            ],
            [
              -70.52654399999989,
              9.463426
            ],
            [
              -70.52749299999982,
              9.465581
            ],
            [
              -70.529275,
              9.467002
            ],
            [
              -70.530272,
              9.468492
            ],
            [
              -70.53207799999984,
              9.471266
            ],
            [
              -70.53268,
              9.474201000000107
            ],
            [
              -70.533699,
              9.476562
            ],
            [
              -70.534695,
              9.478832
            ],
            [
              -70.535922,
              9.48101
            ],
            [
              -70.536178,
              9.484105000000113
            ],
            [
              -70.536896,
              9.486054
            ],
            [
              -70.53724299999988,
              9.487796000000174
            ],
            [
              -70.537683,
              9.488897000000122
            ],
            [
              -70.539234,
              9.489951000000133
            ],
            [
              -70.540346,
              9.492358000000138
            ],
            [
              -70.541388,
              9.49400900000012
            ],
            [
              -70.544004,
              9.495453
            ],
            [
              -70.545694,
              9.496163
            ],
            [
              -70.54687399999989,
              9.497492
            ],
            [
              -70.548749,
              9.497102
            ],
            [
              -70.55011599999989,
              9.498179
            ],
            [
              -70.55132,
              9.499646
            ]
          ]
        ]
      }
    }
  ]
}