{
  "type": "FeatureCollection",
  "features": [
    {
      "type": "Feature",
      "properties": {
        "Pais": "Venezuela",
        "Estado": "Táchira",
        "Municipio": "Panamericano",
        "Parroquia": "Coloncito"
      },
      "geometry": {
        "type": "Polygon",
        "coordinates": [
          [
            [
              -72.084739,
              8.416702
            ],
            [
              -72.085271,
              8.417826000000161
            ],
            [
              -72.084808,
              8.41872
            ],
            [
              -72.084716,
              8.420441000000153
            ],
            [
              -72.08472199399995,
              8.420566489000123
            ],
            [
              -72.0847619999999,
              8.421404
            ],
            [
              -72.084531,
              8.422115000000133
            ],
            [
              -72.084692,
              8.423515000000123
            ],
            [
              -72.08470539799993,
              8.423920366000118
            ],
            [
              -72.084739,
              8.424937
            ],
            [
              -72.08459741799987,
              8.425948026000185
            ],
            [
              -72.08450166399996,
              8.426631795000162
            ],
            [
              -72.08428190299998,
              8.42821723700007
            ],
            [
              -72.08467112599993,
              8.428195011000184
            ],
            [
              -72.08846749299988,
              8.42797822700004
            ],
            [
              -72.15834444699993,
              8.42398805
            ],
            [
              -72.15841565799997,
              8.42398548300008
            ],
            [
              -72.17258954699997,
              8.423474585000065
            ],
            [
              -72.17250290999993,
              8.422415831000023
            ],
            [
              -72.17249876699992,
              8.422388137000041
            ],
            [
              -72.17232,
              8.421193
            ],
            [
              -72.172363,
              8.41905800000012
            ],
            [
              -72.17233423199997,
              8.418482027000152
            ],
            [
              -72.172269,
              8.417176
            ],
            [
              -72.17175999999989,
              8.416328
            ],
            [
              -72.170169,
              8.416651000000115
            ],
            [
              -72.168737,
              8.4157340000001
            ],
            [
              -72.167122,
              8.415277000000117
            ],
            [
              -72.166152,
              8.41415300000017
            ],
            [
              -72.164492,
              8.415486000000158
            ],
            [
              -72.162461,
              8.414799000000187
            ],
            [
              -72.160154,
              8.414756000000182
            ],
            [
              -72.15985920799994,
              8.41396713000006
            ],
            [
              -72.1596909999999,
              8.413517000000127
            ],
            [
              -72.159735,
              8.411750000000154
            ],
            [
              -72.160219,
              8.410831000000144
            ],
            [
              -72.159547,
              8.408904
            ],
            [
              -72.15807,
              8.409273
            ],
            [
              -72.157744,
              8.406427
            ],
            [
              -72.15751099999989,
              8.404844
            ],
            [
              -72.15573199999989,
              8.405505000000176
            ],
            [
              -72.154307,
              8.406384
            ],
            [
              -72.152782,
              8.404825
            ],
            [
              -72.15445,
              8.404506
            ],
            [
              -72.152317,
              8.401911000000155
            ],
            [
              -72.153031,
              8.401061
            ],
            [
              -72.154414,
              8.400257
            ],
            [
              -72.154643,
              8.398351000000105
            ],
            [
              -72.154341,
              8.396676
            ],
            [
              -72.154731,
              8.395322000000135
            ],
            [
              -72.153691,
              8.393326
            ],
            [
              -72.153205,
              8.392087000000174
            ],
            [
              -72.151865,
              8.390184
            ],
            [
              -72.15043199999985,
              8.388395
            ],
            [
              -72.149508,
              8.387363000000107
            ],
            [
              -72.14833,
              8.38575800000018
            ],
            [
              -72.147336,
              8.384336000000133
            ],
            [
              -72.147173,
              8.383074000000136
            ],
            [
              -72.148971,
              8.382131000000129
            ],
            [
              -72.150608,
              8.381739
            ],
            [
              -72.150676,
              8.38027000000011
            ],
            [
              -72.150628,
              8.378687
            ],
            [
              -72.15030299999984,
              8.377448
            ],
            [
              -72.1493569999999,
              8.376714
            ],
            [
              -72.149586,
              8.375474000000168
            ],
            [
              -72.1495149999999,
              8.374326
            ],
            [
              -72.149997,
              8.372237
            ],
            [
              -72.152118,
              8.37111
            ],
            [
              -72.15372999999988,
              8.369548000000123
            ],
            [
              -72.153497,
              8.367529
            ],
            [
              -72.1517669999999,
              8.367530000000102
            ],
            [
              -72.152247,
              8.363881000000163
            ],
            [
              -72.152821,
              8.361654000000101
            ],
            [
              -72.151412,
              8.360646
            ],
            [
              -72.15081099999986,
              8.359499
            ],
            [
              -72.150163,
              8.357526000000178
            ],
            [
              -72.149744,
              8.354933000000187
            ],
            [
              -72.14877299999989,
              8.352937
            ],
            [
              -72.149371,
              8.351284
            ],
            [
              -72.149276,
              8.349356
            ],
            [
              -72.148492,
              8.349632
            ],
            [
              -72.147729,
              8.347843000000125
            ],
            [
              -72.14627499999989,
              8.347661000000187
            ],
            [
              -72.145004,
              8.345734
            ],
            [
              -72.143945,
              8.346516000000122
            ],
            [
              -72.14251399999984,
              8.346655
            ],
            [
              -72.14094299999988,
              8.344751
            ],
            [
              -72.13845,
              8.343446
            ],
            [
              -72.137459,
              8.343607000000134
            ],
            [
              -72.135888,
              8.341842
            ],
            [
              -72.134296,
              8.341545
            ],
            [
              -72.13194399999986,
              8.341685
            ],
            [
              -72.1305349999999,
              8.339621
            ],
            [
              -72.128966,
              8.339599000000135
            ],
            [
              -72.12901,
              8.337396000000126
            ],
            [
              -72.130045,
              8.335582000000102
            ],
            [
              -72.12995099999989,
              8.333631
            ],
            [
              -72.128935,
              8.332668
            ],
            [
              -72.128217,
              8.330466000000115
            ],
            [
              -72.128378,
              8.329708
            ],
            [
              -72.128092,
              8.328226
            ],
            [
              -72.12765699999989,
              8.327953
            ],
            [
              -72.127764,
              8.32663
            ],
            [
              -72.128427,
              8.325637
            ],
            [
              -72.12853299999989,
              8.323763
            ],
            [
              -72.129416,
              8.322438
            ],
            [
              -72.129635,
              8.321445000000153
            ],
            [
              -72.129633,
              8.320453000000157
            ],
            [
              -72.13040699999988,
              8.319791
            ],
            [
              -72.131513,
              8.319238000000155
            ],
            [
              -72.13306199999988,
              8.318354
            ],
            [
              -72.13439099999982,
              8.317691
            ],
            [
              -72.133834,
              8.316589
            ],
            [
              -72.13261299999988,
              8.315929
            ],
            [
              -72.132832,
              8.3149370000001
            ],
            [
              -72.132718,
              8.313724
            ],
            [
              -72.131718,
              8.312403
            ],
            [
              -72.132712,
              8.31129900000019
            ],
            [
              -72.132709,
              8.30997600000012
            ],
            [
              -72.130932,
              8.308325000000139
            ],
            [
              -72.131263,
              8.307663
            ],
            [
              -72.131927,
              8.307442
            ],
            [
              -72.132591,
              8.307
            ],
            [
              -72.132587,
              8.305456
            ],
            [
              -72.13302499999986,
              8.303582
            ],
            [
              -72.134241,
              8.302478
            ],
            [
              -72.133684,
              8.301045000000158
            ],
            [
              -72.132685,
              8.300495000000126
            ],
            [
              -72.132018,
              8.299614
            ],
            [
              -72.130132,
              8.298845
            ],
            [
              -72.129466,
              8.298185000000103
            ],
            [
              -72.128867,
              8.297396
            ],
            [
              -72.123807,
              8.301063
            ],
            [
              -72.11985999999985,
              8.30348400000014
            ],
            [
              -72.112417,
              8.295337000000188
            ],
            [
              -72.11019899999985,
              8.293097000000103
            ],
            [
              -72.106869,
              8.291377000000125
            ],
            [
              -72.06693399999989,
              8.329441
            ],
            [
              -72.065489,
              8.329706000000101
            ],
            [
              -72.063085,
              8.329369000000156
            ],
            [
              -72.061283,
              8.329267
            ],
            [
              -72.059354,
              8.328444000000161
            ],
            [
              -72.058033,
              8.328457000000185
            ],
            [
              -72.056957,
              8.328829
            ],
            [
              -72.055878,
              8.32896
            ],
            [
              -72.05527399999988,
              8.328605000000152
            ],
            [
              -72.05501599999985,
              8.326925
            ],
            [
              -72.054399,
              8.325368
            ],
            [
              -72.053072,
              8.32478
            ],
            [
              -72.051752,
              8.324793
            ],
            [
              -72.0513959999999,
              8.32515700000016
            ],
            [
              -72.04947599999986,
              8.325177
            ],
            [
              -72.048754,
              8.325063
            ],
            [
              -72.04802499999988,
              8.324229000000116
            ],
            [
              -72.046333,
              8.323284
            ],
            [
              -72.045485,
              8.322571
            ],
            [
              -72.04415299999988,
              8.321503000000178
            ],
            [
              -72.042948,
              8.321034
            ],
            [
              -72.040668,
              8.321056000000112
            ],
            [
              -72.03886099999988,
              8.320473
            ],
            [
              -72.038253,
              8.319758
            ],
            [
              -72.03764,
              8.318562
            ],
            [
              -72.035713,
              8.317980000000148
            ],
            [
              -72.034033,
              8.317997000000162
            ],
            [
              -72.031386,
              8.317422
            ],
            [
              -72.029332,
              8.31612
            ],
            [
              -72.028475,
              8.314566000000127
            ],
            [
              -72.02646,
              8.312081
            ],
            [
              -72.01896,
              8.344546
            ],
            [
              -72.023383,
              8.34631000000013
            ],
            [
              -72.025202,
              8.347530000000177
            ],
            [
              -72.028305,
              8.348583
            ],
            [
              -72.03064299999983,
              8.350725000000182
            ],
            [
              -72.03306599999985,
              8.350858000000187
            ],
            [
              -72.036866,
              8.353296000000114
            ],
            [
              -72.04360799999989,
              8.356789000000106
            ],
            [
              -72.048284,
              8.361073
            ],
            [
              -72.048003,
              8.362158
            ],
            [
              -72.053236,
              8.36411900000013
            ],
            [
              -72.053927,
              8.365349000000151
            ],
            [
              -72.055706,
              8.365487
            ],
            [
              -72.058003,
              8.366548
            ],
            [
              -72.062169,
              8.365892000000144
            ],
            [
              -72.06409699999989,
              8.365720000000124
            ],
            [
              -72.065941,
              8.367558000000145
            ],
            [
              -72.068388,
              8.368308000000184
            ],
            [
              -72.069436,
              8.370462
            ],
            [
              -72.071572,
              8.371524
            ],
            [
              -72.070572,
              8.37493300000017
            ],
            [
              -72.070815,
              8.377095000000168
            ],
            [
              -72.07055099999985,
              8.378643000000181
            ],
            [
              -72.071243,
              8.379873000000146
            ],
            [
              -72.07133,
              8.38219
            ],
            [
              -72.071466,
              8.384222
            ],
            [
              -72.072169,
              8.388078000000121
            ],
            [
              -72.072039,
              8.390245000000164
            ],
            [
              -72.074147,
              8.394180000000176
            ],
            [
              -72.081085,
              8.400873
            ],
            [
              -72.081339,
              8.40172200000012
            ],
            [
              -72.081917,
              8.401836000000173
            ],
            [
              -72.083027,
              8.403075000000172
            ],
            [
              -72.08316599999984,
              8.40353400000015
            ],
            [
              -72.083351,
              8.405415000000175
            ],
            [
              -72.083536,
              8.406011
            ],
            [
              -72.084114,
              8.406975000000102
            ],
            [
              -72.083975,
              8.407663000000184
            ],
            [
              -72.083767,
              8.408236000000159
            ],
            [
              -72.083767,
              8.40881
            ],
            [
              -72.083512,
              8.409889
            ],
            [
              -72.08325799999989,
              8.411288
            ],
            [
              -72.083142,
              8.412045
            ],
            [
              -72.083142,
              8.412458
            ],
            [
              -72.082934,
              8.413880000000177
            ],
            [
              -72.083882,
              8.41521100000017
            ],
            [
              -72.084739,
              8.416702
            ]
          ]
        ]
      }
    },
    {
      "type": "Feature",
      "properties": {
        "Pais": "Venezuela",
        "Estado": "Táchira",
        "Municipio": "Panamericano",
        "Parroquia": "La Palmita"
      },
      "geometry": {
        "type": "Polygon",
        "coordinates": [
          [
            [
              -71.971894,
              8.509561000000133
            ],
            [
              -71.9719583879999,
              8.511982853000063
            ],
            [
              -71.971982,
              8.512871
            ],
            [
              -71.97205058399999,
              8.512902289000124
            ],
            [
              -71.97204838799996,
              8.512895917000094
            ],
            [
              -71.99471360699994,
              8.493673858000136
            ],
            [
              -72.07100094299994,
              8.42897562100012
            ],
            [
              -72.08428190299998,
              8.42821723700007
            ],
            [
              -72.08450166399996,
              8.426631795000162
            ],
            [
              -72.08459741799987,
              8.425948026000185
            ],
            [
              -72.084739,
              8.424937
            ],
            [
              -72.08470539799993,
              8.423920366000118
            ],
            [
              -72.084692,
              8.423515000000123
            ],
            [
              -72.084531,
              8.422115000000133
            ],
            [
              -72.0847619999999,
              8.421404
            ],
            [
              -72.08472199399995,
              8.420566489000123
            ],
            [
              -72.084716,
              8.420441000000153
            ],
            [
              -72.084808,
              8.41872
            ],
            [
              -72.085271,
              8.417826000000161
            ],
            [
              -72.084739,
              8.416702
            ],
            [
              -72.083882,
              8.41521100000017
            ],
            [
              -72.082934,
              8.413880000000177
            ],
            [
              -72.083142,
              8.412458
            ],
            [
              -72.083142,
              8.412045
            ],
            [
              -72.08325799999989,
              8.411288
            ],
            [
              -72.083512,
              8.409889
            ],
            [
              -72.083767,
              8.40881
            ],
            [
              -72.083767,
              8.408236000000159
            ],
            [
              -72.083975,
              8.407663000000184
            ],
            [
              -72.084114,
              8.406975000000102
            ],
            [
              -72.083536,
              8.406011
            ],
            [
              -72.083351,
              8.405415000000175
            ],
            [
              -72.08316599999984,
              8.40353400000015
            ],
            [
              -72.083027,
              8.403075000000172
            ],
            [
              -72.081917,
              8.401836000000173
            ],
            [
              -72.081339,
              8.40172200000012
            ],
            [
              -72.081085,
              8.400873
            ],
            [
              -72.074147,
              8.394180000000176
            ],
            [
              -72.072039,
              8.390245000000164
            ],
            [
              -72.072169,
              8.388078000000121
            ],
            [
              -72.071466,
              8.384222
            ],
            [
              -72.07133,
              8.38219
            ],
            [
              -72.071243,
              8.379873000000146
            ],
            [
              -72.07055099999985,
              8.378643000000181
            ],
            [
              -72.070815,
              8.377095000000168
            ],
            [
              -72.070572,
              8.37493300000017
            ],
            [
              -72.071572,
              8.371524
            ],
            [
              -72.069436,
              8.370462
            ],
            [
              -72.068388,
              8.368308000000184
            ],
            [
              -72.065941,
              8.367558000000145
            ],
            [
              -72.06409699999989,
              8.365720000000124
            ],
            [
              -72.062169,
              8.365892000000144
            ],
            [
              -72.058003,
              8.366548
            ],
            [
              -72.055706,
              8.365487
            ],
            [
              -72.053927,
              8.365349000000151
            ],
            [
              -72.053236,
              8.36411900000013
            ],
            [
              -72.048003,
              8.362158
            ],
            [
              -72.048284,
              8.361073
            ],
            [
              -72.04360799999989,
              8.356789000000106
            ],
            [
              -72.036866,
              8.353296000000114
            ],
            [
              -72.03306599999985,
              8.350858000000187
            ],
            [
              -72.03064299999983,
              8.350725000000182
            ],
            [
              -72.028305,
              8.348583
            ],
            [
              -72.025202,
              8.347530000000177
            ],
            [
              -72.023383,
              8.34631000000013
            ],
            [
              -72.01896,
              8.344546
            ],
            [
              -71.97247099999987,
              8.383601
            ],
            [
              -71.93010899999985,
              8.376753000000122
            ],
            [
              -71.930911,
              8.377534
            ],
            [
              -71.932223,
              8.378425
            ],
            [
              -71.93394599999988,
              8.380046
            ],
            [
              -71.93452199999984,
              8.381747000000132
            ],
            [
              -71.935097,
              8.38255700000019
            ],
            [
              -71.936,
              8.38369200000011
            ],
            [
              -71.936493,
              8.384421
            ],
            [
              -71.937396,
              8.385636
            ],
            [
              -71.93944399999987,
              8.386123000000168
            ],
            [
              -71.94042999999982,
              8.387014
            ],
            [
              -71.941497,
              8.388310000000104
            ],
            [
              -71.942401,
              8.389769
            ],
            [
              -71.943141,
              8.391389000000174
            ],
            [
              -71.944209,
              8.393172
            ],
            [
              -71.945277,
              8.394954
            ],
            [
              -71.94634699999983,
              8.397385
            ],
            [
              -71.946595,
              8.399005
            ],
            [
              -71.947008,
              8.400625000000161
            ],
            [
              -71.946767,
              8.402894000000117
            ],
            [
              -71.945541,
              8.404271
            ],
            [
              -71.94382399999989,
              8.40581
            ],
            [
              -71.94358,
              8.406782000000135
            ],
            [
              -71.943502,
              8.408645
            ],
            [
              -71.94367,
              8.410589000000186
            ],
            [
              -71.94301799999988,
              8.41229
            ],
            [
              -71.943021,
              8.413749000000166
            ],
            [
              -71.941468,
              8.415693
            ],
            [
              -71.941227,
              8.418123
            ],
            [
              -71.94139599999988,
              8.420716
            ],
            [
              -71.941318,
              8.422418000000107
            ],
            [
              -71.9413229999999,
              8.425334
            ],
            [
              -71.940507,
              8.426792
            ],
            [
              -71.940184,
              8.42906100000016
            ],
            [
              -71.94051799999988,
              8.43213900000012
            ],
            [
              -71.941503,
              8.433355000000176
            ],
            [
              -71.942489,
              8.435137
            ],
            [
              -71.943804,
              8.43740600000018
            ],
            [
              -71.945363,
              8.438702
            ],
            [
              -71.947168,
              8.440403000000174
            ],
            [
              -71.949711,
              8.441862
            ],
            [
              -71.952172,
              8.443888
            ],
            [
              -71.95380999999986,
              8.444050000000118
            ],
            [
              -71.955695,
              8.44429300000013
            ],
            [
              -71.956597,
              8.444860000000176
            ],
            [
              -71.957664,
              8.44526500000012
            ],
            [
              -71.959549,
              8.445752
            ],
            [
              -71.96168299999988,
              8.448263000000168
            ],
            [
              -71.96193499999987,
              8.45101700000015
            ],
            [
              -71.96250899999984,
              8.451666
            ],
            [
              -71.963821,
              8.452071000000103
            ],
            [
              -71.96455999999989,
              8.453367
            ],
            [
              -71.963662,
              8.454582
            ],
            [
              -71.96309,
              8.455554000000177
            ],
            [
              -71.963502,
              8.456688
            ],
            [
              -71.964161,
              8.458309
            ],
            [
              -71.964573,
              8.459524
            ],
            [
              -71.96580299999988,
              8.460172
            ],
            [
              -71.96596999999986,
              8.46171100000015
            ],
            [
              -71.965318,
              8.463412
            ],
            [
              -71.965241,
              8.465681000000188
            ],
            [
              -71.964671,
              8.467463
            ],
            [
              -71.963121,
              8.470136
            ],
            [
              -71.962387,
              8.471837000000107
            ],
            [
              -71.961077,
              8.472161
            ],
            [
              -71.961081,
              8.473504000000162
            ],
            [
              -71.960341,
              8.47414
            ],
            [
              -71.960133,
              8.474877000000106
            ],
            [
              -71.960248,
              8.475927
            ],
            [
              -71.959617,
              8.476877000000172
            ],
            [
              -71.959944,
              8.477925
            ],
            [
              -71.959737,
              8.478662
            ],
            [
              -71.95867999999984,
              8.47972
            ],
            [
              -71.95880099999988,
              8.481610000000103
            ],
            [
              -71.957961,
              8.483086000000185
            ],
            [
              -71.957113,
              8.483513000000187
            ],
            [
              -71.956587,
              8.484357
            ],
            [
              -71.956064,
              8.485516000000189
            ],
            [
              -71.955007,
              8.48646900000017
            ],
            [
              -71.95459099999982,
              8.487732
            ],
            [
              -71.955342,
              8.488567
            ],
            [
              -71.956848,
              8.490552
            ],
            [
              -71.956752,
              8.492023000000131
            ],
            [
              -71.95708,
              8.493072
            ],
            [
              -71.958041,
              8.493485000000135
            ],
            [
              -71.959541,
              8.494840000000181
            ],
            [
              -71.959444,
              8.496101
            ],
            [
              -71.95839399999988,
              8.497894
            ],
            [
              -71.958299,
              8.499365000000125
            ],
            [
              -71.9585249999999,
              8.501149000000112
            ],
            [
              -71.957681,
              8.502101
            ],
            [
              -71.957792,
              8.502625
            ],
            [
              -71.959709,
              8.502821
            ],
            [
              -71.961211,
              8.504386
            ],
            [
              -71.962597,
              8.504691
            ],
            [
              -71.96450999999985,
              8.504362
            ],
            [
              -71.965366,
              8.504881000000182
            ],
            [
              -71.966762,
              8.506552
            ],
            [
              -71.96745757499991,
              8.507175722000113
            ],
            [
              -71.968156,
              8.507802
            ],
            [
              -71.969331,
              8.508424
            ],
            [
              -71.9705779229999,
              8.508326859000078
            ],
            [
              -71.97082,
              8.508308
            ],
            [
              -71.971894,
              8.509561000000133
            ]
          ]
        ]
      }
    }
  ]
}