{
  "type": "FeatureCollection",
  "features": [
    {
      "type": "Feature",
      "properties": {
        "Pais": "Venezuela",
        "Estado": "Miranda",
        "Municipio": "Paz Castillo"
      },
      "geometry": {
        "type": "Polygon",
        "coordinates": [
          [
            [
              -66.695529,
              10.414281
            ],
            [
              -66.695068,
              10.413738
            ],
            [
              -66.694897,
              10.413373
            ],
            [
              -66.694651,
              10.411796000000152
            ],
            [
              -66.694068,
              10.409869
            ],
            [
              -66.693159,
              10.407163
            ],
            [
              -66.693292,
              10.404407
            ],
            [
              -66.693569,
              10.404062
            ],
            [
              -66.6945649999999,
              10.403599000000156
            ],
            [
              -66.69572299999987,
              10.403251000000125
            ],
            [
              -66.696997,
              10.40304
            ],
            [
              -66.69813099999988,
              10.402715
            ],
            [
              -66.699799,
              10.402089000000103
            ],
            [
              -66.700887,
              10.401419
            ],
            [
              -66.701859,
              10.40075000000013
            ],
            [
              -66.70218199999988,
              10.40029
            ],
            [
              -66.70232,
              10.39944000000014
            ],
            [
              -66.70299,
              10.398496
            ],
            [
              -66.703543,
              10.397300000000143
            ],
            [
              -66.703935,
              10.396403
            ],
            [
              -66.704559,
              10.395391000000131
            ],
            [
              -66.705113,
              10.394654
            ],
            [
              -66.705005,
              10.392388000000153
            ],
            [
              -66.704717,
              10.39238
            ],
            [
              -66.70461,
              10.391739
            ],
            [
              -66.704762,
              10.391252000000122
            ],
            [
              -66.704914,
              10.390766
            ],
            [
              -66.704908,
              10.390513000000112
            ],
            [
              -66.704805,
              10.390033000000187
            ],
            [
              -66.704468,
              10.389489
            ],
            [
              -66.704162,
              10.389289
            ],
            [
              -66.70380199999988,
              10.388768000000141
            ],
            [
              -66.70321399999989,
              10.388367000000187
            ],
            [
              -66.70292799999987,
              10.388029
            ],
            [
              -66.70184099999989,
              10.388168
            ],
            [
              -66.701748,
              10.388147000000117
            ],
            [
              -66.700888,
              10.388121
            ],
            [
              -66.700653,
              10.388011
            ],
            [
              -66.700485,
              10.387716000000125
            ],
            [
              -66.70033499999982,
              10.387236
            ],
            [
              -66.69993099999988,
              10.386786
            ],
            [
              -66.69953,
              10.386496
            ],
            [
              -66.698676,
              10.38618
            ],
            [
              -66.69812799999983,
              10.386044
            ],
            [
              -66.697102,
              10.385792
            ],
            [
              -66.696288,
              10.385683000000142
            ],
            [
              -66.69536,
              10.385319
            ],
            [
              -66.695705,
              10.38387100000017
            ],
            [
              -66.696861,
              10.382925
            ],
            [
              -66.698572,
              10.381151000000159
            ],
            [
              -66.699868,
              10.380503
            ],
            [
              -66.700541,
              10.380822000000137
            ],
            [
              -66.701329,
              10.381118
            ],
            [
              -66.702025,
              10.3813
            ],
            [
              -66.70204699999988,
              10.380771000000152
            ],
            [
              -66.701953,
              10.380106
            ],
            [
              -66.70216,
              10.3795080000001
            ],
            [
              -66.70287899999988,
              10.379161000000181
            ],
            [
              -66.703483,
              10.379963
            ],
            [
              -66.70429599999989,
              10.380947000000162
            ],
            [
              -66.704411,
              10.380511000000126
            ],
            [
              -66.70475699999986,
              10.379890000000103
            ],
            [
              -66.705614,
              10.379726
            ],
            [
              -66.70667999999989,
              10.379676000000131
            ],
            [
              -66.706748,
              10.378918000000112
            ],
            [
              -66.707533,
              10.377607
            ],
            [
              -66.708686,
              10.375284
            ],
            [
              -66.709911,
              10.373787000000164
            ],
            [
              -66.710557,
              10.372568000000172
            ],
            [
              -66.711272,
              10.37121
            ],
            [
              -66.71157,
              10.369694
            ],
            [
              -66.711985,
              10.368498
            ],
            [
              -66.712398,
              10.367004
            ],
            [
              -66.712744,
              10.366177
            ],
            [
              -66.713369,
              10.365945
            ],
            [
              -66.714828,
              10.365549000000101
            ],
            [
              -66.715985,
              10.36490300000014
            ],
            [
              -66.717953,
              10.364414000000181
            ],
            [
              -66.719691,
              10.364339
            ],
            [
              -66.721893,
              10.364928
            ],
            [
              -66.72386499999982,
              10.365656000000115
            ],
            [
              -66.72595099999984,
              10.366154000000108
            ],
            [
              -66.72776,
              10.366653000000156
            ],
            [
              -66.729776,
              10.366439
            ],
            [
              -66.73153699999989,
              10.366410000000144
            ],
            [
              -66.733506,
              10.366288000000168
            ],
            [
              -66.73508099999987,
              10.366237
            ],
            [
              -66.736774,
              10.36692
            ],
            [
              -66.738722,
              10.367487
            ],
            [
              -66.74057699999986,
              10.368238
            ],
            [
              -66.74340599999988,
              10.36912400000017
            ],
            [
              -66.74511999999987,
              10.369049000000189
            ],
            [
              -66.74773799999986,
              10.368947
            ],
            [
              -66.749291,
              10.368919
            ],
            [
              -66.751933,
              10.368932
            ],
            [
              -66.753254,
              10.368813
            ],
            [
              -66.75457399999988,
              10.368624000000182
            ],
            [
              -66.75610499999988,
              10.369262
            ],
            [
              -66.757868,
              10.370128
            ],
            [
              -66.759095,
              10.370009
            ],
            [
              -66.76064499999984,
              10.36899300000016
            ],
            [
              -66.761664,
              10.368645000000129
            ],
            [
              -66.762707,
              10.368526
            ],
            [
              -66.763704,
              10.368821000000139
            ],
            [
              -66.764333,
              10.367772
            ],
            [
              -66.76418699999988,
              10.36614
            ],
            [
              -66.764782,
              10.364133
            ],
            [
              -66.765377,
              10.361329000000183
            ],
            [
              -66.765952,
              10.359421
            ],
            [
              -66.766689,
              10.357282000000168
            ],
            [
              -66.76724,
              10.355351
            ],
            [
              -66.767422,
              10.353950000000168
            ],
            [
              -66.767512,
              10.35261800000012
            ],
            [
              -66.767665,
              10.351180000000113
            ],
            [
              -66.76918999999987,
              10.35100000000017
            ],
            [
              -66.770099,
              10.349342
            ],
            [
              -66.77066,
              10.347990000000152
            ],
            [
              -66.771207,
              10.347552000000178
            ],
            [
              -66.772341,
              10.347066
            ],
            [
              -66.774623,
              10.347322000000133
            ],
            [
              -66.776148,
              10.347359
            ],
            [
              -66.776716,
              10.347749000000135
            ],
            [
              -66.778067,
              10.347744
            ],
            [
              -66.778633,
              10.347741000000156
            ],
            [
              -66.77894,
              10.348306
            ],
            [
              -66.779682,
              10.348434000000111
            ],
            [
              -66.780314,
              10.347909
            ],
            [
              -66.781147,
              10.347401000000104
            ],
            [
              -66.78168199999988,
              10.347381
            ],
            [
              -66.782337,
              10.347771
            ],
            [
              -66.782863,
              10.348509
            ],
            [
              -66.783691,
              10.348462000000154
            ],
            [
              -66.784438,
              10.347825
            ],
            [
              -66.785086,
              10.347387
            ],
            [
              -66.785693,
              10.347845
            ],
            [
              -66.786829,
              10.34871100000015
            ],
            [
              -66.78766,
              10.349622000000181
            ],
            [
              -66.78818299999989,
              10.349751
            ],
            [
              -66.788355,
              10.34901
            ],
            [
              -66.788746,
              10.348573000000101
            ],
            [
              -66.79009599999989,
              10.348568
            ],
            [
              -66.790672,
              10.34833
            ],
            [
              -66.791272,
              10.348302
            ],
            [
              -66.791883,
              10.348735
            ],
            [
              -66.792408,
              10.349299
            ],
            [
              -66.79306,
              10.348817
            ],
            [
              -66.793582,
              10.348423
            ],
            [
              -66.79467099999988,
              10.348288000000139
            ],
            [
              -66.795193,
              10.348199
            ],
            [
              -66.79506,
              10.347634
            ],
            [
              -66.794579,
              10.347026
            ],
            [
              -66.794532,
              10.346286
            ],
            [
              -66.794881,
              10.346285000000137
            ],
            [
              -66.795535,
              10.346456
            ],
            [
              -66.795903,
              10.346152000000131
            ],
            [
              -66.795793,
              10.345541
            ],
            [
              -66.795792,
              10.345062
            ],
            [
              -66.796445,
              10.3450160000001
            ],
            [
              -66.797535,
              10.345229000000131
            ],
            [
              -66.79779599999983,
              10.344924000000162
            ],
            [
              -66.798187,
              10.344835
            ],
            [
              -66.798666,
              10.344746000000157
            ],
            [
              -66.79875,
              10.343918
            ],
            [
              -66.799098,
              10.343612000000121
            ],
            [
              -66.800319,
              10.343869
            ],
            [
              -66.80083999999988,
              10.343518000000188
            ],
            [
              -66.801642,
              10.343031
            ],
            [
              -66.801751,
              10.342339000000152
            ],
            [
              -66.802186,
              10.342207
            ],
            [
              -66.803452,
              10.342768
            ],
            [
              -66.80475899999988,
              10.342588000000148
            ],
            [
              -66.806239,
              10.342191000000128
            ],
            [
              -66.807764,
              10.342141
            ],
            [
              -66.80837499999984,
              10.3424
            ],
            [
              -66.80912,
              10.343572
            ],
            [
              -66.809863,
              10.344136000000162
            ],
            [
              -66.810825,
              10.345133
            ],
            [
              -66.811088,
              10.345568000000128
            ],
            [
              -66.81187399999988,
              10.34591300000011
            ],
            [
              -66.81287599999985,
              10.34590900000012
            ],
            [
              -66.813372,
              10.345513
            ],
            [
              -66.813788,
              10.34516500000018
            ],
            [
              -66.814355,
              10.345163
            ],
            [
              -66.815271,
              10.345464
            ],
            [
              -66.81592499999988,
              10.345635000000186
            ],
            [
              -66.816361,
              10.345634
            ],
            [
              -66.81649,
              10.345198
            ],
            [
              -66.816445,
              10.344719
            ],
            [
              -66.816311,
              10.344023
            ],
            [
              -66.816746,
              10.343803
            ],
            [
              -66.817562,
              10.34389
            ],
            [
              -66.81816599999985,
              10.344301
            ],
            [
              -66.81916,
              10.34347
            ],
            [
              -66.820384,
              10.342042
            ],
            [
              -66.82166299999989,
              10.341824000000145
            ],
            [
              -66.824731,
              10.341094000000169
            ],
            [
              -66.82445999999987,
              10.34074
            ],
            [
              -66.823945,
              10.338813
            ],
            [
              -66.823687,
              10.337551
            ],
            [
              -66.82307999999989,
              10.335762
            ],
            [
              -66.822565,
              10.334248
            ],
            [
              -66.822305,
              10.332159
            ],
            [
              -66.818807,
              10.332265
            ],
            [
              -66.816976,
              10.332134
            ],
            [
              -66.81500599999987,
              10.33177400000011
            ],
            [
              -66.81458399999985,
              10.329892
            ],
            [
              -66.812899,
              10.328428
            ],
            [
              -66.812753,
              10.32783400000011
            ],
            [
              -66.81234099999989,
              10.324536
            ],
            [
              -66.81233399999985,
              10.323963000000106
            ],
            [
              -66.812325,
              10.323298000000136
            ],
            [
              -66.812038,
              10.322590000000162
            ],
            [
              -66.810759,
              10.322422000000131
            ],
            [
              -66.809034,
              10.321892000000162
            ],
            [
              -66.80796,
              10.3214
            ],
            [
              -66.80667199999988,
              10.320474
            ],
            [
              -66.805949,
              10.320208
            ],
            [
              -66.80383,
              10.31975100000011
            ],
            [
              -66.802316,
              10.319333000000142
            ],
            [
              -66.800685,
              10.318962
            ],
            [
              -66.799683,
              10.318698
            ],
            [
              -66.79892999999987,
              10.317859
            ],
            [
              -66.798358,
              10.31665
            ],
            [
              -66.79729799999984,
              10.315424
            ],
            [
              -66.79651599999988,
              10.314149
            ],
            [
              -66.795874,
              10.312918000000138
            ],
            [
              -66.794658,
              10.312175000000138
            ],
            [
              -66.793302,
              10.311480000000188
            ],
            [
              -66.7926839999999,
              10.310294000000113
            ],
            [
              -66.792878,
              10.309031
            ],
            [
              -66.79334099999988,
              10.30703
            ],
            [
              -66.793978,
              10.305991
            ],
            [
              -66.79505299999988,
              10.304602
            ],
            [
              -66.795454,
              10.30324400000012
            ],
            [
              -66.795247,
              10.301527
            ],
            [
              -66.794877,
              10.299742
            ],
            [
              -66.79451599999987,
              10.296788000000106
            ],
            [
              -66.793602,
              10.294184000000143
            ],
            [
              -66.792722,
              10.292474
            ],
            [
              -66.79147399999988,
              10.291021000000114
            ],
            [
              -66.790711,
              10.289402
            ],
            [
              -66.784361,
              10.284356000000173
            ],
            [
              -66.75994999999989,
              10.259001000000183
            ],
            [
              -66.758615,
              10.259206
            ],
            [
              -66.756538,
              10.259694000000138
            ],
            [
              -66.755469,
              10.259743000000128
            ],
            [
              -66.75340699999987,
              10.260599
            ],
            [
              -66.751993,
              10.261559
            ],
            [
              -66.750754,
              10.261972000000128
            ],
            [
              -66.749306,
              10.262380000000178
            ],
            [
              -66.747251,
              10.262892
            ],
            [
              -66.746432,
              10.263221000000101
            ],
            [
              -66.74392,
              10.263402000000156
            ],
            [
              -66.742437,
              10.263305000000116
            ],
            [
              -66.740633,
              10.262949000000162
            ],
            [
              -66.737609,
              10.262133000000176
            ],
            [
              -66.731836,
              10.261792000000185
            ],
            [
              -66.729943,
              10.261319000000128
            ],
            [
              -66.728021,
              10.261098000000118
            ],
            [
              -66.7261299999999,
              10.260976
            ],
            [
              -66.72604399999989,
              10.261274000000128
            ],
            [
              -66.725976,
              10.261277
            ],
            [
              -66.72566599999988,
              10.265294
            ],
            [
              -66.725784,
              10.268035000000168
            ],
            [
              -66.72512499999988,
              10.278622
            ],
            [
              -66.72133099999985,
              10.276989000000128
            ],
            [
              -66.720352,
              10.276804
            ],
            [
              -66.719345,
              10.276435000000106
            ],
            [
              -66.718173,
              10.275932
            ],
            [
              -66.717188,
              10.275471
            ],
            [
              -66.715834,
              10.274146
            ],
            [
              -66.714988,
              10.273705000000177
            ],
            [
              -66.713896,
              10.273425
            ],
            [
              -66.701202,
              10.274026000000106
            ],
            [
              -66.699374,
              10.27328400000016
            ],
            [
              -66.697107,
              10.271542
            ],
            [
              -66.695811,
              10.2706510000001
            ],
            [
              -66.694613,
              10.270057000000122
            ],
            [
              -66.692999,
              10.269564
            ],
            [
              -66.691995,
              10.26928700000019
            ],
            [
              -66.691213,
              10.269648
            ],
            [
              -66.68997899999988,
              10.270548
            ],
            [
              -66.688822,
              10.271812
            ],
            [
              -66.68788699999988,
              10.271534000000145
            ],
            [
              -66.686993,
              10.27100200000018
            ],
            [
              -66.685948,
              10.270979
            ],
            [
              -66.684318,
              10.270784
            ],
            [
              -66.682655,
              10.270131
            ],
            [
              -66.681632,
              10.270061000000112
            ],
            [
              -66.680641,
              10.269371
            ],
            [
              -66.680534,
              10.268684
            ],
            [
              -66.679864,
              10.26778
            ],
            [
              -66.678888,
              10.266676000000189
            ],
            [
              -66.677943,
              10.265916000000175
            ],
            [
              -66.676504,
              10.265969
            ],
            [
              -66.674403,
              10.265441000000123
            ],
            [
              -66.673063,
              10.264666000000148
            ],
            [
              -66.67234,
              10.264544000000171
            ],
            [
              -66.671219,
              10.264292
            ],
            [
              -66.67091,
              10.263954000000183
            ],
            [
              -66.67052599999988,
              10.263388
            ],
            [
              -66.669899,
              10.263379
            ],
            [
              -66.669226,
              10.263393000000121
            ],
            [
              -66.668934,
              10.263316000000145
            ],
            [
              -66.645852,
              10.262266000000125
            ],
            [
              -66.6458,
              10.262983000000133
            ],
            [
              -66.644792,
              10.263495
            ],
            [
              -66.643525,
              10.262831000000176
            ],
            [
              -66.638967,
              10.265582
            ],
            [
              -66.636262,
              10.267696000000171
            ],
            [
              -66.636235,
              10.267919000000177
            ],
            [
              -66.634818,
              10.269028000000105
            ],
            [
              -66.634441,
              10.269191
            ],
            [
              -66.63295599999987,
              10.270899000000156
            ],
            [
              -66.628942,
              10.271688
            ],
            [
              -66.627721,
              10.270977
            ],
            [
              -66.625578,
              10.271458
            ],
            [
              -66.62387899999987,
              10.271502000000169
            ],
            [
              -66.622428,
              10.270923
            ],
            [
              -66.620671,
              10.26836
            ],
            [
              -66.62144,
              10.265633
            ],
            [
              -66.62169,
              10.263483000000122
            ],
            [
              -66.62145799999985,
              10.26275800000019
            ],
            [
              -66.618344,
              10.259619000000157
            ],
            [
              -66.61745,
              10.258876000000157
            ],
            [
              -66.616896,
              10.257514
            ],
            [
              -66.61553999999984,
              10.256938
            ],
            [
              -66.613025,
              10.260333
            ],
            [
              -66.61004499999984,
              10.261123
            ],
            [
              -66.609869,
              10.260556
            ],
            [
              -66.60843099999988,
              10.259599
            ],
            [
              -66.605917,
              10.259400000000142
            ],
            [
              -66.60230299999989,
              10.25881
            ],
            [
              -66.600199,
              10.25818900000013
            ],
            [
              -66.597749,
              10.257713
            ],
            [
              -66.59451399999989,
              10.257436
            ],
            [
              -66.592242,
              10.256566000000134
            ],
            [
              -66.58951899999988,
              10.25524600000017
            ],
            [
              -66.587202,
              10.253343
            ],
            [
              -66.5845149999999,
              10.251540000000148
            ],
            [
              -66.582232,
              10.250142
            ],
            [
              -66.580519,
              10.249077000000113
            ],
            [
              -66.578999,
              10.247502000000168
            ],
            [
              -66.577258,
              10.246414
            ],
            [
              -66.574627,
              10.24497700000012
            ],
            [
              -66.572773,
              10.245154
            ],
            [
              -66.571297,
              10.245599
            ],
            [
              -66.568214,
              10.245848
            ],
            [
              -66.56611099999986,
              10.245226000000116
            ],
            [
              -66.563721,
              10.244198
            ],
            [
              -66.56173399999989,
              10.243551
            ],
            [
              -66.558796,
              10.241891
            ],
            [
              -66.55781599999989,
              10.241682
            ],
            [
              -66.555717,
              10.240119
            ],
            [
              -66.55498099999983,
              10.239377
            ],
            [
              -66.555234,
              10.238178000000175
            ],
            [
              -66.555218,
              10.237397
            ],
            [
              -66.554605,
              10.23695
            ],
            [
              -66.553848,
              10.23630100000014
            ],
            [
              -66.55419099999983,
              10.234962000000166
            ],
            [
              -66.554588,
              10.233989000000122
            ],
            [
              -66.555431,
              10.233213
            ],
            [
              -66.55556499999983,
              10.231879000000163
            ],
            [
              -66.554928,
              10.23141
            ],
            [
              -66.55401,
              10.23081000000019
            ],
            [
              -66.55281699999983,
              10.230399
            ],
            [
              -66.551523,
              10.229599000000178
            ],
            [
              -66.550006,
              10.229218
            ],
            [
              -66.548707,
              10.228167000000155
            ],
            [
              -66.547454,
              10.22491
            ],
            [
              -66.54633399999989,
              10.224635000000148
            ],
            [
              -66.544669,
              10.2238660000001
            ],
            [
              -66.543426,
              10.223296
            ],
            [
              -66.542351,
              10.22184900000019
            ],
            [
              -66.54203799999988,
              10.220203
            ],
            [
              -66.540423,
              10.219617
            ],
            [
              -66.539008,
              10.219692
            ],
            [
              -66.53778099999988,
              10.219879000000105
            ],
            [
              -66.536344,
              10.219978
            ],
            [
              -66.534694,
              10.219875000000116
            ],
            [
              -66.53339,
              10.21957
            ],
            [
              -66.532897,
              10.219454
            ],
            [
              -66.531803,
              10.219316
            ],
            [
              -66.5301659999999,
              10.219856000000163
            ],
            [
              -66.530017,
              10.220479000000182
            ],
            [
              -66.52983699999987,
              10.221295
            ],
            [
              -66.529614,
              10.222302000000184
            ],
            [
              -66.5293329999999,
              10.223249
            ],
            [
              -66.528681,
              10.224273
            ],
            [
              -66.527906,
              10.224932
            ],
            [
              -66.527177,
              10.225613
            ],
            [
              -66.527014,
              10.226673000000176
            ],
            [
              -66.526775,
              10.227435000000185
            ],
            [
              -66.526214,
              10.228366000000108
            ],
            [
              -66.524394,
              10.22904700000015
            ],
            [
              -66.523195,
              10.229417
            ],
            [
              -66.522281,
              10.230102
            ],
            [
              -66.519871,
              10.230429
            ],
            [
              -66.520264,
              10.231889
            ],
            [
              -66.520234,
              10.233311000000185
            ],
            [
              -66.51982,
              10.235723
            ],
            [
              -66.519224,
              10.236326
            ],
            [
              -66.517956,
              10.237096000000179
            ],
            [
              -66.516648,
              10.238395
            ],
            [
              -66.515788,
              10.24033
            ],
            [
              -66.516031,
              10.241290000000106
            ],
            [
              -66.517544,
              10.241733000000124
            ],
            [
              -66.5191789999999,
              10.24260900000013
            ],
            [
              -66.520976,
              10.243461000000138
            ],
            [
              -66.522385,
              10.24493600000011
            ],
            [
              -66.523234,
              10.246073
            ],
            [
              -66.523109,
              10.247313000000133
            ],
            [
              -66.52270899999985,
              10.248899000000108
            ],
            [
              -66.522235,
              10.250097
            ],
            [
              -66.521345,
              10.251391
            ],
            [
              -66.519888,
              10.251819000000125
            ],
            [
              -66.517891,
              10.25177200000013
            ],
            [
              -66.516615,
              10.251809
            ],
            [
              -66.514575,
              10.252083000000141
            ],
            [
              -66.51271899999989,
              10.252218
            ],
            [
              -66.51154899999989,
              10.2534
            ],
            [
              -66.511661,
              10.25505
            ],
            [
              -66.511236,
              10.256522
            ],
            [
              -66.510746,
              10.258293
            ],
            [
              -66.511692,
              10.259819
            ],
            [
              -66.5125149999999,
              10.260727
            ],
            [
              -66.513295,
              10.261957000000166
            ],
            [
              -66.514149,
              10.263598
            ],
            [
              -66.513931,
              10.26477
            ],
            [
              -66.51317399999988,
              10.26560400000011
            ],
            [
              -66.512352,
              10.266782
            ],
            [
              -66.51215,
              10.26740400000017
            ],
            [
              -66.511431,
              10.269476
            ],
            [
              -66.510708,
              10.271272000000124
            ],
            [
              -66.509536,
              10.272363000000155
            ],
            [
              -66.507852,
              10.273298
            ],
            [
              -66.506501,
              10.274941000000126
            ],
            [
              -66.50649,
              10.275950000000137
            ],
            [
              -66.506941,
              10.276839000000109
            ],
            [
              -66.508501,
              10.27728100000013
            ],
            [
              -66.51094,
              10.277369
            ],
            [
              -66.51229099999983,
              10.27779
            ],
            [
              -66.513344,
              10.278489
            ],
            [
              -66.513677,
              10.279243
            ],
            [
              -66.514366,
              10.280634
            ],
            [
              -66.515007,
              10.281888
            ],
            [
              -66.516666,
              10.286892
            ],
            [
              -66.51766799999984,
              10.289311000000168
            ],
            [
              -66.518983,
              10.290627
            ],
            [
              -66.520109,
              10.291715000000124
            ],
            [
              -66.521189,
              10.292781
            ],
            [
              -66.522509,
              10.294533
            ],
            [
              -66.52149799999984,
              10.295461000000103
            ],
            [
              -66.52004699999986,
              10.296417000000133
            ],
            [
              -66.518644,
              10.297555000000159
            ],
            [
              -66.517404,
              10.298738000000185
            ],
            [
              -66.51636999999982,
              10.299735
            ],
            [
              -66.51580399999989,
              10.301003
            ],
            [
              -66.51522099999988,
              10.30277400000017
            ],
            [
              -66.5144719999999,
              10.304296000000136
            ],
            [
              -66.514234,
              10.305789
            ],
            [
              -66.51492599999989,
              10.307502
            ],
            [
              -66.51612099999983,
              10.308452000000102
            ],
            [
              -66.517433,
              10.309470000000147
            ],
            [
              -66.518848,
              10.311449
            ],
            [
              -66.519263,
              10.313233
            ],
            [
              -66.51846199999989,
              10.314251000000127
            ],
            [
              -66.517893,
              10.315312000000176
            ],
            [
              -66.517191,
              10.316833
            ],
            [
              -66.517326,
              10.318459000000132
            ],
            [
              -66.517803,
              10.319647
            ],
            [
              -66.518487,
              10.320602000000179
            ],
            [
              -66.519641,
              10.322011
            ],
            [
              -66.521227,
              10.322636
            ],
            [
              -66.523322,
              10.323164
            ],
            [
              -66.52596199999988,
              10.324603
            ],
            [
              -66.528351,
              10.326411000000121
            ],
            [
              -66.530228,
              10.328157
            ],
            [
              -66.531477,
              10.32971700000013
            ],
            [
              -66.53149999999988,
              10.32971700000013
            ],
            [
              -66.532061,
              10.332585000000108
            ],
            [
              -66.531903,
              10.334996000000103
            ],
            [
              -66.53183699999988,
              10.336902
            ],
            [
              -66.531399,
              10.338189000000114
            ],
            [
              -66.530729,
              10.339821
            ],
            [
              -66.530686,
              10.341428
            ],
            [
              -66.530688,
              10.343058
            ],
            [
              -66.53053,
              10.34524
            ],
            [
              -66.531065,
              10.346685
            ],
            [
              -66.531529,
              10.347372000000178
            ],
            [
              -66.5371229999999,
              10.354038000000173
            ],
            [
              -66.539632,
              10.358141
            ],
            [
              -66.539775,
              10.3605510000001
            ],
            [
              -66.540474,
              10.362845
            ],
            [
              -66.54124099999984,
              10.364909000000125
            ],
            [
              -66.54261,
              10.366260000000125
            ],
            [
              -66.542982,
              10.366947000000152
            ],
            [
              -66.542938,
              10.36811900000015
            ],
            [
              -66.54224499999987,
              10.369154000000151
            ],
            [
              -66.541643,
              10.36986700000017
            ],
            [
              -66.540557,
              10.371294
            ],
            [
              -66.540768,
              10.372648
            ],
            [
              -66.540932,
              10.374278000000118
            ],
            [
              -66.54158399999989,
              10.376181
            ],
            [
              -66.54170399999987,
              10.378729000000135
            ],
            [
              -66.541012,
              10.380385
            ],
            [
              -66.540644,
              10.382062
            ],
            [
              -66.541019,
              10.384563
            ],
            [
              -66.541973,
              10.386443000000156
            ],
            [
              -66.543389,
              10.38820800000019
            ],
            [
              -66.546843,
              10.38953000000015
            ],
            [
              -66.551687,
              10.390732000000128
            ],
            [
              -66.558894,
              10.392644
            ],
            [
              -66.56790299999989,
              10.395291
            ],
            [
              -66.572222,
              10.398074
            ],
            [
              -66.576265,
              10.400785
            ],
            [
              -66.579165,
              10.403026000000182
            ],
            [
              -66.581417,
              10.405178
            ],
            [
              -66.584061,
              10.406823
            ],
            [
              -66.586589,
              10.407665000000122
            ],
            [
              -66.58909299999988,
              10.408553
            ],
            [
              -66.59180499999985,
              10.409279
            ],
            [
              -66.593335,
              10.409481
            ],
            [
              -66.593219,
              10.409206
            ],
            [
              -66.595361,
              10.408643
            ],
            [
              -66.595604,
              10.408579
            ],
            [
              -66.597504,
              10.408481000000165
            ],
            [
              -66.600377,
              10.408495
            ],
            [
              -66.60239399999989,
              10.408787
            ],
            [
              -66.604248,
              10.40940200000017
            ],
            [
              -66.60679799999986,
              10.409761000000174
            ],
            [
              -66.60888399999988,
              10.40980100000013
            ],
            [
              -66.6101819999999,
              10.409843
            ],
            [
              -66.612614,
              10.409491
            ],
            [
              -66.614607,
              10.409255
            ],
            [
              -66.617063,
              10.409408
            ],
            [
              -66.619427,
              10.409676000000104
            ],
            [
              -66.621791,
              10.409806000000174
            ],
            [
              -66.624063,
              10.410304000000167
            ],
            [
              -66.62686799999983,
              10.41103
            ],
            [
              -66.628906,
              10.410588
            ],
            [
              -66.630504,
              10.409779
            ],
            [
              -66.631499,
              10.408926
            ],
            [
              -66.63332599999984,
              10.407107000000167
            ],
            [
              -66.634716,
              10.406734
            ],
            [
              -66.6365459999999,
              10.406292
            ],
            [
              -66.638885,
              10.405596000000173
            ],
            [
              -66.640366,
              10.404856
            ],
            [
              -66.64238,
              10.403977000000168
            ],
            [
              -66.644234,
              10.403971
            ],
            [
              -66.6469479999999,
              10.405202
            ],
            [
              -66.648409,
              10.406116
            ],
            [
              -66.649917,
              10.406915
            ],
            [
              -66.651516,
              10.407208
            ],
            [
              -66.654297,
              10.406878
            ],
            [
              -66.65652199999988,
              10.406871
            ],
            [
              -66.659929,
              10.40743300000014
            ],
            [
              -66.66679,
              10.408192
            ],
            [
              -66.668736,
              10.408162
            ],
            [
              -66.671261,
              10.407695000000103
            ],
            [
              -66.674041,
              10.40741
            ],
            [
              -66.677326,
              10.406919
            ],
            [
              -66.678829,
              10.407454
            ],
            [
              -66.680323,
              10.407735
            ],
            [
              -66.684152,
              10.410614
            ],
            [
              -66.685798,
              10.411252000000104
            ],
            [
              -66.686911,
              10.411409000000106
            ],
            [
              -66.688326,
              10.412254
            ],
            [
              -66.68997499999989,
              10.41374100000013
            ],
            [
              -66.69071799999989,
              10.41484000000014
            ],
            [
              -66.691532,
              10.415449
            ],
            [
              -66.692995,
              10.415571
            ],
            [
              -66.694237,
              10.415190000000166
            ],
            [
              -66.695529,
              10.414281
            ]
          ]
        ]
      }
    }
  ]
}