{"type": "FeatureCollection", "features": [{"type": "Feature", "properties": {"Pais": "Venezuela", "Estado": "Falc\u00f3n", "Municipio": "Petit", "Parroquia": "Cabure"}, "geometry": {"type": "Polygon", "coordinates": [[[-69.561593, 11.213424000000145], [-69.566991, 11.215845], [-69.59872499999983, 11.22963], [-69.648188, 11.15434], [-69.646897, 11.141171], [-69.646718, 11.139611000000116], [-69.646157, 11.13774], [-69.645782, 11.13541000000015], [-69.64483899999988, 11.132652], [-69.61214599999988, 11.076766], [-69.59514799999988, 11.047409000000187], [-69.566675, 10.99908], [-69.563362, 10.941206], [-69.563347, 10.933067], [-69.558595, 10.93106], [-69.55166, 10.911821], [-69.55134700299982, 10.910421003000067], [-69.551033, 10.910736], [-69.55050599999987, 10.909743], [-69.55059099999988, 10.909158000000104], [-69.550946, 10.908218000000147], [-69.548357, 10.907726], [-69.54733, 10.907763000000159], [-69.546646, 10.908584], [-69.54668, 10.909986], [-69.545787, 10.910714], [-69.544968, 10.910983000000101], [-69.543938, 10.911387000000161], [-69.54324, 10.911220000000185], [-69.542733, 10.910619], [-69.541706, 10.910725], [-69.541165, 10.911248], [-69.541556, 10.91178], [-69.54155, 10.912448], [-69.541544, 10.912999000000127], [-69.542114, 10.914360000000102], [-69.542062, 10.91498], [-69.541476, 10.915273000000184], [-69.540895, 10.915061], [-69.54027, 10.914619], [-69.53950399999985, 10.914222], [-69.538895, 10.914539], [-69.538449, 10.914765], [-69.537697, 10.915402], [-69.53692799999988, 10.915372], [-69.535764, 10.91517800000014], [-69.53492299999988, 10.915309], [-69.533963, 10.915783], [-69.53312, 10.91609700000015], [-69.532089, 10.916594], [-69.53143299999988, 10.916864], [-69.530811, 10.916077], [-69.52938799999987, 10.91613400000017], [-69.52801199999988, 10.916122], [-69.526944, 10.915676000000133], [-69.527251, 10.915196], [-69.5267669999999, 10.914664], [-69.525863, 10.914127], [-69.52566, 10.913344], [-69.525902, 10.912427], [-69.525767, 10.911943000000122], [-69.52429599999982, 10.912115], [-69.52166, 10.912275], [-69.520404, 10.911874000000125], [-69.51909399999988, 10.912345000000187], [-69.51789899999989, 10.912932], [-69.51639099999989, 10.91455000000019], [-69.515315, 10.914886000000138], [-69.51462, 10.914397000000179], [-69.513363, 10.914225000000158], [-69.5124459999999, 10.915045000000134], [-69.51180899999986, 10.915774], [-69.511031, 10.916687], [-69.510833, 10.917811], [-69.509963, 10.918584], [-69.50947899999989, 10.918029000000104], [-69.501925, 10.913503000000105], [-69.49983, 10.913617000000102], [-69.499016, 10.912399], [-69.498201, 10.910927000000129], [-69.49710699999986, 10.910444], [-69.49685099999988, 10.911915000000135], [-69.496246, 10.912559000000158], [-69.494989, 10.911961], [-69.493918, 10.91219000000018], [-69.492824, 10.911431], [-69.491707, 10.91058], [-69.490543, 10.910235], [-69.4890309999999, 10.90966], [-69.488146, 10.909981000000187], [-69.487471, 10.910901], [-69.486424, 10.912119000000132], [-69.48491, 10.912762], [-69.484165, 10.912486000000115], [-69.48444399999988, 10.911244], [-69.483839, 10.910233], [-69.482582, 10.909819], [-69.481302, 10.909174000000178], [-69.479091, 10.908967000000132], [-69.476438, 10.908989000000133], [-69.475646, 10.909241], [-69.473738, 10.909057], [-69.472178, 10.910068], [-69.47136399999988, 10.908803], [-69.468943, 10.909308], [-69.46719699999983, 10.90864], [-69.466127, 10.907904], [-69.463171, 10.907788], [-69.46019, 10.908155], [-69.45784, 10.905993], [-69.45635, 10.905716], [-69.455722, 10.906061], [-69.455117, 10.906819], [-69.454139, 10.906566], [-69.453278, 10.907761000000164], [-69.453114, 10.908818], [-69.454301, 10.909210000000144], [-69.4547199999999, 10.910359], [-69.45478999999989, 10.912038], [-69.45451, 10.912612], [-69.453486, 10.912796], [-69.452299, 10.912244], [-69.45150799999988, 10.912565], [-69.45146099999988, 10.913485], [-69.449273, 10.913691], [-69.447387, 10.914311000000168], [-69.44755, 10.916311], [-69.448737, 10.917277], [-69.449807, 10.91799], [-69.45062199999984, 10.919094000000143], [-69.451576, 10.919991], [-69.451227, 10.921209000000147], [-69.45087699999988, 10.922749], [-69.451715, 10.924888], [-69.451715, 10.925968], [-69.451109, 10.927324], [-69.450015, 10.927025000000128], [-69.449154, 10.926818], [-69.44927, 10.927829], [-69.448781, 10.928887], [-69.448781, 10.929899], [-69.44757, 10.930129000000136], [-69.446732, 10.931002], [-69.44696499999986, 10.932611000000122], [-69.445172, 10.934105000000102], [-69.4431699999999, 10.93398900000011], [-69.442891, 10.932839000000172], [-69.44188999999989, 10.932103], [-69.439981, 10.932815000000119], [-69.437584, 10.933458], [-69.436094, 10.93302], [-69.435442, 10.931870000000117], [-69.434208, 10.932398], [-69.435256, 10.933226], [-69.435023, 10.93398500000012], [-69.434207, 10.934766], [-69.433974, 10.935939000000133], [-69.4336009999999, 10.936674], [-69.431879, 10.937087], [-69.430901, 10.936696], [-69.429853, 10.937017], [-69.42896899999988, 10.936511], [-69.429225, 10.935660000000155], [-69.42862, 10.934580000000153], [-69.427573, 10.934855], [-69.42680399999989, 10.9356590000001], [-69.42617599999988, 10.935866000000146], [-69.42578, 10.935199], [-69.425245, 10.934394], [-69.423825, 10.933565], [-69.422848, 10.933128], [-69.42193999999989, 10.932001000000128], [-69.4205209999999, 10.931357000000105], [-69.41796, 10.931562], [-69.416703, 10.932044000000133], [-69.41633, 10.932872], [-69.418146, 10.933516], [-69.419612, 10.934230000000127], [-69.4198909999999, 10.935724000000107], [-69.420333, 10.936644], [-69.4212639999999, 10.937128000000143], [-69.420845, 10.938162], [-69.419658, 10.937793], [-69.41882, 10.937540000000126], [-69.418075, 10.937195000000145], [-69.41698, 10.937976000000106], [-69.415421, 10.938389], [-69.414187, 10.93802], [-69.412581, 10.9371000000001], [-69.411208, 10.936018000000104], [-69.409951, 10.934753], [-69.40874, 10.933787000000109], [-69.40767, 10.933350000000189], [-69.407181, 10.932039], [-69.406367, 10.931165], [-69.40548299999989, 10.930084000000136], [-69.405018, 10.929348000000175], [-69.404389, 10.928865000000144], [-69.403714, 10.928841000000148], [-69.402504, 10.928450000000112], [-69.401573, 10.929185000000189], [-69.400897, 10.929851], [-69.39985, 10.930057], [-69.398755, 10.930677000000173], [-69.398174, 10.930769000000112], [-69.399221, 10.931712000000175], [-69.399755, 10.933368], [-69.398754, 10.933574], [-69.397125, 10.933826000000124], [-69.39603099999988, 10.934101000000112], [-69.39617, 10.934745000000134], [-69.396519, 10.936102000000119], [-69.3951919999999, 10.936561], [-69.394121, 10.937342], [-69.393888, 10.938399000000118], [-69.39335199999982, 10.938491000000113], [-69.391491, 10.936627], [-69.39007099999986, 10.935684], [-69.388767, 10.935499000000164], [-69.387207, 10.935544000000164], [-69.386345, 10.936325000000124], [-69.386344, 10.938233], [-69.38646, 10.939222], [-69.38646, 10.940394], [-69.386227, 10.941038000000162], [-69.385808, 10.940371], [-69.385017, 10.94062300000013], [-69.384597, 10.941221], [-69.383434, 10.940944], [-69.38240899999988, 10.941127], [-69.380966, 10.940345], [-69.379151, 10.939516], [-69.377847, 10.9394], [-69.376684, 10.939238000000103], [-69.376219, 10.938043000000164], [-69.376382, 10.937353], [-69.376057, 10.935537000000124], [-69.375545, 10.934686], [-69.37461399999984, 10.934363000000133], [-69.37365999999986, 10.933558000000119], [-69.37349699999987, 10.932937], [-69.37382299999985, 10.93259200000017], [-69.37466199999989, 10.932225000000187], [-69.375639, 10.931904], [-69.376292, 10.930985], [-69.375896, 10.929858], [-69.375571, 10.92926000000017], [-69.374803, 10.928271], [-69.374128, 10.927420000000154], [-69.373407, 10.926799], [-69.373268, 10.925695], [-69.372686, 10.924683000000186], [-69.372291, 10.923763], [-69.371523, 10.923786], [-69.3703359999999, 10.923624000000132], [-69.369149, 10.923485], [-69.368311, 10.922933000000171], [-69.368125, 10.922335], [-69.367101, 10.922058], [-69.366425, 10.92341400000015], [-69.366309, 10.924334], [-69.364469, 10.924585], [-69.362932, 10.924883], [-69.361605, 10.925572], [-69.361186, 10.926169000000186], [-69.361767, 10.926997000000142], [-69.362907, 10.927849], [-69.363722, 10.928723000000105], [-69.364396, 10.929643], [-69.36399999999986, 10.930332], [-69.363092, 10.93047], [-69.361952, 10.930676], [-69.360904, 10.931043], [-69.359927, 10.930053], [-69.359066, 10.9289950000001], [-69.358648, 10.927731000000108], [-69.357182, 10.927109], [-69.356157, 10.927338000000134], [-69.355622, 10.926349000000187], [-69.355157, 10.925866], [-69.355576, 10.925199], [-69.35425, 10.924302], [-69.35341199999988, 10.923726], [-69.352086, 10.922852], [-69.351062, 10.92338000000018], [-69.349782, 10.923011], [-69.347942, 10.923837000000162], [-69.346685, 10.923790000000167], [-69.345986, 10.925031], [-69.34554399999985, 10.925904000000116], [-69.345473, 10.92684700000018], [-69.345566, 10.92758300000014], [-69.345239, 10.928801], [-69.344913, 10.92995], [-69.344936, 10.930801], [-69.34591299999983, 10.930801], [-69.34696099999985, 10.931055000000185], [-69.346146, 10.931905000000143], [-69.3457959999999, 10.933192], [-69.343863, 10.933536000000117], [-69.34256, 10.933856000000105], [-69.340581, 10.933395000000132], [-69.340231, 10.934108], [-69.34079, 10.935395], [-69.33983399999983, 10.936084], [-69.337995, 10.936129], [-69.336808, 10.935185000000104], [-69.33550499999984, 10.935322], [-69.334736, 10.936172], [-69.33338499999985, 10.936723], [-69.33238399999988, 10.93720500000012], [-69.331686, 10.937756], [-69.33236, 10.938584000000162], [-69.332779, 10.93957300000011], [-69.333244, 10.94054000000017], [-69.333546, 10.94123], [-69.334244, 10.942196], [-69.33447599999988, 10.94284], [-69.334289, 10.94378300000011], [-69.333963, 10.944932000000108], [-69.33379899999989, 10.94575900000018], [-69.33326399999987, 10.945874], [-69.3330079999999, 10.945552], [-69.331821, 10.945505], [-69.33182, 10.946516], [-69.33161, 10.947574], [-69.33121299999988, 10.949482], [-69.330119, 10.948768], [-69.329444, 10.948584000000153], [-69.329164, 10.949687], [-69.329303, 10.950675000000103], [-69.329698, 10.9524], [-69.32909299999989, 10.952331000000186], [-69.32771999999989, 10.951433000000122], [-69.32646299999982, 10.950903000000153], [-69.3248569999999, 10.950695000000167], [-69.32339, 10.950854], [-69.32276199999984, 10.950187], [-69.32280899999989, 10.949773000000107], [-69.32388, 10.949705000000165], [-69.324509, 10.949039000000141], [-69.324416, 10.948234000000127], [-69.323835, 10.947843], [-69.32334599999984, 10.947866], [-69.323322, 10.948302], [-69.32334499999985, 10.948624], [-69.323136, 10.948762000000102], [-69.322833, 10.948325000000182], [-69.322554, 10.947451000000171], [-69.322369, 10.946830000000148], [-69.32181, 10.946209], [-69.32239299999986, 10.945336000000168], [-69.322789, 10.944945000000132], [-69.3226499999999, 10.944279000000108], [-69.321672, 10.944071000000122], [-69.320858, 10.943403000000103], [-69.320043, 10.943265], [-69.31943799999988, 10.942827], [-69.319531, 10.942184000000111], [-69.319509, 10.941310000000101], [-69.318345, 10.940803], [-69.316692, 10.940917], [-69.31664599999988, 10.940089000000171], [-69.31638999999984, 10.939744], [-69.31590099999988, 10.940042000000176], [-69.314737, 10.939122], [-69.313388, 10.938224], [-69.312713, 10.937718], [-69.311875, 10.936912000000177], [-69.31085099999984, 10.936566], [-69.309967, 10.936543], [-69.310339, 10.937256], [-69.310059, 10.938129000000174], [-69.309267, 10.93799], [-69.308476, 10.938289], [-69.308243, 10.937645], [-69.307755, 10.937000000000182], [-69.3067769999999, 10.93745900000016], [-69.305473, 10.938539000000162], [-69.30496, 10.939228000000128], [-69.30551799999984, 10.940148], [-69.30556399999989, 10.941045], [-69.30468, 10.940814000000103], [-69.304167, 10.941112], [-69.303632, 10.941618000000176], [-69.303143, 10.940951], [-69.303097, 10.940123000000142], [-69.302329, 10.939731], [-69.30144499999989, 10.939064], [-69.300374, 10.938902], [-69.299304, 10.939016], [-69.29881499999988, 10.938579000000118], [-69.297512, 10.938003], [-69.296254, 10.938806], [-69.29474099999987, 10.939379], [-69.294204, 10.940643], [-69.293435, 10.942160000000115], [-69.293598, 10.94285], [-69.293225, 10.943677], [-69.293294, 10.944068], [-69.293829, 10.944988000000137], [-69.292292, 10.945745], [-69.290336, 10.945330000000183], [-69.28935799999988, 10.945697000000166], [-69.28807699999987, 10.945741000000112], [-69.287634, 10.946637000000123], [-69.28840199999985, 10.946983], [-69.28865799999988, 10.947650000000124], [-69.288145, 10.948730000000126], [-69.286935, 10.947924], [-69.28647, 10.946889], [-69.286215, 10.946222], [-69.285004, 10.946612], [-69.284166, 10.946611000000132], [-69.283352, 10.945990000000108], [-69.282933, 10.946035], [-69.282653, 10.946564000000137], [-69.28307199999989, 10.946587], [-69.28323499999988, 10.946794000000182], [-69.28253599999988, 10.94746], [-69.281465, 10.946999], [-69.280767, 10.947366], [-69.280184, 10.948423000000105], [-69.279182, 10.949894], [-69.278227, 10.949548000000107], [-69.276668, 10.949753], [-69.275899, 10.950833], [-69.274734, 10.951499], [-69.275199, 10.952327], [-69.274849, 10.95274000000012], [-69.274639, 10.95361400000013], [-69.274918, 10.954097000000104], [-69.27564, 10.954005000000109], [-69.276223, 10.952742], [-69.276875, 10.952351], [-69.277876, 10.952812], [-69.276828, 10.953593000000126], [-69.27619899999985, 10.954282000000148], [-69.275988, 10.955431], [-69.27629, 10.956098000000111], [-69.275964, 10.956305], [-69.275335, 10.956534000000147], [-69.274521, 10.955545], [-69.273148, 10.955428], [-69.272357, 10.954991000000177], [-69.271472, 10.954990000000123], [-69.26953999999989, 10.954988000000128], [-69.267677, 10.955492], [-69.26642, 10.95615700000019], [-69.264696, 10.956385], [-69.26294999999988, 10.956222], [-69.26239, 10.956980000000101], [-69.263345, 10.957395000000133], [-69.263321, 10.958062], [-69.26232, 10.958061], [-69.262529, 10.95856700000013], [-69.262668, 10.959234], [-69.262598, 10.959831], [-69.263296, 10.960085000000106], [-69.263878, 10.960086], [-69.263715, 10.959419], [-69.264926, 10.959512000000132], [-69.265252, 10.95965], [-69.26567099999988, 10.960708000000182], [-69.265204, 10.96126], [-69.264691, 10.961650000000134], [-69.26383, 10.962155000000166], [-69.26233999999988, 10.961509], [-69.261409, 10.961371000000156], [-69.261874, 10.962476], [-69.26199, 10.963027000000181], [-69.26164, 10.96344100000016], [-69.260849, 10.963417000000106], [-69.25901, 10.962909], [-69.259614, 10.964565000000107], [-69.259217, 10.965485000000172], [-69.25916999999987, 10.966151], [-69.259123, 10.96668000000011], [-69.25882, 10.967760000000112], [-69.258074, 10.968058], [-69.258865, 10.968749], [-69.2582589999999, 10.969852], [-69.258468, 10.970634], [-69.258327, 10.972013000000118], [-69.25911899999983, 10.97183], [-69.25925699999988, 10.973278000000164], [-69.25914, 10.973876], [-69.258953, 10.975439], [-69.25993, 10.976084000000128], [-69.261094, 10.976821], [-69.260767, 10.977257], [-69.260604, 10.978016000000139], [-69.260929, 10.978959], [-69.261277, 10.979879], [-69.261486, 10.980936000000156], [-69.26095, 10.981166], [-69.26004299999988, 10.980843000000107], [-69.259624, 10.98077300000017], [-69.259461, 10.98001500000015], [-69.258274, 10.979875000000106], [-69.257483, 10.979093], [-69.257507, 10.978311], [-69.257554, 10.977714], [-69.25618, 10.978195], [-69.255411, 10.979068000000154], [-69.254037, 10.979848], [-69.25291899999985, 10.980238000000156], [-69.25312799999989, 10.981157000000167], [-69.253523, 10.98173300000019], [-69.253825, 10.982193], [-69.252847, 10.982766], [-69.252823, 10.98384700000014], [-69.253358, 10.984606], [-69.253776, 10.985181], [-69.253636, 10.985779], [-69.25412399999988, 10.98709], [-69.25382, 10.988055000000145], [-69.25421499999987, 10.9888830000001], [-69.254447, 10.989918000000102], [-69.25342199999989, 10.99065300000018], [-69.25216399999988, 10.991571], [-69.251162, 10.992168000000106], [-69.249904, 10.993316], [-69.249322, 10.993108], [-69.2499279999999, 10.992603], [-69.249533, 10.991568], [-69.248695, 10.991291], [-69.247624, 10.991888], [-69.245948, 10.99161], [-69.245319, 10.991954], [-69.24529499999989, 10.991977000000134], [-69.24492299999986, 10.992414], [-69.24596899999989, 10.993311000000176], [-69.244945, 10.993448000000114], [-69.245037, 10.994207], [-69.243548, 10.996456], [-69.243862, 10.996976000000188], [-69.24471199999988, 10.997668], [-69.24530099999987, 10.999030000000118], [-69.245369, 10.999922], [-69.244806, 11.000598], [-69.244457, 11.001454], [-69.244399, 11.001936], [-69.244493, 11.00294200000019], [-69.244476, 11.003218000000118], [-69.243645, 11.003328000000124], [-69.24349, 11.004591000000175], [-69.24462199999982, 11.005414], [-69.24621499999989, 11.006157], [-69.24641999999989, 11.007939], [-69.247241, 11.009318000000121], [-69.247694, 11.010775], [-69.247356, 11.012134], [-69.24799699999983, 11.012761], [-69.248143, 11.014018], [-69.247696, 11.015654], [-69.248071, 11.016791000000126], [-69.248113, 11.017546], [-69.248181, 11.018438000000117], [-69.247859, 11.01856], [-69.24698, 11.018603], [-69.246359, 11.018777000000114], [-69.24638399999986, 11.01983], [-69.247308, 11.020657], [-69.24774999999988, 11.021678000000179], [-69.247863, 11.022546], [-69.247647, 11.023193000000106], [-69.247161, 11.023181], [-69.24633, 11.023314], [-69.245144, 11.023134], [-69.244941, 11.024307], [-69.24493299999989, 11.024926000000164], [-69.245436, 11.025602000000106], [-69.24450599999989, 11.025462], [-69.243683, 11.025939000000108], [-69.242765, 11.027242000000115], [-69.242732, 11.028755], [-69.243752, 11.029717], [-69.244495, 11.029792], [-69.24579199999988, 11.029809], [-69.24520699999982, 11.030487], [-69.244999, 11.031476000000112], [-69.245348, 11.032499], [-69.24504599999989, 11.0334], [-69.244397, 11.033391000000108], [-69.244023, 11.034224000000108], [-69.244089, 11.035048], [-69.244731, 11.035721], [-69.244647, 11.037029], [-69.24405599999989, 11.03750100000019], [-69.243073, 11.037087], [-69.242081, 11.03724700000015], [-69.24146799999988, 11.037765], [-69.241044, 11.038438], [-69.24046, 11.039207000000147], [-69.239908, 11.039357000000109], [-69.2390999999999, 11.039490000000114], [-69.238395, 11.040010000000109], [-69.238418, 11.040971], [-69.238391, 11.041774], [-69.237872, 11.043274], [-69.237205, 11.044435], [-69.236313, 11.044936], [-69.235234, 11.044387], [-69.23480299999989, 11.043778000000145], [-69.234044, 11.043062], [-69.232785, 11.042746], [-69.232675, 11.04394], [-69.232161, 11.044708000000185], [-69.231504, 11.045318], [-69.230627, 11.045475], [-69.22926599999988, 11.045711], [-69.228619, 11.045795], [-69.22754999999984, 11.045681], [-69.2267, 11.045975], [-69.225467, 11.04575], [-69.22471899999988, 11.045492], [-69.22363, 11.045493000000135], [-69.22272499999985, 11.045422], [-69.221583, 11.045149], [-69.22092899999984, 11.044912000000181], [-69.220409, 11.044488000000115], [-69.219909, 11.043927], [-69.21935799999989, 11.04316000000017], [-69.218407, 11.043135], [-69.218206, 11.04440000000011], [-69.21780299999983, 11.044959000000176], [-69.217566, 11.04572], [-69.218078, 11.046785], [-69.217431, 11.047785], [-69.21669, 11.048786], [-69.215815, 11.048989000000176], [-69.215272, 11.048589000000106], [-69.214277, 11.048611000000164], [-69.213094, 11.04856800000016], [-69.212684, 11.049792], [-69.21306399999986, 11.050196], [-69.213222, 11.050994000000173], [-69.2135679999999, 11.05188], [-69.21310099999988, 11.053654000000165], [-69.213328, 11.054428], [-69.21321, 11.05624], [-69.213409, 11.0568090000001], [-69.214255, 11.057294], [-69.21447999999987, 11.057999000000166], [-69.214191, 11.058510000000126], [-69.213486, 11.059052], [-69.213449, 11.059420000000102], [-69.213532, 11.059968], [-69.21363899999983, 11.060584000000176], [-69.213558, 11.061044], [-69.21368699999988, 11.061591], [-69.214178, 11.06274800000017], [-69.21346, 11.062741], [-69.212837, 11.06287], [-69.212976, 11.063806000000113], [-69.212137, 11.064558000000147], [-69.211505, 11.06432000000018], [-69.210859, 11.063463000000127], [-69.210077, 11.063687], [-69.209553, 11.064065], [-69.208744, 11.064129], [-69.207927, 11.063895], [-69.206892, 11.064216000000101], [-69.205661, 11.064060000000154], [-69.20501899999988, 11.06341], [-69.203933, 11.063503], [-69.20335099999983, 11.06434], [-69.203266, 11.065626], [-69.202833, 11.065956], [-69.2023, 11.065968000000112], [-69.201361, 11.065485000000137], [-69.200714, 11.065522000000158], [-69.200075, 11.065926], [-69.224661, 11.158862], [-69.226593, 11.158351], [-69.226908, 11.15703800000017], [-69.22759599999989, 11.156702], [-69.22827199999989, 11.155908], [-69.22888399999988, 11.15536800000018], [-69.228531, 11.154161000000158], [-69.228351, 11.153455000000179], [-69.227727, 11.152575000000184], [-69.227064, 11.151032], [-69.227471, 11.150588], [-69.227834, 11.150259], [-69.229075, 11.149865000000148], [-69.230381, 11.149239], [-69.231365, 11.149653000000171], [-69.232233, 11.149129000000187], [-69.233143, 11.148445], [-69.233887, 11.148543000000188], [-69.23465, 11.14848000000012], [-69.235582, 11.147726], [-69.236642, 11.147473000000105], [-69.237474, 11.147317000000157], [-69.237758, 11.146624], [-69.237802, 11.14462900000018], [-69.237236, 11.14329], [-69.236704, 11.142363000000103], [-69.23730599999988, 11.141410000000121], [-69.237644, 11.140051], [-69.237994, 11.139173], [-69.23830299999986, 11.137608000000114], [-69.238331, 11.136851], [-69.238144, 11.135825], [-69.23871899999989, 11.134689], [-69.239362, 11.134377000000143], [-69.23926199999988, 11.133188000000132], [-69.239124, 11.132275000000107], [-69.24109299999986, 11.131246], [-69.241999, 11.130378000000178], [-69.242704, 11.129835000000185], [-69.24275099999983, 11.128895], [-69.243391, 11.12851400000011], [-69.24553, 11.128810000000101], [-69.246973, 11.129075], [-69.24825499999986, 11.129368000000113], [-69.249172, 11.128981], [-69.249376, 11.12785300000013], [-69.250117, 11.126852], [-69.250099, 11.126096], [-69.25116999999989, 11.12536200000011], [-69.251496, 11.124484000000109], [-69.252213, 11.123483], [-69.253208, 11.123415000000136], [-69.252964, 11.122894], [-69.253772, 11.122784000000138], [-69.25462799999985, 11.122719], [-69.256852, 11.121753000000126], [-69.257913, 11.120584000000179], [-69.257855, 11.120104], [-69.25888, 11.119393], [-69.259105, 11.118151000000125], [-69.259337, 11.117183000000182], [-69.259431, 11.116287000000113], [-69.259821, 11.115202], [-69.260099, 11.114211000000125], [-69.260762, 11.113875], [-69.26175199999989, 11.113601], [-69.262936, 11.113689], [-69.263385, 11.113083], [-69.263071, 11.112586000000135], [-69.263068, 11.111487000000125], [-69.263925, 11.111467], [-69.264267, 11.110291000000132], [-69.264198, 11.109354], [-69.26449, 11.108981], [-69.26440899999983, 11.107562], [-69.26441199999988, 11.106714000000125], [-69.26478, 11.106637000000148], [-69.26569599999982, 11.10618200000016], [-69.265863, 11.105422000000146], [-69.266235, 11.10452], [-69.2673, 11.10351100000014], [-69.26645799999989, 11.103186], [-69.267163, 11.102644000000168], [-69.267976, 11.102694], [-69.268316, 11.101449], [-69.268923, 11.101642], [-69.269562, 11.101238], [-69.27092, 11.0999020000001], [-69.270901, 11.0991], [-69.272053, 11.098846000000151], [-69.273172, 11.097217000000171], [-69.273925, 11.095802000000162], [-69.275112, 11.095066], [-69.27644899999984, 11.093821], [-69.27715599999988, 11.093347], [-69.27764, 11.092283000000123], [-69.277564, 11.091093000000114], [-69.277813, 11.090835], [-69.278184, 11.089888], [-69.278885, 11.089208], [-69.2789939999999, 11.087945], [-69.279028, 11.086501000000112], [-69.27861, 11.085526], [-69.278761, 11.085041000000103], [-69.27911399999988, 11.084323], [-69.280048, 11.084646000000134], [-69.28105, 11.084852000000126], [-69.282178, 11.084575], [-69.28291399999989, 11.084328], [-69.28349899999989, 11.083628], [-69.284249, 11.08301500000016], [-69.285356, 11.082830000000115], [-69.286082, 11.08313500000014], [-69.286604, 11.081725000000176], [-69.287367, 11.081662000000108], [-69.287588, 11.081222000000139], [-69.287624, 11.080786000000103], [-69.287903, 11.079886000000101], [-69.288596, 11.079825], [-69.289104, 11.078805000000159], [-69.28924399999988, 11.077886000000149], [-69.289873, 11.077070000000163], [-69.290168, 11.075849], [-69.290424, 11.07495], [-69.290444, 11.073873000000106], [-69.290672, 11.072768000000167], [-69.291173, 11.072436], [-69.29151, 11.071031000000175], [-69.291604, 11.070135000000107], [-69.29203299999989, 11.068728], [-69.2931, 11.068796000000134], [-69.293802, 11.068139000000144], [-69.29473399999989, 11.06834700000013], [-69.295462, 11.068743], [-69.295914, 11.069214000000102], [-69.297036, 11.06866100000019], [-69.297719, 11.068142], [-69.298669, 11.067204], [-69.299511, 11.066567000000134], [-69.299097, 11.065774], [-69.29943, 11.065148000000136], [-69.299591, 11.06418200000013], [-69.298797, 11.063925], [-69.299427, 11.063155], [-69.299664, 11.062394000000154], [-69.299953, 11.061929], [-69.300619, 11.061662000000183], [-69.30076, 11.060788000000173], [-69.301218, 11.060595], [-69.301743, 11.060285], [-69.302114, 11.060277000000156], [-69.302047, 11.059454], [-69.302381, 11.058896000000118], [-69.302983, 11.058883], [-69.30358, 11.05864], [-69.304155, 11.058467000000121], [-69.304896, 11.058450000000164], [-69.30572299999983, 11.05724], [-69.305873, 11.05671], [-69.306666, 11.056005], [-69.3073639999999, 11.055187], [-69.307456, 11.0542], [-69.307866, 11.053916000000186], [-69.307693, 11.05348400000014], [-69.307971, 11.053478], [-69.3096579999999, 11.053303], [-69.310054, 11.052423], [-69.309878, 11.051876000000163], [-69.310527, 11.051862], [-69.311303, 11.050470000000132], [-69.312101, 11.049948000000143], [-69.312338, 11.049186000000134], [-69.312313, 11.048179000000118], [-69.31261199999989, 11.04716400000018], [-69.312623, 11.04666], [-69.313124, 11.046282], [-69.312799, 11.045304000000101], [-69.312982, 11.045208000000173], [-69.312868, 11.04434], [-69.313113, 11.043968], [-69.313337, 11.043643], [-69.312966, 11.043628000000183], [-69.31252199999989, 11.043455], [-69.312626, 11.042971], [-69.312967, 11.042712], [-69.3131939999999, 11.042523], [-69.313622, 11.04203200000012], [-69.31399, 11.041933], [-69.31456899999989, 11.04189700000012], [-69.315006, 11.040856000000133], [-69.315117, 11.03970800000019], [-69.315579, 11.039629], [-69.31605899999988, 11.039389], [-69.317121, 11.039227], [-69.317714, 11.039810000000102], [-69.318452, 11.040618000000165], [-69.31938699999984, 11.04094], [-69.320323, 11.041331000000184], [-69.32094099999989, 11.041959], [-69.32139399999988, 11.042476], [-69.321923, 11.042349], [-69.322365, 11.042408000000137], [-69.322656, 11.042928000000188], [-69.3222679999999, 11.043166000000156], [-69.32193699999988, 11.043838000000164], [-69.32264, 11.044166], [-69.323185, 11.044657], [-69.323365, 11.045386000000121], [-69.324056, 11.046150000000125], [-69.324451, 11.046187], [-69.32514099999986, 11.046927], [-69.325254, 11.047772], [-69.326494, 11.048248000000171], [-69.32680699999986, 11.048722000000112], [-69.328451, 11.048685], [-69.329335, 11.04887100000019], [-69.329744, 11.049458], [-69.3306869999999, 11.050147], [-69.330992, 11.051216], [-69.330872, 11.052021], [-69.330979, 11.053553], [-69.329989, 11.053805], [-69.33017499999988, 11.054763], [-69.330414, 11.055995], [-69.330245, 11.056686], [-69.330427, 11.057484000000159], [-69.32997599999987, 11.057999000000166], [-69.329648, 11.058762], [-69.32972399999989, 11.059035], [-69.330546, 11.05949800000019], [-69.330746, 11.060112000000174], [-69.33097, 11.060725000000105], [-69.33106, 11.06154800000013], [-69.33105699999987, 11.062396000000149], [-69.330489, 11.062844], [-69.33143499999989, 11.063624000000175], [-69.331222, 11.064385], [-69.331078, 11.065144000000146], [-69.33105199999989, 11.065947000000165], [-69.331818, 11.066960000000108], [-69.332831, 11.068587], [-69.33313, 11.069451000000186], [-69.3325, 11.070221000000117], [-69.333174, 11.071237000000167], [-69.334571, 11.072465], [-69.335648, 11.073838], [-69.33689, 11.075391000000138], [-69.33841599999982, 11.076181000000133], [-69.339817, 11.077593], [-69.34075299999984, 11.076999000000114], [-69.34188399999988, 11.076813000000186], [-69.34266899999989, 11.07668], [-69.34266999999988, 11.075787], [-69.343034, 11.074565000000177], [-69.344284, 11.074513000000138], [-69.345228, 11.074263], [-69.346505, 11.074371], [-69.3470999999999, 11.075045000000102], [-69.347849, 11.075349], [-69.348307, 11.076049], [-69.3481359999999, 11.076648], [-69.348381, 11.077192000000139], [-69.34912599999984, 11.077336000000116], [-69.350103, 11.076558], [-69.35058599999985, 11.076409000000183], [-69.351119, 11.075458], [-69.35120399999983, 11.074219000000141], [-69.351914, 11.073859], [-69.352808, 11.074435000000108], [-69.35370499999988, 11.074139000000116], [-69.353985, 11.072346], [-69.35419, 11.071288], [-69.354973, 11.071064], [-69.35575499999987, 11.070863000000145], [-69.356866, 11.070792], [-69.358051, 11.070925000000102], [-69.358807, 11.071526], [-69.359356, 11.072201000000177], [-69.3599, 11.07262400000019], [-69.360922, 11.072761000000128], [-69.362105, 11.07278], [-69.36233299999986, 11.073600000000113], [-69.3628, 11.074689000000149], [-69.363638, 11.074853], [-69.364021, 11.075325], [-69.364501, 11.07506300000017], [-69.36520499999989, 11.074497], [-69.365804, 11.074369000000104], [-69.36590499999983, 11.073748], [-69.36565, 11.072791000000109], [-69.365225, 11.072480000000155], [-69.364592, 11.072174], [-69.364856, 11.071595000000116], [-69.36520899999988, 11.070877], [-69.365567, 11.070388], [-69.366562, 11.070319], [-69.366898, 11.069831], [-69.366887, 11.069418], [-69.366796, 11.06855], [-69.36687199999989, 11.067884], [-69.367931, 11.068501], [-69.36824699999988, 11.069113], [-69.36882999999989, 11.069237], [-69.369179, 11.069320000000175], [-69.3694569999999, 11.068352], [-69.370039, 11.067537], [-69.370696, 11.066925], [-69.370761, 11.065824], [-69.37069, 11.064795], [-69.371569, 11.064752], [-69.372466, 11.06541900000019], [-69.373226, 11.066203], [-69.373225, 11.067097000000103], [-69.37286399999988, 11.067495000000179], [-69.373803, 11.067955], [-69.37461999999988, 11.06821200000013], [-69.37491099999988, 11.067814000000112], [-69.375719, 11.067704], [-69.375691, 11.068439000000126], [-69.37558399999989, 11.068785000000162], [-69.375603, 11.069564000000128], [-69.37599699999987, 11.070494000000167], [-69.376224, 11.071268], [-69.376672, 11.072495000000174], [-69.37740899999989, 11.072341], [-69.378223, 11.072459], [-69.37873899999988, 11.072723], [-69.379204, 11.072781000000191], [-69.37952599999983, 11.072682000000157], [-69.380001, 11.072213], [-69.380567, 11.071673], [-69.380562, 11.072406], [-69.380481, 11.072866], [-69.380682, 11.073503], [-69.381047, 11.073289000000102], [-69.38172, 11.073342], [-69.38208, 11.073838], [-69.38222999999982, 11.074293], [-69.382687, 11.07494700000018], [-69.383523, 11.075019000000111], [-69.384168, 11.074867], [-69.384461, 11.07454], [-69.384378, 11.073992], [-69.385213, 11.074041], [-69.385843, 11.074233], [-69.38663, 11.074192], [-69.387231, 11.074133000000131], [-69.388158, 11.074157000000184], [-69.3888199999999, 11.073753000000124], [-69.389353, 11.073764000000153], [-69.389544, 11.0739650000001], [-69.389537, 11.074653000000183], [-69.389595, 11.075110000000166], [-69.389584, 11.075591], [-69.390215, 11.076722000000132], [-69.39065499999987, 11.076712], [-69.390993, 11.076315], [-69.391513, 11.075799000000131], [-69.392133, 11.07555600000012], [-69.392546, 11.075409], [-69.393243, 11.075485], [-69.394014, 11.07576500000016], [-69.39519699999988, 11.075807000000111], [-69.395928, 11.076317000000188], [-69.396553, 11.07630300000011], [-69.39686199999989, 11.075677], [-69.397036, 11.075215000000128], [-69.3973, 11.074636], [-69.397713, 11.074489], [-69.39848099999989, 11.074609], [-69.399621, 11.074812000000179], [-69.400787, 11.075106000000176], [-69.40214, 11.07551100000012], [-69.40315099999987, 11.076106000000152], [-69.403869, 11.077029000000152], [-69.404204, 11.077434], [-69.40414599999986, 11.07791600000013], [-69.403798, 11.077878], [-69.402997, 11.077347000000145], [-69.401999, 11.077301], [-69.401497, 11.07761], [-69.401625, 11.078088], [-69.402538, 11.078480000000127], [-69.403404, 11.078804000000105], [-69.403913, 11.079731], [-69.404046, 11.080416], [-69.404511, 11.080497], [-69.405379, 11.080912], [-69.40635299999985, 11.080958000000123], [-69.40685999999988, 11.081772000000171], [-69.406666, 11.082349000000136], [-69.406212, 11.082749], [-69.405992, 11.083212000000117], [-69.405837, 11.084430000000168], [-69.405862, 11.085460000000126], [-69.405948, 11.086099], [-69.405079, 11.086555000000146], [-69.404761, 11.086814], [-69.405119, 11.087241], [-69.406498, 11.087713], [-69.407374, 11.087556000000177], [-69.4084069999999, 11.087166], [-69.40848299999988, 11.087416000000132], [-69.408301, 11.088474000000133], [-69.408558, 11.088560000000143], [-69.409373, 11.088747000000126], [-69.409104, 11.089097000000152], [-69.40872399999984, 11.089656], [-69.409286, 11.089918], [-69.409836, 11.090592], [-69.40989699999989, 11.091164000000106], [-69.4106139999999, 11.091147000000149], [-69.410757, 11.092198], [-69.410618, 11.093117], [-69.4102319999999, 11.093493], [-69.410062, 11.094115], [-69.410654, 11.09456], [-69.41077499999989, 11.094763000000171], [-69.41102299999989, 11.095445], [-69.41176699999988, 11.09552], [-69.412696, 11.095636000000127], [-69.413453, 11.09626], [-69.41356599999989, 11.097082], [-69.413122, 11.09784800000017], [-69.414003, 11.098790000000122], [-69.414476, 11.099192000000187], [-69.415513, 11.098962000000142], [-69.415504, 11.098596], [-69.416332, 11.09837], [-69.416911, 11.098357], [-69.417949, 11.099089000000163], [-69.418524, 11.099855000000161], [-69.418863, 11.099504], [-69.41930299999984, 11.099494000000107], [-69.41955999999988, 11.099579], [-69.420005, 11.099752000000137], [-69.420501, 11.100131], [-69.42121, 11.100687], [-69.421868, 11.102024], [-69.4217, 11.102692], [-69.42185099999989, 11.103192], [-69.42242999999985, 11.103179000000182], [-69.42250899999988, 11.103567000000112], [-69.422849, 11.104178], [-69.422954, 11.104679000000147], [-69.42372199999988, 11.104822], [-69.423944, 11.105344], [-69.4237619999999, 11.105508000000157], [-69.42388899999986, 11.105941], [-69.42426099999989, 11.106001000000106], [-69.42521, 11.105933000000164], [-69.425713, 11.10567], [-69.42622499999987, 11.105750000000114], [-69.426609, 11.106314], [-69.42739199999988, 11.10705200000018], [-69.42858699999982, 11.108490000000131], [-69.429647, 11.108260000000143], [-69.430111, 11.107356], [-69.430158, 11.107378000000153], [-69.429922, 11.10626000000019], [-69.430728, 11.106059], [-69.431256, 11.105886000000169], [-69.432315, 11.105564000000186], [-69.433324, 11.105151], [-69.434153, 11.104949], [-69.43461, 11.104687], [-69.435627, 11.104572000000132], [-69.436995, 11.104609], [-69.43808899999988, 11.104813], [-69.438499, 11.104529000000127], [-69.438642, 11.10376900000017], [-69.438579, 11.103084000000138], [-69.439197, 11.102771000000189], [-69.440654, 11.102646000000163], [-69.440985, 11.102937], [-69.441539, 11.102832], [-69.443165, 11.103001], [-69.444312, 11.103479000000164], [-69.444858, 11.103993], [-69.445409, 11.104736], [-69.445896, 11.104748000000143], [-69.446232, 11.104282000000126], [-69.44616899999988, 11.103619], [-69.447143, 11.103643], [-69.4482119999999, 11.103778], [-69.44839, 11.104393], [-69.448446, 11.104781], [-69.4491, 11.104995], [-69.449978, 11.104883000000143], [-69.450477, 11.104459], [-69.450808, 11.10381000000018], [-69.451312, 11.103547000000106], [-69.452124, 11.10362], [-69.45317299999988, 11.10387], [-69.45425499999988, 11.104487], [-69.455734, 11.105278000000112], [-69.45683, 11.105504000000167], [-69.45769799999982, 11.10592000000014], [-69.4577149999999, 11.10663000000011], [-69.457364, 11.107417], [-69.456974, 11.108502000000101], [-69.457304, 11.109663], [-69.458106, 11.110194], [-69.459421, 11.109981], [-69.460343, 11.109799000000123], [-69.46148, 11.109842000000128], [-69.461675, 11.109310000000164], [-69.46244, 11.109316], [-69.463436, 11.10929300000015], [-69.46483399999988, 11.108688], [-69.465142, 11.108039000000133], [-69.46532399999984, 11.107897], [-69.46603699999986, 11.108614000000102], [-69.466843, 11.1084120000001], [-69.467247, 11.107876000000147], [-69.467294, 11.107898], [-69.467487, 11.108214], [-69.46782399999984, 11.108733], [-69.468197, 11.108793000000162], [-69.468934, 11.108616], [-69.46944, 11.109406], [-69.47048599999982, 11.110459000000162], [-69.47161899999986, 11.111303], [-69.47194699999989, 11.112372], [-69.471969, 11.113242], [-69.472228, 11.11433600000015], [-69.472885, 11.115604], [-69.473767, 11.116569], [-69.47444699999988, 11.116896], [-69.4740819999999, 11.118027], [-69.473283, 11.118527], [-69.4726189999999, 11.118840000000148], [-69.471852, 11.119683], [-69.47100099999989, 11.120871000000136], [-69.471685, 11.121336], [-69.472597, 11.121681], [-69.47323299999982, 11.122079], [-69.473943, 11.122658], [-69.47529, 11.122810000000186], [-69.47611899999987, 11.122585000000186], [-69.477449, 11.121982], [-69.4781569999999, 11.121553], [-69.47870499999988, 11.121243], [-69.478878, 11.12075700000014], [-69.479769, 11.120256], [-69.48370099999988, 11.119936], [-69.48419, 11.120955000000151], [-69.484352, 11.121868], [-69.485416, 11.121820000000127], [-69.485439, 11.122736], [-69.48548199999988, 11.123537000000113], [-69.486968, 11.12364], [-69.487603, 11.12307600000014], [-69.488055, 11.122607], [-69.488308, 11.123495000000162], [-69.488329, 11.124296000000186], [-69.489084, 11.123912], [-69.489838, 11.123505000000137], [-69.49085499999984, 11.12339], [-69.491745, 11.123759000000177], [-69.491927, 11.124556], [-69.493264, 11.125213], [-69.494567, 11.125412000000154], [-69.4956, 11.125044], [-69.496305, 11.124478000000124], [-69.497167, 11.123771], [-69.498835, 11.123755000000187], [-69.499403, 11.124223], [-69.499399, 11.124956000000111], [-69.499998, 11.12572100000017], [-69.500706, 11.12623200000013], [-69.501726, 11.126254000000188], [-69.5021579999999, 11.126816000000133], [-69.502168, 11.12816800000013], [-69.501164, 11.128787000000159], [-69.499388, 11.130019000000118], [-69.499155, 11.131834], [-69.499757, 11.133630000000153], [-69.500528, 11.134804], [-69.50119599999988, 11.135567], [-69.50115299999987, 11.137538000000177], [-69.501295, 11.138613000000134], [-69.503391, 11.137652], [-69.504744, 11.136711000000162], [-69.50551699999988, 11.138166], [-69.506704, 11.13943], [-69.50784, 11.140443], [-69.509312, 11.140853], [-69.51056199999988, 11.141749], [-69.510582, 11.142758], [-69.510569, 11.143286], [-69.50989499999986, 11.14332], [-69.511065, 11.143667000000164], [-69.51209399999988, 11.143993000000137], [-69.51296, 11.144322000000159], [-69.514709, 11.144613000000106], [-69.515792, 11.144113000000118], [-69.516661, 11.144556], [-69.517917, 11.143411000000128], [-69.51851099999988, 11.142919], [-69.518968, 11.142497000000162], [-69.52066, 11.14226100000019], [-69.521918, 11.141161000000125], [-69.523559, 11.141867], [-69.524992, 11.141452000000186], [-69.526307, 11.140948], [-69.526565, 11.139888], [-69.527437, 11.139345000000105], [-69.52826399999987, 11.139996000000167], [-69.52841699999982, 11.140705], [-69.529813, 11.140772], [-69.52962999999988, 11.142083000000184], [-69.531489, 11.14205], [-69.53222099999988, 11.142611000000159], [-69.532366, 11.144076], [-69.53172099999989, 11.145532000000117], [-69.532652, 11.146779], [-69.533746, 11.148021000000142], [-69.534432, 11.149775000000147], [-69.53621, 11.150387], [-69.53763299999986, 11.149853], [-69.53804899999989, 11.148613000000125], [-69.539303, 11.148280000000113], [-69.541394, 11.148277], [-69.541895, 11.147779], [-69.542059, 11.146292], [-69.543896, 11.144554], [-69.544902, 11.144966000000181], [-69.548077, 11.143638], [-69.548075, 11.142234], [-69.54957999999988, 11.141818000000114], [-69.55066799999986, 11.142477], [-69.55125299999986, 11.142146], [-69.55166899999989, 11.140989000000104], [-69.5546, 11.140137], [-69.561593, 11.213424000000145]]]}}, {"type": "Feature", "properties": {"Pais": "Venezuela", "Estado": "Falc\u00f3n", "Municipio": "Petit", "Parroquia": "Colina"}, "geometry": {"type": "Polygon", "coordinates": [[[-69.514594, 11.209833], [-69.516341, 11.209976], [-69.52583, 11.215651], [-69.527037, 11.217079], [-69.52806, 11.217862], [-69.529037, 11.218508000000156], [-69.532876, 11.220402], [-69.533481, 11.220908000000122], [-69.534039, 11.2212320000001], [-69.5347589999999, 11.221877000000177], [-69.535828, 11.222959000000174], [-69.53759699999989, 11.223492], [-69.53967099999988, 11.223497000000123], [-69.538716, 11.226127000000133], [-69.541504, 11.226784000000123], [-69.542641, 11.22796], [-69.543733, 11.228769], [-69.544922, 11.228706000000159], [-69.545764, 11.228229000000113], [-69.54745, 11.22677], [-69.54993, 11.224926], [-69.552924, 11.223039], [-69.556531, 11.219895000000122], [-69.559439, 11.216471000000183], [-69.561593, 11.213424000000145], [-69.5546, 11.140137], [-69.55166899999989, 11.140989000000104], [-69.55125299999986, 11.142146], [-69.55066799999986, 11.142477], [-69.54957999999988, 11.141818000000114], [-69.548075, 11.142234], [-69.548077, 11.143638], [-69.544902, 11.144966000000181], [-69.543896, 11.144554], [-69.542059, 11.146292], [-69.541895, 11.147779], [-69.541394, 11.148277], [-69.539303, 11.148280000000113], [-69.53804899999989, 11.148613000000125], [-69.53763299999986, 11.149853], [-69.53621, 11.150387], [-69.534432, 11.149775000000147], [-69.533746, 11.148021000000142], [-69.532652, 11.146779], [-69.53172099999989, 11.145532000000117], [-69.532366, 11.144076], [-69.53222099999988, 11.142611000000159], [-69.531489, 11.14205], [-69.52962999999988, 11.142083000000184], [-69.529813, 11.140772], [-69.52841699999982, 11.140705], [-69.52826399999987, 11.139996000000167], [-69.527437, 11.139345000000105], [-69.526565, 11.139888], [-69.526307, 11.140948], [-69.524992, 11.141452000000186], [-69.523559, 11.141867], [-69.521918, 11.141161000000125], [-69.52066, 11.14226100000019], [-69.518968, 11.142497000000162], [-69.51851099999988, 11.142919], [-69.517917, 11.143411000000128], [-69.516661, 11.144556], [-69.515792, 11.144113000000118], [-69.514709, 11.144613000000106], [-69.51296, 11.144322000000159], [-69.51209399999988, 11.143993000000137], [-69.511065, 11.143667000000164], [-69.50989499999986, 11.14332], [-69.510569, 11.143286], [-69.510582, 11.142758], [-69.51056199999988, 11.141749], [-69.509312, 11.140853], [-69.50784, 11.140443], [-69.506704, 11.13943], [-69.50551699999988, 11.138166], [-69.504744, 11.136711000000162], [-69.503391, 11.137652], [-69.501295, 11.138613000000134], [-69.50115299999987, 11.137538000000177], [-69.50119599999988, 11.135567], [-69.500528, 11.134804], [-69.499757, 11.133630000000153], [-69.499155, 11.131834], [-69.499388, 11.130019000000118], [-69.501164, 11.128787000000159], [-69.502168, 11.12816800000013], [-69.5021579999999, 11.126816000000133], [-69.501726, 11.126254000000188], [-69.500706, 11.12623200000013], [-69.499998, 11.12572100000017], [-69.499399, 11.124956000000111], [-69.499403, 11.124223], [-69.498835, 11.123755000000187], [-69.497167, 11.123771], [-69.496305, 11.124478000000124], [-69.4956, 11.125044], [-69.494567, 11.125412000000154], [-69.493264, 11.125213], [-69.491927, 11.124556], [-69.491745, 11.123759000000177], [-69.49085499999984, 11.12339], [-69.489838, 11.123505000000137], [-69.489084, 11.123912], [-69.488329, 11.124296000000186], [-69.488308, 11.123495000000162], [-69.488055, 11.122607], [-69.487603, 11.12307600000014], [-69.486968, 11.12364], [-69.48548199999988, 11.123537000000113], [-69.485439, 11.122736], [-69.485416, 11.121820000000127], [-69.484352, 11.121868], [-69.48419, 11.120955000000151], [-69.48370099999988, 11.119936], [-69.479769, 11.120256], [-69.478878, 11.12075700000014], [-69.47870499999988, 11.121243], [-69.4781569999999, 11.121553], [-69.477449, 11.121982], [-69.47611899999987, 11.122585000000186], [-69.47529, 11.122810000000186], [-69.473943, 11.122658], [-69.47323299999982, 11.122079], [-69.472597, 11.121681], [-69.471685, 11.121336], [-69.47100099999989, 11.120871000000136], [-69.471852, 11.119683], [-69.4726189999999, 11.118840000000148], [-69.473283, 11.118527], [-69.4740819999999, 11.118027], [-69.47444699999988, 11.116896], [-69.473767, 11.116569], [-69.472885, 11.115604], [-69.472228, 11.11433600000015], [-69.471969, 11.113242], [-69.47194699999989, 11.112372], [-69.47161899999986, 11.111303], [-69.47048599999982, 11.110459000000162], [-69.46944, 11.109406], [-69.468934, 11.108616], [-69.468197, 11.108793000000162], [-69.46782399999984, 11.108733], [-69.467487, 11.108214], [-69.467294, 11.107898], [-69.467247, 11.107876000000147], [-69.466843, 11.1084120000001], [-69.46603699999986, 11.108614000000102], [-69.46532399999984, 11.107897], [-69.465142, 11.108039000000133], [-69.46483399999988, 11.108688], [-69.463436, 11.10929300000015], [-69.46244, 11.109316], [-69.461675, 11.109310000000164], [-69.46148, 11.109842000000128], [-69.460343, 11.109799000000123], [-69.459421, 11.109981], [-69.458106, 11.110194], [-69.457304, 11.109663], [-69.456974, 11.108502000000101], [-69.457364, 11.107417], [-69.4577149999999, 11.10663000000011], [-69.45769799999982, 11.10592000000014], [-69.45683, 11.105504000000167], [-69.455734, 11.105278000000112], [-69.45425499999988, 11.104487], [-69.45317299999988, 11.10387], [-69.452124, 11.10362], [-69.451312, 11.103547000000106], [-69.450808, 11.10381000000018], [-69.450477, 11.104459], [-69.449978, 11.104883000000143], [-69.4491, 11.104995], [-69.448446, 11.104781], [-69.44839, 11.104393], [-69.4482119999999, 11.103778], [-69.447143, 11.103643], [-69.44616899999988, 11.103619], [-69.446232, 11.104282000000126], [-69.445896, 11.104748000000143], [-69.445409, 11.104736], [-69.444858, 11.103993], [-69.444312, 11.103479000000164], [-69.443165, 11.103001], [-69.441539, 11.102832], [-69.440985, 11.102937], [-69.440654, 11.102646000000163], [-69.439197, 11.102771000000189], [-69.438579, 11.103084000000138], [-69.438642, 11.10376900000017], [-69.438499, 11.104529000000127], [-69.43808899999988, 11.104813], [-69.436995, 11.104609], [-69.435627, 11.104572000000132], [-69.43461, 11.104687], [-69.434153, 11.104949], [-69.433324, 11.105151], [-69.432315, 11.105564000000186], [-69.431256, 11.105886000000169], [-69.430728, 11.106059], [-69.429922, 11.10626000000019], [-69.430158, 11.107378000000153], [-69.430111, 11.107356], [-69.429647, 11.108260000000143], [-69.42858699999982, 11.108490000000131], [-69.42739199999988, 11.10705200000018], [-69.426609, 11.106314], [-69.42622499999987, 11.105750000000114], [-69.425713, 11.10567], [-69.42521, 11.105933000000164], [-69.42426099999989, 11.106001000000106], [-69.42388899999986, 11.105941], [-69.4237619999999, 11.105508000000157], [-69.423944, 11.105344], [-69.42372199999988, 11.104822], [-69.422954, 11.104679000000147], [-69.422849, 11.104178], [-69.42250899999988, 11.103567000000112], [-69.42242999999985, 11.103179000000182], [-69.42185099999989, 11.103192], [-69.4217, 11.102692], [-69.421868, 11.102024], [-69.42121, 11.100687], [-69.420501, 11.100131], [-69.420005, 11.099752000000137], [-69.41955999999988, 11.099579], [-69.41930299999984, 11.099494000000107], [-69.418863, 11.099504], [-69.418524, 11.099855000000161], [-69.417949, 11.099089000000163], [-69.416911, 11.098357], [-69.416332, 11.09837], [-69.415504, 11.098596], [-69.415513, 11.098962000000142], [-69.414476, 11.099192000000187], [-69.414003, 11.098790000000122], [-69.413122, 11.09784800000017], [-69.41356599999989, 11.097082], [-69.413453, 11.09626], [-69.412696, 11.095636000000127], [-69.41176699999988, 11.09552], [-69.41102299999989, 11.095445], [-69.41077499999989, 11.094763000000171], [-69.410654, 11.09456], [-69.410062, 11.094115], [-69.4102319999999, 11.093493], [-69.410618, 11.093117], [-69.410757, 11.092198], [-69.4106139999999, 11.091147000000149], [-69.40989699999989, 11.091164000000106], [-69.409836, 11.090592], [-69.409286, 11.089918], [-69.40872399999984, 11.089656], [-69.409104, 11.089097000000152], [-69.409373, 11.088747000000126], [-69.408558, 11.088560000000143], [-69.408301, 11.088474000000133], [-69.40848299999988, 11.087416000000132], [-69.4084069999999, 11.087166], [-69.407374, 11.087556000000177], [-69.406498, 11.087713], [-69.405119, 11.087241], [-69.404761, 11.086814], [-69.405079, 11.086555000000146], [-69.405948, 11.086099], [-69.405862, 11.085460000000126], [-69.405837, 11.084430000000168], [-69.405992, 11.083212000000117], [-69.406212, 11.082749], [-69.406666, 11.082349000000136], [-69.40685999999988, 11.081772000000171], [-69.40635299999985, 11.080958000000123], [-69.405379, 11.080912], [-69.404511, 11.080497], [-69.404046, 11.080416], [-69.403913, 11.079731], [-69.403404, 11.078804000000105], [-69.402538, 11.078480000000127], [-69.401625, 11.078088], [-69.401497, 11.07761], [-69.401999, 11.077301], [-69.402997, 11.077347000000145], [-69.403798, 11.077878], [-69.40414599999986, 11.07791600000013], [-69.404204, 11.077434], [-69.403869, 11.077029000000152], [-69.40315099999987, 11.076106000000152], [-69.40214, 11.07551100000012], [-69.400787, 11.075106000000176], [-69.399621, 11.074812000000179], [-69.39848099999989, 11.074609], [-69.397713, 11.074489], [-69.3973, 11.074636], [-69.397036, 11.075215000000128], [-69.39686199999989, 11.075677], [-69.396553, 11.07630300000011], [-69.395928, 11.076317000000188], [-69.39519699999988, 11.075807000000111], [-69.394014, 11.07576500000016], [-69.393243, 11.075485], [-69.392546, 11.075409], [-69.392133, 11.07555600000012], [-69.391513, 11.075799000000131], [-69.390993, 11.076315], [-69.39065499999987, 11.076712], [-69.390215, 11.076722000000132], [-69.389584, 11.075591], [-69.389595, 11.075110000000166], [-69.389537, 11.074653000000183], [-69.389544, 11.0739650000001], [-69.389353, 11.073764000000153], [-69.3888199999999, 11.073753000000124], [-69.388158, 11.074157000000184], [-69.387231, 11.074133000000131], [-69.38663, 11.074192], [-69.385843, 11.074233], [-69.385213, 11.074041], [-69.384378, 11.073992], [-69.384461, 11.07454], [-69.384168, 11.074867], [-69.383523, 11.075019000000111], [-69.382687, 11.07494700000018], [-69.38222999999982, 11.074293], [-69.38208, 11.073838], [-69.38172, 11.073342], [-69.381047, 11.073289000000102], [-69.380682, 11.073503], [-69.380481, 11.072866], [-69.380562, 11.072406], [-69.380567, 11.071673], [-69.380001, 11.072213], [-69.37952599999983, 11.072682000000157], [-69.379204, 11.072781000000191], [-69.37873899999988, 11.072723], [-69.378223, 11.072459], [-69.37740899999989, 11.072341], [-69.376672, 11.072495000000174], [-69.376224, 11.071268], [-69.37599699999987, 11.070494000000167], [-69.375603, 11.069564000000128], [-69.37558399999989, 11.068785000000162], [-69.375691, 11.068439000000126], [-69.375719, 11.067704], [-69.37491099999988, 11.067814000000112], [-69.37461999999988, 11.06821200000013], [-69.373803, 11.067955], [-69.37286399999988, 11.067495000000179], [-69.373225, 11.067097000000103], [-69.373226, 11.066203], [-69.372466, 11.06541900000019], [-69.371569, 11.064752], [-69.37069, 11.064795], [-69.370761, 11.065824], [-69.370696, 11.066925], [-69.370039, 11.067537], [-69.3694569999999, 11.068352], [-69.369179, 11.069320000000175], [-69.36882999999989, 11.069237], [-69.36824699999988, 11.069113], [-69.367931, 11.068501], [-69.36687199999989, 11.067884], [-69.366796, 11.06855], [-69.366887, 11.069418], [-69.366898, 11.069831], [-69.366562, 11.070319], [-69.365567, 11.070388], [-69.36520899999988, 11.070877], [-69.364856, 11.071595000000116], [-69.364592, 11.072174], [-69.365225, 11.072480000000155], [-69.36565, 11.072791000000109], [-69.36590499999983, 11.073748], [-69.365804, 11.074369000000104], [-69.36520499999989, 11.074497], [-69.364501, 11.07506300000017], [-69.364021, 11.075325], [-69.363638, 11.074853], [-69.3628, 11.074689000000149], [-69.36233299999986, 11.073600000000113], [-69.362105, 11.07278], [-69.360922, 11.072761000000128], [-69.3599, 11.07262400000019], [-69.359356, 11.072201000000177], [-69.358807, 11.071526], [-69.358051, 11.070925000000102], [-69.356866, 11.070792], [-69.35575499999987, 11.070863000000145], [-69.354973, 11.071064], [-69.35419, 11.071288], [-69.353985, 11.072346], [-69.35370499999988, 11.074139000000116], [-69.352808, 11.074435000000108], [-69.351914, 11.073859], [-69.35120399999983, 11.074219000000141], [-69.351119, 11.075458], [-69.35058599999985, 11.076409000000183], [-69.350103, 11.076558], [-69.34912599999984, 11.077336000000116], [-69.348381, 11.077192000000139], [-69.3481359999999, 11.076648], [-69.348307, 11.076049], [-69.347849, 11.075349], [-69.3470999999999, 11.075045000000102], [-69.346505, 11.074371], [-69.345228, 11.074263], [-69.344284, 11.074513000000138], [-69.343034, 11.074565000000177], [-69.34266999999988, 11.075787], [-69.34266899999989, 11.07668], [-69.34188399999988, 11.076813000000186], [-69.34075299999984, 11.076999000000114], [-69.339817, 11.077593], [-69.33841599999982, 11.076181000000133], [-69.33689, 11.075391000000138], [-69.335648, 11.073838], [-69.334571, 11.072465], [-69.333174, 11.071237000000167], [-69.3325, 11.070221000000117], [-69.33313, 11.069451000000186], [-69.332831, 11.068587], [-69.331818, 11.066960000000108], [-69.33105199999989, 11.065947000000165], [-69.331078, 11.065144000000146], [-69.331222, 11.064385], [-69.33143499999989, 11.063624000000175], [-69.330489, 11.062844], [-69.33105699999987, 11.062396000000149], [-69.33106, 11.06154800000013], [-69.33097, 11.060725000000105], [-69.330746, 11.060112000000174], [-69.330546, 11.05949800000019], [-69.32972399999989, 11.059035], [-69.329648, 11.058762], [-69.32997599999987, 11.057999000000166], [-69.330427, 11.057484000000159], [-69.330245, 11.056686], [-69.330414, 11.055995], [-69.33017499999988, 11.054763], [-69.329989, 11.053805], [-69.330979, 11.053553], [-69.330872, 11.052021], [-69.330992, 11.051216], [-69.3306869999999, 11.050147], [-69.329744, 11.049458], [-69.329335, 11.04887100000019], [-69.328451, 11.048685], [-69.32680699999986, 11.048722000000112], [-69.326494, 11.048248000000171], [-69.325254, 11.047772], [-69.32514099999986, 11.046927], [-69.324451, 11.046187], [-69.324056, 11.046150000000125], [-69.323365, 11.045386000000121], [-69.323185, 11.044657], [-69.32264, 11.044166], [-69.32193699999988, 11.043838000000164], [-69.3222679999999, 11.043166000000156], [-69.322656, 11.042928000000188], [-69.322365, 11.042408000000137], [-69.321923, 11.042349], [-69.32139399999988, 11.042476], [-69.32094099999989, 11.041959], [-69.320323, 11.041331000000184], [-69.31938699999984, 11.04094], [-69.318452, 11.040618000000165], [-69.317714, 11.039810000000102], [-69.317121, 11.039227], [-69.31605899999988, 11.039389], [-69.315579, 11.039629], [-69.315117, 11.03970800000019], [-69.315006, 11.040856000000133], [-69.31456899999989, 11.04189700000012], [-69.31399, 11.041933], [-69.313622, 11.04203200000012], [-69.3131939999999, 11.042523], [-69.312967, 11.042712], [-69.312626, 11.042971], [-69.31252199999989, 11.043455], [-69.312966, 11.043628000000183], [-69.313337, 11.043643], [-69.313113, 11.043968], [-69.312868, 11.04434], [-69.312982, 11.045208000000173], [-69.312799, 11.045304000000101], [-69.313124, 11.046282], [-69.312623, 11.04666], [-69.31261199999989, 11.04716400000018], [-69.312313, 11.048179000000118], [-69.312338, 11.049186000000134], [-69.312101, 11.049948000000143], [-69.311303, 11.050470000000132], [-69.310527, 11.051862], [-69.309878, 11.051876000000163], [-69.310054, 11.052423], [-69.3096579999999, 11.053303], [-69.307971, 11.053478], [-69.307693, 11.05348400000014], [-69.307866, 11.053916000000186], [-69.307456, 11.0542], [-69.3073639999999, 11.055187], [-69.306666, 11.056005], [-69.305873, 11.05671], [-69.30572299999983, 11.05724], [-69.304896, 11.058450000000164], [-69.304155, 11.058467000000121], [-69.30358, 11.05864], [-69.302983, 11.058883], [-69.302381, 11.058896000000118], [-69.302047, 11.059454], [-69.302114, 11.060277000000156], [-69.301743, 11.060285], [-69.301218, 11.060595], [-69.30076, 11.060788000000173], [-69.300619, 11.061662000000183], [-69.299953, 11.061929], [-69.299664, 11.062394000000154], [-69.299427, 11.063155], [-69.298797, 11.063925], [-69.299591, 11.06418200000013], [-69.29943, 11.065148000000136], [-69.299097, 11.065774], [-69.299511, 11.066567000000134], [-69.298669, 11.067204], [-69.297719, 11.068142], [-69.297036, 11.06866100000019], [-69.295914, 11.069214000000102], [-69.295462, 11.068743], [-69.29473399999989, 11.06834700000013], [-69.293802, 11.068139000000144], [-69.2931, 11.068796000000134], [-69.29203299999989, 11.068728], [-69.291604, 11.070135000000107], [-69.29151, 11.071031000000175], [-69.291173, 11.072436], [-69.290672, 11.072768000000167], [-69.290444, 11.073873000000106], [-69.290424, 11.07495], [-69.290168, 11.075849], [-69.289873, 11.077070000000163], [-69.28924399999988, 11.077886000000149], [-69.289104, 11.078805000000159], [-69.288596, 11.079825], [-69.287903, 11.079886000000101], [-69.287624, 11.080786000000103], [-69.287588, 11.081222000000139], [-69.287367, 11.081662000000108], [-69.286604, 11.081725000000176], [-69.286082, 11.08313500000014], [-69.285356, 11.082830000000115], [-69.284249, 11.08301500000016], [-69.28349899999989, 11.083628], [-69.28291399999989, 11.084328], [-69.282178, 11.084575], [-69.28105, 11.084852000000126], [-69.280048, 11.084646000000134], [-69.27911399999988, 11.084323], [-69.278761, 11.085041000000103], [-69.27861, 11.085526], [-69.279028, 11.086501000000112], [-69.2789939999999, 11.087945], [-69.278885, 11.089208], [-69.278184, 11.089888], [-69.277813, 11.090835], [-69.277564, 11.091093000000114], [-69.27764, 11.092283000000123], [-69.27715599999988, 11.093347], [-69.27644899999984, 11.093821], [-69.275112, 11.095066], [-69.273925, 11.095802000000162], [-69.273172, 11.097217000000171], [-69.272053, 11.098846000000151], [-69.270901, 11.0991], [-69.27092, 11.0999020000001], [-69.269562, 11.101238], [-69.268923, 11.101642], [-69.268316, 11.101449], [-69.267976, 11.102694], [-69.267163, 11.102644000000168], [-69.26645799999989, 11.103186], [-69.2673, 11.10351100000014], [-69.266235, 11.10452], [-69.265863, 11.105422000000146], [-69.26569599999982, 11.10618200000016], [-69.26478, 11.106637000000148], [-69.26441199999988, 11.106714000000125], [-69.26440899999983, 11.107562], [-69.26449, 11.108981], [-69.264198, 11.109354], [-69.264267, 11.110291000000132], [-69.263925, 11.111467], [-69.263068, 11.111487000000125], [-69.263071, 11.112586000000135], [-69.263385, 11.113083], [-69.262936, 11.113689], [-69.26175199999989, 11.113601], [-69.260762, 11.113875], [-69.260099, 11.114211000000125], [-69.259821, 11.115202], [-69.259431, 11.116287000000113], [-69.259337, 11.117183000000182], [-69.259105, 11.118151000000125], [-69.25888, 11.119393], [-69.257855, 11.120104], [-69.257913, 11.120584000000179], [-69.256852, 11.121753000000126], [-69.25462799999985, 11.122719], [-69.253772, 11.122784000000138], [-69.252964, 11.122894], [-69.253208, 11.123415000000136], [-69.252213, 11.123483], [-69.251496, 11.124484000000109], [-69.25116999999989, 11.12536200000011], [-69.250099, 11.126096], [-69.250117, 11.126852], [-69.249376, 11.12785300000013], [-69.249172, 11.128981], [-69.24825499999986, 11.129368000000113], [-69.246973, 11.129075], [-69.24553, 11.128810000000101], [-69.243391, 11.12851400000011], [-69.24275099999983, 11.128895], [-69.242704, 11.129835000000185], [-69.241999, 11.130378000000178], [-69.24109299999986, 11.131246], [-69.239124, 11.132275000000107], [-69.23926199999988, 11.133188000000132], [-69.239362, 11.134377000000143], [-69.23871899999989, 11.134689], [-69.238144, 11.135825], [-69.238331, 11.136851], [-69.23830299999986, 11.137608000000114], [-69.237994, 11.139173], [-69.237644, 11.140051], [-69.23730599999988, 11.141410000000121], [-69.236704, 11.142363000000103], [-69.237236, 11.14329], [-69.237802, 11.14462900000018], [-69.237758, 11.146624], [-69.237474, 11.147317000000157], [-69.236642, 11.147473000000105], [-69.235582, 11.147726], [-69.23465, 11.14848000000012], [-69.233887, 11.148543000000188], [-69.233143, 11.148445], [-69.232233, 11.149129000000187], [-69.231365, 11.149653000000171], [-69.230381, 11.149239], [-69.229075, 11.149865000000148], [-69.227834, 11.150259], [-69.227471, 11.150588], [-69.227064, 11.151032], [-69.227727, 11.152575000000184], [-69.228351, 11.153455000000179], [-69.228531, 11.154161000000158], [-69.22888399999988, 11.15536800000018], [-69.22827199999989, 11.155908], [-69.22759599999989, 11.156702], [-69.226908, 11.15703800000017], [-69.226593, 11.158351], [-69.224661, 11.158862], [-69.225528, 11.162246], [-69.22589192999988, 11.16416563100006], [-69.225892, 11.164166], [-69.225991, 11.164138], [-69.227283, 11.16388000000012], [-69.228156, 11.162623], [-69.22909699999985, 11.162236000000178], [-69.23006, 11.161802], [-69.23078, 11.160938000000101], [-69.23230599999988, 11.160767000000135], [-69.232375, 11.160742], [-69.233851, 11.160434000000123], [-69.235085, 11.159742], [-69.23538599999989, 11.158705], [-69.23576999999989, 11.157368], [-69.236149, 11.155778000000169], [-69.236429, 11.154902000000163], [-69.237136, 11.153488], [-69.238205, 11.15264], [-69.239571, 11.151623], [-69.240166, 11.151312000000132], [-69.241436, 11.151123000000155], [-69.242695, 11.151439000000153], [-69.243447, 11.150918], [-69.24438199999986, 11.151218], [-69.247967, 11.154759], [-69.24919, 11.155487], [-69.250431, 11.156032], [-69.25184599999989, 11.156092], [-69.25284199999987, 11.156047], [-69.25391899999988, 11.156504], [-69.256029, 11.157488], [-69.256746, 11.1574260000001], [-69.258198, 11.157119], [-69.25941199999988, 11.157435000000135], [-69.26033699999988, 11.157346], [-69.261542, 11.156378], [-69.262485, 11.15512], [-69.262864, 11.153577000000155], [-69.263074, 11.152679], [-69.264463, 11.152602000000115], [-69.265736, 11.15255], [-69.266886, 11.152181], [-69.26833299999987, 11.151667], [-69.269627, 11.150539000000151], [-69.270267, 11.149241000000188], [-69.271052, 11.149109000000124], [-69.271727, 11.148269], [-69.27244899999988, 11.147451], [-69.273483, 11.147108000000117], [-69.274516, 11.147634], [-69.27570999999989, 11.148157], [-69.277791, 11.148912000000166], [-69.279302, 11.150024000000144], [-69.280759, 11.1499], [-69.281681, 11.149696000000176], [-69.282655, 11.149742], [-69.283939, 11.150103000000115], [-69.285816, 11.151046000000179], [-69.288719, 11.152241], [-69.28978499999988, 11.153156000000138], [-69.290959, 11.153794000000175], [-69.29382, 11.156112000000121], [-69.295134, 11.157732], [-69.296431, 11.158642], [-69.297923, 11.15902100000011], [-69.299349, 11.159493], [-69.301123, 11.16002600000013], [-69.30297899999988, 11.160122], [-69.303994, 11.159893000000125], [-69.305547, 11.159926], [-69.30669199999988, 11.160267000000147], [-69.308272, 11.160438000000113], [-69.309047, 11.160833], [-69.310277, 11.160919], [-69.311789, 11.161160000000166], [-69.313769, 11.16058900000013], [-69.316418, 11.160872], [-69.317421, 11.160208], [-69.319179, 11.159138], [-69.32046999999989, 11.158857], [-69.321873, 11.158413], [-69.32315, 11.157559000000106], [-69.324803, 11.155987], [-69.327337, 11.15347800000012], [-69.32871199999983, 11.151889], [-69.330027, 11.150714], [-69.333611, 11.149373], [-69.33462999999983, 11.149373], [-69.335997, 11.149342], [-69.33726, 11.148855], [-69.33814199999989, 11.147965000000113], [-69.339403, 11.147432], [-69.3398049999999, 11.145888], [-69.342735, 11.14440100000013], [-69.34392099999985, 11.142656000000159], [-69.344504, 11.140948], [-69.346195, 11.140909], [-69.347684, 11.14115], [-69.348509, 11.140788000000157], [-69.34916799999985, 11.139283000000148], [-69.35012099999983, 11.138483], [-69.35281, 11.137551], [-69.352889, 11.136083], [-69.354693, 11.134988], [-69.356827, 11.135077000000138], [-69.357734, 11.135148000000129], [-69.35849499999983, 11.134054], [-69.359225, 11.132663], [-69.360349, 11.13220200000012], [-69.361666, 11.132012], [-69.362898, 11.132167], [-69.364174, 11.132230000000106], [-69.364889, 11.132099], [-69.3658319999999, 11.131803000000104], [-69.367187, 11.131337000000144], [-69.368885, 11.130634], [-69.36932699999988, 11.129776000000106], [-69.370259, 11.129022], [-69.37137399999989, 11.128195], [-69.372776, 11.127727], [-69.37378299999989, 11.127223], [-69.374902, 11.12564], [-69.375811, 11.124909000000116], [-69.37712099999987, 11.122588], [-69.377508, 11.12136500000014], [-69.37837599999989, 11.120842], [-69.379218, 11.120250000000112], [-69.38073899999989, 11.11987100000016], [-69.38217, 11.119656000000134], [-69.383595, 11.120104], [-69.384158, 11.121306], [-69.38485799999984, 11.122435], [-69.385968, 11.123257], [-69.386512, 11.123264], [-69.388376, 11.12320300000016], [-69.390638, 11.122853000000191], [-69.391883, 11.121656], [-69.393107, 11.121468000000164], [-69.393879, 11.121771], [-69.394018, 11.122707000000162], [-69.393904, 11.123718000000167], [-69.394593, 11.124389], [-69.396425, 11.125379], [-69.398198, 11.125888], [-69.39935899999989, 11.125976], [-69.400906, 11.125734], [-69.40240199999988, 11.125311000000124], [-69.403623, 11.12409200000019], [-69.404369, 11.123364], [-69.405336, 11.122174000000143], [-69.40701699999988, 11.121700000000146], [-69.40814299999988, 11.121308], [-69.409249, 11.121053], [-69.410243, 11.12096200000019], [-69.411541, 11.120955000000151], [-69.412791, 11.121866], [-69.41310399999986, 11.122340000000179], [-69.414159, 11.123759000000177], [-69.414935, 11.124199000000146], [-69.416756, 11.124753000000169], [-69.418528, 11.125171000000137], [-69.421774, 11.125128000000132], [-69.423746, 11.12441], [-69.424951, 11.124405000000138], [-69.426344, 11.124534000000153], [-69.427826, 11.125416000000143], [-69.428618, 11.12652], [-69.429972, 11.128734], [-69.429925, 11.129629], [-69.430244, 11.131271], [-69.43071699999985, 11.132612000000108], [-69.431385, 11.134315000000129], [-69.43204699999984, 11.135743000000161], [-69.43284599999987, 11.137145], [-69.433196, 11.138168], [-69.433693, 11.13948500000015], [-69.434453, 11.141186], [-69.43493099999989, 11.142687], [-69.435122, 11.143851], [-69.435169, 11.144789], [-69.435318, 11.146114000000125], [-69.4354239999999, 11.147578], [-69.435709, 11.148786], [-69.43675799999988, 11.149037], [-69.437956, 11.14878], [-69.438835, 11.147752], [-69.440111, 11.146875], [-69.440902, 11.146101000000101], [-69.441139, 11.145385], [-69.442475, 11.145056000000125], [-69.444644, 11.145602], [-69.44650799999988, 11.14691100000016], [-69.44801299999989, 11.147816], [-69.449245, 11.147948000000156], [-69.450427, 11.147921], [-69.45204799999988, 11.147883], [-69.453412, 11.14773700000012], [-69.454894, 11.14770300000015], [-69.455777, 11.147797], [-69.4577589999999, 11.148256], [-69.459071, 11.148844], [-69.459574, 11.149474000000112], [-69.459773, 11.1500190000001], [-69.460633, 11.15107600000016], [-69.461343, 11.152572000000134], [-69.46145, 11.153165000000172], [-69.461474, 11.154126], [-69.461602, 11.155521], [-69.461892, 11.156912], [-69.46195899999987, 11.157758], [-69.46227, 11.159057], [-69.462323, 11.160247], [-69.46254199999987, 11.161593], [-69.463291, 11.162836], [-69.463859, 11.16422], [-69.464967, 11.165913000000103], [-69.465763, 11.167155], [-69.4658409999999, 11.169353000000172], [-69.46614, 11.17111], [-69.46591299999989, 11.173154], [-69.466061, 11.174411000000191], [-69.46672, 11.176664], [-69.467074, 11.17787], [-69.467358, 11.179032], [-69.46933399999989, 11.181048], [-69.471368, 11.182673], [-69.474117, 11.184191], [-69.475216, 11.185494], [-69.476644, 11.186973], [-69.477807, 11.188069], [-69.479005, 11.189644], [-69.480295, 11.191150000000164], [-69.481853, 11.192305000000147], [-69.48334, 11.19337000000013], [-69.485381, 11.195247], [-69.486124, 11.196215000000166], [-69.48669699999988, 11.196912000000111], [-69.48799, 11.197615], [-69.488759, 11.198674], [-69.489669, 11.199844], [-69.489784, 11.200712000000124], [-69.490139, 11.201918], [-69.490958, 11.202220000000182], [-69.49103, 11.203272], [-69.491992, 11.203731000000175], [-69.49344999999988, 11.203651], [-69.49401, 11.203799000000117], [-69.49464499999988, 11.20412800000014], [-69.49586199999987, 11.204604], [-69.496228, 11.205328000000122], [-69.4971129999999, 11.206407], [-69.497981, 11.206845], [-69.49927099999985, 11.207457], [-69.5001999999999, 11.208443000000102], [-69.501297, 11.209655], [-69.503835, 11.207852], [-69.505091, 11.208567], [-69.506231, 11.209099], [-69.507372, 11.209148], [-69.507955, 11.209149], [-69.508678, 11.208646], [-69.509259, 11.209337000000176], [-69.509492, 11.209337000000176], [-69.510169, 11.208811], [-69.5109369999999, 11.209387], [-69.51226399999985, 11.209827], [-69.513197, 11.20934700000015], [-69.514594, 11.209833]]]}}, {"type": "Feature", "properties": {"Pais": "Venezuela", "Estado": "Falc\u00f3n", "Municipio": "Petit", "Parroquia": "Curimagua"}, "geometry": {"type": "Polygon", "coordinates": [[[-69.693924, 11.200032], [-69.694114, 11.197088000000122], [-69.694136, 11.195505], [-69.693587, 11.193209000000138], [-69.692731, 11.191760000000158], [-69.692366, 11.189832], [-69.692677, 11.188183000000151], [-69.69268199999982, 11.186899000000153], [-69.693295, 11.185364000000106], [-69.694002, 11.183809], [-69.695527, 11.18166100000019], [-69.697046, 11.180683], [-69.69884799999983, 11.179155], [-69.700976, 11.177744], [-69.702543, 11.176651], [-69.7048559999999, 11.175287], [-69.707241, 11.174084000000107], [-69.709039, 11.173175], [-69.710535, 11.17231100000015], [-69.712623, 11.169295], [-69.716613, 11.157941000000108], [-69.7192629999999, 11.15424000000013], [-69.721301, 11.152048], [-69.722589, 11.150518], [-69.723673, 11.147886], [-69.723774, 11.146167], [-69.722639, 11.144347], [-69.69851, 11.145153000000164], [-69.695777, 11.146441000000152], [-69.6902429999999, 11.14875300000017], [-69.687956, 11.149246], [-69.68552899999986, 11.14962300000019], [-69.679162, 11.150485000000117], [-69.675527, 11.1501], [-69.67116099999987, 11.1517750000001], [-69.648188, 11.15434], [-69.59872499999983, 11.22963], [-69.599789, 11.228268000000128], [-69.60306099999985, 11.226978], [-69.607124, 11.22567000000015], [-69.61186, 11.225053], [-69.61783, 11.224786000000165], [-69.6225199999999, 11.223962], [-69.627986, 11.222088], [-69.631422, 11.220225], [-69.63425199999983, 11.218383], [-69.637484, 11.215258000000176], [-69.640527, 11.212774], [-69.642237, 11.210971], [-69.645839, 11.208513], [-69.648972, 11.206603], [-69.652522, 11.205199000000107], [-69.656649, 11.205358000000103], [-69.65979, 11.20661200000012], [-69.662697, 11.208232], [-69.664836, 11.209505], [-69.668875, 11.20842400000015], [-69.682787, 11.204941], [-69.693924, 11.200032]]]}}]}