{"type": "FeatureCollection", "features": [{"type": "Feature", "properties": {"Pais": "Venezuela", "Estado": "Monagas", "Municipio": "Piar", "Parroquia": "Piar"}, "geometry": {"type": "Polygon", "coordinates": [[[-63.401871, 10.107513000000154], [-63.454524999999876, 10.106795], [-63.472183, 10.08653800000019], [-63.471073, 10.084076], [-63.47205199999985, 10.08165300000013], [-63.47205199999985, 10.080345], [-63.472002, 10.078762], [-63.471969999999885, 10.076927], [-63.473106, 10.075534], [-63.473618, 10.072933], [-63.47383, 10.07176], [-63.473288, 10.069910000000164], [-63.476727, 10.052764], [-63.4846356569999, 10.04822719700013], [-63.484636, 10.048227], [-63.48463, 10.04821800000019], [-63.484653, 10.048217], [-63.484681, 10.047162], [-63.484252, 10.045126000000153], [-63.484223, 10.043474], [-63.48404899999986, 10.041435], [-63.483636999999874, 10.039078000000131], [-63.48307, 10.037159], [-63.48234799999989, 10.035701000000131], [-63.48159, 10.033441], [-63.480541, 10.031828000000132], [-63.479228, 10.030999000000122], [-63.47754, 10.030014000000165], [-63.477776, 10.028932000000168], [-63.47795, 10.026888000000156], [-63.47876, 10.025407], [-63.480349, 10.02474100000012], [-63.482148, 10.024095000000159], [-63.483691, 10.023452], [-63.48455499999989, 10.022453], [-63.48583999999988, 10.0203], [-63.48817899999989, 10.02003500000012], [-63.4893909999999, 10.018983000000162], [-63.489964, 10.017254], [-63.490315, 10.016079], [-63.491114, 10.014002000000119], [-63.49103899999983, 10.012374], [-63.491541, 10.010508], [-63.492356, 10.009349], [-63.49279899999988, 10.008126000000118], [-63.492614, 10.005513000000121], [-63.492248999999845, 10.004509], [-63.491108, 10.002943], [-63.4903369999999, 10.001302], [-63.489547, 9.999915], [-63.489655, 9.998100000000136], [-63.490197, 9.997243], [-63.490364, 9.995974000000103], [-63.490332, 9.994184000000132], [-63.490306, 9.993359], [-63.49077, 9.991876000000104], [-63.491377999999884, 9.991285], [-63.492037, 9.990119], [-63.492052999999885, 9.989131], [-63.49224999999984, 9.98800100000011], [-63.492487, 9.987443000000155], [-63.49279099999984, 9.986769000000152], [-63.491878, 9.985784], [-63.491099, 9.983854], [-63.490512, 9.982147], [-63.51656899999983, 9.981515000000115], [-63.516826999999864, 9.980601], [-63.516826, 9.979953], [-63.514447999999845, 9.979662], [-63.51391299999989, 9.979368000000136], [-63.513614999999845, 9.979192000000126], [-63.513199, 9.979015], [-63.512961, 9.978839], [-63.512604, 9.978840000000105], [-63.512603, 9.978015], [-63.512364999999875, 9.977897], [-63.51224599999989, 9.977897], [-63.511769, 9.977073000000132], [-63.511769, 9.976778], [-63.510519, 9.97577900000016], [-63.50920699999989, 9.973364000000174], [-63.50920599999989, 9.972834], [-63.508255, 9.972777000000121], [-63.508136, 9.972659000000135], [-63.507958, 9.9726], [-63.50772, 9.972365000000138], [-63.507122999999865, 9.971069], [-63.50700399999988, 9.970834], [-63.506765, 9.970304000000112], [-63.504922, 9.969835], [-63.504089, 9.969601], [-63.503851, 9.969248000000164], [-63.50337499999989, 9.969130000000177], [-63.502662, 9.968955], [-63.50150699999989, 9.968685000000107], [-63.50099399999988, 9.96787200000017], [-63.500971, 9.967115], [-63.50096, 9.966771], [-63.500936, 9.966014], [-63.500703, 9.965240000000165], [-63.500433, 9.964811], [-63.500273, 9.964127], [-63.500111, 9.96342], [-63.499613, 9.963066], [-63.499451, 9.963094], [-63.499004, 9.963635], [-63.498487, 9.964154], [-63.497911, 9.964285], [-63.497684, 9.963717], [-63.497443, 9.96269100000012], [-63.496524, 9.962234000000137], [-63.495803, 9.961428], [-63.49571999999989, 9.960994], [-63.495273, 9.95933], [-63.495706, 9.958331000000157], [-63.49621499999989, 9.958294000000137], [-63.496448, 9.95831], [-63.496881, 9.958803000000103], [-63.497447, 9.958374000000163], [-63.498232, 9.958238000000108], [-63.49889, 9.957760000000178], [-63.498664999999846, 9.956526], [-63.498233, 9.955322], [-63.49745899999988, 9.955802000000176], [-63.495737, 9.95637900000014], [-63.495087999999896, 9.956397], [-63.494007999999894, 9.955991000000154], [-63.49395, 9.954867], [-63.493402, 9.953666000000169], [-63.492881999999895, 9.953382000000147], [-63.492315, 9.952318], [-63.491852, 9.951597], [-63.49108299999989, 9.951480000000117], [-63.49078999999983, 9.951764], [-63.490131, 9.952218], [-63.489892, 9.951996], [-63.489734, 9.95138], [-63.489336, 9.950519], [-63.488968999999884, 9.949932000000103], [-63.48784499999988, 9.948861], [-63.487226, 9.947616], [-63.487148, 9.946585000000141], [-63.486630999999875, 9.945634000000155], [-63.485789, 9.945428000000163], [-63.485091999999895, 9.945401], [-63.484634, 9.945598000000189], [-63.484656, 9.94631], [-63.484499, 9.947210000000155], [-63.48430499999989, 9.947697000000119], [-63.48426199999989, 9.948548000000187], [-63.484361, 9.949486], [-63.484089, 9.950435], [-63.48338799999988, 9.951006000000177], [-63.48262, 9.950178], [-63.481448, 9.949820000000102], [-63.480487, 9.949503000000163], [-63.479040999999825, 9.950048000000152], [-63.478246, 9.950598000000184], [-63.443874, 9.976351], [-63.44222999999988, 9.977201], [-63.441141, 9.978769000000113], [-63.440702, 9.979562], [-63.440667, 9.980665000000158], [-63.439916, 9.981145], [-63.439179, 9.980591], [-63.438218, 9.98025100000018], [-63.43719499999986, 9.98021000000017], [-63.437034, 9.980995], [-63.43699, 9.98182300000019], [-63.43691199999989, 9.983042000000182], [-63.436708, 9.983943000000124], [-63.43585599999989, 9.984885], [-63.434655, 9.98432200000019], [-63.433477, 9.984515], [-63.431221, 9.985128], [-63.430776, 9.98573800000014], [-63.43314, 9.989199000000156], [-63.4411, 9.996639], [-63.441117, 9.9982], [-63.44089799999989, 9.999466], [-63.441007, 10.000912], [-63.4413, 10.002173], [-63.44217, 10.003038000000117], [-63.442858999999885, 10.004411], [-63.443124, 10.007348], [-63.443541, 10.009343000000115], [-63.400935, 10.008228], [-63.399945, 10.00697300000013], [-63.398355, 10.005947000000162], [-63.397772, 10.004419], [-63.397007, 10.003098000000136], [-63.397693, 10.00113800000014], [-63.397591, 9.999235], [-63.396856, 9.998328000000186], [-63.39636, 9.997137], [-63.395096, 9.995771000000161], [-63.394555, 9.994775000000175], [-63.393877, 9.993876], [-63.393248, 9.993044000000111], [-63.392865, 9.991906000000142], [-63.393188, 9.991117], [-63.39487, 9.989968], [-63.395543, 9.98923800000017], [-63.395035, 9.988563000000113], [-63.394074, 9.98751], [-63.392936, 9.986738], [-63.392653, 9.985070000000121], [-63.391207999999835, 9.985615], [-63.389471, 9.986489], [-63.388159, 9.986089], [-63.387318, 9.985171], [-63.386575, 9.983653000000118], [-63.385365, 9.983549], [-63.384276, 9.983625], [-63.382362, 9.984757000000116], [-63.380798, 9.984456], [-63.379541, 9.983572000000152], [-63.379132, 9.982366000000184], [-63.37842199999989, 9.981146000000138], [-63.376561, 9.981748], [-63.374537, 9.98309], [-63.373986, 9.983289000000184], [-63.37321999999989, 9.98252900000017], [-63.372218, 9.981615], [-63.371107, 9.98173800000012], [-63.369951, 9.981861000000151], [-63.367968999999846, 9.981549], [-63.3667329999999, 9.982111], [-63.365847, 9.983490000000131], [-63.365361, 9.984284], [-63.363861, 9.985312], [-63.362611, 9.985415], [-63.361296, 9.985635000000116], [-63.36022899999989, 9.986422], [-63.358802, 9.986783], [-63.357588, 9.986541000000102], [-63.355529, 9.986758000000123], [-63.353485, 9.986700000000155], [-63.35159, 9.986958000000186], [-63.349584, 9.9866], [-63.348219, 9.985972000000118], [-63.347132, 9.987051], [-63.3466949999999, 9.988015], [-63.34669899999989, 9.989094], [-63.346770999999876, 9.989874], [-63.346473, 9.990815000000111], [-63.346452, 9.99138900000014], [-63.346038, 9.992400000000146], [-63.345994, 9.993042000000116], [-63.346391, 9.993844], [-63.346625, 9.99441800000011], [-63.346095, 9.995315000000119], [-63.345706, 9.997401], [-63.345029999999895, 9.998558], [-63.343543, 9.999841000000117], [-63.34173499999986, 10.001336], [-63.341251, 10.00288], [-63.340961, 10.004949000000181], [-63.340153, 10.006567], [-63.339799, 10.007628000000125], [-63.338519, 10.008748], [-63.33822, 10.010289], [-63.33798599999989, 10.011555000000158], [-63.337869999999896, 10.012933000000146], [-63.338041, 10.014766000000122], [-63.337679, 10.016699000000187], [-63.336549, 10.017128000000127], [-63.335287, 10.017949], [-63.334102, 10.019228000000169], [-63.332599, 10.019549], [-63.330311, 10.020041000000106], [-63.330376, 10.02114100000017], [-63.33043, 10.023022], [-63.330772, 10.024003], [-63.331187, 10.025213000000122], [-63.331601, 10.027754], [-63.332002, 10.029539000000113], [-63.331591, 10.031312], [-63.331267, 10.032739], [-63.330815, 10.036210000000153], [-63.330803, 10.03825200000017], [-63.330381, 10.03936], [-63.330344, 10.039934], [-63.327326, 10.038483], [-63.326603, 10.038417000000152], [-63.334227, 10.043472], [-63.323563, 10.072374], [-63.342569, 10.091458000000102], [-63.383982, 10.087062], [-63.401871, 10.107513000000154]]]}}, {"type": "Feature", "properties": {"Pais": "Venezuela", "Estado": "Monagas", "Municipio": "Piar", "Parroquia": "Aparicio"}, "geometry": {"type": "Polygon", "coordinates": [[[-63.491114, 10.014002000000119], [-63.490315, 10.016079], [-63.489964, 10.017254], [-63.4893909999999, 10.018983000000162], [-63.48817899999989, 10.02003500000012], [-63.48583999999988, 10.0203], [-63.48455499999989, 10.022453], [-63.483691, 10.023452], [-63.482148, 10.024095000000159], [-63.480349, 10.02474100000012], [-63.47876, 10.025407], [-63.47795, 10.026888000000156], [-63.477776, 10.028932000000168], [-63.47754, 10.030014000000165], [-63.479228, 10.030999000000122], [-63.480541, 10.031828000000132], [-63.48159, 10.033441], [-63.48234799999989, 10.035701000000131], [-63.48307, 10.037159], [-63.483636999999874, 10.039078000000131], [-63.48404899999986, 10.041435], [-63.484223, 10.043474], [-63.484252, 10.045126000000153], [-63.484681, 10.047162], [-63.484653, 10.048217], [-63.48463, 10.04821800000019], [-63.484636, 10.048227], [-63.4846356569999, 10.04822719700013], [-63.487249, 10.052476], [-63.491348, 10.054282000000114], [-63.493299, 10.056261], [-63.493475, 10.056655000000148], [-63.497405, 10.057283], [-63.502592, 10.057337], [-63.50598999999983, 10.057372000000157], [-63.511717, 10.05704], [-63.515123, 10.056291], [-63.519605, 10.05516200000011], [-63.524798, 10.054432], [-63.52748999999989, 10.05348], [-63.530719, 10.05233800000019], [-63.538249, 10.05045600000011], [-63.544168, 10.048558], [-63.548142, 10.044092], [-63.5506, 10.03886], [-63.55913799999985, 10.034213000000136], [-63.563637999999855, 10.03092700000019], [-63.570276, 10.028645], [-63.574939, 10.027321], [-63.57780899999989, 10.026371], [-63.580522, 10.024952], [-63.58563, 10.021781], [-63.586114, 10.017443], [-63.58567099999988, 10.015535000000114], [-63.58771599999989, 10.013085000000103], [-63.60171, 10.016307], [-63.601866, 10.016285], [-63.601324, 10.014747000000114], [-63.60204199999987, 10.012172], [-63.604105, 10.009619], [-63.60623, 10.00552400000015], [-63.606375, 10.002508], [-63.605931, 9.996644000000117], [-63.60525299999989, 9.995903], [-63.603594, 9.993299], [-63.60076, 9.990349], [-63.5996219999999, 9.989748], [-63.596376, 9.988123], [-63.593226, 9.986586000000102], [-63.589277, 9.985953000000166], [-63.586363, 9.98626800000011], [-63.582917999999836, 9.986098], [-63.578098999999895, 9.985796000000107], [-63.576114, 9.984353000000112], [-63.574986, 9.981661000000145], [-63.575888, 9.979191], [-63.57546699999989, 9.976748], [-63.574441, 9.977073000000132], [-63.573778, 9.977337], [-63.572982, 9.977365000000134], [-63.572159, 9.977419000000168], [-63.5714339999999, 9.977542], [-63.569447, 9.97839800000014], [-63.568051, 9.977738], [-63.566487, 9.976946000000112], [-63.564225, 9.976731], [-63.561885999999845, 9.976910000000146], [-63.55909999999989, 9.97752000000014], [-63.556877, 9.979464], [-63.55484, 9.980804], [-63.5533, 9.981803000000127], [-63.551567, 9.982626], [-63.550703, 9.983692000000133], [-63.548918, 9.984954], [-63.54749, 9.9840650000001], [-63.545468, 9.983451], [-63.544264999999825, 9.982370000000174], [-63.54248699999988, 9.983263], [-63.541302, 9.982641], [-63.539428, 9.982251], [-63.535356, 9.982632], [-63.534934, 9.983705000000157], [-63.532771, 9.984222000000102], [-63.53095, 9.98516300000017], [-63.529397, 9.986439], [-63.526169, 9.987018000000148], [-63.524585, 9.988685], [-63.52236699999986, 9.988377000000185], [-63.519972, 9.987156], [-63.519417, 9.986028000000147], [-63.518797, 9.984420000000114], [-63.517835, 9.982985], [-63.517184, 9.981791], [-63.51656899999983, 9.981515000000115], [-63.490512, 9.982147], [-63.491099, 9.983854], [-63.491878, 9.985784], [-63.49279099999984, 9.986769000000152], [-63.492487, 9.987443000000155], [-63.49224999999984, 9.98800100000011], [-63.492052999999885, 9.989131], [-63.492037, 9.990119], [-63.491377999999884, 9.991285], [-63.49077, 9.991876000000104], [-63.490306, 9.993359], [-63.490332, 9.994184000000132], [-63.490364, 9.995974000000103], [-63.490197, 9.997243], [-63.489655, 9.998100000000136], [-63.489547, 9.999915], [-63.4903369999999, 10.001302], [-63.491108, 10.002943], [-63.492248999999845, 10.004509], [-63.492614, 10.005513000000121], [-63.49279899999988, 10.008126000000118], [-63.492356, 10.009349], [-63.491541, 10.010508], [-63.49103899999983, 10.012374], [-63.491114, 10.014002000000119]]]}}, {"type": "Feature", "properties": {"Pais": "Venezuela", "Estado": "Monagas", "Municipio": "Piar", "Parroquia": "Chaguaramal"}, "geometry": {"type": "Polygon", "coordinates": [[[-63.374334, 9.907007000000135], [-63.374337, 9.907949], [-63.373297, 9.909122], [-63.372511, 9.909767], [-63.371749, 9.910756], [-63.371451, 9.911836], [-63.371060999999884, 9.913215], [-63.37088099999983, 9.914731], [-63.37093, 9.915558000000146], [-63.37188599999985, 9.916888], [-63.372887999999875, 9.918309], [-63.374239, 9.919707], [-63.374822, 9.920785], [-63.375636, 9.921358], [-63.376496, 9.921884], [-63.377706, 9.922869], [-63.378056, 9.923465000000135], [-63.37842899999987, 9.92403800000011], [-63.379408, 9.925299000000166], [-63.379645, 9.926998], [-63.380162, 9.9289500000001], [-63.379936, 9.930627000000129], [-63.380358, 9.931729000000189], [-63.381337, 9.933334000000116], [-63.381944, 9.934366], [-63.3829, 9.935742], [-63.383191, 9.936251], [-63.38325, 9.936315], [-63.385944, 9.938855], [-63.386816, 9.942622000000142], [-63.388548, 9.946594000000175], [-63.389813, 9.949901], [-63.390798, 9.95284], [-63.39211, 9.956101], [-63.393062, 9.962626], [-63.395001, 9.96623], [-63.399739, 9.967366], [-63.403145, 9.966322000000162], [-63.405295, 9.964132000000177], [-63.40661299999982, 9.963139], [-63.407668999999885, 9.959987], [-63.408566, 9.958008], [-63.41003599999988, 9.954027], [-63.411651, 9.951792000000182], [-63.41216999999989, 9.947906], [-63.412553, 9.944756000000154], [-63.413848, 9.9437870000001], [-63.414764, 9.943911], [-63.414911, 9.942644], [-63.415406999999846, 9.941436], [-63.41581899999983, 9.940507000000139], [-63.416445, 9.939755], [-63.41689, 9.939145], [-63.418525, 9.938733], [-63.419451999999865, 9.938707], [-63.421077, 9.938754], [-63.42201, 9.938154000000111], [-63.422227, 9.936931000000186], [-63.422379, 9.935848], [-63.42277599999983, 9.935171], [-63.42404, 9.934033], [-63.42370399999987, 9.93294], [-63.423971, 9.932588], [-63.4243249999999, 9.932028], [-63.424215, 9.930722000000173], [-63.424746, 9.929881], [-63.42464699999982, 9.928942000000177], [-63.424492, 9.927707000000112], [-63.425120999999876, 9.927046000000132], [-63.42603799999989, 9.925919000000135], [-63.426924, 9.924586000000147], [-63.427592, 9.923671000000127], [-63.428552, 9.923209], [-63.42953199999988, 9.922653], [-63.430491, 9.922145000000171], [-63.430513, 9.921386], [-63.430792, 9.921379], [-63.431686, 9.921055], [-63.431669, 9.920505], [-63.4312819999999, 9.919988], [-63.43060999999989, 9.920006000000114], [-63.430063, 9.919585], [-63.43019, 9.919191000000183], [-63.430175, 9.918709], [-63.430645, 9.918168], [-63.431003, 9.91772200000014], [-63.431165, 9.916983], [-63.430636, 9.917112], [-63.429908999999896, 9.916880000000106], [-63.428781, 9.917164000000128], [-63.427267, 9.916953], [-63.426081999999894, 9.915402], [-63.425315, 9.914619], [-63.424572999999896, 9.913148], [-63.424472, 9.912140000000136], [-63.424634, 9.911378000000127], [-63.425265, 9.910764000000142], [-63.425559, 9.909056], [-63.42594899999989, 9.907415000000128], [-63.426221, 9.906467], [-63.42647, 9.905518], [-63.425581, 9.904533], [-63.424758, 9.904188000000147], [-63.423972, 9.903521000000183], [-63.42304, 9.903386], [-63.421977, 9.90353], [-63.42156399999982, 9.904414], [-63.42247, 9.904435000000149], [-63.423519, 9.904613000000154], [-63.423844, 9.905361], [-63.422836, 9.90578], [-63.42157399999985, 9.90547000000015], [-63.420923, 9.904685], [-63.420594, 9.903821000000164], [-63.41921, 9.902597000000128], [-63.41865399999983, 9.901120000000105], [-63.419079999999894, 9.900649], [-63.420508, 9.900288], [-63.421047, 9.898987], [-63.42090299999984, 9.898073], [-63.422724, 9.896942000000138], [-63.423304, 9.8962140000001], [-63.4230859999999, 9.895164], [-63.422139, 9.8945480000001], [-63.422006, 9.893265], [-63.422004, 9.891704000000175], [-63.4217, 9.890128000000118], [-63.421533999999895, 9.889283], [-63.42128, 9.887821], [-63.42115299999983, 9.88670000000019], [-63.421597, 9.886067], [-63.422624, 9.885534000000177], [-63.423323, 9.885629], [-63.42357, 9.886105000000157], [-63.424685, 9.886166], [-63.426486999999895, 9.885932], [-63.426897999999824, 9.885714000000121], [-63.427541, 9.884755], [-63.4276569999999, 9.884017], [-63.428645, 9.885206], [-63.428729, 9.885663], [-63.42894699999988, 9.886713], [-63.42944099999988, 9.887664], [-63.430357, 9.888764], [-63.431139, 9.88929300000018], [-63.432426, 9.889648], [-63.433912, 9.889698], [-63.435192, 9.889824], [-63.436629, 9.889784], [-63.43785599999984, 9.889704], [-63.439414, 9.889821000000154], [-63.440954, 9.89085800000015], [-63.44199, 9.891357], [-63.442907, 9.891722], [-63.443934, 9.892681], [-63.4448, 9.893644000000108], [-63.44514699999985, 9.895104000000117], [-63.446344, 9.89555300000012], [-63.447376, 9.895914000000175], [-63.448889, 9.896102], [-63.450706, 9.896327], [-63.4524449999999, 9.896302000000105], [-63.453609, 9.89643], [-63.454201, 9.896827], [-63.454988, 9.897494000000165], [-63.45530799999989, 9.898105], [-63.45647, 9.898899], [-63.457258, 9.898877], [-63.45827799999989, 9.898849000000155], [-63.459355, 9.899186000000157], [-63.460072, 9.90059], [-63.461463, 9.902044], [-63.462618, 9.903389000000118], [-63.463569, 9.904075], [-63.46493, 9.90383], [-63.466327, 9.903998], [-63.467705, 9.904304000000138], [-63.468497, 9.904397000000188], [-63.469511999999895, 9.9057], [-63.470374, 9.907307000000117], [-63.470702, 9.908905000000175], [-63.472327, 9.910421], [-63.561168, 9.956964], [-63.560861, 9.956152], [-63.56071999999989, 9.953744], [-63.56026, 9.950889], [-63.560202, 9.948823], [-63.561222, 9.947016], [-63.562843, 9.94571400000018], [-63.563589, 9.944607], [-63.565054, 9.942898], [-63.566542, 9.940567000000101], [-63.566992, 9.939608], [-63.568472, 9.937094000000172], [-63.569701, 9.934705], [-63.567954, 9.930427000000122], [-63.56673099999989, 9.927071], [-63.565734, 9.925339000000122], [-63.56459299999989, 9.92347400000017], [-63.562321, 9.921789], [-63.559745, 9.92007], [-63.558267999999885, 9.919688], [-63.557156, 9.918581000000131], [-63.55529899999982, 9.916811], [-63.553038, 9.915425000000141], [-63.551127, 9.914049000000148], [-63.55038799999983, 9.912376000000108], [-63.54993899999988, 9.911037], [-63.54890299999988, 9.910064000000148], [-63.5473209999999, 9.909411], [-63.545872, 9.907971000000146], [-63.5445, 9.907333000000108], [-63.543239, 9.90595500000012], [-63.542792, 9.904041], [-63.541745, 9.903391000000113], [-63.540406, 9.902407], [-63.538037, 9.90061100000014], [-63.536446999999896, 9.899130000000127], [-63.53554, 9.899095000000102], [-63.53390599999989, 9.89888], [-63.530461, 9.89866400000011], [-63.528137, 9.89921], [-63.52711499999987, 9.898604000000148], [-63.524535, 9.897367], [-63.521723, 9.896691000000146], [-63.522429, 9.894573], [-63.521962, 9.892132], [-63.520185, 9.891807000000142], [-63.517297, 9.892167], [-63.516683, 9.890719], [-63.515541, 9.890601], [-63.514897, 9.888993], [-63.513635, 9.886398], [-63.512151, 9.885258], [-63.510733, 9.884621000000152], [-63.509388, 9.88173], [-63.507691, 9.88108], [-63.507607, 9.879521], [-63.508133, 9.878123000000187], [-63.508626999999876, 9.876518], [-63.50891699999988, 9.875036], [-63.509627, 9.87301100000019], [-63.509319, 9.872241], [-63.509686, 9.87036600000016], [-63.510703, 9.868467], [-63.510553, 9.867002000000184], [-63.50970299999989, 9.864851], [-63.508554, 9.862779], [-63.506509, 9.860948], [-63.505411, 9.860184], [-63.504519, 9.859344], [-63.504547999999886, 9.857712000000163], [-63.503681, 9.856916000000183], [-63.502336, 9.856346], [-63.501349, 9.856038], [-63.4976769999999, 9.854432], [-63.496533, 9.853631000000178], [-63.49496399999987, 9.853147], [-63.49400999999989, 9.852324], [-63.493953, 9.850488], [-63.493909, 9.848331], [-63.49429299999986, 9.847265000000164], [-63.493801, 9.845648], [-63.49286, 9.843723000000182], [-63.491912, 9.842372000000125], [-63.491951, 9.840648000000101], [-63.492365, 9.83903], [-63.493488, 9.83785], [-63.494684, 9.836783], [-63.495121, 9.835944], [-63.495459, 9.834121], [-63.494984, 9.832297000000153], [-63.494383, 9.83013300000016], [-63.494086999999865, 9.827363000000105], [-63.493596, 9.825770000000148], [-63.489742, 9.824913], [-63.488251999999875, 9.825482], [-63.486635, 9.825688], [-63.485332, 9.825541], [-63.483825, 9.825560000000166], [-63.483366, 9.825733], [-63.482034, 9.824668], [-63.480632, 9.824317000000178], [-63.4792, 9.823783], [-63.477781, 9.822146000000146], [-63.476712, 9.820615], [-63.475449, 9.82026], [-63.474523, 9.819574000000102], [-63.473541, 9.817833000000121], [-63.473351, 9.816208000000131], [-63.473271999999895, 9.8144190000001], [-63.472631, 9.812509000000148], [-63.47173, 9.811133], [-63.470255999999836, 9.810692], [-63.46971999999988, 9.808411], [-63.469977, 9.806957000000125], [-63.469742, 9.80538], [-63.469679, 9.803361000000166], [-63.46877199999989, 9.802537], [-63.467788, 9.801485000000184], [-63.46688, 9.800615000000164], [-63.465897, 9.799586], [-63.464912, 9.79848800000019], [-63.464368, 9.796666], [-63.462658, 9.79614], [-63.461368, 9.795671], [-63.459587, 9.795077], [-63.458177, 9.795231000000172], [-63.456075, 9.795937000000151], [-63.45490099999989, 9.796196], [-63.358172, 9.817499], [-63.363695, 9.884657], [-63.365015999999855, 9.88384], [-63.365776, 9.883682], [-63.36635199999989, 9.884286000000145], [-63.367147, 9.884493000000191], [-63.36738499999984, 9.884693], [-63.367838, 9.885094], [-63.368848, 9.885503], [-63.369715, 9.886512], [-63.369791, 9.887587], [-63.36967899999985, 9.888644000000113], [-63.369984, 9.8897], [-63.370637, 9.890709], [-63.370709, 9.891628], [-63.371059999999886, 9.89240800000016], [-63.370969999999886, 9.893373], [-63.37039199999987, 9.89390200000014], [-63.37021, 9.894867], [-63.370745, 9.895256], [-63.37135099999989, 9.896036], [-63.371493, 9.8970920000001], [-63.371844999999894, 9.898148], [-63.372449, 9.898399], [-63.37259299999988, 9.8998], [-63.372806, 9.901085], [-63.373042, 9.902256], [-63.373208, 9.903496], [-63.373004, 9.904897000000176], [-63.37356099999988, 9.905576], [-63.374334, 9.907007000000135]]]}}, {"type": "Feature", "properties": {"Pais": "Venezuela", "Estado": "Monagas", "Municipio": "Piar", "Parroquia": "El Pinto"}, "geometry": {"type": "Polygon", "coordinates": [[[-63.374334, 9.907007000000135], [-63.37356099999988, 9.905576], [-63.373004, 9.904897000000176], [-63.373208, 9.903496], [-63.373042, 9.902256], [-63.372806, 9.901085], [-63.37259299999988, 9.8998], [-63.372449, 9.898399], [-63.371844999999894, 9.898148], [-63.371493, 9.8970920000001], [-63.37135099999989, 9.896036], [-63.370745, 9.895256], [-63.37021, 9.894867], [-63.37039199999987, 9.89390200000014], [-63.370969999999886, 9.893373], [-63.371059999999886, 9.89240800000016], [-63.370709, 9.891628], [-63.370637, 9.890709], [-63.369984, 9.8897], [-63.36967899999985, 9.888644000000113], [-63.369791, 9.887587], [-63.369715, 9.886512], [-63.368848, 9.885503], [-63.367838, 9.885094], [-63.36738499999984, 9.884693], [-63.367147, 9.884493000000191], [-63.36635199999989, 9.884286000000145], [-63.365776, 9.883682], [-63.365015999999855, 9.88384], [-63.363695, 9.884657], [-63.36276599999985, 9.891553000000101], [-63.299936, 9.93518], [-63.295169, 9.938358000000107], [-63.2942589999999, 9.939122000000111], [-63.277542, 9.997209000000112], [-63.277496, 9.997209000000112], [-63.289368, 10.014987], [-63.291606, 10.017611000000102], [-63.295432, 10.023095000000183], [-63.29742299999987, 10.026570000000106], [-63.300074, 10.028663000000108], [-63.30383799999987, 10.030516000000148], [-63.308161, 10.032296000000144], [-63.313527, 10.033747000000119], [-63.318801, 10.035243], [-63.32069899999988, 10.03656000000018], [-63.323158, 10.038103], [-63.326603, 10.038417000000152], [-63.327326, 10.038483], [-63.330344, 10.039934], [-63.330381, 10.03936], [-63.330803, 10.03825200000017], [-63.330815, 10.036210000000153], [-63.331267, 10.032739], [-63.331591, 10.031312], [-63.332002, 10.029539000000113], [-63.331601, 10.027754], [-63.331187, 10.025213000000122], [-63.330772, 10.024003], [-63.33043, 10.023022], [-63.330376, 10.02114100000017], [-63.330311, 10.020041000000106], [-63.332599, 10.019549], [-63.334102, 10.019228000000169], [-63.335287, 10.017949], [-63.336549, 10.017128000000127], [-63.337679, 10.016699000000187], [-63.338041, 10.014766000000122], [-63.337869999999896, 10.012933000000146], [-63.33798599999989, 10.011555000000158], [-63.33822, 10.010289], [-63.338519, 10.008748], [-63.339799, 10.007628000000125], [-63.340153, 10.006567], [-63.340961, 10.004949000000181], [-63.341251, 10.00288], [-63.34173499999986, 10.001336], [-63.343543, 9.999841000000117], [-63.345029999999895, 9.998558], [-63.345706, 9.997401], [-63.346095, 9.995315000000119], [-63.346625, 9.99441800000011], [-63.346391, 9.993844], [-63.345994, 9.993042000000116], [-63.346038, 9.992400000000146], [-63.346452, 9.99138900000014], [-63.346473, 9.990815000000111], [-63.346770999999876, 9.989874], [-63.34669899999989, 9.989094], [-63.3466949999999, 9.988015], [-63.347132, 9.987051], [-63.348219, 9.985972000000118], [-63.349584, 9.9866], [-63.35159, 9.986958000000186], [-63.353485, 9.986700000000155], [-63.355529, 9.986758000000123], [-63.357588, 9.986541000000102], [-63.358802, 9.986783], [-63.36022899999989, 9.986422], [-63.361296, 9.985635000000116], [-63.362611, 9.985415], [-63.363861, 9.985312], [-63.365361, 9.984284], [-63.365847, 9.983490000000131], [-63.3667329999999, 9.982111], [-63.367968999999846, 9.981549], [-63.369951, 9.981861000000151], [-63.371107, 9.98173800000012], [-63.372218, 9.981615], [-63.37321999999989, 9.98252900000017], [-63.373986, 9.983289000000184], [-63.374537, 9.98309], [-63.376561, 9.981748], [-63.37842199999989, 9.981146000000138], [-63.379132, 9.982366000000184], [-63.379541, 9.983572000000152], [-63.380798, 9.984456], [-63.382362, 9.984757000000116], [-63.384276, 9.983625], [-63.385365, 9.983549], [-63.386575, 9.983653000000118], [-63.387318, 9.985171], [-63.388159, 9.986089], [-63.389471, 9.986489], [-63.391207999999835, 9.985615], [-63.392653, 9.985070000000121], [-63.392936, 9.986738], [-63.394074, 9.98751], [-63.395035, 9.988563000000113], [-63.395543, 9.98923800000017], [-63.39487, 9.989968], [-63.393188, 9.991117], [-63.392865, 9.991906000000142], [-63.393248, 9.993044000000111], [-63.393877, 9.993876], [-63.394555, 9.994775000000175], [-63.395096, 9.995771000000161], [-63.39636, 9.997137], [-63.396856, 9.998328000000186], [-63.397591, 9.999235], [-63.397693, 10.00113800000014], [-63.397007, 10.003098000000136], [-63.397772, 10.004419], [-63.398355, 10.005947000000162], [-63.399945, 10.00697300000013], [-63.400935, 10.008228], [-63.443541, 10.009343000000115], [-63.443124, 10.007348], [-63.442858999999885, 10.004411], [-63.44217, 10.003038000000117], [-63.4413, 10.002173], [-63.441007, 10.000912], [-63.44089799999989, 9.999466], [-63.441117, 9.9982], [-63.4411, 9.996639], [-63.43314, 9.989199000000156], [-63.430776, 9.98573800000014], [-63.430432, 9.985862], [-63.429997, 9.986058000000128], [-63.429768, 9.986133000000109], [-63.429373, 9.986121], [-63.428792, 9.985356000000138], [-63.42836599999987, 9.984335], [-63.427554, 9.983600000000138], [-63.425923, 9.983393], [-63.425223, 9.982516], [-63.424337, 9.981646000000126], [-63.423282999999856, 9.98133], [-63.421218, 9.981319], [-63.41966599999989, 9.981408000000158], [-63.418935, 9.98253], [-63.417742, 9.982976], [-63.4173669999999, 9.983606000000123], [-63.416878, 9.984286], [-63.416255, 9.984395], [-63.415649, 9.98432], [-63.41498599999983, 9.983879000000115], [-63.41429099999988, 9.983163], [-63.414234, 9.982821000000172], [-63.414265, 9.98160300000012], [-63.414792, 9.980624], [-63.415196, 9.979442], [-63.416213, 9.978564], [-63.417574999999886, 9.977585], [-63.4191239999999, 9.976670000000183], [-63.42009, 9.975633000000187], [-63.421173, 9.973904000000118], [-63.420848, 9.97242], [-63.419815, 9.970542], [-63.419862, 9.969072000000153], [-63.42027599999983, 9.968188], [-63.420245, 9.967201], [-63.420195, 9.966330000000141], [-63.419598, 9.965038000000163], [-63.419273, 9.964289000000178], [-63.418715, 9.96352400000012], [-63.418256, 9.962917000000175], [-63.416816, 9.956918000000144], [-63.416426, 9.955574000000126], [-63.416133, 9.954343], [-63.415846, 9.95334], [-63.41539, 9.952090000000169], [-63.415433, 9.95124], [-63.415518, 9.950250000000153], [-63.41557099999983, 9.949697], [-63.415593, 9.94891600000011], [-63.415246, 9.948214], [-63.415216, 9.947228], [-63.414806, 9.945999000000143], [-63.41466099999985, 9.945062], [-63.414764, 9.943911], [-63.413848, 9.9437870000001], [-63.412553, 9.944756000000154], [-63.41216999999989, 9.947906], [-63.411651, 9.951792000000182], [-63.41003599999988, 9.954027], [-63.408566, 9.958008], [-63.407668999999885, 9.959987], [-63.40661299999982, 9.963139], [-63.405295, 9.964132000000177], [-63.403145, 9.966322000000162], [-63.399739, 9.967366], [-63.395001, 9.96623], [-63.393062, 9.962626], [-63.39211, 9.956101], [-63.390798, 9.95284], [-63.389813, 9.949901], [-63.388548, 9.946594000000175], [-63.386816, 9.942622000000142], [-63.385944, 9.938855], [-63.38325, 9.936315], [-63.383191, 9.936251], [-63.3829, 9.935742], [-63.381944, 9.934366], [-63.381337, 9.933334000000116], [-63.380358, 9.931729000000189], [-63.379936, 9.930627000000129], [-63.380162, 9.9289500000001], [-63.379645, 9.926998], [-63.379408, 9.925299000000166], [-63.37842899999987, 9.92403800000011], [-63.378056, 9.923465000000135], [-63.377706, 9.922869], [-63.376496, 9.921884], [-63.375636, 9.921358], [-63.374822, 9.920785], [-63.374239, 9.919707], [-63.372887999999875, 9.918309], [-63.37188599999985, 9.916888], [-63.37093, 9.915558000000146], [-63.37088099999983, 9.914731], [-63.371060999999884, 9.913215], [-63.371451, 9.911836], [-63.371749, 9.910756], [-63.372511, 9.909767], [-63.373297, 9.909122], [-63.374337, 9.907949], [-63.374334, 9.907007000000135]]]}}, {"type": "Feature", "properties": {"Pais": "Venezuela", "Estado": "Monagas", "Municipio": "Piar", "Parroquia": "Guanaguana"}, "geometry": {"type": "Polygon", "coordinates": [[[-63.455385, 10.140762000000166], [-63.464441, 10.139768000000174], [-63.464506642999936, 10.139794854000058], [-63.464406, 10.139499000000114], [-63.490461, 10.136911], [-63.50186999999988, 10.132665], [-63.504355, 10.130831], [-63.507357, 10.129187], [-63.511111, 10.127838000000168], [-63.517017, 10.127654], [-63.51900099999989, 10.128664000000128], [-63.523302, 10.130281], [-63.526564999999835, 10.129455], [-63.528570999999886, 10.128488000000118], [-63.531015, 10.128104000000178], [-63.53606, 10.127835000000118], [-63.539769, 10.127819], [-63.540039, 10.126317], [-63.538755, 10.12414], [-63.54119899999989, 10.120510000000138], [-63.545031, 10.118125000000134], [-63.549905, 10.11754900000011], [-63.553974, 10.115298], [-63.557648, 10.113707], [-63.559109, 10.114368000000127], [-63.560887, 10.118669], [-63.562701, 10.120406], [-63.56425999999988, 10.122846000000152], [-63.564705, 10.125541], [-63.566305999999884, 10.127506], [-63.568021, 10.130252], [-63.571466, 10.12654300000014], [-63.573782, 10.123911], [-63.57571399999989, 10.119617000000119], [-63.579144, 10.113776], [-63.582856, 10.111923], [-63.588907, 10.108005], [-63.593879, 10.108363000000168], [-63.597572, 10.107245], [-63.603507, 10.105524], [-63.608695, 10.105152], [-63.6137829999999, 10.103757], [-63.617189, 10.10038500000013], [-63.617514, 10.102841000000126], [-63.617111, 10.098124], [-63.618209, 10.091309], [-63.620374, 10.088338], [-63.62439599999982, 10.077743], [-63.628565, 10.066777000000116], [-63.62658, 10.06572100000011], [-63.62348, 10.065257], [-63.62139, 10.065193000000136], [-63.618142, 10.064458], [-63.616106, 10.062288000000137], [-63.615349, 10.059021], [-63.615025, 10.054553000000169], [-63.615017, 10.050488], [-63.61261299999984, 10.046186], [-63.612591, 10.042374000000166], [-63.61195, 10.040672], [-63.6137829999999, 10.035600000000159], [-63.615326, 10.030194000000108], [-63.614998, 10.028804], [-63.61320399999988, 10.027259000000129], [-63.61265, 10.026062], [-63.609369, 10.023766000000137], [-63.605485, 10.020848], [-63.603717, 10.019395000000145], [-63.602099, 10.016948000000184], [-63.601866, 10.016285], [-63.60171, 10.016307], [-63.58771599999989, 10.013085000000103], [-63.58567099999988, 10.015535000000114], [-63.586114, 10.017443], [-63.58563, 10.021781], [-63.580522, 10.024952], [-63.57780899999989, 10.026371], [-63.574939, 10.027321], [-63.570276, 10.028645], [-63.563637999999855, 10.03092700000019], [-63.55913799999985, 10.034213000000136], [-63.5506, 10.03886], [-63.548142, 10.044092], [-63.544168, 10.048558], [-63.538249, 10.05045600000011], [-63.530719, 10.05233800000019], [-63.52748999999989, 10.05348], [-63.524798, 10.054432], [-63.519605, 10.05516200000011], [-63.515123, 10.056291], [-63.511717, 10.05704], [-63.50598999999983, 10.057372000000157], [-63.502592, 10.057337], [-63.497405, 10.057283], [-63.493475, 10.056655000000148], [-63.493299, 10.056261], [-63.491348, 10.054282000000114], [-63.487249, 10.052476], [-63.4846356569999, 10.04822719700013], [-63.476727, 10.052764], [-63.473288, 10.069910000000164], [-63.47383, 10.07176], [-63.473618, 10.072933], [-63.473106, 10.075534], [-63.471969999999885, 10.076927], [-63.472002, 10.078762], [-63.47205199999985, 10.080345], [-63.47205199999985, 10.08165300000013], [-63.471073, 10.084076], [-63.472183, 10.08653800000019], [-63.454524999999876, 10.106795], [-63.454984, 10.107129], [-63.444329, 10.122491], [-63.455385, 10.140762000000166]]]}}, {"type": "Feature", "properties": {"Pais": "Venezuela", "Estado": "Monagas", "Municipio": "Piar", "Parroquia": "La Toscana"}, "geometry": {"type": "Polygon", "coordinates": [[[-63.36276599999985, 9.891553000000101], [-63.363695, 9.884657], [-63.358172, 9.817499], [-63.45490099999989, 9.796196], [-63.454953, 9.795941000000141], [-63.453928, 9.79507400000017], [-63.453082, 9.794707000000187], [-63.452379, 9.793762000000129], [-63.451239, 9.792897000000153], [-63.449503, 9.79225700000012], [-63.447926, 9.792255000000125], [-63.446717, 9.792150000000163], [-63.445106999999894, 9.79182800000018], [-63.443201, 9.791698], [-63.441813, 9.791070000000161], [-63.440667, 9.789264000000117], [-63.43939499999988, 9.787876], [-63.437831, 9.787552], [-63.436086, 9.78739400000012], [-63.434209, 9.787423], [-63.433113999999875, 9.786535], [-63.431687, 9.785404000000142], [-63.430636, 9.78515700000014], [-63.430211, 9.7841820000001], [-63.42923399999984, 9.784071000000154], [-63.42645199999987, 9.785617000000173], [-63.424779999999885, 9.785526000000118], [-63.423336, 9.785313], [-63.423334999999895, 9.785313], [-63.42206, 9.784568], [-63.420844, 9.782742000000155], [-63.42040999999989, 9.780733], [-63.419289999999876, 9.780489], [-63.41844799999984, 9.781775], [-63.417188, 9.783004000000176], [-63.415916, 9.783108], [-63.413807, 9.783901000000128], [-63.41295199999985, 9.7832590000001], [-63.411849, 9.78283000000016], [-63.40986799999985, 9.783298000000116], [-63.407455999999854, 9.784054], [-63.406025, 9.785011000000111], [-63.404706, 9.784359000000165], [-63.40281, 9.783034000000157], [-63.401241, 9.783284], [-63.400096, 9.783775000000162], [-63.39849, 9.783589], [-63.397361, 9.782312000000104], [-63.396526, 9.782312000000104], [-63.395995, 9.78313], [-63.394803, 9.7836], [-63.3944249999999, 9.782600000000116], [-63.393792999999846, 9.78241], [-63.392838, 9.783792000000176], [-63.39208799999989, 9.784272000000101], [-63.390859, 9.78428300000013], [-63.389531, 9.784825000000183], [-63.38833899999986, 9.785294], [-63.38587399999983, 9.785844000000111], [-63.383702, 9.786088], [-63.38235, 9.786630000000116], [-63.381396, 9.788011], [-63.381674, 9.789519], [-63.382127, 9.790654000000188], [-63.38155499999988, 9.790923], [-63.380548, 9.790583], [-63.37963099999985, 9.790195], [-63.378136, 9.789088000000106], [-63.3766389999999, 9.790163], [-63.375812, 9.791196000000127], [-63.374813, 9.791866000000141], [-63.373201, 9.792232], [-63.37139499999989, 9.792328000000168], [-63.370091999999886, 9.79296], [-63.368309999999894, 9.793078], [-63.36697399999986, 9.793368], [-63.365885999999875, 9.79342], [-63.364449, 9.793483000000151], [-63.363995, 9.793794000000105], [-63.36301999999989, 9.793775000000153], [-63.361373, 9.7937510000001], [-63.359919, 9.793975], [-63.358846, 9.793017000000134], [-63.357912, 9.793571000000156], [-63.35593199999988, 9.793304], [-63.354914, 9.791862000000151], [-63.353975999999875, 9.79002800000012], [-63.352622, 9.789744], [-63.350715, 9.790325000000166], [-63.349572, 9.791596], [-63.34822799999989, 9.792413], [-63.346037, 9.792795], [-63.34291, 9.794442000000117], [-63.341293, 9.795405000000187], [-63.33994499999989, 9.795327000000157], [-63.338346, 9.795371], [-63.336916, 9.795617000000163], [-63.335481, 9.794944], [-63.334644, 9.793383], [-63.33361599999989, 9.793113], [-63.332546, 9.792270000000144], [-63.330842, 9.791903000000161], [-63.329465, 9.791642], [-63.328173, 9.791104000000132], [-63.32698999999985, 9.790333], [-63.325472, 9.789984000000175], [-63.32319599999988, 9.789128], [-63.321234, 9.789457], [-63.319231, 9.789167], [-63.317816, 9.78916], [-63.316731, 9.788593], [-63.31520799999987, 9.788084], [-63.313397, 9.787995], [-63.31217, 9.788075000000163], [-63.310099, 9.787833], [-63.307876, 9.787940000000162], [-63.30691399999989, 9.787576], [-63.304455999999846, 9.787597], [-63.30371799999989, 9.788578], [-63.335075, 9.856662000000142], [-63.333306, 9.856103], [-63.332488999999896, 9.856676], [-63.330662, 9.856841], [-63.329598, 9.856962], [-63.328937, 9.857325000000117], [-63.328404, 9.858097], [-63.327366, 9.858286], [-63.326553, 9.858263], [-63.325141, 9.858347], [-63.324017, 9.858768000000111], [-63.322134, 9.858636], [-63.321429, 9.857576000000108], [-63.320842, 9.85734], [-63.318156, 9.857482000000118], [-63.317016, 9.857399], [-63.3151, 9.856923], [-63.313837, 9.856613], [-63.312248999999895, 9.856289000000174], [-63.31142099999988, 9.855003000000181], [-63.31058, 9.854796000000135], [-63.30916099999985, 9.854652000000101], [-63.307439, 9.854492], [-63.305378, 9.85383700000017], [-63.303859, 9.85273], [-63.3028819999999, 9.851861], [-63.302473, 9.85139], [-63.300458999999876, 9.851537000000121], [-63.298248999999885, 9.851322], [-63.29633999999987, 9.851076000000148], [-63.295196, 9.850832], [-63.293649, 9.850323], [-63.29295599999983, 9.849676000000159], [-63.2912189999999, 9.849769], [-63.289649, 9.850753], [-63.28794, 9.851007000000152], [-63.285523, 9.851624], [-63.28300599999989, 9.851991], [-63.280986, 9.851931], [-63.279818, 9.851641], [-63.278311, 9.851682], [-63.276405, 9.852285], [-63.275457, 9.853138], [-63.275302999999894, 9.853418000000147], [-63.274574, 9.853874], [-63.272463, 9.854597000000183], [-63.271819, 9.855556], [-63.270677, 9.856873000000178], [-63.26859599999989, 9.857136], [-63.266574, 9.857765], [-63.26598399999989, 9.85817100000014], [-63.264631, 9.85869], [-63.263488, 9.85925], [-63.262666, 9.859662], [-63.261414, 9.860431], [-63.259094, 9.860448], [-63.25801499999989, 9.860799000000156], [-63.25614799999988, 9.860414], [-63.25330899999989, 9.860123000000158], [-63.252007, 9.860779], [-63.25002499999988, 9.86120000000011], [-63.2482839999999, 9.861936], [-63.24682399999989, 9.86199900000014], [-63.24468499999983, 9.8610690000001], [-63.24331, 9.86009700000011], [-63.241011, 9.860021], [-63.239637, 9.859829000000161], [-63.237918, 9.860518000000127], [-63.235849, 9.860368000000165], [-63.233587, 9.860728000000108], [-63.232107, 9.860906000000114], [-63.2298219999999, 9.860508], [-63.228149, 9.860393000000101], [-63.226237, 9.860835], [-63.22479, 9.862091], [-63.22386099999983, 9.86282800000015], [-63.222771, 9.863593], [-63.221768, 9.864172000000167], [-63.22107899999986, 9.865178], [-63.220454, 9.865975000000105], [-63.219531, 9.866873000000169], [-63.218936, 9.867899000000136], [-63.218329, 9.868535000000179], [-63.217743, 9.869102], [-63.21715499999988, 9.870358], [-63.216334, 9.871574000000123], [-63.215923, 9.872573000000159], [-63.215779999999825, 9.873977], [-63.215338, 9.875458000000151], [-63.214624, 9.87713100000019], [-63.214213, 9.878106], [-63.213513, 9.878745000000151], [-63.212877999999876, 9.879199], [-63.21136, 9.87963000000019], [-63.209929, 9.880633], [-63.208827, 9.881765], [-63.208024, 9.882843], [-63.20733499999989, 9.883826], [-63.206647, 9.88485500000013], [-63.206509, 9.886397000000159], [-63.20575699999989, 9.887634], [-63.205745, 9.888736], [-63.206566, 9.889793000000111], [-63.20733299999989, 9.890622000000178], [-63.2081639999999, 9.89200000000011], [-63.208272, 9.893283], [-63.207421999999895, 9.893535000000156], [-63.20719999999983, 9.894644], [-63.206960999999865, 9.895936], [-63.206354, 9.896572], [-63.205155, 9.898409000000186], [-63.206936, 9.89814200000012], [-63.207968, 9.897746], [-63.208985, 9.897627000000114], [-63.21047, 9.897656], [-63.211236, 9.898439000000167], [-63.212844, 9.898671], [-63.214152, 9.898957], [-63.215003, 9.899485], [-63.215568, 9.900526000000184], [-63.21604, 9.901546], [-63.216369, 9.902432000000147], [-63.21586699999989, 9.902699], [-63.21559, 9.90351], [-63.215946, 9.904556], [-63.216236, 9.905696], [-63.216642, 9.906053], [-63.217342, 9.906195], [-63.218509, 9.90719600000017], [-63.21928999999989, 9.907703], [-63.220325999999886, 9.908203000000185], [-63.221158999999886, 9.908846], [-63.222, 9.90903], [-63.222715, 9.90889600000014], [-63.224472, 9.907172000000116], [-63.225294, 9.906737], [-63.226672, 9.907044], [-63.22738, 9.908976000000166], [-63.228238, 9.910491], [-63.228783, 9.910844], [-63.229564, 9.911351], [-63.23043, 9.911626], [-63.231522, 9.911665], [-63.2320739999999, 9.911513000000127], [-63.23306899999989, 9.911417], [-63.23396, 9.911737000000187], [-63.235088, 9.911454], [-63.23626899999982, 9.911376000000132], [-63.237596, 9.911523], [-63.237699, 9.91184200000015], [-63.237005, 9.911930000000154], [-63.23669099999984, 9.912260000000117], [-63.237048, 9.912572000000182], [-63.237922, 9.913099], [-63.238295, 9.913915], [-63.238732, 9.914546], [-63.239515, 9.914364], [-63.239928, 9.915708000000109], [-63.240259, 9.916686], [-63.240381, 9.917624], [-63.240839, 9.918209000000104], [-63.2417779999999, 9.919285000000116], [-63.24256799999989, 9.91931], [-63.243284, 9.919221000000164], [-63.24410199999983, 9.919406], [-63.245044, 9.920643], [-63.245704, 9.920970000000125], [-63.2467759999999, 9.921905], [-63.247638, 9.922754000000111], [-63.24840099999989, 9.923445], [-63.248967, 9.923728], [-63.250581, 9.924924], [-63.251683, 9.925307000000146], [-63.252409, 9.926298], [-63.252661, 9.926957], [-63.253341, 9.927191], [-63.25456199999985, 9.926905], [-63.255303, 9.92610400000018], [-63.256105999999875, 9.925026000000173], [-63.257544, 9.924253000000135], [-63.258533, 9.923996], [-63.259604, 9.924105000000168], [-63.260695, 9.924121], [-63.26195, 9.924202], [-63.263088, 9.92421700000017], [-63.264505, 9.92427000000015], [-63.265746, 9.92614200000014], [-63.266015, 9.927351000000158], [-63.26647799999989, 9.928831], [-63.267035, 9.930377], [-63.267836, 9.930746], [-63.26897799999989, 9.930944], [-63.27010399999989, 9.931327000000124], [-63.270678, 9.931908], [-63.270744, 9.932549000000165], [-63.27125, 9.933132000000114], [-63.27213299999988, 9.933958], [-63.27312, 9.93434400000018], [-63.273962, 9.934574], [-63.274548, 9.934765], [-63.274796, 9.935286000000133], [-63.27501099999989, 9.93551], [-63.275801999999885, 9.93558000000013], [-63.276558, 9.935238], [-63.277324, 9.934505000000172], [-63.277924, 9.933662], [-63.278409, 9.93358], [-63.278956, 9.934002000000135], [-63.278352, 9.934730000000172], [-63.27805499999988, 9.935633], [-63.27896, 9.93565500000011], [-63.281165, 9.935686], [-63.282581, 9.935694000000126], [-63.283697, 9.936513], [-63.284286, 9.936795000000131], [-63.285408, 9.937063], [-63.285657, 9.936873], [-63.286821, 9.937002], [-63.2873919999999, 9.937445], [-63.288107, 9.938092000000154], [-63.288577, 9.93826200000018], [-63.28924, 9.937211000000104], [-63.289987, 9.937328], [-63.290038, 9.938245], [-63.291016, 9.938357], [-63.291729, 9.937396], [-63.2923899999999, 9.937010000000157], [-63.292652, 9.937233000000106], [-63.292874, 9.937663], [-63.294022, 9.93728700000014], [-63.2945509999999, 9.937893], [-63.295169, 9.938358000000107], [-63.299936, 9.93518], [-63.36276599999985, 9.891553000000101]]]}}, {"type": "Feature", "properties": {"Pais": "Venezuela", "Estado": "Monagas", "Municipio": "Piar", "Parroquia": "Taguaya"}, "geometry": {"type": "Polygon", "coordinates": [[[-63.561168, 9.956964], [-63.472327, 9.910421], [-63.470702, 9.908905000000175], [-63.470374, 9.907307000000117], [-63.469511999999895, 9.9057], [-63.468497, 9.904397000000188], [-63.467705, 9.904304000000138], [-63.466327, 9.903998], [-63.46493, 9.90383], [-63.463569, 9.904075], [-63.462618, 9.903389000000118], [-63.461463, 9.902044], [-63.460072, 9.90059], [-63.459355, 9.899186000000157], [-63.45827799999989, 9.898849000000155], [-63.457258, 9.898877], [-63.45647, 9.898899], [-63.45530799999989, 9.898105], [-63.454988, 9.897494000000165], [-63.454201, 9.896827], [-63.453609, 9.89643], [-63.4524449999999, 9.896302000000105], [-63.450706, 9.896327], [-63.448889, 9.896102], [-63.447376, 9.895914000000175], [-63.446344, 9.89555300000012], [-63.44514699999985, 9.895104000000117], [-63.4448, 9.893644000000108], [-63.443934, 9.892681], [-63.442907, 9.891722], [-63.44199, 9.891357], [-63.440954, 9.89085800000015], [-63.439414, 9.889821000000154], [-63.43785599999984, 9.889704], [-63.436629, 9.889784], [-63.435192, 9.889824], [-63.433912, 9.889698], [-63.432426, 9.889648], [-63.431139, 9.88929300000018], [-63.430357, 9.888764], [-63.42944099999988, 9.887664], [-63.42894699999988, 9.886713], [-63.428729, 9.885663], [-63.428645, 9.885206], [-63.4276569999999, 9.884017], [-63.427541, 9.884755], [-63.426897999999824, 9.885714000000121], [-63.426486999999895, 9.885932], [-63.424685, 9.886166], [-63.42357, 9.886105000000157], [-63.423323, 9.885629], [-63.422624, 9.885534000000177], [-63.421597, 9.886067], [-63.42115299999983, 9.88670000000019], [-63.42128, 9.887821], [-63.421533999999895, 9.889283], [-63.4217, 9.890128000000118], [-63.422004, 9.891704000000175], [-63.422006, 9.893265], [-63.422139, 9.8945480000001], [-63.4230859999999, 9.895164], [-63.423304, 9.8962140000001], [-63.422724, 9.896942000000138], [-63.42090299999984, 9.898073], [-63.421047, 9.898987], [-63.420508, 9.900288], [-63.419079999999894, 9.900649], [-63.41865399999983, 9.901120000000105], [-63.41921, 9.902597000000128], [-63.420594, 9.903821000000164], [-63.420923, 9.904685], [-63.42157399999985, 9.90547000000015], [-63.422836, 9.90578], [-63.423844, 9.905361], [-63.423519, 9.904613000000154], [-63.42247, 9.904435000000149], [-63.42156399999982, 9.904414], [-63.421977, 9.90353], [-63.42304, 9.903386], [-63.423972, 9.903521000000183], [-63.424758, 9.904188000000147], [-63.425581, 9.904533], [-63.42647, 9.905518], [-63.426221, 9.906467], [-63.42594899999989, 9.907415000000128], [-63.425559, 9.909056], [-63.425265, 9.910764000000142], [-63.424634, 9.911378000000127], [-63.424472, 9.912140000000136], [-63.424572999999896, 9.913148], [-63.425315, 9.914619], [-63.426081999999894, 9.915402], [-63.427267, 9.916953], [-63.428781, 9.917164000000128], [-63.429908999999896, 9.916880000000106], [-63.430636, 9.917112], [-63.431165, 9.916983], [-63.431003, 9.91772200000014], [-63.430645, 9.918168], [-63.430175, 9.918709], [-63.43019, 9.919191000000183], [-63.430063, 9.919585], [-63.43060999999989, 9.920006000000114], [-63.4312819999999, 9.919988], [-63.431669, 9.920505], [-63.431686, 9.921055], [-63.430792, 9.921379], [-63.430513, 9.921386], [-63.430491, 9.922145000000171], [-63.42953199999988, 9.922653], [-63.428552, 9.923209], [-63.427592, 9.923671000000127], [-63.426924, 9.924586000000147], [-63.42603799999989, 9.925919000000135], [-63.425120999999876, 9.927046000000132], [-63.424492, 9.927707000000112], [-63.42464699999982, 9.928942000000177], [-63.424746, 9.929881], [-63.424215, 9.930722000000173], [-63.4243249999999, 9.932028], [-63.423971, 9.932588], [-63.42370399999987, 9.93294], [-63.42404, 9.934033], [-63.42277599999983, 9.935171], [-63.422379, 9.935848], [-63.422227, 9.936931000000186], [-63.42201, 9.938154000000111], [-63.421077, 9.938754], [-63.419451999999865, 9.938707], [-63.418525, 9.938733], [-63.41689, 9.939145], [-63.416445, 9.939755], [-63.41581899999983, 9.940507000000139], [-63.415406999999846, 9.941436], [-63.414911, 9.942644], [-63.414764, 9.943911], [-63.41466099999985, 9.945062], [-63.414806, 9.945999000000143], [-63.415216, 9.947228], [-63.415246, 9.948214], [-63.415593, 9.94891600000011], [-63.41557099999983, 9.949697], [-63.415518, 9.950250000000153], [-63.415433, 9.95124], [-63.41539, 9.952090000000169], [-63.415846, 9.95334], [-63.416133, 9.954343], [-63.416426, 9.955574000000126], [-63.416816, 9.956918000000144], [-63.418256, 9.962917000000175], [-63.418715, 9.96352400000012], [-63.419273, 9.964289000000178], [-63.419598, 9.965038000000163], [-63.420195, 9.966330000000141], [-63.420245, 9.967201], [-63.42027599999983, 9.968188], [-63.419862, 9.969072000000153], [-63.419815, 9.970542], [-63.420848, 9.97242], [-63.421173, 9.973904000000118], [-63.42009, 9.975633000000187], [-63.4191239999999, 9.976670000000183], [-63.417574999999886, 9.977585], [-63.416213, 9.978564], [-63.415196, 9.979442], [-63.414792, 9.980624], [-63.414265, 9.98160300000012], [-63.414234, 9.982821000000172], [-63.41429099999988, 9.983163], [-63.41498599999983, 9.983879000000115], [-63.415649, 9.98432], [-63.416255, 9.984395], [-63.416878, 9.984286], [-63.4173669999999, 9.983606000000123], [-63.417742, 9.982976], [-63.418935, 9.98253], [-63.41966599999989, 9.981408000000158], [-63.421218, 9.981319], [-63.423282999999856, 9.98133], [-63.424337, 9.981646000000126], [-63.425223, 9.982516], [-63.425923, 9.983393], [-63.427554, 9.983600000000138], [-63.42836599999987, 9.984335], [-63.428792, 9.985356000000138], [-63.429373, 9.986121], [-63.429768, 9.986133000000109], [-63.429997, 9.986058000000128], [-63.430432, 9.985862], [-63.430776, 9.98573800000014], [-63.431221, 9.985128], [-63.433477, 9.984515], [-63.434655, 9.98432200000019], [-63.43585599999989, 9.984885], [-63.436708, 9.983943000000124], [-63.43691199999989, 9.983042000000182], [-63.43699, 9.98182300000019], [-63.437034, 9.980995], [-63.43719499999986, 9.98021000000017], [-63.438218, 9.98025100000018], [-63.439179, 9.980591], [-63.439916, 9.981145], [-63.440667, 9.980665000000158], [-63.440702, 9.979562], [-63.441141, 9.978769000000113], [-63.44222999999988, 9.977201], [-63.443874, 9.976351], [-63.478246, 9.950598000000184], [-63.479040999999825, 9.950048000000152], [-63.480487, 9.949503000000163], [-63.481448, 9.949820000000102], [-63.48262, 9.950178], [-63.48338799999988, 9.951006000000177], [-63.484089, 9.950435], [-63.484361, 9.949486], [-63.48426199999989, 9.948548000000187], [-63.48430499999989, 9.947697000000119], [-63.484499, 9.947210000000155], [-63.484656, 9.94631], [-63.484634, 9.945598000000189], [-63.485091999999895, 9.945401], [-63.485789, 9.945428000000163], [-63.486630999999875, 9.945634000000155], [-63.487148, 9.946585000000141], [-63.487226, 9.947616], [-63.48784499999988, 9.948861], [-63.488968999999884, 9.949932000000103], [-63.489336, 9.950519], [-63.489734, 9.95138], [-63.489892, 9.951996], [-63.490131, 9.952218], [-63.49078999999983, 9.951764], [-63.49108299999989, 9.951480000000117], [-63.491852, 9.951597], [-63.492315, 9.952318], [-63.492881999999895, 9.953382000000147], [-63.493402, 9.953666000000169], [-63.49395, 9.954867], [-63.494007999999894, 9.955991000000154], [-63.495087999999896, 9.956397], [-63.495737, 9.95637900000014], [-63.49745899999988, 9.955802000000176], [-63.498233, 9.955322], [-63.498664999999846, 9.956526], [-63.49889, 9.957760000000178], [-63.498232, 9.958238000000108], [-63.497447, 9.958374000000163], [-63.496881, 9.958803000000103], [-63.496448, 9.95831], [-63.49621499999989, 9.958294000000137], [-63.495706, 9.958331000000157], [-63.495273, 9.95933], [-63.49571999999989, 9.960994], [-63.495803, 9.961428], [-63.496524, 9.962234000000137], [-63.497443, 9.96269100000012], [-63.497684, 9.963717], [-63.497911, 9.964285], [-63.498487, 9.964154], [-63.499004, 9.963635], [-63.499451, 9.963094], [-63.499613, 9.963066], [-63.500111, 9.96342], [-63.500273, 9.964127], [-63.500433, 9.964811], [-63.500703, 9.965240000000165], [-63.500936, 9.966014], [-63.50096, 9.966771], [-63.500971, 9.967115], [-63.50099399999988, 9.96787200000017], [-63.50150699999989, 9.968685000000107], [-63.502662, 9.968955], [-63.50337499999989, 9.969130000000177], [-63.503851, 9.969248000000164], [-63.504089, 9.969601], [-63.504922, 9.969835], [-63.506765, 9.970304000000112], [-63.50700399999988, 9.970834], [-63.507122999999865, 9.971069], [-63.50772, 9.972365000000138], [-63.507958, 9.9726], [-63.508136, 9.972659000000135], [-63.508255, 9.972777000000121], [-63.50920599999989, 9.972834], [-63.50920699999989, 9.973364000000174], [-63.510519, 9.97577900000016], [-63.511769, 9.976778], [-63.511769, 9.977073000000132], [-63.51224599999989, 9.977897], [-63.512364999999875, 9.977897], [-63.512603, 9.978015], [-63.512604, 9.978840000000105], [-63.512961, 9.978839], [-63.513199, 9.979015], [-63.513614999999845, 9.979192000000126], [-63.51391299999989, 9.979368000000136], [-63.514447999999845, 9.979662], [-63.516826, 9.979953], [-63.516826999999864, 9.980601], [-63.51656899999983, 9.981515000000115], [-63.517184, 9.981791], [-63.517835, 9.982985], [-63.518797, 9.984420000000114], [-63.519417, 9.986028000000147], [-63.519972, 9.987156], [-63.52236699999986, 9.988377000000185], [-63.524585, 9.988685], [-63.526169, 9.987018000000148], [-63.529397, 9.986439], [-63.53095, 9.98516300000017], [-63.532771, 9.984222000000102], [-63.534934, 9.983705000000157], [-63.535356, 9.982632], [-63.539428, 9.982251], [-63.541302, 9.982641], [-63.54248699999988, 9.983263], [-63.544264999999825, 9.982370000000174], [-63.545468, 9.983451], [-63.54749, 9.9840650000001], [-63.548918, 9.984954], [-63.550703, 9.983692000000133], [-63.551567, 9.982626], [-63.5533, 9.981803000000127], [-63.55484, 9.980804], [-63.556877, 9.979464], [-63.55909999999989, 9.97752000000014], [-63.561885999999845, 9.976910000000146], [-63.564225, 9.976731], [-63.566487, 9.976946000000112], [-63.568051, 9.977738], [-63.569447, 9.97839800000014], [-63.5714339999999, 9.977542], [-63.572159, 9.977419000000168], [-63.572982, 9.977365000000134], [-63.573778, 9.977337], [-63.574441, 9.977073000000132], [-63.57546699999989, 9.976748], [-63.573547, 9.973994], [-63.57235, 9.971327], [-63.570775, 9.967870000000175], [-63.568719, 9.965787000000148], [-63.567105, 9.963135], [-63.56555299999985, 9.960297], [-63.563712, 9.958366], [-63.561488, 9.95792100000017], [-63.561168, 9.956964]]]}}]}