{
  "type": "FeatureCollection",
  "features": [
    {
      "type": "Feature",
      "properties": {
        "Pais": "Venezuela",
        "Estado": "Bolívar",
        "Municipio": "Piar"
      },
      "geometry": {
        "type": "Polygon",
        "coordinates": [
          [
            [
              -62.372524283999894,
              8.319710677000103
            ],
            [
              -62.40414575699998,
              8.324324666000052
            ],
            [
              -62.40470863799993,
              8.324685476000013
            ],
            [
              -62.453628423999874,
              8.356043339000166
            ],
            [
              -62.48713664999991,
              8.377522297000098
            ],
            [
              -62.499633777999975,
              8.385533025000143
            ],
            [
              -62.504415088999906,
              8.370377233000056
            ],
            [
              -62.50921722299995,
              8.355155437000064
            ],
            [
              -62.51245695199998,
              8.344886152000072
            ],
            [
              -62.542527999999834,
              8.249567000000184
            ],
            [
              -62.584921,
              8.080124000000126
            ],
            [
              -62.899794,
              8.080053000000134
            ],
            [
              -62.90091,
              8.07832500000012
            ],
            [
              -62.901334,
              8.076603
            ],
            [
              -62.901242,
              8.075745
            ],
            [
              -62.901237,
              8.074971
            ],
            [
              -62.899755999999854,
              8.073866000000123
            ],
            [
              -62.899058,
              8.073098000000186
            ],
            [
              -62.897149,
              8.07277
            ],
            [
              -62.895934999999895,
              8.072779
            ],
            [
              -62.894201,
              8.072793
            ],
            [
              -62.893248,
              8.07280100000014
            ],
            [
              -62.892288,
              8.071863000000121
            ],
            [
              -62.89262999999988,
              8.071001
            ],
            [
              -62.893665,
              8.07013400000011
            ],
            [
              -62.893659,
              8.069102000000157
            ],
            [
              -62.89400399999988,
              8.068842000000132
            ],
            [
              -62.894168,
              8.067208000000107
            ],
            [
              -62.895367,
              8.064878
            ],
            [
              -62.895788,
              8.062812000000179
            ],
            [
              -62.897166,
              8.06116900000012
            ],
            [
              -62.89871699999986,
              8.05961
            ],
            [
              -62.90157,
              8.058384000000103
            ],
            [
              -62.903824,
              8.058366
            ],
            [
              -62.907208,
              8.058768
            ],
            [
              -62.909118,
              8.059269000000143
            ],
            [
              -62.911635,
              8.059592
            ],
            [
              -62.9136299999999,
              8.059748000000127
            ],
            [
              -62.91466999999989,
              8.05974
            ],
            [
              -62.91623,
              8.059728
            ],
            [
              -62.917008999999894,
              8.059378
            ],
            [
              -62.918737,
              8.058419000000129
            ],
            [
              -62.92020699999989,
              8.057805000000144
            ],
            [
              -62.92133399999989,
              8.05779600000011
            ],
            [
              -62.922460999999885,
              8.057787
            ],
            [
              -62.923589,
              8.05795
            ],
            [
              -62.924722,
              8.05888700000014
            ],
            [
              -62.926113,
              8.05956300000014
            ],
            [
              -62.926807,
              8.059643000000165
            ],
            [
              -62.92819799999984,
              8.060234
            ],
            [
              -62.929155,
              8.060828000000129
            ],
            [
              -62.92994,
              8.061595
            ],
            [
              -62.930808,
              8.061760000000163
            ],
            [
              -62.93159,
              8.06199
            ],
            [
              -62.93453499999987,
              8.061537
            ],
            [
              -62.93652799999984,
              8.061435000000131
            ],
            [
              -62.937914,
              8.061252
            ],
            [
              -62.939126,
              8.060984
            ],
            [
              -62.940421,
              8.0600290000001
            ],
            [
              -62.940758,
              8.058393000000137
            ],
            [
              -62.940918,
              8.056158
            ],
            [
              -62.941516,
              8.05477800000017
            ],
            [
              -62.943586,
              8.052957000000106
            ],
            [
              -62.945837,
              8.052509
            ],
            [
              -62.947397,
              8.052325
            ],
            [
              -62.948787,
              8.052744
            ],
            [
              -62.94965899999988,
              8.053596
            ],
            [
              -62.950878,
              8.054532
            ],
            [
              -62.952092,
              8.054522000000134
            ],
            [
              -62.956155,
              8.052599000000157
            ],
            [
              -62.9583209999999,
              8.05232400000017
            ],
            [
              -62.959874,
              8.051109000000167
            ],
            [
              -62.959948,
              8.04896
            ],
            [
              -62.958644999999876,
              8.04854
            ],
            [
              -62.958127,
              8.0489740000001
            ],
            [
              -62.957785,
              8.049750000000131
            ],
            [
              -62.957529,
              8.050354
            ],
            [
              -62.956404,
              8.050707000000102
            ],
            [
              -62.95553299999989,
              8.050112
            ],
            [
              -62.955001,
              8.04814000000016
            ],
            [
              -62.95499099999989,
              8.046507
            ],
            [
              -62.95524099999989,
              8.044872000000112
            ],
            [
              -62.957407,
              8.044511000000114
            ],
            [
              -62.95913999999988,
              8.044326
            ],
            [
              -62.96044099999989,
              8.044487
            ],
            [
              -62.961838,
              8.046109000000172
            ],
            [
              -62.962623,
              8.046876
            ],
            [
              -62.963403,
              8.046784
            ],
            [
              -62.964955,
              8.045396000000153
            ],
            [
              -62.96676699999989,
              8.044007
            ],
            [
              -62.969189,
              8.043128
            ],
            [
              -62.971526,
              8.042422000000101
            ],
            [
              -62.9735189999999,
              8.042235
            ],
            [
              -62.97438199999982,
              8.041540000000111
            ],
            [
              -62.973427,
              8.041376
            ],
            [
              -62.971864,
              8.040959
            ],
            [
              -62.97212,
              8.040355000000147
            ],
            [
              -62.973073,
              8.040176
            ],
            [
              -62.973329,
              8.039572
            ],
            [
              -62.97289399999988,
              8.03931800000015
            ],
            [
              -62.971333,
              8.039158
            ],
            [
              -62.971329,
              8.038471
            ],
            [
              -62.972626,
              8.038031
            ],
            [
              -62.972621,
              8.037172
            ],
            [
              -62.971576,
              8.036321000000157
            ],
            [
              -62.97157,
              8.035376
            ],
            [
              -62.972262999999884,
              8.03528400000016
            ],
            [
              -62.972863,
              8.034162
            ],
            [
              -62.973645,
              8.0345
            ],
            [
              -62.973996,
              8.035184
            ],
            [
              -62.973998,
              8.035528
            ],
            [
              -62.97426199999984,
              8.03604200000018
            ],
            [
              -62.975042,
              8.036035
            ],
            [
              -62.975996,
              8.036114
            ],
            [
              -62.97635,
              8.037228
            ],
            [
              -62.976011,
              8.03852
            ],
            [
              -62.97602099999989,
              8.040324
            ],
            [
              -62.977236,
              8.040400000000147
            ],
            [
              -62.978706,
              8.039787
            ],
            [
              -62.979828,
              8.039005
            ],
            [
              -62.980865,
              8.03848100000016
            ],
            [
              -62.981206,
              8.037447
            ],
            [
              -62.981362,
              8.034589
            ],
            [
              -62.9813539999999,
              8.0332140000001
            ],
            [
              -62.980657,
              8.032704
            ],
            [
              -62.979957,
              8.031678
            ],
            [
              -62.97943,
              8.030479000000128
            ],
            [
              -62.979247,
              8.028934
            ],
            [
              -62.980629,
              8.028064000000143
            ],
            [
              -62.982535,
              8.027876
            ],
            [
              -62.98459999999989,
              8.025282000000175
            ],
            [
              -62.984761999999876,
              8.02339000000012
            ],
            [
              -62.986314,
              8.021831
            ],
            [
              -62.98733999999985,
              8.019589
            ],
            [
              -62.987325,
              8.017011
            ],
            [
              -62.988534,
              8.016314000000136
            ],
            [
              -62.990613,
              8.015953000000138
            ],
            [
              -62.991995,
              8.015083
            ],
            [
              -62.991982,
              8.013021
            ],
            [
              -62.992147,
              8.011473
            ],
            [
              -62.993528,
              8.010602
            ],
            [
              -62.994732,
              8.008874
            ],
            [
              -62.9957629999999,
              8.007319
            ],
            [
              -62.99750199999988,
              8.00816500000019
            ],
            [
              -62.997514,
              8.0102270000001
            ],
            [
              -62.997698,
              8.011944
            ],
            [
              -62.998221999999885,
              8.012627
            ],
            [
              -63.000483,
              8.01364
            ],
            [
              -63.001851,
              8.013629
            ],
            [
              -63.00308299999989,
              8.013620000000174
            ],
            [
              -63.004817,
              8.013606
            ],
            [
              -63.00792499999989,
              8.011347
            ],
            [
              -63.009641,
              8.008411000000137
            ],
            [
              -63.011018,
              8.006682
            ],
            [
              -63.011181,
              8.004962
            ],
            [
              -63.010997,
              8.003245000000106
            ],
            [
              -63.009944,
              8.00119100000012
            ],
            [
              -63.009594,
              8.000678000000164
            ],
            [
              -63.008206,
              8.000517000000116
            ],
            [
              -63.00699799999984,
              8.001386
            ],
            [
              -63.007699,
              8.002755
            ],
            [
              -63.007018,
              8.004823000000101
            ],
            [
              -63.005984,
              8.005863000000147
            ],
            [
              -63.003744,
              8.008115000000146
            ],
            [
              -63.003397,
              8.008118
            ],
            [
              -63.003046,
              8.007433
            ],
            [
              -63.001659,
              8.007444
            ],
            [
              -63.001653,
              8.00641300000018
            ],
            [
              -63.00008,
              8.004363
            ],
            [
              -62.999901,
              8.003505
            ],
            [
              -62.999887999999885,
              8.001271
            ],
            [
              -63.000403,
              8.000408
            ],
            [
              -62.999354,
              7.999041
            ],
            [
              -62.999164999999834,
              7.996465
            ],
            [
              -63.023312,
              7.995268000000181
            ],
            [
              -63.0182999999999,
              7.926158
            ],
            [
              -63.02206,
              7.909732
            ],
            [
              -63.027053,
              7.901699000000121
            ],
            [
              -63.030479,
              7.889591000000166
            ],
            [
              -63.03195399999987,
              7.881237000000112
            ],
            [
              -63.030171,
              7.873377000000119
            ],
            [
              -63.020849,
              7.862167
            ],
            [
              -63.01426,
              7.854063
            ],
            [
              -63.00893,
              7.846802
            ],
            [
              -62.998682,
              7.839968
            ],
            [
              -62.994778,
              7.833388
            ],
            [
              -62.993734,
              7.826119
            ],
            [
              -62.99126199999989,
              7.81906
            ],
            [
              -62.993811,
              7.811330000000169
            ],
            [
              -62.9985549999999,
              7.79215
            ],
            [
              -62.9977,
              7.785654
            ],
            [
              -62.999042,
              7.767573
            ],
            [
              -62.976698,
              7.717427
            ],
            [
              -62.918154,
              7.595552
            ],
            [
              -62.772159,
              7.291475
            ],
            [
              -62.908734,
              7.118233
            ],
            [
              -62.908974,
              7.097380000000101
            ],
            [
              -62.912904,
              6.930336
            ],
            [
              -62.878358,
              6.896823
            ],
            [
              -62.859982999999886,
              6.883378
            ],
            [
              -62.844345,
              6.855226
            ],
            [
              -62.843105,
              6.849432
            ],
            [
              -62.843998,
              6.845603
            ],
            [
              -62.842762,
              6.839686
            ],
            [
              -62.841401999999846,
              6.836109000000135
            ],
            [
              -62.841811,
              6.826186000000121
            ],
            [
              -62.842387,
              6.817763
            ],
            [
              -62.844963,
              6.806931000000191
            ],
            [
              -62.8471219999999,
              6.799278
            ],
            [
              -62.847765,
              6.792916
            ],
            [
              -62.8478199999999,
              6.788608
            ],
            [
              -62.84739,
              6.778299000000118
            ],
            [
              -62.844371,
              6.765148
            ],
            [
              -62.844267,
              6.758589
            ],
            [
              -62.845693,
              6.749616000000117
            ],
            [
              -62.846734,
              6.741386
            ],
            [
              -62.846298,
              6.731452000000161
            ],
            [
              -62.8438,
              6.721491
            ],
            [
              -62.838312,
              6.710931
            ],
            [
              -62.832823999999846,
              6.700372
            ],
            [
              -62.826914,
              6.693553
            ],
            [
              -62.823014,
              6.690835
            ],
            [
              -62.821904,
              6.689697
            ],
            [
              -62.82107,
              6.68893700000018
            ],
            [
              -62.820616,
              6.687807000000134
            ],
            [
              -62.818383,
              6.686561
            ],
            [
              -62.814834,
              6.685767000000112
            ],
            [
              -62.811858,
              6.684044
            ],
            [
              -62.809919,
              6.681771
            ],
            [
              -62.808242,
              6.681048
            ],
            [
              -62.80563099999989,
              6.680078
            ],
            [
              -62.803777,
              6.678556000000128
            ],
            [
              -62.801082999999835,
              6.676743
            ],
            [
              -62.80000699999988,
              6.672983000000158
            ],
            [
              -62.799689,
              6.668483000000151
            ],
            [
              -62.800329,
              6.662310000000105
            ],
            [
              -62.802263,
              6.657464
            ],
            [
              -62.80437299999983,
              6.653556
            ],
            [
              -62.80879,
              6.644995
            ],
            [
              -62.813374999999894,
              6.637934
            ],
            [
              -62.81517699999989,
              6.636131000000148
            ],
            [
              -62.815945,
              6.634642
            ],
            [
              -62.818201,
              6.634014
            ],
            [
              -62.819321,
              6.634309
            ],
            [
              -62.821673,
              6.633496
            ],
            [
              -62.822918,
              6.631357
            ],
            [
              -62.823453999999856,
              6.625931
            ],
            [
              -62.827102,
              6.618858
            ],
            [
              -62.83152,
              6.610109
            ],
            [
              -62.836288,
              6.603237
            ],
            [
              -62.841434,
              6.596182000000169
            ],
            [
              -62.845786,
              6.592677
            ],
            [
              -62.84759,
              6.590779
            ],
            [
              -62.847884,
              6.589659
            ],
            [
              -62.849211,
              6.588457000000119
            ],
            [
              -62.850842,
              6.585293
            ],
            [
              -62.851798,
              6.583712000000105
            ],
            [
              -62.852086,
              6.58315400000015
            ],
            [
              -62.852677,
              6.58081900000019
            ],
            [
              -62.854388,
              6.57878
            ],
            [
              -62.85628,
              6.57730400000014
            ],
            [
              -62.857533,
              6.574416
            ],
            [
              -62.858619,
              6.569933000000105
            ],
            [
              -62.85914499999984,
              6.565209
            ],
            [
              -62.859814999999855,
              6.564094000000125
            ],
            [
              -62.862746,
              6.561788000000149
            ],
            [
              -62.86597199999983,
              6.558455
            ],
            [
              -62.868624,
              6.556053
            ],
            [
              -62.869963,
              6.553821000000141
            ],
            [
              -62.870925,
              6.551772
            ],
            [
              -62.87256,
              6.548232
            ],
            [
              -62.872433999999885,
              6.543266
            ],
            [
              -62.871945,
              6.537265
            ],
            [
              -62.873533,
              6.529978
            ],
            [
              -62.873782,
              6.524923
            ],
            [
              -62.874565,
              6.522122000000138
            ],
            [
              -62.87547799999987,
              6.520237000000122
            ],
            [
              -62.87676599999986,
              6.518285000000105
            ],
            [
              -62.878136,
              6.517318
            ],
            [
              -62.882211,
              6.5172740000001
            ],
            [
              -62.883953,
              6.516499000000124
            ],
            [
              -62.890038,
              6.512873000000127
            ],
            [
              -62.897603,
              6.50697
            ],
            [
              -62.903271,
              6.502917
            ],
            [
              -62.90537199999983,
              6.49957
            ],
            [
              -62.906724,
              6.496214
            ],
            [
              -62.906765,
              6.49284200000011
            ],
            [
              -62.90566799999988,
              6.49058
            ],
            [
              -62.90269,
              6.489045
            ],
            [
              -62.902174999999886,
              6.485105000000146
            ],
            [
              -62.904658,
              6.481200000000172
            ],
            [
              -62.916754,
              6.472165
            ],
            [
              -62.927304,
              6.46714
            ],
            [
              -62.933369,
              6.461217
            ],
            [
              -62.938908,
              6.452289
            ],
            [
              -62.942404999999894,
              6.441838
            ],
            [
              -62.944966,
              6.431189
            ],
            [
              -62.94567,
              6.419206000000145
            ],
            [
              -62.948793,
              6.408563
            ],
            [
              -62.953018,
              6.399806000000126
            ],
            [
              -62.955331,
              6.394212
            ],
            [
              -62.955948,
              6.389535
            ],
            [
              -62.956046,
              6.381199000000151
            ],
            [
              -62.956833,
              6.378022000000158
            ],
            [
              -62.96006299999988,
              6.374126
            ],
            [
              -62.964976,
              6.370436
            ],
            [
              -62.970434999999895,
              6.368064000000118
            ],
            [
              -62.973861,
              6.36342
            ],
            [
              -62.974129,
              6.356490000000122
            ],
            [
              -62.973829,
              6.350115
            ],
            [
              -62.971306,
              6.341654
            ],
            [
              -62.965074,
              6.329964000000189
            ],
            [
              -62.959577,
              6.319594000000166
            ],
            [
              -62.95397699999984,
              6.31803
            ],
            [
              -62.951201,
              6.315187
            ],
            [
              -62.950302,
              6.311991
            ],
            [
              -62.95035,
              6.30787
            ],
            [
              -62.947796,
              6.302031
            ],
            [
              -62.937807,
              6.291516000000115
            ],
            [
              -62.932247,
              6.28658
            ],
            [
              -62.929845,
              6.283741
            ],
            [
              -62.927266,
              6.28015100000016
            ],
            [
              -62.924149,
              6.274471
            ],
            [
              -62.920096,
              6.277269000000103
            ],
            [
              -62.918351,
              6.278654000000131
            ],
            [
              -62.917145,
              6.280046
            ],
            [
              -62.915345,
              6.281485
            ],
            [
              -62.913210999999876,
              6.283785
            ],
            [
              -62.91241399999984,
              6.28729
            ],
            [
              -62.911684,
              6.289607
            ],
            [
              -62.912511,
              6.292807000000153
            ],
            [
              -62.914861,
              6.295187
            ],
            [
              -62.916412,
              6.296557000000121
            ],
            [
              -62.9171,
              6.297862
            ],
            [
              -62.917552,
              6.300788
            ],
            [
              -62.917891,
              6.301778
            ],
            [
              -62.917898,
              6.303563000000167
            ],
            [
              -62.91698999999983,
              6.304931000000181
            ],
            [
              -62.916702,
              6.308767000000159
            ],
            [
              -62.917641,
              6.316240000000107
            ],
            [
              -62.91728,
              6.319372000000101
            ],
            [
              -62.917138,
              6.322290000000123
            ],
            [
              -62.91635,
              6.324984
            ],
            [
              -62.914694,
              6.327885000000151
            ],
            [
              -62.913161999999886,
              6.329489
            ],
            [
              -62.911646,
              6.329687
            ],
            [
              -62.909816,
              6.329125
            ],
            [
              -62.908538,
              6.32748800000013
            ],
            [
              -62.906814,
              6.327035000000137
            ],
            [
              -62.90453799999983,
              6.327549
            ],
            [
              -62.899038,
              6.326511000000153
            ],
            [
              -62.896996,
              6.325514
            ],
            [
              -62.892611,
              6.321569000000125
            ],
            [
              -62.891038,
              6.317441
            ],
            [
              -62.891623,
              6.313663
            ],
            [
              -62.891988,
              6.310207000000105
            ],
            [
              -62.891589999999894,
              6.307282
            ],
            [
              -62.88783699999988,
              6.304751
            ],
            [
              -62.88384799999989,
              6.303947000000107
            ],
            [
              -62.878883,
              6.303348000000142
            ],
            [
              -62.875335,
              6.301792
            ],
            [
              -62.87372599999986,
              6.300800000000152
            ],
            [
              -62.872066,
              6.29951
            ],
            [
              -62.87094,
              6.298793
            ],
            [
              -62.86851,
              6.298657000000105
            ],
            [
              -62.86477799999989,
              6.298883
            ],
            [
              -62.860504,
              6.299319
            ],
            [
              -62.854343,
              6.299408
            ],
            [
              -62.850349,
              6.299037000000112
            ],
            [
              -62.847773,
              6.297601000000157
            ],
            [
              -62.84645099999989,
              6.295098000000166
            ],
            [
              -62.844922,
              6.291944000000171
            ],
            [
              -62.844943999999884,
              6.290052000000117
            ],
            [
              -62.845699,
              6.285573
            ],
            [
              -62.846585,
              6.2838
            ],
            [
              -62.846895,
              6.280424
            ],
            [
              -62.848462,
              6.275793
            ],
            [
              -62.84926899999982,
              6.271532
            ],
            [
              -62.849307,
              6.268288
            ],
            [
              -62.849949,
              6.264241
            ],
            [
              -62.85118399999982,
              6.260254
            ],
            [
              -62.851639,
              6.258394000000123
            ],
            [
              -62.851616,
              6.255745000000161
            ],
            [
              -62.851252,
              6.254497000000129
            ],
            [
              -62.850341,
              6.253892000000121
            ],
            [
              -62.841414,
              6.250272000000109
            ],
            [
              -62.83641199999988,
              6.248375000000181
            ],
            [
              -62.83136499999989,
              6.24566700000014
            ],
            [
              -62.815372,
              6.231940000000122
            ],
            [
              -62.81443,
              6.233561000000179
            ],
            [
              -62.812012,
              6.237113
            ],
            [
              -62.813137,
              6.23965
            ],
            [
              -62.809812,
              6.242161000000124
            ],
            [
              -62.80729899999989,
              6.242607
            ],
            [
              -62.806031,
              6.244785000000149
            ],
            [
              -62.806235,
              6.248467000000176
            ],
            [
              -62.803945,
              6.249834000000135
            ],
            [
              -62.80167599999987,
              6.247750000000167
            ],
            [
              -62.799042,
              6.24946
            ],
            [
              -62.796974,
              6.251633
            ],
            [
              -62.796727,
              6.254623
            ],
            [
              -62.794318,
              6.256564
            ],
            [
              -62.791463,
              6.257007000000101
            ],
            [
              -62.789294,
              6.257110000000125
            ],
            [
              -62.786893,
              6.25790000000012
            ],
            [
              -62.78539099999989,
              6.260883
            ],
            [
              -62.777744,
              6.261412
            ],
            [
              -62.777416,
              6.259339000000182
            ],
            [
              -62.77135,
              6.262294
            ],
            [
              -62.770189,
              6.265278
            ],
            [
              -62.764704,
              6.26651
            ],
            [
              -62.762634,
              6.269144
            ],
            [
              -62.763262,
              6.277662
            ],
            [
              -62.763999,
              6.287099
            ],
            [
              -62.758932,
              6.294316000000151
            ],
            [
              -62.756853,
              6.298215000000141
            ],
            [
              -62.751204,
              6.307154
            ],
            [
              -62.751615,
              6.313945000000103
            ],
            [
              -62.749301,
              6.318877000000157
            ],
            [
              -62.748234,
              6.324968000000183
            ],
            [
              -62.74775,
              6.329106
            ],
            [
              -62.74007499999988,
              6.333661
            ],
            [
              -62.37310199999985,
              6.334033
            ],
            [
              -62.368849,
              6.338375000000156
            ],
            [
              -62.362897,
              6.340865000000122
            ],
            [
              -62.359348,
              6.342566
            ],
            [
              -62.354067,
              6.346901
            ],
            [
              -62.350601,
              6.352514
            ],
            [
              -62.415359,
              6.454693
            ],
            [
              -62.428893,
              6.505201
            ],
            [
              -62.475587,
              6.548378
            ],
            [
              -62.4846399999999,
              6.55694700000015
            ],
            [
              -62.487178,
              6.563414
            ],
            [
              -62.48647199999988,
              6.566286000000161
            ],
            [
              -62.484810999999866,
              6.575134
            ],
            [
              -62.478777,
              6.604545
            ],
            [
              -62.47465099999988,
              6.606819
            ],
            [
              -62.472495,
              6.604964000000109
            ],
            [
              -62.468618,
              6.604248
            ],
            [
              -62.464627,
              6.603646
            ],
            [
              -62.451994,
              6.59815500000019
            ],
            [
              -62.443632,
              6.601895000000184
            ],
            [
              -62.442227,
              6.606833
            ],
            [
              -62.438546,
              6.610606
            ],
            [
              -62.438514,
              6.615092000000175
            ],
            [
              -62.432143,
              6.627474
            ],
            [
              -62.431744,
              6.627583
            ],
            [
              -62.432301,
              6.638845000000174
            ],
            [
              -62.432523,
              6.651232000000107
            ],
            [
              -62.43308499999989,
              6.667104000000108
            ],
            [
              -62.438708,
              6.680723
            ],
            [
              -62.437815,
              6.689611000000184
            ],
            [
              -62.430595,
              6.677324000000169
            ],
            [
              -62.430359,
              6.676920000000109
            ],
            [
              -62.429995999999846,
              6.676828000000171
            ],
            [
              -62.42953299999988,
              6.676659
            ],
            [
              -62.428967,
              6.676491000000169
            ],
            [
              -62.428278,
              6.676178
            ],
            [
              -62.42759099999989,
              6.6755
            ],
            [
              -62.427184,
              6.675091000000123
            ],
            [
              -62.42692099999988,
              6.674936000000116
            ],
            [
              -62.426779,
              6.674867
            ],
            [
              -62.4262159999999,
              6.674936000000116
            ],
            [
              -62.425142,
              6.677875
            ],
            [
              -62.424178,
              6.675741
            ],
            [
              -62.423824,
              6.675738
            ],
            [
              -62.423203999999885,
              6.675594
            ],
            [
              -62.422727,
              6.675339
            ],
            [
              -62.422292999999854,
              6.675221
            ],
            [
              -62.421939,
              6.675263000000143
            ],
            [
              -62.42172,
              6.675518000000125
            ],
            [
              -62.421446,
              6.676003
            ],
            [
              -62.420935,
              6.676533
            ],
            [
              -62.420434,
              6.676827
            ],
            [
              -62.419815,
              6.67700200000013
            ],
            [
              -62.419169999999895,
              6.677152000000149
            ],
            [
              -62.418483,
              6.677247
            ],
            [
              -62.417904,
              6.677295
            ],
            [
              -62.417289,
              6.677266000000145
            ],
            [
              -62.416749,
              6.677185
            ],
            [
              -62.416238,
              6.677087
            ],
            [
              -62.415737,
              6.677039
            ],
            [
              -62.414932,
              6.677006000000119
            ],
            [
              -62.414275,
              6.677032000000167
            ],
            [
              -62.413607,
              6.677122000000111
            ],
            [
              -62.412977,
              6.677196
            ],
            [
              -62.41228,
              6.677288
            ],
            [
              -62.411755999999855,
              6.677315000000135
            ],
            [
              -62.411649,
              6.67734
            ],
            [
              -62.411235,
              6.677278
            ],
            [
              -62.410685,
              6.677199
            ],
            [
              -62.410083,
              6.677120000000173
            ],
            [
              -62.409392,
              6.676951
            ],
            [
              -62.408963,
              6.676782
            ],
            [
              -62.40854499999989,
              6.676615
            ],
            [
              -62.408129,
              6.676412
            ],
            [
              -62.40780499999988,
              6.676268000000164
            ],
            [
              -62.407353,
              6.676067
            ],
            [
              -62.40692299999989,
              6.675948000000176
            ],
            [
              -62.406519,
              6.676001
            ],
            [
              -62.405924999999854,
              6.676157
            ],
            [
              -62.40508,
              6.676401000000169
            ],
            [
              -62.404632999999876,
              6.676583000000107
            ],
            [
              -62.404107,
              6.676683
            ],
            [
              -62.403864,
              6.676644
            ],
            [
              -62.403459999999825,
              6.676455
            ],
            [
              -62.403154,
              6.676176
            ],
            [
              -62.40289399999989,
              6.675878
            ],
            [
              -62.402685,
              6.675547
            ],
            [
              -62.40233,
              6.674982000000171
            ],
            [
              -62.40200799999985,
              6.674538
            ],
            [
              -62.401659,
              6.674056000000121
            ],
            [
              -62.401369,
              6.673766000000114
            ],
            [
              -62.400926999999854,
              6.673609
            ],
            [
              -62.400355,
              6.673519000000113
            ],
            [
              -62.399899,
              6.673523
            ],
            [
              -62.399407,
              6.673517000000118
            ],
            [
              -62.399065,
              6.673537000000181
            ],
            [
              -62.398914,
              6.673536
            ],
            [
              -62.397989,
              6.673519000000113
            ],
            [
              -62.397662,
              6.673577
            ],
            [
              -62.396576,
              6.673654
            ],
            [
              -62.39580199999989,
              6.673805000000129
            ],
            [
              -62.39525899999984,
              6.673948
            ],
            [
              -62.394802999999854,
              6.674094
            ],
            [
              -62.3939749999999,
              6.67442
            ],
            [
              -62.393363,
              6.674652
            ],
            [
              -62.392777,
              6.67494500000015
            ],
            [
              -62.392116,
              6.675279
            ],
            [
              -62.391572,
              6.675567
            ],
            [
              -62.390975,
              6.67591
            ],
            [
              -62.390336,
              6.676317000000154
            ],
            [
              -62.389662,
              6.67656600000015
            ],
            [
              -62.389047,
              6.676936
            ],
            [
              -62.388495,
              6.677270000000135
            ],
            [
              -62.387936,
              6.677598000000103
            ],
            [
              -62.387317,
              6.677902000000188
            ],
            [
              -62.38679999999982,
              6.678109
            ],
            [
              -62.386205,
              6.678238
            ],
            [
              -62.385992,
              6.678206000000102
            ],
            [
              -62.385776,
              6.678020000000174
            ],
            [
              -62.385637,
              6.677837000000125
            ],
            [
              -62.385385,
              6.677807000000143
            ],
            [
              -62.385019999999884,
              6.677942000000144
            ],
            [
              -62.384837,
              6.678202000000169
            ],
            [
              -62.384734,
              6.678369
            ],
            [
              -62.38468099999989,
              6.678538
            ],
            [
              -62.384676,
              6.678610000000162
            ],
            [
              -62.384666,
              6.678943000000174
            ],
            [
              -62.384579,
              6.679097000000127
            ],
            [
              -62.384336,
              6.679384
            ],
            [
              -62.384197,
              6.679553
            ],
            [
              -62.384093,
              6.67977400000018
            ],
            [
              -62.38402699999989,
              6.679846000000111
            ],
            [
              -62.383924,
              6.679840000000127
            ],
            [
              -62.383027,
              6.679284000000166
            ],
            [
              -62.377007,
              6.672544
            ],
            [
              -62.373703,
              6.671486000000129
            ],
            [
              -62.369146999999884,
              6.669959
            ],
            [
              -62.365144,
              6.670737000000145
            ],
            [
              -62.361966,
              6.66818400000011
            ],
            [
              -62.35340799999989,
              6.667435000000125
            ],
            [
              -62.349311,
              6.665566
            ],
            [
              -62.344055,
              6.665990000000136
            ],
            [
              -62.338973,
              6.669567000000143
            ],
            [
              -62.329649,
              6.67255
            ],
            [
              -62.325313,
              6.679201
            ],
            [
              -62.31665,
              6.685179000000119
            ],
            [
              -62.312312,
              6.69316
            ],
            [
              -62.301318,
              6.699800000000153
            ],
            [
              -62.298657,
              6.698132000000157
            ],
            [
              -62.294997,
              6.69679600000012
            ],
            [
              -62.290002,
              6.698785
            ],
            [
              -62.284009,
              6.699775
            ],
            [
              -62.277343,
              6.705090000000155
            ],
            [
              -62.266335,
              6.721048000000167
            ],
            [
              -62.254682,
              6.722029
            ],
            [
              -62.242358,
              6.726669000000186
            ],
            [
              -62.234027,
              6.732646
            ],
            [
              -62.218043,
              6.736281
            ],
            [
              -62.20472599999988,
              6.736592
            ],
            [
              -62.194402,
              6.73957
            ],
            [
              -62.18639599999989,
              6.748876000000166
            ],
            [
              -62.180065,
              6.752859
            ],
            [
              -62.177059,
              6.758511000000112
            ],
            [
              -62.176384,
              6.764167
            ],
            [
              -62.17272,
              6.765825
            ],
            [
              -62.15973699999989,
              6.764804
            ],
            [
              -62.151413999999875,
              6.765455
            ],
            [
              -62.143416999999886,
              6.770100000000127
            ],
            [
              -62.13774999999987,
              6.774083000000189
            ],
            [
              -62.137388,
              6.790057
            ],
            [
              -62.138033999999834,
              6.801372000000129
            ],
            [
              -62.13769,
              6.807361
            ],
            [
              -62.134679,
              6.815343
            ],
            [
              -62.13499999999988,
              6.822332000000131
            ],
            [
              -62.134986,
              6.830319
            ],
            [
              -62.131642,
              6.837967
            ],
            [
              -62.1279669999999,
              6.84528100000017
            ],
            [
              -62.128616,
              6.854267000000107
            ],
            [
              -62.129255999999884,
              6.868578
            ],
            [
              -62.135893,
              6.881236
            ],
            [
              -62.14020699999986,
              6.88956300000018
            ],
            [
              -62.140864,
              6.894888
            ],
            [
              -62.138857,
              6.89921100000015
            ],
            [
              -62.138184,
              6.90320400000013
            ],
            [
              -62.141505,
              6.908201
            ],
            [
              -62.14516099999986,
              6.912201
            ],
            [
              -62.147142,
              6.921522
            ],
            [
              -62.151797,
              6.925191
            ],
            [
              -62.162453,
              6.925876000000187
            ],
            [
              -62.191713,
              6.952217
            ],
            [
              -62.202353,
              6.962551000000133
            ],
            [
              -62.21066999999988,
              6.968222
            ],
            [
              -62.213983,
              6.978211
            ],
            [
              -62.215301999999895,
              6.987198
            ],
            [
              -62.220293,
              6.990201000000127
            ],
            [
              -62.23461,
              6.992222
            ],
            [
              -62.251261,
              6.994245
            ],
            [
              -62.259583,
              6.997253000000114
            ],
            [
              -62.266916,
              6.99427
            ],
            [
              -62.276583,
              6.988628
            ],
            [
              -62.285244,
              6.987975000000176
            ],
            [
              -62.289238,
              6.99031100000019
            ],
            [
              -62.289971,
              6.993041000000119
            ],
            [
              -62.289732,
              6.998807
            ],
            [
              -62.289246,
              7.000642
            ],
            [
              -62.288022999999896,
              7.005692
            ],
            [
              -62.285855,
              7.012684
            ],
            [
              -62.287245,
              7.018579000000159
            ],
            [
              -62.287961,
              7.023773
            ],
            [
              -62.29017999999985,
              7.049146000000121
            ],
            [
              -62.291376,
              7.05285
            ],
            [
              -62.298704,
              7.058837
            ],
            [
              -62.301814,
              7.064298
            ],
            [
              -62.301233,
              7.072006000000101
            ],
            [
              -62.302023,
              7.072594
            ],
            [
              -62.312277,
              7.095442000000105
            ],
            [
              -62.311938,
              7.102347000000179
            ],
            [
              -62.316718,
              7.110598
            ],
            [
              -62.31949999999989,
              7.115133
            ],
            [
              -62.323198,
              7.119566
            ],
            [
              -62.32457,
              7.119472
            ],
            [
              -62.327539999999885,
              7.119403
            ],
            [
              -62.332781,
              7.120174
            ],
            [
              -62.33633099999986,
              7.119653
            ],
            [
              -62.33679099999989,
              7.11943
            ],
            [
              -62.340214,
              7.120789000000173
            ],
            [
              -62.34483299999988,
              7.1271
            ],
            [
              -62.344603,
              7.141181
            ],
            [
              -62.34037499999988,
              7.155255000000125
            ],
            [
              -62.341199999999844,
              7.166184000000101
            ],
            [
              -62.344139,
              7.171021
            ],
            [
              -62.34319099999982,
              7.176425000000108
            ],
            [
              -62.342514,
              7.183094000000153
            ],
            [
              -62.343443,
              7.189328000000103
            ],
            [
              -62.342443,
              7.194726000000173
            ],
            [
              -62.340441,
              7.198495
            ],
            [
              -62.339568,
              7.203089
            ],
            [
              -62.33507999999989,
              7.212349
            ],
            [
              -62.329308,
              7.22331800000012
            ],
            [
              -62.327952,
              7.229516000000103
            ],
            [
              -62.324474,
              7.254109000000142
            ],
            [
              -62.317908,
              7.26472
            ],
            [
              -62.312151,
              7.274651000000176
            ],
            [
              -62.301711,
              7.28451
            ],
            [
              -62.297707,
              7.291935
            ],
            [
              -62.28826599999985,
              7.317817
            ],
            [
              -62.284828,
              7.332737000000122
            ],
            [
              -62.28179,
              7.351118
            ],
            [
              -62.27829,
              7.362695000000144
            ],
            [
              -62.270184,
              7.369366000000184
            ],
            [
              -62.26051,
              7.374053
            ],
            [
              -62.250014,
              7.380109000000175
            ],
            [
              -62.242051,
              7.384938
            ],
            [
              -62.235563,
              7.397505000000137
            ],
            [
              -62.22608699999989,
              7.404038000000128
            ],
            [
              -62.22034599999989,
              7.405676000000142
            ],
            [
              -62.214361,
              7.408347000000163
            ],
            [
              -62.211557,
              7.412104000000113
            ],
            [
              -62.2033899999999,
              7.422456000000125
            ],
            [
              -62.19756199999989,
              7.429391000000123
            ],
            [
              -62.20109799999989,
              7.44395800000018
            ],
            [
              -62.202727,
              7.449166000000105
            ],
            [
              -62.20164099999988,
              7.459744000000171
            ],
            [
              -62.197733,
              7.46106500000019
            ],
            [
              -62.193774,
              7.46561
            ],
            [
              -62.194511,
              7.469422000000122
            ],
            [
              -62.194714,
              7.471038
            ],
            [
              -62.19591,
              7.474742000000106
            ],
            [
              -62.197326,
              7.479025
            ],
            [
              -62.195489,
              7.479573000000187
            ],
            [
              -62.192026,
              7.481707
            ],
            [
              -62.187532,
              7.483940000000189
            ],
            [
              -62.187157,
              7.485892
            ],
            [
              -62.188232,
              7.490055
            ],
            [
              -62.192597,
              7.495766
            ],
            [
              -62.19277099999988,
              7.499109
            ],
            [
              -62.190583,
              7.507136
            ],
            [
              -62.186368,
              7.513289
            ],
            [
              -62.18231099999986,
              7.516831
            ],
            [
              -62.182307,
              7.517757
            ],
            [
              -62.182583,
              7.518777000000114
            ],
            [
              -62.183328,
              7.519706
            ],
            [
              -62.184259,
              7.520727
            ],
            [
              -62.185191,
              7.52174900000017
            ],
            [
              -62.185654,
              7.522677
            ],
            [
              -62.185742,
              7.523974
            ],
            [
              -62.185364,
              7.524992000000111
            ],
            [
              -62.184985,
              7.52601
            ],
            [
              -62.184701,
              7.526936
            ],
            [
              -62.183948,
              7.527953000000139
            ],
            [
              -62.18384999999989,
              7.528879000000188
            ],
            [
              -62.183845,
              7.530083000000161
            ],
            [
              -62.183841,
              7.531102
            ],
            [
              -62.18421,
              7.532215000000178
            ],
            [
              -62.18476799999985,
              7.532958000000178
            ],
            [
              -62.185795,
              7.533609
            ],
            [
              -62.186916,
              7.53389
            ],
            [
              -62.188036,
              7.534634
            ],
            [
              -62.18962,
              7.536121
            ],
            [
              -62.190366,
              7.536679
            ],
            [
              -62.191112,
              7.53733
            ],
            [
              -62.192138999999884,
              7.537889000000121
            ],
            [
              -62.19297799999987,
              7.538725
            ],
            [
              -62.193817,
              7.539376
            ],
            [
              -62.194563,
              7.540026
            ],
            [
              -62.195589,
              7.540585
            ],
            [
              -62.196524999999895,
              7.540680000000123
            ],
            [
              -62.197647,
              7.540683
            ],
            [
              -62.198583,
              7.540686000000107
            ],
            [
              -62.199612,
              7.540689000000157
            ],
            [
              -62.200642,
              7.540599
            ],
            [
              -62.201578,
              7.540509
            ],
            [
              -62.202702,
              7.540234000000169
            ],
            [
              -62.203734,
              7.539589
            ],
            [
              -62.204672,
              7.539128000000176
            ],
            [
              -62.205608,
              7.538853000000131
            ],
            [
              -62.206637999999884,
              7.538856
            ],
            [
              -62.207572,
              7.539044000000104
            ],
            [
              -62.208319,
              7.539602000000116
            ],
            [
              -62.209064,
              7.540252
            ],
            [
              -62.209622,
              7.541180000000111
            ],
            [
              -62.209898,
              7.54220000000015
            ],
            [
              -62.210081,
              7.543312000000128
            ],
            [
              -62.210076,
              7.544424000000106
            ],
            [
              -62.210071,
              7.545628
            ],
            [
              -62.210067,
              7.546555
            ],
            [
              -62.210062,
              7.547667
            ],
            [
              -62.21005799999989,
              7.548593
            ],
            [
              -62.210241,
              7.54952
            ],
            [
              -62.210985,
              7.55054100000018
            ],
            [
              -62.211731,
              7.55128400000018
            ],
            [
              -62.21257,
              7.552028
            ],
            [
              -62.21350299999989,
              7.552494
            ],
            [
              -62.214439,
              7.552496
            ],
            [
              -62.219216,
              7.55201
            ],
            [
              -62.220152,
              7.552014
            ],
            [
              -62.221287,
              7.552186
            ],
            [
              -62.22220999999985,
              7.552022000000136
            ],
            [
              -62.223708,
              7.551936000000126
            ],
            [
              -62.224739,
              7.551292000000103
            ],
            [
              -62.225583,
              7.550647
            ],
            [
              -62.226519,
              7.55028
            ],
            [
              -62.227642,
              7.550192
            ],
            [
              -62.228672,
              7.550197000000139
            ],
            [
              -62.229607,
              7.550201
            ],
            [
              -62.23073,
              7.550205
            ],
            [
              -62.231759999999895,
              7.549839000000134
            ],
            [
              -62.23278999999985,
              7.549566000000141
            ],
            [
              -62.233821,
              7.549107000000163
            ],
            [
              -62.235038,
              7.548741
            ],
            [
              -62.235975,
              7.54846700000013
            ],
            [
              -62.23691099999985,
              7.548193
            ],
            [
              -62.23794,
              7.548198
            ],
            [
              -62.23887599999989,
              7.548202
            ],
            [
              -62.239812,
              7.548206
            ],
            [
              -62.240746999999885,
              7.548209
            ],
            [
              -62.246953,
              7.54844
            ],
            [
              -62.249242999999865,
              7.555270000000121
            ],
            [
              -62.25457299999988,
              7.557886
            ],
            [
              -62.259147,
              7.557842000000107
            ],
            [
              -62.262686,
              7.558127
            ],
            [
              -62.270084,
              7.560085
            ],
            [
              -62.272449,
              7.562309
            ],
            [
              -62.280696,
              7.566515
            ],
            [
              -62.28031399999986,
              7.567064000000187
            ],
            [
              -62.275867,
              7.570078
            ],
            [
              -62.27527199999986,
              7.571567
            ],
            [
              -62.274872,
              7.575131000000113
            ],
            [
              -62.275782,
              7.582516
            ],
            [
              -62.275877,
              7.590809
            ],
            [
              -62.280381,
              7.59514
            ],
            [
              -62.286047,
              7.598222
            ],
            [
              -62.288847,
              7.601835000000165
            ],
            [
              -62.289674999999875,
              7.607260000000167
            ],
            [
              -62.29371899999984,
              7.611699000000101
            ],
            [
              -62.296753,
              7.622111
            ],
            [
              -62.29172299999988,
              7.629174
            ],
            [
              -62.288554,
              7.634307
            ],
            [
              -62.28656199999989,
              7.637271000000112
            ],
            [
              -62.286413,
              7.639457000000164
            ],
            [
              -62.288605,
              7.645364
            ],
            [
              -62.289412,
              7.652056
            ],
            [
              -62.28897399999988,
              7.657923
            ],
            [
              -62.287287,
              7.66331
            ],
            [
              -62.287941,
              7.672418000000107
            ],
            [
              -62.289565,
              7.678086000000121
            ],
            [
              -62.285754,
              7.680445
            ],
            [
              -62.275466,
              7.680286
            ],
            [
              -62.25749599999989,
              7.681390000000135
            ],
            [
              -62.254684,
              7.685607000000175
            ],
            [
              -62.255827999999894,
              7.692651000000126
            ],
            [
              -62.25839,
              7.696836
            ],
            [
              -62.260353,
              7.70274
            ],
            [
              -62.26044199999984,
              7.704353
            ],
            [
              -62.262978,
              7.710151
            ],
            [
              -62.264603,
              7.71236800000014
            ],
            [
              -62.265082,
              7.716981
            ],
            [
              -62.26093899999984,
              7.720614000000126
            ],
            [
              -62.255584,
              7.721576000000141
            ],
            [
              -62.247311,
              7.721562
            ],
            [
              -62.240302,
              7.719357
            ],
            [
              -62.235755,
              7.717674
            ],
            [
              -62.23162999999988,
              7.718186000000117
            ],
            [
              -62.228181,
              7.719399000000124
            ],
            [
              -62.224157,
              7.720718
            ],
            [
              -62.221079,
              7.720094
            ],
            [
              -62.216888,
              7.717611000000147
            ],
            [
              -62.215042,
              7.718618000000163
            ],
            [
              -62.210981,
              7.72224100000011
            ],
            [
              -62.178436,
              7.712403
            ],
            [
              -62.171888,
              7.714258
            ],
            [
              -62.16598699999986,
              7.711517
            ],
            [
              -62.166227999999876,
              7.717740000000163
            ],
            [
              -62.166348,
              7.724421000000177
            ],
            [
              -62.163765,
              7.728526000000159
            ],
            [
              -62.162273,
              7.728849
            ],
            [
              -62.156425,
              7.722768
            ],
            [
              -62.15298499999983,
              7.71638
            ],
            [
              -62.15102899999988,
              7.717156000000159
            ],
            [
              -62.149861,
              7.718634
            ],
            [
              -62.150604,
              7.729126
            ],
            [
              -62.153206999999895,
              7.730779
            ],
            [
              -62.155724,
              7.730703000000176
            ],
            [
              -62.156401999999844,
              7.73129
            ],
            [
              -62.15620399999989,
              7.736354
            ],
            [
              -62.156058,
              7.738309000000129
            ],
            [
              -62.155672,
              7.740952000000163
            ],
            [
              -62.155857,
              7.743603000000121
            ],
            [
              -62.156395,
              7.745685
            ],
            [
              -62.156745999999885,
              7.75214
            ],
            [
              -62.15656599999983,
              7.756168
            ],
            [
              -62.158723,
              7.757123
            ],
            [
              -62.1620309999999,
              7.764660000000106
            ],
            [
              -62.163491,
              7.766296000000125
            ],
            [
              -62.164958,
              7.767470000000117
            ],
            [
              -62.167456,
              7.768546000000129
            ],
            [
              -62.175693,
              7.768445
            ],
            [
              -62.181297,
              7.768418
            ],
            [
              -62.184157,
              7.775372
            ],
            [
              -62.18477699999988,
              7.779412
            ],
            [
              -62.184712,
              7.783442
            ],
            [
              -62.186029,
              7.786802
            ],
            [
              -62.191956,
              7.795071000000121
            ],
            [
              -62.195346,
              7.804683000000182
            ],
            [
              -62.197346,
              7.808284
            ],
            [
              -62.199102,
              7.812803
            ],
            [
              -62.199438,
              7.813269
            ],
            [
              -62.19909299999989,
              7.820403
            ],
            [
              -62.198718,
              7.829379000000188
            ],
            [
              -62.201542,
              7.838637
            ],
            [
              -62.202085,
              7.84037300000017
            ],
            [
              -62.202382999999884,
              7.843141
            ],
            [
              -62.198703,
              7.844351000000131
            ],
            [
              -62.193995,
              7.845544
            ],
            [
              -62.193567,
              7.85071900000014
            ],
            [
              -62.191923,
              7.853342000000112
            ],
            [
              -62.1897,
              7.856416
            ],
            [
              -62.190014999999846,
              7.858149000000139
            ],
            [
              -62.185186,
              7.85957
            ],
            [
              -62.185029,
              7.862216
            ],
            [
              -62.184084,
              7.864044
            ],
            [
              -62.17959999999988,
              7.865471
            ],
            [
              -62.184718,
              7.874303000000168
            ],
            [
              -62.184347999999886,
              7.87591
            ],
            [
              -62.180543,
              7.877808
            ],
            [
              -62.17756299999985,
              7.878107000000171
            ],
            [
              -62.172502,
              7.87987
            ],
            [
              -62.171757,
              7.883428
            ],
            [
              -62.171312999999884,
              7.889640000000156
            ],
            [
              -62.171333,
              7.893214
            ],
            [
              -62.171342,
              7.894822
            ],
            [
              -62.171339,
              7.895052
            ],
            [
              -62.168549,
              7.897772
            ],
            [
              -62.165022,
              7.898813
            ],
            [
              -62.161881,
              7.89974
            ],
            [
              -62.156958,
              7.900008000000184
            ],
            [
              -62.149294,
              7.90000300000014
            ],
            [
              -62.147186,
              7.902964000000168
            ],
            [
              -62.14724199999989,
              7.906535
            ],
            [
              -62.144559,
              7.909718000000169
            ],
            [
              -62.144839,
              7.913522000000114
            ],
            [
              -62.142942,
              7.917638000000125
            ],
            [
              -62.142441,
              7.920279000000164
            ],
            [
              -62.138973,
              7.922412
            ],
            [
              -62.133569,
              7.924054
            ],
            [
              -62.127314,
              7.928792
            ],
            [
              -62.12267899999989,
              7.932404000000133
            ],
            [
              -62.122822,
              7.937588
            ],
            [
              -62.122531,
              7.941383
            ],
            [
              -62.12079899999986,
              7.949303
            ],
            [
              -62.119066,
              7.957336000000112
            ],
            [
              -62.115154,
              7.965565
            ],
            [
              -62.115221,
              7.968445
            ],
            [
              -62.120542999999884,
              7.971868
            ],
            [
              -62.123472,
              7.967654
            ],
            [
              -62.128876999999875,
              7.972921000000156
            ],
            [
              -62.130182,
              7.977087
            ],
            [
              -62.12758899999989,
              7.981652000000111
            ],
            [
              -62.127653,
              7.984763000000157
            ],
            [
              -62.13085,
              7.985159
            ],
            [
              -62.131795999999895,
              7.990241
            ],
            [
              -62.133219,
              7.994178
            ],
            [
              -62.134551,
              7.996733
            ],
            [
              -62.133037999999885,
              8.000539000000174
            ],
            [
              -62.136149,
              8.002344000000164
            ],
            [
              -62.138362,
              8.005762000000175
            ],
            [
              -62.138988,
              8.010456
            ],
            [
              -62.138935,
              8.015844000000186
            ],
            [
              -62.137759,
              8.022962
            ],
            [
              -62.137881,
              8.023649
            ],
            [
              -62.143678,
              8.030244
            ],
            [
              -62.14807,
              8.0341
            ],
            [
              -62.150626,
              8.037401000000159
            ],
            [
              -62.155586,
              8.040793000000122
            ],
            [
              -62.158801,
              8.04168
            ],
            [
              -62.16065399999985,
              8.043611
            ],
            [
              -62.159842,
              8.04641800000013
            ],
            [
              -62.173325,
              8.06038
            ],
            [
              -62.17771,
              8.066392
            ],
            [
              -62.180399,
              8.075509000000181
            ],
            [
              -62.182419,
              8.080281000000127
            ],
            [
              -62.183413,
              8.09132000000011
            ],
            [
              -62.18405699999988,
              8.109826000000112
            ],
            [
              -62.187756,
              8.120935
            ],
            [
              -62.19313099999982,
              8.140740000000164
            ],
            [
              -62.19680099999988,
              8.168763000000126
            ],
            [
              -62.200509999999895,
              8.174365
            ],
            [
              -62.203206,
              8.179154
            ],
            [
              -62.207588,
              8.187526
            ],
            [
              -62.214670999999896,
              8.196754
            ],
            [
              -62.229196,
              8.205384
            ],
            [
              -62.234255,
              8.212200000000166
            ],
            [
              -62.23761699999989,
              8.222906000000137
            ],
            [
              -62.244022,
              8.233690000000138
            ],
            [
              -62.25112,
              8.235444000000143
            ],
            [
              -62.260248,
              8.235676000000126
            ],
            [
              -62.265656,
              8.236993
            ],
            [
              -62.26768,
              8.239799
            ],
            [
              -62.26902399999989,
              8.244554
            ],
            [
              -62.271913,
              8.248546
            ],
            [
              -62.27067564099997,
              8.252412426000092
            ],
            [
              -62.268049,
              8.26062
            ],
            [
              -62.266166,
              8.266026
            ],
            [
              -62.259056,
              8.274922000000174
            ],
            [
              -62.25435080499989,
              8.28360754200014
            ],
            [
              -62.249754,
              8.292093
            ],
            [
              -62.24977683999998,
              8.292939866000097
            ],
            [
              -62.24990487799994,
              8.297687310000128
            ],
            [
              -62.24972380499986,
              8.299761763000106
            ],
            [
              -62.25002256199997,
              8.299683650000134
            ],
            [
              -62.26223510599988,
              8.295205482000142
            ],
            [
              -62.30957322699987,
              8.282035942000107
            ],
            [
              -62.372524283999894,
              8.319710677000103
            ]
          ]
        ]
      }
    }
  ]
}