{
  "type": "FeatureCollection",
  "features": [
    {
      "type": "Feature",
      "properties": {
        "Pais": "Venezuela",
        "Estado": "Monagas",
        "Municipio": "Punceres",
        "Parroquia": "Punceres"
      },
      "geometry": {
        "type": "Polygon",
        "coordinates": [
          [
            [
              -63.291016,
              9.938357
            ],
            [
              -63.290038,
              9.938245
            ],
            [
              -63.289987,
              9.937328
            ],
            [
              -63.28924,
              9.937211000000104
            ],
            [
              -63.288577,
              9.93826200000018
            ],
            [
              -63.288107,
              9.938092000000154
            ],
            [
              -63.2873919999999,
              9.937445
            ],
            [
              -63.286821,
              9.937002
            ],
            [
              -63.285657,
              9.936873
            ],
            [
              -63.285408,
              9.937063
            ],
            [
              -63.284286,
              9.936795000000131
            ],
            [
              -63.283697,
              9.936513
            ],
            [
              -63.282581,
              9.935694000000126
            ],
            [
              -63.281165,
              9.935686
            ],
            [
              -63.27896,
              9.93565500000011
            ],
            [
              -63.27805499999988,
              9.935633
            ],
            [
              -63.278352,
              9.934730000000172
            ],
            [
              -63.278956,
              9.934002000000135
            ],
            [
              -63.278409,
              9.93358
            ],
            [
              -63.277924,
              9.933662
            ],
            [
              -63.277324,
              9.934505000000172
            ],
            [
              -63.276558,
              9.935238
            ],
            [
              -63.275801999999885,
              9.93558000000013
            ],
            [
              -63.27501099999989,
              9.93551
            ],
            [
              -63.274796,
              9.935286000000133
            ],
            [
              -63.274548,
              9.934765
            ],
            [
              -63.273962,
              9.934574
            ],
            [
              -63.27312,
              9.93434400000018
            ],
            [
              -63.27213299999988,
              9.933958
            ],
            [
              -63.27125,
              9.933132000000114
            ],
            [
              -63.270744,
              9.932549000000165
            ],
            [
              -63.270678,
              9.931908
            ],
            [
              -63.27010399999989,
              9.931327000000124
            ],
            [
              -63.26897799999989,
              9.930944
            ],
            [
              -63.267836,
              9.930746
            ],
            [
              -63.267035,
              9.930377
            ],
            [
              -63.26647799999989,
              9.928831
            ],
            [
              -63.266015,
              9.927351000000158
            ],
            [
              -63.265746,
              9.92614200000014
            ],
            [
              -63.264505,
              9.92427000000015
            ],
            [
              -63.263088,
              9.92421700000017
            ],
            [
              -63.26195,
              9.924202
            ],
            [
              -63.260695,
              9.924121
            ],
            [
              -63.259604,
              9.924105000000168
            ],
            [
              -63.258533,
              9.923996
            ],
            [
              -63.257544,
              9.924253000000135
            ],
            [
              -63.256105999999875,
              9.925026000000173
            ],
            [
              -63.255303,
              9.92610400000018
            ],
            [
              -63.25456199999985,
              9.926905
            ],
            [
              -63.253341,
              9.927191
            ],
            [
              -63.252661,
              9.926957
            ],
            [
              -63.252409,
              9.926298
            ],
            [
              -63.251683,
              9.925307000000146
            ],
            [
              -63.250581,
              9.924924
            ],
            [
              -63.248967,
              9.923728
            ],
            [
              -63.24840099999989,
              9.923445
            ],
            [
              -63.247638,
              9.922754000000111
            ],
            [
              -63.2467759999999,
              9.921905
            ],
            [
              -63.245704,
              9.920970000000125
            ],
            [
              -63.245044,
              9.920643
            ],
            [
              -63.24410199999983,
              9.919406
            ],
            [
              -63.243284,
              9.919221000000164
            ],
            [
              -63.24256799999989,
              9.91931
            ],
            [
              -63.2417779999999,
              9.919285000000116
            ],
            [
              -63.240839,
              9.918209000000104
            ],
            [
              -63.240381,
              9.917624
            ],
            [
              -63.240259,
              9.916686
            ],
            [
              -63.239928,
              9.915708000000109
            ],
            [
              -63.239515,
              9.914364
            ],
            [
              -63.238732,
              9.914546
            ],
            [
              -63.238295,
              9.913915
            ],
            [
              -63.237922,
              9.913099
            ],
            [
              -63.237048,
              9.912572000000182
            ],
            [
              -63.23669099999984,
              9.912260000000117
            ],
            [
              -63.237005,
              9.911930000000154
            ],
            [
              -63.237699,
              9.91184200000015
            ],
            [
              -63.237596,
              9.911523
            ],
            [
              -63.23626899999982,
              9.911376000000132
            ],
            [
              -63.235088,
              9.911454
            ],
            [
              -63.23396,
              9.911737000000187
            ],
            [
              -63.23306899999989,
              9.911417
            ],
            [
              -63.2320739999999,
              9.911513000000127
            ],
            [
              -63.231522,
              9.911665
            ],
            [
              -63.23043,
              9.911626
            ],
            [
              -63.229564,
              9.911351
            ],
            [
              -63.228783,
              9.910844
            ],
            [
              -63.228238,
              9.910491
            ],
            [
              -63.22738,
              9.908976000000166
            ],
            [
              -63.226672,
              9.907044
            ],
            [
              -63.225294,
              9.906737
            ],
            [
              -63.224472,
              9.907172000000116
            ],
            [
              -63.222715,
              9.90889600000014
            ],
            [
              -63.222,
              9.90903
            ],
            [
              -63.221158999999886,
              9.908846
            ],
            [
              -63.220325999999886,
              9.908203000000185
            ],
            [
              -63.21928999999989,
              9.907703
            ],
            [
              -63.218509,
              9.90719600000017
            ],
            [
              -63.217342,
              9.906195
            ],
            [
              -63.216642,
              9.906053
            ],
            [
              -63.216236,
              9.905696
            ],
            [
              -63.215946,
              9.904556
            ],
            [
              -63.21559,
              9.90351
            ],
            [
              -63.21586699999989,
              9.902699
            ],
            [
              -63.216369,
              9.902432000000147
            ],
            [
              -63.21604,
              9.901546
            ],
            [
              -63.215568,
              9.900526000000184
            ],
            [
              -63.215003,
              9.899485
            ],
            [
              -63.214152,
              9.898957
            ],
            [
              -63.212844,
              9.898671
            ],
            [
              -63.211236,
              9.898439000000167
            ],
            [
              -63.21047,
              9.897656
            ],
            [
              -63.208985,
              9.897627000000114
            ],
            [
              -63.207968,
              9.897746
            ],
            [
              -63.206936,
              9.89814200000012
            ],
            [
              -63.204326,
              9.898534
            ],
            [
              -63.2035479999999,
              9.898876
            ],
            [
              -63.201485,
              9.899713
            ],
            [
              -63.19911999999982,
              9.899776000000145
            ],
            [
              -63.197744,
              9.898757
            ],
            [
              -63.196469,
              9.898815000000184
            ],
            [
              -63.195501,
              9.899002
            ],
            [
              -63.194129,
              9.899682000000155
            ],
            [
              -63.192317,
              9.899570000000153
            ],
            [
              -63.19063299999988,
              9.899133
            ],
            [
              -63.189781,
              9.898582
            ],
            [
              -63.18871099999984,
              9.898496
            ],
            [
              -63.187714,
              9.8985
            ],
            [
              -63.18634,
              9.898331
            ],
            [
              -63.185287,
              9.898038
            ],
            [
              -63.184535,
              9.896956
            ],
            [
              -63.18382,
              9.896309000000144
            ],
            [
              -63.182359,
              9.8963490000001
            ],
            [
              -63.180818,
              9.89678
            ],
            [
              -63.1795,
              9.897666000000186
            ],
            [
              -63.177609,
              9.897326
            ],
            [
              -63.176948,
              9.896954
            ],
            [
              -63.176116,
              9.896264000000144
            ],
            [
              -63.175237,
              9.895599
            ],
            [
              -63.17421599999983,
              9.895604000000105
            ],
            [
              -63.17347499999988,
              9.895624000000112
            ],
            [
              -63.172297,
              9.895816
            ],
            [
              -63.17135499999989,
              9.896094000000119
            ],
            [
              -63.170422,
              9.895178
            ],
            [
              -63.169095,
              9.895788
            ],
            [
              -63.168457,
              9.895392000000129
            ],
            [
              -63.16751099999988,
              9.895555000000115
            ],
            [
              -63.166496,
              9.895766000000151
            ],
            [
              -63.166801,
              9.897388
            ],
            [
              -63.166745,
              9.898629
            ],
            [
              -63.167105999999876,
              9.89979
            ],
            [
              -63.1674,
              9.901091
            ],
            [
              -63.167901,
              9.902294
            ],
            [
              -63.168081,
              9.903667
            ],
            [
              -63.168277,
              9.904764
            ],
            [
              -63.168365,
              9.90613900000011
            ],
            [
              -63.168536,
              9.907191
            ],
            [
              -63.16856,
              9.907971000000146
            ],
            [
              -63.169345,
              9.909396000000129
            ],
            [
              -63.16980999999987,
              9.910164
            ],
            [
              -63.170508,
              9.911018000000183
            ],
            [
              -63.171349,
              9.91196
            ],
            [
              -63.171927,
              9.912656
            ],
            [
              -63.17251499999986,
              9.912938
            ],
            [
              -63.173918,
              9.913291000000129
            ],
            [
              -63.174907,
              9.913792
            ],
            [
              -63.17566,
              9.914139000000148
            ],
            [
              -63.176371,
              9.914602
            ],
            [
              -63.17684899999989,
              9.915049000000124
            ],
            [
              -63.177614,
              9.915786
            ],
            [
              -63.178444,
              9.917141000000186
            ],
            [
              -63.178953,
              9.917862000000184
            ],
            [
              -63.178988,
              9.919032000000186
            ],
            [
              -63.179328,
              9.920286
            ],
            [
              -63.17942099999988,
              9.921822
            ],
            [
              -63.179935999999884,
              9.923507
            ],
            [
              -63.180337999999836,
              9.924529
            ],
            [
              -63.181614,
              9.92527500000017
            ],
            [
              -63.183291999999824,
              9.926286000000118
            ],
            [
              -63.183711,
              9.927101
            ],
            [
              -63.18313899999987,
              9.928127
            ],
            [
              -63.182458999999824,
              9.929409
            ],
            [
              -63.181777,
              9.931425
            ],
            [
              -63.182653,
              9.931999000000133
            ],
            [
              -63.184613,
              9.933117
            ],
            [
              -63.185291,
              9.934063
            ],
            [
              -63.185947,
              9.935032
            ],
            [
              -63.186354,
              9.93619200000012
            ],
            [
              -63.18716599999982,
              9.938489000000118
            ],
            [
              -63.187789,
              9.940677000000164
            ],
            [
              -63.188464999999894,
              9.942311000000188
            ],
            [
              -63.188109,
              9.943561
            ],
            [
              -63.188033,
              9.944872000000146
            ],
            [
              -63.18899,
              9.945833000000107
            ],
            [
              -63.189863,
              9.946315
            ],
            [
              -63.19038299999988,
              9.94816
            ],
            [
              -63.190288,
              9.950367
            ],
            [
              -63.19071,
              9.952055
            ],
            [
              -63.191247,
              9.952913
            ],
            [
              -63.192278,
              9.95401
            ],
            [
              -63.193276,
              9.955544000000145
            ],
            [
              -63.193607,
              9.957257
            ],
            [
              -63.194245,
              9.958388
            ],
            [
              -63.194454,
              9.959921
            ],
            [
              -63.19450899999987,
              9.960975
            ],
            [
              -63.194564,
              9.962765
            ],
            [
              -63.194556,
              9.964051
            ],
            [
              -63.194879,
              9.965512000000103
            ],
            [
              -63.195087999999885,
              9.967021000000102
            ],
            [
              -63.195156,
              9.968513
            ],
            [
              -63.194354,
              9.969614
            ],
            [
              -63.194086,
              9.970723
            ],
            [
              -63.139329,
              9.980141000000117
            ],
            [
              -63.139256,
              9.980028000000175
            ],
            [
              -63.137819,
              9.979309
            ],
            [
              -63.135048,
              9.97897
            ],
            [
              -63.134156,
              9.97865
            ],
            [
              -63.132988999999895,
              9.977648000000102
            ],
            [
              -63.13152,
              9.977412
            ],
            [
              -63.129512,
              9.977006
            ],
            [
              -63.128638,
              9.977259
            ],
            [
              -63.127443,
              9.977636000000132
            ],
            [
              -63.12616799999989,
              9.977670000000103
            ],
            [
              -63.124201999999855,
              9.977929
            ],
            [
              -63.12228699999986,
              9.978279
            ],
            [
              -63.121173,
              9.978263
            ],
            [
              -63.119106,
              9.97822600000012
            ],
            [
              -63.11833,
              9.978637
            ],
            [
              -63.117592,
              9.979553000000124
            ],
            [
              -63.116414,
              9.980526000000168
            ],
            [
              -63.114812,
              9.980500000000177
            ],
            [
              -63.113556,
              9.980395
            ],
            [
              -63.11202,
              9.98023
            ],
            [
              -63.110507,
              9.98006400000014
            ],
            [
              -63.109027,
              9.979483
            ],
            [
              -63.109389,
              9.978395
            ],
            [
              -63.1094599999999,
              9.977681000000132
            ],
            [
              -63.109707,
              9.976618000000144
            ],
            [
              -63.109813,
              9.975536000000147
            ],
            [
              -63.110316,
              9.975293
            ],
            [
              -63.109742,
              9.973954000000163
            ],
            [
              -63.109211,
              9.973256000000106
            ],
            [
              -63.108311,
              9.973418
            ],
            [
              -63.10721199999989,
              9.97393000000011
            ],
            [
              -63.106776,
              9.973299000000111
            ],
            [
              -63.106394,
              9.972964000000104
            ],
            [
              -63.10592,
              9.972610000000145
            ],
            [
              -63.10512199999988,
              9.972332
            ],
            [
              -63.104036999999835,
              9.972499
            ],
            [
              -63.102269,
              9.973166000000163
            ],
            [
              -63.101174,
              9.974206
            ],
            [
              -63.099979,
              9.975707
            ],
            [
              -63.098516,
              9.976458
            ],
            [
              -63.09733899999986,
              9.97665000000012
            ],
            [
              -63.095006999999896,
              9.977815
            ],
            [
              -63.093499999999835,
              9.978613000000166
            ],
            [
              -63.09230799999989,
              9.979884
            ],
            [
              -63.090858,
              9.981048
            ],
            [
              -63.089831,
              9.98160300000012
            ],
            [
              -63.087279,
              9.98394500000012
            ],
            [
              -63.086395,
              9.984657
            ],
            [
              -63.086331,
              9.985601000000145
            ],
            [
              -63.086247,
              9.986659000000145
            ],
            [
              -63.0860909999999,
              9.987651000000142
            ],
            [
              -63.085228,
              9.988271000000111
            ],
            [
              -63.08392599999985,
              9.988971000000106
            ],
            [
              -63.082852999999886,
              9.98955100000012
            ],
            [
              -63.083029,
              9.990786000000185
            ],
            [
              -63.082971,
              9.991913000000181
            ],
            [
              -63.08298,
              9.993772000000149
            ],
            [
              -63.082144,
              9.994506000000115
            ],
            [
              -63.081275,
              9.994943
            ],
            [
              -63.08093,
              9.995824
            ],
            [
              -63.080228,
              9.997175
            ],
            [
              -63.079646,
              9.997878
            ],
            [
              -63.078195,
              9.998586
            ],
            [
              -63.078071,
              9.999574
            ],
            [
              -63.077419,
              10.000845
            ],
            [
              -63.07663499999984,
              10.002577
            ],
            [
              -63.075421,
              10.003534000000172
            ],
            [
              -63.074321,
              10.004421
            ],
            [
              -63.072495,
              10.00628200000017
            ],
            [
              -63.072141,
              10.007365
            ],
            [
              -63.071327,
              10.008707
            ],
            [
              -63.069908,
              10.009897000000137
            ],
            [
              -63.069162,
              10.011123000000111
            ],
            [
              -63.068285,
              10.011433000000181
            ],
            [
              -63.06693899999988,
              10.012805
            ],
            [
              -63.066239,
              10.014054000000158
            ],
            [
              -63.06455199999982,
              10.015912
            ],
            [
              -63.0633509999999,
              10.016227000000185
            ],
            [
              -63.061638,
              10.016480000000172
            ],
            [
              -63.060285,
              10.01744
            ],
            [
              -63.059342,
              10.019449000000122
            ],
            [
              -63.05981,
              10.02114100000017
            ],
            [
              -63.060461,
              10.022669000000121
            ],
            [
              -63.06183,
              10.024142000000154
            ],
            [
              -63.061481,
              10.025523
            ],
            [
              -63.06006599999989,
              10.026965000000132
            ],
            [
              -63.05995,
              10.028435
            ],
            [
              -63.061343,
              10.028462000000161
            ],
            [
              -63.062874,
              10.028441
            ],
            [
              -63.065528,
              10.029047000000105
            ],
            [
              -63.06743399999988,
              10.029205
            ],
            [
              -63.070138,
              10.028548000000171
            ],
            [
              -63.072112,
              10.028682
            ],
            [
              -63.072542,
              10.030902
            ],
            [
              -63.072041,
              10.032951
            ],
            [
              -63.071214999999825,
              10.03493500000019
            ],
            [
              -63.070625,
              10.037238000000116
            ],
            [
              -63.07044,
              10.037437
            ],
            [
              -63.070932999999854,
              10.037623
            ],
            [
              -63.070643,
              10.038362
            ],
            [
              -63.070216,
              10.039194000000123
            ],
            [
              -63.070131,
              10.039722000000154
            ],
            [
              -63.071591,
              10.039565
            ],
            [
              -63.073159,
              10.038993
            ],
            [
              -63.073287,
              10.038257
            ],
            [
              -63.073839,
              10.037974
            ],
            [
              -63.075071,
              10.038049
            ],
            [
              -63.075735,
              10.038957
            ],
            [
              -63.076987,
              10.038871
            ],
            [
              -63.07761,
              10.038656
            ],
            [
              -63.078016999999875,
              10.039431
            ],
            [
              -63.07798,
              10.040051000000176
            ],
            [
              -63.07875,
              10.040316
            ],
            [
              -63.07913699999989,
              10.039828
            ],
            [
              -63.079833,
              10.039842000000135
            ],
            [
              -63.080556999999885,
              10.040107
            ],
            [
              -63.081253,
              10.040098000000171
            ],
            [
              -63.08179699999988,
              10.039333000000113
            ],
            [
              -63.082353999999896,
              10.039325000000133
            ],
            [
              -63.083003,
              10.039316
            ],
            [
              -63.084617,
              10.038652
            ],
            [
              -63.08579999999989,
              10.038613
            ],
            [
              -63.086680999999885,
              10.038601
            ],
            [
              -63.087405,
              10.037420000000111
            ],
            [
              -63.087806999999884,
              10.037943
            ],
            [
              -63.08821299999988,
              10.037180000000149
            ],
            [
              -63.089029,
              10.037421000000165
            ],
            [
              -63.090241,
              10.037749000000133
            ],
            [
              -63.090986,
              10.037922
            ],
            [
              -63.091607,
              10.037592000000132
            ],
            [
              -63.091922999999895,
              10.038460000000157
            ],
            [
              -63.092196,
              10.039580000000115
            ],
            [
              -63.093340999999896,
              10.040069
            ],
            [
              -63.094706,
              10.039844
            ],
            [
              -63.096111,
              10.039205000000152
            ],
            [
              -63.097366,
              10.039280000000133
            ],
            [
              -63.09768,
              10.038587000000177
            ],
            [
              -63.098354,
              10.038669
            ],
            [
              -63.09925,
              10.038106
            ],
            [
              -63.098575,
              10.038001
            ],
            [
              -63.098821,
              10.037401000000102
            ],
            [
              -63.098716,
              10.036645
            ],
            [
              -63.097948,
              10.036518
            ],
            [
              -63.097684,
              10.03592500000019
            ],
            [
              -63.098579,
              10.035339
            ],
            [
              -63.0986,
              10.035224
            ],
            [
              -63.098224,
              10.034931
            ],
            [
              -63.097705,
              10.034365
            ],
            [
              -63.098769,
              10.034167
            ],
            [
              -63.099528,
              10.033766
            ],
            [
              -63.100342999999896,
              10.033938
            ],
            [
              -63.10062799999986,
              10.032902
            ],
            [
              -63.100291,
              10.032149
            ],
            [
              -63.100598,
              10.031067
            ],
            [
              -63.10158299999989,
              10.031673000000126
            ],
            [
              -63.103114,
              10.030252000000132
            ],
            [
              -63.104443,
              10.029178
            ],
            [
              -63.10554699999989,
              10.028635000000122
            ],
            [
              -63.106782,
              10.028916
            ],
            [
              -63.106576,
              10.027680000000146
            ],
            [
              -63.106655,
              10.026830000000132
            ],
            [
              -63.1069609999999,
              10.025679000000139
            ],
            [
              -63.107349,
              10.023837000000128
            ],
            [
              -63.108191,
              10.02277000000015
            ],
            [
              -63.109255,
              10.02259400000014
            ],
            [
              -63.1103389999999,
              10.022166
            ],
            [
              -63.11133199999989,
              10.021878
            ],
            [
              -63.110718,
              10.022666
            ],
            [
              -63.111908,
              10.023086000000148
            ],
            [
              -63.112878,
              10.022843000000137
            ],
            [
              -63.114091,
              10.021793000000116
            ],
            [
              -63.115268,
              10.02141
            ],
            [
              -63.11623,
              10.02061700000013
            ],
            [
              -63.116902,
              10.019162
            ],
            [
              -63.11832799999985,
              10.018385
            ],
            [
              -63.118595,
              10.019115
            ],
            [
              -63.119802,
              10.017699000000107
            ],
            [
              -63.121132,
              10.016694
            ],
            [
              -63.121891,
              10.016271
            ],
            [
              -63.122642,
              10.016788
            ],
            [
              -63.12353899999988,
              10.017739
            ],
            [
              -63.12445899999989,
              10.018644000000165
            ],
            [
              -63.125188,
              10.017831
            ],
            [
              -63.12639,
              10.017539
            ],
            [
              -63.127187,
              10.016656000000182
            ],
            [
              -63.12691299999989,
              10.015467
            ],
            [
              -63.126639,
              10.014323
            ],
            [
              -63.127382,
              10.014336
            ],
            [
              -63.12785,
              10.014582000000132
            ],
            [
              -63.128029,
              10.014166
            ],
            [
              -63.128905,
              10.013833
            ],
            [
              -63.129215,
              10.012934
            ],
            [
              -63.129711,
              10.012032
            ],
            [
              -63.129047,
              10.011124
            ],
            [
              -63.129636,
              10.010244
            ],
            [
              -63.130168,
              10.01019
            ],
            [
              -63.130423,
              10.010164
            ],
            [
              -63.131893,
              10.009271000000183
            ],
            [
              -63.132838,
              10.008845000000122
            ],
            [
              -63.133654,
              10.009086
            ],
            [
              -63.134332,
              10.009398
            ],
            [
              -63.134736,
              10.009989
            ],
            [
              -63.135396,
              10.010645000000181
            ],
            [
              -63.135691999999835,
              10.011766
            ],
            [
              -63.136148999999875,
              10.012723000000165
            ],
            [
              -63.137166,
              10.013925000000143
            ],
            [
              -63.139185999999825,
              10.014034
            ],
            [
              -63.141308,
              10.013248
            ],
            [
              -63.143127,
              10.012374
            ],
            [
              -63.144918,
              10.014047000000119
            ],
            [
              -63.1461139999999,
              10.01623300000017
            ],
            [
              -63.146488,
              10.017833
            ],
            [
              -63.145252,
              10.018906000000186
            ],
            [
              -63.144734999999855,
              10.019877
            ],
            [
              -63.145236999999895,
              10.020811
            ],
            [
              -63.145323,
              10.021842000000106
            ],
            [
              -63.146839,
              10.022303
            ],
            [
              -63.147627,
              10.022269
            ],
            [
              -63.14845,
              10.021523000000172
            ],
            [
              -63.148499,
              10.020215000000121
            ],
            [
              -63.148875,
              10.019085
            ],
            [
              -63.14967,
              10.019464000000141
            ],
            [
              -63.151514,
              10.021595
            ],
            [
              -63.152743,
              10.021555000000149
            ],
            [
              -63.153248,
              10.022604
            ],
            [
              -63.153312,
              10.023704000000123
            ],
            [
              -63.153396,
              10.024575
            ],
            [
              -63.153295,
              10.025517
            ],
            [
              -63.153598,
              10.02705
            ],
            [
              -63.15409,
              10.027295
            ],
            [
              -63.153995,
              10.028628
            ],
            [
              -63.153809,
              10.030007000000126
            ],
            [
              -63.153799,
              10.030833
            ],
            [
              -63.154615,
              10.032497
            ],
            [
              -63.154844,
              10.033733
            ],
            [
              -63.15508,
              10.035359
            ],
            [
              -63.155408,
              10.037029
            ],
            [
              -63.156416,
              10.039057000000184
            ],
            [
              -63.156508,
              10.04041
            ],
            [
              -63.156455,
              10.041443
            ],
            [
              -63.155799,
              10.042508
            ],
            [
              -63.156733,
              10.044284000000118
            ],
            [
              -63.15735099999989,
              10.045148
            ],
            [
              -63.15783,
              10.047504
            ],
            [
              -63.15888,
              10.049279
            ],
            [
              -63.159549,
              10.05044
            ],
            [
              -63.160169,
              10.051487000000122
            ],
            [
              -63.160838,
              10.052671
            ],
            [
              -63.162221,
              10.053454000000158
            ],
            [
              -63.16281,
              10.055465
            ],
            [
              -63.163963,
              10.056413
            ],
            [
              -63.165251,
              10.057129000000145
            ],
            [
              -63.165041,
              10.058509
            ],
            [
              -63.165398,
              10.060431000000108
            ],
            [
              -63.16597399999989,
              10.061593000000187
            ],
            [
              -63.166932,
              10.063461000000189
            ],
            [
              -63.168408,
              10.06429
            ],
            [
              -63.169249,
              10.064645
            ],
            [
              -63.169273,
              10.066136
            ],
            [
              -63.169735,
              10.067414
            ],
            [
              -63.170737,
              10.06765300000012
            ],
            [
              -63.171741,
              10.068029000000138
            ],
            [
              -63.172746,
              10.068474
            ],
            [
              -63.173935,
              10.068847000000119
            ],
            [
              -63.174667,
              10.069571000000167
            ],
            [
              -63.17534099999983,
              10.071099000000117
            ],
            [
              -63.176495,
              10.072138000000109
            ],
            [
              -63.177272,
              10.072816000000103
            ],
            [
              -63.178374,
              10.073466
            ],
            [
              -63.179363,
              10.074347000000103
            ],
            [
              -63.180443,
              10.076489
            ],
            [
              -63.181418,
              10.077921
            ],
            [
              -63.18177,
              10.079614000000163
            ],
            [
              -63.182579,
              10.080819
            ],
            [
              -63.183161,
              10.082348
            ],
            [
              -63.183839,
              10.084036
            ],
            [
              -63.18507,
              10.08555600000011
            ],
            [
              -63.185575,
              10.086582
            ],
            [
              -63.18655599999988,
              10.08838
            ],
            [
              -63.18815,
              10.08939
            ],
            [
              -63.190151,
              10.089707
            ],
            [
              -63.192192,
              10.089632
            ],
            [
              -63.193747,
              10.092478000000142
            ],
            [
              -63.195815,
              10.094009
            ],
            [
              -63.197601,
              10.095384
            ],
            [
              -63.19958999999989,
              10.096388
            ],
            [
              -63.20120899999989,
              10.097421
            ],
            [
              -63.202988,
              10.09836
            ],
            [
              -63.20431,
              10.099672000000112
            ],
            [
              -63.205565,
              10.101237
            ],
            [
              -63.207313,
              10.103094000000112
            ],
            [
              -63.208486,
              10.103835000000117
            ],
            [
              -63.21036,
              10.104909
            ],
            [
              -63.212005,
              10.10614800000019
            ],
            [
              -63.213555,
              10.107273
            ],
            [
              -63.21444,
              10.108821
            ],
            [
              -63.215389,
              10.110116
            ],
            [
              -63.21583,
              10.111509
            ],
            [
              -63.21728599999989,
              10.113966000000119
            ],
            [
              -63.218687,
              10.115897000000189
            ],
            [
              -63.21963,
              10.118110000000172
            ],
            [
              -63.221113999999886,
              10.11942
            ],
            [
              -63.222733,
              10.120475
            ],
            [
              -63.223649,
              10.121174000000167
            ],
            [
              -63.226726,
              10.12246400000015
            ],
            [
              -63.243633,
              10.099669
            ],
            [
              -63.304298,
              10.067634000000112
            ],
            [
              -63.323563,
              10.072374
            ],
            [
              -63.334227,
              10.043472
            ],
            [
              -63.326603,
              10.038417000000152
            ],
            [
              -63.323158,
              10.038103
            ],
            [
              -63.32069899999988,
              10.03656000000018
            ],
            [
              -63.318801,
              10.035243
            ],
            [
              -63.313527,
              10.033747000000119
            ],
            [
              -63.308161,
              10.032296000000144
            ],
            [
              -63.30383799999987,
              10.030516000000148
            ],
            [
              -63.300074,
              10.028663000000108
            ],
            [
              -63.29742299999987,
              10.026570000000106
            ],
            [
              -63.295432,
              10.023095000000183
            ],
            [
              -63.291606,
              10.017611000000102
            ],
            [
              -63.289368,
              10.014987
            ],
            [
              -63.277496,
              9.997209000000112
            ],
            [
              -63.277542,
              9.997209000000112
            ],
            [
              -63.2942589999999,
              9.939122000000111
            ],
            [
              -63.295169,
              9.938358000000107
            ],
            [
              -63.2945509999999,
              9.937893
            ],
            [
              -63.294022,
              9.93728700000014
            ],
            [
              -63.292874,
              9.937663
            ],
            [
              -63.292652,
              9.937233000000106
            ],
            [
              -63.2923899999999,
              9.937010000000157
            ],
            [
              -63.291729,
              9.937396
            ],
            [
              -63.291016,
              9.938357
            ]
          ]
        ]
      }
    },
    {
      "type": "Feature",
      "properties": {
        "Pais": "Venezuela",
        "Estado": "Monagas",
        "Municipio": "Punceres",
        "Parroquia": "Cachipo"
      },
      "geometry": {
        "type": "Polygon",
        "coordinates": [
          [
            [
              -62.994133045999945,
              10.07999685700014
            ],
            [
              -62.99684419499994,
              10.084667969000066
            ],
            [
              -62.999037304999945,
              10.087600039000051
            ],
            [
              -62.999039302999904,
              10.087602049
            ],
            [
              -63.000320373999955,
              10.089315084000077
            ],
            [
              -63.00097840799987,
              10.089757089000159
            ],
            [
              -63.00400856099992,
              10.09179414100015
            ],
            [
              -63.00639266799993,
              10.09284115600019
            ],
            [
              -63.01005984799997,
              10.094328174000111
            ],
            [
              -63.011860930999944,
              10.095222195000076
            ],
            [
              -63.01294098599993,
              10.096056207000174
            ],
            [
              -63.01663415999991,
              10.097704239000109
            ],
            [
              -63.01835724999984,
              10.09807124100007
            ],
            [
              -63.020592081999894,
              10.099625495999987
            ],
            [
              -63.02092205599996,
              10.098922317000188
            ],
            [
              -63.020946634999916,
              10.098840405000146
            ],
            [
              -63.021149,
              10.098166
            ],
            [
              -63.019753,
              10.096510000000137
            ],
            [
              -63.020032,
              10.095037000000104
            ],
            [
              -63.020395,
              10.093059
            ],
            [
              -63.02282499999984,
              10.092659
            ],
            [
              -63.022617,
              10.09124
            ],
            [
              -63.022521,
              10.089566
            ],
            [
              -63.022960999999896,
              10.08806900000019
            ],
            [
              -63.024005,
              10.086632000000122
            ],
            [
              -63.02490199999983,
              10.086092
            ],
            [
              -63.02548,
              10.084501
            ],
            [
              -63.02572128399993,
              10.084342635000155
            ],
            [
              -63.02683599999989,
              10.083611000000133
            ],
            [
              -63.02778499999988,
              10.081991000000187
            ],
            [
              -63.029593,
              10.080406000000153
            ],
            [
              -63.031579,
              10.079828
            ],
            [
              -63.033463,
              10.078633
            ],
            [
              -63.034256367999944,
              10.078375054000162
            ],
            [
              -63.034641,
              10.07825
            ],
            [
              -63.035307,
              10.07785
            ],
            [
              -63.036864,
              10.077967000000115
            ],
            [
              -63.03890599999988,
              10.077962
            ],
            [
              -63.038198,
              10.077215
            ],
            [
              -63.039222,
              10.075985000000117
            ],
            [
              -63.040692,
              10.076446
            ],
            [
              -63.042761,
              10.076671
            ],
            [
              -63.043207,
              10.076986000000147
            ],
            [
              -63.045407999999895,
              10.075327000000186
            ],
            [
              -63.047349,
              10.073373000000174
            ],
            [
              -63.04832099999987,
              10.0732220000001
            ],
            [
              -63.049828,
              10.071595000000116
            ],
            [
              -63.050036,
              10.070124
            ],
            [
              -63.050126,
              10.068471000000102
            ],
            [
              -63.049635,
              10.068225
            ],
            [
              -63.049441999999885,
              10.066369000000122
            ],
            [
              -63.050265,
              10.064132
            ],
            [
              -63.052448,
              10.064217
            ],
            [
              -63.054439999999886,
              10.064007
            ],
            [
              -63.055793,
              10.063002
            ],
            [
              -63.056563,
              10.061798
            ],
            [
              -63.057542,
              10.060614000000157
            ],
            [
              -63.05842899999982,
              10.059501
            ],
            [
              -63.058685,
              10.058121000000142
            ],
            [
              -63.059217,
              10.056530000000123
            ],
            [
              -63.059009,
              10.055157
            ],
            [
              -63.059513,
              10.053314000000114
            ],
            [
              -63.060445,
              10.052107
            ],
            [
              -63.061181,
              10.050262
            ],
            [
              -63.061346,
              10.048975
            ],
            [
              -63.061854999999866,
              10.047384
            ],
            [
              -63.06297,
              10.046038000000124
            ],
            [
              -63.063554,
              10.044837
            ],
            [
              -63.064526999999885,
              10.04331000000019
            ],
            [
              -63.065235,
              10.042566
            ],
            [
              -63.066029,
              10.04143100000016
            ],
            [
              -63.066923,
              10.040776000000108
            ],
            [
              -63.066743,
              10.039677000000154
            ],
            [
              -63.067712,
              10.03932
            ],
            [
              -63.069416,
              10.038539000000128
            ],
            [
              -63.07034899999985,
              10.037402
            ],
            [
              -63.07044,
              10.037437
            ],
            [
              -63.070625,
              10.037238000000116
            ],
            [
              -63.071214999999825,
              10.03493500000019
            ],
            [
              -63.072041,
              10.032951
            ],
            [
              -63.072542,
              10.030902
            ],
            [
              -63.072112,
              10.028682
            ],
            [
              -63.070138,
              10.028548000000171
            ],
            [
              -63.06743399999988,
              10.029205
            ],
            [
              -63.065528,
              10.029047000000105
            ],
            [
              -63.062874,
              10.028441
            ],
            [
              -63.061343,
              10.028462000000161
            ],
            [
              -63.05995,
              10.028435
            ],
            [
              -63.06006599999989,
              10.026965000000132
            ],
            [
              -63.061481,
              10.025523
            ],
            [
              -63.06183,
              10.024142000000154
            ],
            [
              -63.060461,
              10.022669000000121
            ],
            [
              -63.05981,
              10.02114100000017
            ],
            [
              -63.059342,
              10.019449000000122
            ],
            [
              -63.060285,
              10.01744
            ],
            [
              -63.061638,
              10.016480000000172
            ],
            [
              -63.0633509999999,
              10.016227000000185
            ],
            [
              -63.06455199999982,
              10.015912
            ],
            [
              -63.066239,
              10.014054000000158
            ],
            [
              -63.06693899999988,
              10.012805
            ],
            [
              -63.068285,
              10.011433000000181
            ],
            [
              -63.069162,
              10.011123000000111
            ],
            [
              -63.069908,
              10.009897000000137
            ],
            [
              -63.071327,
              10.008707
            ],
            [
              -63.072141,
              10.007365
            ],
            [
              -63.072495,
              10.00628200000017
            ],
            [
              -63.074321,
              10.004421
            ],
            [
              -63.075421,
              10.003534000000172
            ],
            [
              -63.07663499999984,
              10.002577
            ],
            [
              -63.077419,
              10.000845
            ],
            [
              -63.078071,
              9.999574
            ],
            [
              -63.078195,
              9.998586
            ],
            [
              -63.079646,
              9.997878
            ],
            [
              -63.080228,
              9.997175
            ],
            [
              -63.08093,
              9.995824
            ],
            [
              -63.081275,
              9.994943
            ],
            [
              -63.082144,
              9.994506000000115
            ],
            [
              -63.08298,
              9.993772000000149
            ],
            [
              -63.082971,
              9.991913000000181
            ],
            [
              -63.083029,
              9.990786000000185
            ],
            [
              -63.082852999999886,
              9.98955100000012
            ],
            [
              -63.08392599999985,
              9.988971000000106
            ],
            [
              -63.085228,
              9.988271000000111
            ],
            [
              -63.0860909999999,
              9.987651000000142
            ],
            [
              -63.086247,
              9.986659000000145
            ],
            [
              -63.086331,
              9.985601000000145
            ],
            [
              -63.086395,
              9.984657
            ],
            [
              -63.087279,
              9.98394500000012
            ],
            [
              -63.089831,
              9.98160300000012
            ],
            [
              -63.090858,
              9.981048
            ],
            [
              -63.09230799999989,
              9.979884
            ],
            [
              -63.093499999999835,
              9.978613000000166
            ],
            [
              -63.095006999999896,
              9.977815
            ],
            [
              -63.09733899999986,
              9.97665000000012
            ],
            [
              -63.098516,
              9.976458
            ],
            [
              -63.099979,
              9.975707
            ],
            [
              -63.101174,
              9.974206
            ],
            [
              -63.102269,
              9.973166000000163
            ],
            [
              -63.104036999999835,
              9.972499
            ],
            [
              -63.10512199999988,
              9.972332
            ],
            [
              -63.10592,
              9.972610000000145
            ],
            [
              -63.106394,
              9.972964000000104
            ],
            [
              -63.106776,
              9.973299000000111
            ],
            [
              -63.10721199999989,
              9.97393000000011
            ],
            [
              -63.108311,
              9.973418
            ],
            [
              -63.109211,
              9.973256000000106
            ],
            [
              -63.109742,
              9.973954000000163
            ],
            [
              -63.110316,
              9.975293
            ],
            [
              -63.109813,
              9.975536000000147
            ],
            [
              -63.109707,
              9.976618000000144
            ],
            [
              -63.1094599999999,
              9.977681000000132
            ],
            [
              -63.109389,
              9.978395
            ],
            [
              -63.109027,
              9.979483
            ],
            [
              -63.110507,
              9.98006400000014
            ],
            [
              -63.11202,
              9.98023
            ],
            [
              -63.113556,
              9.980395
            ],
            [
              -63.114812,
              9.980500000000177
            ],
            [
              -63.116414,
              9.980526000000168
            ],
            [
              -63.117592,
              9.979553000000124
            ],
            [
              -63.11833,
              9.978637
            ],
            [
              -63.119106,
              9.97822600000012
            ],
            [
              -63.121173,
              9.978263
            ],
            [
              -63.12228699999986,
              9.978279
            ],
            [
              -63.124201999999855,
              9.977929
            ],
            [
              -63.12616799999989,
              9.977670000000103
            ],
            [
              -63.127443,
              9.977636000000132
            ],
            [
              -63.128638,
              9.977259
            ],
            [
              -63.129512,
              9.977006
            ],
            [
              -63.13152,
              9.977412
            ],
            [
              -63.132988999999895,
              9.977648000000102
            ],
            [
              -63.134156,
              9.97865
            ],
            [
              -63.135048,
              9.97897
            ],
            [
              -63.137819,
              9.979309
            ],
            [
              -63.139256,
              9.980028000000175
            ],
            [
              -63.139329,
              9.980141000000117
            ],
            [
              -63.194086,
              9.970723
            ],
            [
              -63.194354,
              9.969614
            ],
            [
              -63.195156,
              9.968513
            ],
            [
              -63.195087999999885,
              9.967021000000102
            ],
            [
              -63.194879,
              9.965512000000103
            ],
            [
              -63.194556,
              9.964051
            ],
            [
              -63.194564,
              9.962765
            ],
            [
              -63.19450899999987,
              9.960975
            ],
            [
              -63.194454,
              9.959921
            ],
            [
              -63.194245,
              9.958388
            ],
            [
              -63.193607,
              9.957257
            ],
            [
              -63.193276,
              9.955544000000145
            ],
            [
              -63.192278,
              9.95401
            ],
            [
              -63.191247,
              9.952913
            ],
            [
              -63.19071,
              9.952055
            ],
            [
              -63.190288,
              9.950367
            ],
            [
              -63.19038299999988,
              9.94816
            ],
            [
              -63.189863,
              9.946315
            ],
            [
              -63.18899,
              9.945833000000107
            ],
            [
              -63.188033,
              9.944872000000146
            ],
            [
              -63.188109,
              9.943561
            ],
            [
              -63.188464999999894,
              9.942311000000188
            ],
            [
              -63.187789,
              9.940677000000164
            ],
            [
              -63.18716599999982,
              9.938489000000118
            ],
            [
              -63.186354,
              9.93619200000012
            ],
            [
              -63.185947,
              9.935032
            ],
            [
              -63.185291,
              9.934063
            ],
            [
              -63.184613,
              9.933117
            ],
            [
              -63.182653,
              9.931999000000133
            ],
            [
              -63.181777,
              9.931425
            ],
            [
              -63.182458999999824,
              9.929409
            ],
            [
              -63.18313899999987,
              9.928127
            ],
            [
              -63.183711,
              9.927101
            ],
            [
              -63.183291999999824,
              9.926286000000118
            ],
            [
              -63.181614,
              9.92527500000017
            ],
            [
              -63.180337999999836,
              9.924529
            ],
            [
              -63.179935999999884,
              9.923507
            ],
            [
              -63.17942099999988,
              9.921822
            ],
            [
              -63.179328,
              9.920286
            ],
            [
              -63.178988,
              9.919032000000186
            ],
            [
              -63.178953,
              9.917862000000184
            ],
            [
              -63.178444,
              9.917141000000186
            ],
            [
              -63.177614,
              9.915786
            ],
            [
              -63.17684899999989,
              9.915049000000124
            ],
            [
              -63.176371,
              9.914602
            ],
            [
              -63.17566,
              9.914139000000148
            ],
            [
              -63.174907,
              9.913792
            ],
            [
              -63.173918,
              9.913291000000129
            ],
            [
              -63.17251499999986,
              9.912938
            ],
            [
              -63.171927,
              9.912656
            ],
            [
              -63.171349,
              9.91196
            ],
            [
              -63.170508,
              9.911018000000183
            ],
            [
              -63.16980999999987,
              9.910164
            ],
            [
              -63.169345,
              9.909396000000129
            ],
            [
              -63.16856,
              9.907971000000146
            ],
            [
              -63.168536,
              9.907191
            ],
            [
              -63.168365,
              9.90613900000011
            ],
            [
              -63.168277,
              9.904764
            ],
            [
              -63.168081,
              9.903667
            ],
            [
              -63.167901,
              9.902294
            ],
            [
              -63.1674,
              9.901091
            ],
            [
              -63.167105999999876,
              9.89979
            ],
            [
              -63.166745,
              9.898629
            ],
            [
              -63.166801,
              9.897388
            ],
            [
              -63.166496,
              9.895766000000151
            ],
            [
              -63.165417,
              9.896547000000112
            ],
            [
              -63.164038,
              9.896544
            ],
            [
              -63.163117,
              9.896775000000162
            ],
            [
              -63.16230899999988,
              9.8969120000001
            ],
            [
              -63.161449,
              9.896843000000104
            ],
            [
              -63.160592,
              9.8969120000001
            ],
            [
              -63.160531,
              9.89718900000014
            ],
            [
              -63.159398999999894,
              9.897334
            ],
            [
              -63.157868,
              9.89733
            ],
            [
              -63.156444,
              9.897046
            ],
            [
              -63.155525999999895,
              9.897415
            ],
            [
              -63.155662,
              9.898078000000169
            ],
            [
              -63.155041,
              9.898232000000121
            ],
            [
              -63.153782,
              9.898794
            ],
            [
              -63.15260499999988,
              9.89976700000011
            ],
            [
              -63.151602,
              9.900368
            ],
            [
              -63.150456,
              9.900812
            ],
            [
              -63.149327,
              9.900314
            ],
            [
              -63.14843999999988,
              9.900132
            ],
            [
              -63.14844499999987,
              9.899534000000187
            ],
            [
              -63.148079,
              9.898924
            ],
            [
              -63.146633,
              9.898688000000163
            ],
            [
              -63.14622799999984,
              9.899089000000117
            ],
            [
              -63.146400999999855,
              9.900209
            ],
            [
              -63.146302,
              9.900763
            ],
            [
              -63.145628,
              9.900735
            ],
            [
              -63.14544599999988,
              9.900074
            ],
            [
              -63.145203,
              9.899713
            ],
            [
              -63.144244,
              9.9002440000001
            ],
            [
              -63.143508,
              9.900448000000154
            ],
            [
              -63.142566,
              9.90074900000019
            ],
            [
              -63.1416559999999,
              9.90056600000014
            ],
            [
              -63.14156599999984,
              9.901441
            ],
            [
              -63.141108,
              9.901614000000166
            ],
            [
              -63.13990599999988,
              9.901761
            ],
            [
              -63.13965599999989,
              9.90270900000013
            ],
            [
              -63.138831,
              9.90303
            ],
            [
              -63.13825,
              9.902242
            ],
            [
              -63.138593,
              9.902072
            ],
            [
              -63.13809,
              9.900800000000118
            ],
            [
              -63.137256,
              9.900822000000176
            ],
            [
              -63.135446999999886,
              9.900825
            ],
            [
              -63.13486299999988,
              9.90146
            ],
            [
              -63.134171,
              9.901617
            ],
            [
              -63.133031,
              9.901532
            ],
            [
              -63.133411,
              9.902578000000176
            ],
            [
              -63.132422,
              9.902858
            ],
            [
              -63.132634,
              9.90145100000018
            ],
            [
              -63.132585,
              9.90058
            ],
            [
              -63.131722,
              9.90042000000011
            ],
            [
              -63.13103699999988,
              9.900025000000142
            ],
            [
              -63.13002399999982,
              9.899524
            ],
            [
              -63.129652,
              9.898730000000114
            ],
            [
              -63.12904,
              9.898425
            ],
            [
              -63.12821,
              9.897827000000177
            ],
            [
              -63.127403,
              9.897229
            ],
            [
              -63.12697,
              9.896713
            ],
            [
              -63.126827999999875,
              9.896625
            ],
            [
              -63.12615099999982,
              9.896482
            ],
            [
              -63.125887,
              9.89541
            ],
            [
              -63.125149,
              9.894787000000179
            ],
            [
              -63.124436,
              9.89499
            ],
            [
              -63.124553,
              9.895813000000146
            ],
            [
              -63.12383299999988,
              9.896544
            ],
            [
              -63.122299,
              9.897228000000155
            ],
            [
              -63.122386,
              9.896239
            ],
            [
              -63.12124199999988,
              9.895259000000124
            ],
            [
              -63.120633,
              9.895046
            ],
            [
              -63.119948,
              9.894628000000125
            ],
            [
              -63.1194569999999,
              9.8945030000001
            ],
            [
              -63.118822,
              9.894245
            ],
            [
              -63.118059,
              9.89353
            ],
            [
              -63.116818,
              9.893173
            ],
            [
              -63.11608699999988,
              9.893537
            ],
            [
              -63.11527799999982,
              9.893651000000148
            ],
            [
              -63.113735,
              9.894013
            ],
            [
              -63.112601,
              9.89409
            ],
            [
              -63.111558,
              9.894164000000103
            ],
            [
              -63.1106759999999,
              9.894141
            ],
            [
              -63.10928499999983,
              9.893398000000161
            ],
            [
              -63.1086269999999,
              9.89314000000013
            ],
            [
              -63.107347,
              9.892990000000168
            ],
            [
              -63.106692,
              9.892824
            ],
            [
              -63.10637899999989,
              9.89244200000013
            ],
            [
              -63.105483,
              9.891938000000152
            ],
            [
              -63.104904,
              9.891977
            ],
            [
              -63.104097,
              9.891378
            ],
            [
              -63.103404,
              9.890708000000188
            ],
            [
              -63.102243,
              9.890647000000115
            ],
            [
              -63.10174599999988,
              9.890339
            ],
            [
              -63.100396,
              9.890191
            ],
            [
              -63.099955,
              9.89018
            ],
            [
              -63.099568,
              9.88964
            ],
            [
              -63.099345,
              9.889186
            ],
            [
              -63.098721999999896,
              9.888514
            ],
            [
              -63.09857,
              9.888082000000168
            ],
            [
              -63.098417,
              9.88762700000018
            ],
            [
              -63.097264,
              9.887107000000128
            ],
            [
              -63.095828,
              9.887926
            ],
            [
              -63.09471799999989,
              9.888047
            ],
            [
              -63.093295999999896,
              9.88781
            ],
            [
              -63.092345,
              9.887812
            ],
            [
              -63.091407,
              9.88827300000014
            ],
            [
              -63.090646,
              9.888431
            ],
            [
              -63.090536,
              9.887883
            ],
            [
              -63.090141,
              9.887090000000114
            ],
            [
              -63.089741,
              9.886137000000133
            ],
            [
              -63.090111,
              9.885323000000142
            ],
            [
              -63.089804,
              9.884367
            ],
            [
              -63.088973999999894,
              9.884527000000162
            ],
            [
              -63.087983,
              9.885518000000104
            ],
            [
              -63.08642499999985,
              9.884618
            ],
            [
              -63.085611,
              9.88379
            ],
            [
              -63.084594999999865,
              9.883151000000169
            ],
            [
              -63.083119,
              9.882686
            ],
            [
              -63.081808,
              9.883065000000158
            ],
            [
              -63.081191,
              9.88335700000016
            ],
            [
              -63.081191,
              9.883380000000102
            ],
            [
              -63.079857,
              9.883737000000167
            ],
            [
              -63.06894099999988,
              9.881505
            ],
            [
              -63.058726,
              9.878316000000154
            ],
            [
              -63.058726,
              9.878422
            ],
            [
              -63.058325,
              9.878984
            ],
            [
              -63.057822,
              9.87998400000015
            ],
            [
              -63.057506,
              9.881072000000131
            ],
            [
              -63.057488,
              9.881991000000141
            ],
            [
              -63.05789599999986,
              9.882462
            ],
            [
              -63.057469,
              9.882933
            ],
            [
              -63.057512,
              9.88357400000018
            ],
            [
              -63.05805,
              9.883721
            ],
            [
              -63.058604999999886,
              9.883683000000133
            ],
            [
              -63.058286,
              9.884633
            ],
            [
              -63.05785999999989,
              9.885884
            ],
            [
              -63.056866,
              9.886806
            ],
            [
              -63.055642,
              9.887757
            ],
            [
              -63.055557,
              9.888792
            ],
            [
              -63.056339,
              9.890103
            ],
            [
              -63.05614,
              9.891211
            ],
            [
              -63.055073,
              9.891216
            ],
            [
              -63.054526999999894,
              9.89157500000016
            ],
            [
              -63.053783999999894,
              9.892329000000188
            ],
            [
              -63.053522,
              9.893622
            ],
            [
              -63.05416,
              9.89401800000013
            ],
            [
              -63.054691999999875,
              9.894762
            ],
            [
              -63.053868,
              9.895105000000171
            ],
            [
              -63.053537,
              9.89568800000012
            ],
            [
              -63.053997,
              9.896342
            ],
            [
              -62.987917,
              9.99729
            ],
            [
              -62.96045788999999,
              10.03812261000013
            ],
            [
              -62.94982155799994,
              10.053939189000062
            ],
            [
              -62.94304603699993,
              10.064014613999973
            ],
            [
              -62.93712474499989,
              10.07281977200006
            ],
            [
              -62.93577151099993,
              10.075069834000033
            ],
            [
              -62.937810441999886,
              10.078105089000076
            ],
            [
              -62.93859350599996,
              10.082546209000043
            ],
            [
              -62.940683633999924,
              10.089026377000096
            ],
            [
              -62.94687193899995,
              10.093034461000059
            ],
            [
              -62.95112514699997,
              10.094638487000111
            ],
            [
              -62.95425928599991,
              10.095028483000021
            ],
            [
              -62.95797145399996,
              10.094938461000083
            ],
            [
              -62.962817676999975,
              10.094138417000124
            ],
            [
              -62.96687486299993,
              10.09306336600008
            ],
            [
              -62.96934596199998,
              10.090271273000099
            ],
            [
              -62.971056019999935,
              10.088302204000115
            ],
            [
              -62.97185504399988,
              10.085097108000127
            ],
            [
              -62.97165601399996,
              10.081686019000074
            ],
            [
              -62.97056894899998,
              10.076786882000022
            ],
            [
              -62.97166697799997,
              10.072917767999968
            ],
            [
              -62.97386005799996,
              10.070056676000036
            ],
            [
              -62.97728921299995,
              10.068980624000176
            ],
            [
              -62.98125938599998,
              10.067845572000067
            ],
            [
              -62.98134438799997,
              10.067939583000111
            ],
            [
              -62.98136839399996,
              10.067814577000092
            ],
            [
              -62.985340575999885,
              10.068868585000075
            ],
            [
              -62.9887137419999,
              10.071043626000176
            ],
            [
              -62.990517844999886,
              10.075256736000085
            ],
            [
              -62.994133045999945,
              10.07999685700014
            ]
          ]
        ]
      }
    }
  ]
}