{
  "type": "FeatureCollection",
  "features": [
    {
      "type": "Feature",
      "properties": {
        "Pais": "Venezuela",
        "Estado": "Trujillo",
        "Municipio": "Rafael Rangel"
      },
      "geometry": {
        "type": "Polygon",
        "coordinates": [
          [
            [
              -70.747176,
              9.405125000000112
            ],
            [
              -70.74885,
              9.405466000000104
            ],
            [
              -70.75088,
              9.406854
            ],
            [
              -70.751769,
              9.408684000000108
            ],
            [
              -70.752391,
              9.409992000000159
            ],
            [
              -70.754955,
              9.412338
            ],
            [
              -70.758756,
              9.414338
            ],
            [
              -70.757875,
              9.412734000000171
            ],
            [
              -70.756786,
              9.410671
            ],
            [
              -70.755998,
              9.40902100000011
            ],
            [
              -70.755557,
              9.408013
            ],
            [
              -70.75625,
              9.40682
            ],
            [
              -70.756227,
              9.405995000000189
            ],
            [
              -70.756041,
              9.405674
            ],
            [
              -70.755671,
              9.405353000000162
            ],
            [
              -70.755669,
              9.403244
            ],
            [
              -70.75738,
              9.40172900000016
            ],
            [
              -70.757818,
              9.40033
            ],
            [
              -70.75853399999988,
              9.398908000000176
            ],
            [
              -70.759203,
              9.396340000000123
            ],
            [
              -70.759872,
              9.394757
            ],
            [
              -70.76098199999984,
              9.394504
            ],
            [
              -70.762972,
              9.39431900000011
            ],
            [
              -70.763757,
              9.392943000000116
            ],
            [
              -70.764148,
              9.390627000000165
            ],
            [
              -70.759464,
              9.377471000000185
            ],
            [
              -70.759184,
              9.37575100000015
            ],
            [
              -70.759669,
              9.374168
            ],
            [
              -70.75983,
              9.372999000000164
            ],
            [
              -70.758016,
              9.371289
            ],
            [
              -70.75519899999989,
              9.369243
            ],
            [
              -70.755174,
              9.367546000000175
            ],
            [
              -70.7551959999999,
              9.366033
            ],
            [
              -70.755981,
              9.364588
            ],
            [
              -70.757576,
              9.36328
            ],
            [
              -70.759357,
              9.362247000000139
            ],
            [
              -70.761415,
              9.360296000000176
            ],
            [
              -70.763888,
              9.358483
            ],
            [
              -70.766039,
              9.357953000000123
            ],
            [
              -70.768584,
              9.357470000000149
            ],
            [
              -70.77152199999989,
              9.35829200000012
            ],
            [
              -70.77323499999989,
              9.35950600000018
            ],
            [
              -70.774393,
              9.361179
            ],
            [
              -70.775827,
              9.360879000000125
            ],
            [
              -70.7788589999999,
              9.361908000000142
            ],
            [
              -70.780271,
              9.36303
            ],
            [
              -70.78235699999988,
              9.362816000000123
            ],
            [
              -70.783329,
              9.362686
            ],
            [
              -70.783865,
              9.362209000000178
            ],
            [
              -70.783015,
              9.361491000000115
            ],
            [
              -70.782116,
              9.36109400000015
            ],
            [
              -70.782076,
              9.360337000000186
            ],
            [
              -70.782638,
              9.35942400000016
            ],
            [
              -70.7835,
              9.358651000000123
            ],
            [
              -70.783297,
              9.357962000000157
            ],
            [
              -70.78214199999985,
              9.357838000000186
            ],
            [
              -70.780739,
              9.356864
            ],
            [
              -70.77961,
              9.356327
            ],
            [
              -70.7794889999999,
              9.357083000000102
            ],
            [
              -70.779618,
              9.358254000000159
            ],
            [
              -70.77885,
              9.358867
            ],
            [
              -70.778414,
              9.358497
            ],
            [
              -70.778424,
              9.357212000000118
            ],
            [
              -70.777904,
              9.355649
            ],
            [
              -70.777563,
              9.354889
            ],
            [
              -70.776763,
              9.353691
            ],
            [
              -70.776401,
              9.35277
            ],
            [
              -70.775153,
              9.352692
            ],
            [
              -70.775172,
              9.35026100000016
            ],
            [
              -70.774212,
              9.348877
            ],
            [
              -70.7741099999999,
              9.347134
            ],
            [
              -70.772726,
              9.346618
            ],
            [
              -70.77134699999982,
              9.345621000000108
            ],
            [
              -70.77029,
              9.344695
            ],
            [
              -70.769581,
              9.343749000000116
            ],
            [
              -70.769034,
              9.34269
            ],
            [
              -70.769347,
              9.341202
            ],
            [
              -70.768708,
              9.340096000000187
            ],
            [
              -70.76848299999989,
              9.339314000000172
            ],
            [
              -70.7680749999999,
              9.338302000000112
            ],
            [
              -70.76764499999985,
              9.337175000000116
            ],
            [
              -70.767192,
              9.335933000000182
            ],
            [
              -70.76704217299988,
              9.335862761000158
            ],
            [
              -70.76905050599999,
              9.331316987000093
            ],
            [
              -70.78190706499993,
              9.32540085800008
            ],
            [
              -70.78429720399998,
              9.323057320000146
            ],
            [
              -70.78949730899996,
              9.317958602000147
            ],
            [
              -70.7998816299999,
              9.311821344
            ],
            [
              -70.80496297899998,
              9.304636230000085
            ],
            [
              -70.80490305399996,
              9.299668551000025
            ],
            [
              -70.80489706999992,
              9.299579412000185
            ],
            [
              -70.80488625499993,
              9.299561917000062
            ],
            [
              -70.80513899999988,
              9.299595
            ],
            [
              -70.805531,
              9.299993000000143
            ],
            [
              -70.80666799999983,
              9.300372
            ],
            [
              -70.805515,
              9.298567000000105
            ],
            [
              -70.805702,
              9.297848000000101
            ],
            [
              -70.806611,
              9.298053
            ],
            [
              -70.807987,
              9.298405000000173
            ],
            [
              -70.80770799999988,
              9.297585
            ],
            [
              -70.808537,
              9.296618000000137
            ],
            [
              -70.80918,
              9.295633000000123
            ],
            [
              -70.80959699999988,
              9.294862000000137
            ],
            [
              -70.811578,
              9.29453000000018
            ],
            [
              -70.81150699999989,
              9.293657
            ],
            [
              -70.81013,
              9.292477000000133
            ],
            [
              -70.809543,
              9.290583
            ],
            [
              -70.80954499999984,
              9.289847000000123
            ],
            [
              -70.810236,
              9.288953
            ],
            [
              -70.809935,
              9.288133
            ],
            [
              -70.80887699999988,
              9.287565000000143
            ],
            [
              -70.808823,
              9.285679
            ],
            [
              -70.80787799999985,
              9.284234
            ],
            [
              -70.80729699999989,
              9.28333
            ],
            [
              -70.807199,
              9.281560000000127
            ],
            [
              -70.807364,
              9.28006
            ],
            [
              -70.807517,
              9.278928000000178
            ],
            [
              -70.80745999999988,
              9.277756000000181
            ],
            [
              -70.806405,
              9.27652
            ],
            [
              -70.805934,
              9.275406
            ],
            [
              -70.80637,
              9.274497000000167
            ],
            [
              -70.805305,
              9.273675
            ],
            [
              -70.803752,
              9.272799
            ],
            [
              -70.803013,
              9.272060000000124
            ],
            [
              -70.80241699999982,
              9.27065
            ],
            [
              -70.80280299999987,
              9.269581
            ],
            [
              -70.80269,
              9.26726
            ],
            [
              -70.802161,
              9.264997000000164
            ],
            [
              -70.802532,
              9.264837
            ],
            [
              -70.798309,
              9.265233
            ],
            [
              -70.795775,
              9.266856000000132
            ],
            [
              -70.79297899999989,
              9.268818000000124
            ],
            [
              -70.78906299999989,
              9.271238
            ],
            [
              -70.785089,
              9.274231
            ],
            [
              -70.781737,
              9.276204000000178
            ],
            [
              -70.778351,
              9.278751
            ],
            [
              -70.776116,
              9.280471
            ],
            [
              -70.773375,
              9.281998000000158
            ],
            [
              -70.771883,
              9.283619000000158
            ],
            [
              -70.76875,
              9.285070000000132
            ],
            [
              -70.765622,
              9.286291
            ],
            [
              -70.763157,
              9.28793800000011
            ],
            [
              -70.761138,
              9.289297
            ],
            [
              -70.758873,
              9.290237000000104
            ],
            [
              -70.75607899999989,
              9.292107000000101
            ],
            [
              -70.74924299999986,
              9.294605
            ],
            [
              -70.746599,
              9.295951000000173
            ],
            [
              -70.741292,
              9.298411000000158
            ],
            [
              -70.73912,
              9.300386000000117
            ],
            [
              -70.734549,
              9.303091000000109
            ],
            [
              -70.729854,
              9.305082
            ],
            [
              -70.72585,
              9.307248000000186
            ],
            [
              -70.722057,
              9.309258
            ],
            [
              -70.717165,
              9.311727
            ],
            [
              -70.714145,
              9.314418000000103
            ],
            [
              -70.712809,
              9.317395
            ],
            [
              -70.711415,
              9.31872
            ],
            [
              -70.706609,
              9.321536
            ],
            [
              -70.70283399999983,
              9.323798000000124
            ],
            [
              -70.700947,
              9.32548
            ],
            [
              -70.698406,
              9.327377000000126
            ],
            [
              -70.6958499999999,
              9.328779000000168
            ],
            [
              -70.691592,
              9.328751000000125
            ],
            [
              -70.68831399999988,
              9.329418
            ],
            [
              -70.686328,
              9.330249
            ],
            [
              -70.686327,
              9.330295
            ],
            [
              -70.674548,
              9.335981
            ],
            [
              -70.66910799999988,
              9.34052700000018
            ],
            [
              -70.670257,
              9.348991
            ],
            [
              -70.67060499999985,
              9.35055
            ],
            [
              -70.67093,
              9.352063
            ],
            [
              -70.670491,
              9.353393
            ],
            [
              -70.668526,
              9.354657
            ],
            [
              -70.666837,
              9.355529000000104
            ],
            [
              -70.666329,
              9.356057
            ],
            [
              -70.666329,
              9.356974
            ],
            [
              -70.66656199999989,
              9.358991
            ],
            [
              -70.66536,
              9.360689
            ],
            [
              -70.664597,
              9.361446000000115
            ],
            [
              -70.663787,
              9.362111
            ],
            [
              -70.662885,
              9.362639
            ],
            [
              -70.661936,
              9.362983
            ],
            [
              -70.661058,
              9.363557000000185
            ],
            [
              -70.660133,
              9.364635
            ],
            [
              -70.659185,
              9.365255000000161
            ],
            [
              -70.658561,
              9.366333000000168
            ],
            [
              -70.65796,
              9.367526000000112
            ],
            [
              -70.657313,
              9.369177
            ],
            [
              -70.657314,
              9.370873000000131
            ],
            [
              -70.65676,
              9.372341
            ],
            [
              -70.656575,
              9.373946
            ],
            [
              -70.656526,
              9.374943
            ],
            [
              -70.6576189999999,
              9.378027000000145
            ],
            [
              -70.65782799999988,
              9.379035
            ],
            [
              -70.658384,
              9.380502000000149
            ],
            [
              -70.659472,
              9.381809
            ],
            [
              -70.659912,
              9.383070000000146
            ],
            [
              -70.659867,
              9.384308
            ],
            [
              -70.660654,
              9.38517800000011
            ],
            [
              -70.66144299999985,
              9.386622
            ],
            [
              -70.66086499999989,
              9.387998
            ],
            [
              -70.660472,
              9.390108
            ],
            [
              -70.661217,
              9.390908000000138
            ],
            [
              -70.661816,
              9.391552000000104
            ],
            [
              -70.662649,
              9.392996
            ],
            [
              -70.663506,
              9.393477
            ],
            [
              -70.66410799999989,
              9.394164
            ],
            [
              -70.664757,
              9.395792
            ],
            [
              -70.66565999999989,
              9.397098
            ],
            [
              -70.665683,
              9.398108
            ],
            [
              -70.668413,
              9.39769200000012
            ],
            [
              -70.67118999999985,
              9.398631
            ],
            [
              -70.673296,
              9.399065
            ],
            [
              -70.675193,
              9.39931600000017
            ],
            [
              -70.676767,
              9.399407
            ],
            [
              -70.678479,
              9.398855
            ],
            [
              -70.680931,
              9.398762
            ],
            [
              -70.683524,
              9.399287
            ],
            [
              -70.685143,
              9.398782
            ],
            [
              -70.68567599999983,
              9.399607000000117
            ],
            [
              -70.686832,
              9.399079
            ],
            [
              -70.68903,
              9.39843500000012
            ],
            [
              -70.691159,
              9.399076
            ],
            [
              -70.692964,
              9.400932000000125
            ],
            [
              -70.6938449999999,
              9.402330000000177
            ],
            [
              -70.693453,
              9.4040040000001
            ],
            [
              -70.695165,
              9.404025
            ],
            [
              -70.697618,
              9.404459
            ],
            [
              -70.69757,
              9.402694
            ],
            [
              -70.698634,
              9.401914
            ],
            [
              -70.700114,
              9.401913
            ],
            [
              -70.701064,
              9.402508000000125
            ],
            [
              -70.701249,
              9.40344800000014
            ],
            [
              -70.702684,
              9.403883
            ],
            [
              -70.703447,
              9.402896000000112
            ],
            [
              -70.70492699999988,
              9.402436
            ],
            [
              -70.70587499999982,
              9.401633
            ],
            [
              -70.706198,
              9.400418
            ],
            [
              -70.70684499999987,
              9.399111000000119
            ],
            [
              -70.708026,
              9.39872
            ],
            [
              -70.71008399999988,
              9.397618
            ],
            [
              -70.711611,
              9.397273
            ],
            [
              -70.713277,
              9.397249
            ],
            [
              -70.7140169999999,
              9.397546
            ],
            [
              -70.717071,
              9.397636
            ],
            [
              -70.719569,
              9.396877000000188
            ],
            [
              -70.720865,
              9.39644
            ],
            [
              -70.72371099999987,
              9.396874
            ],
            [
              -70.725816,
              9.396872
            ],
            [
              -70.72776,
              9.397444000000178
            ],
            [
              -70.730143,
              9.397029000000146
            ],
            [
              -70.7307909999999,
              9.397992
            ],
            [
              -70.732228,
              9.399091
            ],
            [
              -70.734633,
              9.398837000000185
            ],
            [
              -70.735143,
              9.399937
            ],
            [
              -70.73636999999985,
              9.400899
            ],
            [
              -70.73699599999986,
              9.402182
            ],
            [
              -70.737113,
              9.403925000000129
            ],
            [
              -70.739427,
              9.403464
            ],
            [
              -70.741717,
              9.403783000000146
            ],
            [
              -70.743453,
              9.40424
            ],
            [
              -70.744934,
              9.404216
            ],
            [
              -70.745767,
              9.40472
            ],
            [
              -70.74578999999989,
              9.40472
            ],
            [
              -70.747176,
              9.405125000000112
            ]
          ]
        ]
      }
    }
  ]
}