{
  "type": "FeatureCollection",
  "features": [
    {
      "type": "Feature",
      "properties": {
        "Pais": "Venezuela",
        "Estado": "Mérida",
        "Municipio": "Rivas Dávila",
        "Parroquia": "Rivas Dávila"
      },
      "geometry": {
        "type": "Polygon",
        "coordinates": [
          [
            [
              -71.80177458899993,
              8.31171781900008
            ],
            [
              -71.802011,
              8.312971000000118
            ],
            [
              -71.80425323099985,
              8.317236009000169
            ],
            [
              -71.804596,
              8.317888
            ],
            [
              -71.80472389999989,
              8.319085709000092
            ],
            [
              -71.80495,
              8.321203
            ],
            [
              -71.80536581499996,
              8.321739614000023
            ],
            [
              -71.80552961699993,
              8.321951001000173
            ],
            [
              -71.80647555999997,
              8.323197709000112
            ],
            [
              -71.80648024699997,
              8.32320388700009
            ],
            [
              -71.80653288899998,
              8.323273266000058
            ],
            [
              -71.80656466599987,
              8.32322676200016
            ],
            [
              -71.80776270899997,
              8.321472715000027
            ],
            [
              -71.81044281199996,
              8.321346704000177
            ],
            [
              -71.81197186399999,
              8.32007666300018
            ],
            [
              -71.8133729139999,
              8.31817061400011
            ],
            [
              -71.81515597299989,
              8.316010569000184
            ],
            [
              -71.81757906799993,
              8.314993526000137
            ],
            [
              -71.81923612999998,
              8.31346949000016
            ],
            [
              -71.82242325399989,
              8.311563432000014
            ],
            [
              -71.82472135099988,
              8.31232643300018
            ],
            [
              -71.82768947099999,
              8.313489443000151
            ],
            [
              -71.82857450699993,
              8.312076415000092
            ],
            [
              -71.83052256799994,
              8.310311368000157
            ],
            [
              -71.83264764699999,
              8.308721321000121
            ],
            [
              -71.83415270199998,
              8.306779276000157
            ],
            [
              -71.83609976599996,
              8.304130208000174
            ],
            [
              -71.83680578299993,
              8.301922158000082
            ],
            [
              -71.83795481699997,
              8.299450095000054
            ],
            [
              -71.83945987099997,
              8.297507044000156
            ],
            [
              -71.84114292799995,
              8.296360021
            ],
            [
              -71.84300400999996,
              8.296360012000093
            ],
            [
              -71.84433405599998,
              8.29600699700012
            ],
            [
              -71.84548409899998,
              8.294328952000114
            ],
            [
              -71.84645512299994,
              8.291591886000106
            ],
            [
              -71.8474271529999,
              8.289118831000053
            ],
            [
              -71.84831217799996,
              8.287882803000116
            ],
            [
              -71.84884119099985,
              8.285586750000107
            ],
            [
              -71.84945819799998,
              8.283555701000182
            ],
            [
              -71.85043123599996,
              8.28161365799997
            ],
            [
              -71.85158227599999,
              8.280553625000096
            ],
            [
              -71.85335434399997,
              8.279670600000145
            ],
            [
              -71.85459438399988,
              8.278964579000103
            ],
            [
              -71.8560994419999,
              8.277551536000146
            ],
            [
              -71.85804851399996,
              8.276845512000023
            ],
            [
              -71.8591115509999,
              8.276227495000114
            ],
            [
              -71.85981857599995,
              8.274461460999987
            ],
            [
              -71.86016957699997,
              8.271724398000117
            ],
            [
              -71.86069657699994,
              8.268810333000147
            ],
            [
              -71.86149160299993,
              8.266249275000177
            ],
            [
              -71.8633506669999,
              8.264748239000141
            ],
            [
              -71.86379005399994,
              8.26421238100005
            ],
            [
              -71.86414769999993,
              8.263776211000163
            ],
            [
              -71.86467771199995,
              8.262540186000138
            ],
            [
              -71.86582774499993,
              8.26130414500011
            ],
            [
              -71.86804282899993,
              8.260068111000123
            ],
            [
              -71.86901587099993,
              8.258832084000119
            ],
            [
              -71.86963388499993,
              8.257066038000175
            ],
            [
              -71.87158194699998,
              8.255299998000055
            ],
            [
              -71.87415004199994,
              8.253268938000076
            ],
            [
              -71.87654113599996,
              8.251944900000126
            ],
            [
              -71.87804619299999,
              8.250443854000082
            ],
            [
              -71.87946223799992,
              8.248677816000168
            ],
            [
              -71.88176332399996,
              8.24647075100006
            ],
            [
              -71.88273635299998,
              8.245057723
            ],
            [
              -71.88397338999994,
              8.24223165900014
            ],
            [
              -71.88556643999993,
              8.2405546170001
            ],
            [
              -71.88751552299993,
              8.23958358800013
            ],
            [
              -71.88928658299994,
              8.238347545000124
            ],
            [
              -71.8909686429999,
              8.236581506000107
            ],
            [
              -71.89167466099997,
              8.234550456000079
            ],
            [
              -71.89237867499997,
              8.231371387000024
            ],
            [
              -71.89246467299989,
              8.229693348000012
            ],
            [
              -71.89299468199994,
              8.227927314999988
            ],
            [
              -71.89370070199993,
              8.226249273000064
            ],
            [
              -71.89458472999996,
              8.224395222000055
            ],
            [
              -71.89653179599998,
              8.222099174000164
            ],
            [
              -71.89768182899991,
              8.220686133000015
            ],
            [
              -71.89865386199995,
              8.218832095000096
            ],
            [
              -71.89980188699997,
              8.215653024000062
            ],
            [
              -71.90033190999998,
              8.214239986000052
            ],
            [
              -71.90157095699982,
              8.213533965000124
            ],
            [
              -71.9044950629999,
              8.212562931000093
            ],
            [
              -71.90617813299997,
              8.211944911000103
            ],
            [
              -71.90753389399998,
              8.210846766000088
            ],
            [
              -71.90785784299999,
              8.210584372000085
            ],
            [
              -71.90792019699995,
              8.210533866000162
            ],
            [
              -71.90980124499998,
              8.204438732000142
            ],
            [
              -71.91059525599997,
              8.202319678000151
            ],
            [
              -71.9120103059999,
              8.200111625000147
            ],
            [
              -71.91156327799996,
              8.197551578000173
            ],
            [
              -71.91138225099996,
              8.194901529
            ],
            [
              -71.91137924799983,
              8.1926944760001
            ],
            [
              -71.91235126799995,
              8.190574428
            ],
            [
              -71.91207331899994,
              8.189983758000153
            ],
            [
              -71.91172823599993,
              8.189250405000166
            ],
            [
              -71.91169562299996,
              8.1892125440001
            ],
            [
              -71.9080000649999,
              8.18492233500018
            ],
            [
              -71.9055139539999,
              8.18183128600009
            ],
            [
              -71.90347084799998,
              8.178564228000141
            ],
            [
              -71.90249279799997,
              8.17617917399997
            ],
            [
              -71.90266378599989,
              8.172294094000051
            ],
            [
              -71.90276178399995,
              8.169926051000118
            ],
            [
              -71.90312778599991,
              8.168425011000124
            ],
            [
              -71.90340685199993,
              8.165759752000099
            ],
            [
              -71.90341478899995,
              8.165683952000052
            ],
            [
              -71.90360578399998,
              8.163827919000084
            ],
            [
              -71.90264573399992,
              8.161872879000157
            ],
            [
              -71.90061964199998,
              8.160175847000062
            ],
            [
              -71.89912457399998,
              8.158658829000103
            ],
            [
              -71.89843852699988,
              8.155644765000147
            ],
            [
              -71.89836830899986,
              8.155665679000094
            ],
            [
              -71.89728348599988,
              8.155988778999983
            ],
            [
              -71.89611645099995,
              8.158014829000138
            ],
            [
              -71.89362135399995,
              8.159763879000081
            ],
            [
              -71.89227631099993,
              8.161786926000048
            ],
            [
              -71.89102826599998,
              8.162838954000051
            ],
            [
              -71.8889901789999,
              8.162732963000053
            ],
            [
              -71.88686010399988,
              8.163157985000055
            ],
            [
              -71.88472801999995,
              8.163848011000141
            ],
            [
              -71.88295594799996,
              8.163745022000057
            ],
            [
              -71.88135888099998,
              8.163908030000016
            ],
            [
              -71.88029084199991,
              8.164519046000123
            ],
            [
              -71.8784347589999,
              8.163884039000095
            ],
            [
              -71.87612966499995,
              8.163953051000135
            ],
            [
              -71.87576166499997,
              8.165720100000044
            ],
            [
              -71.87576384899995,
              8.165759752000099
            ],
            [
              -71.87583967299992,
              8.167136127000049
            ],
            [
              -71.87547665999995,
              8.168283154
            ],
            [
              -71.87564267299996,
              8.16970017300008
            ],
            [
              -71.87571868099997,
              8.170699194000065
            ],
            [
              -71.87598771099994,
              8.172995242000184
            ],
            [
              -71.87661174399994,
              8.175909300000058
            ],
            [
              -71.87723477999998,
              8.177764336000052
            ],
            [
              -71.87679277099994,
              8.178558356
            ],
            [
              -71.87661676499994,
              8.179530381000063
            ],
            [
              -71.87635175699995,
              8.179706390000149
            ],
            [
              -71.8757307279999,
              8.179353385000184
            ],
            [
              -71.87360163799997,
              8.17802836500016
            ],
            [
              -71.87120753899984,
              8.176968350000095
            ],
            [
              -71.86961247299985,
              8.177321365000068
            ],
            [
              -71.86633333999987,
              8.177938400000073
            ],
            [
              -71.86429525499989,
              8.178114417000131
            ],
            [
              -71.86234518299995,
              8.177760414999966
            ],
            [
              -71.86057311199994,
              8.177936430999978
            ],
            [
              -71.85880104499995,
              8.178996455000117
            ],
            [
              -71.85747298699994,
              8.179702477000092
            ],
            [
              -71.85658695099983,
              8.179702481000106
            ],
            [
              -71.85631994199991,
              8.179348482000023
            ],
            [
              -71.85578691499995,
              8.178465458000176
            ],
            [
              -71.85436584699988,
              8.17608041799997
            ],
            [
              -71.85126071199994,
              8.173872388000063
            ],
            [
              -71.85010665399994,
              8.172105358000067
            ],
            [
              -71.84992764499992,
              8.170780328000035
            ],
            [
              -71.85038764699988,
              8.169046294000111
            ],
            [
              -71.84986962299996,
              8.167273254000122
            ],
            [
              -71.84845756099998,
              8.166464248000125
            ],
            [
              -71.84685650099993,
              8.167247277
            ],
            [
              -71.84526443299995,
              8.166703265000137
            ],
            [
              -71.84458540699995,
              8.165759752000099
            ],
            [
              -71.84359835299995,
              8.164388231999965
            ],
            [
              -71.84131424799995,
              8.161803185000053
            ],
            [
              -71.83751507799991,
              8.160267175000172
            ],
            [
              -71.83565800199995,
              8.159720172000107
            ],
            [
              -71.83344091299989,
              8.159879185000023
            ],
            [
              -71.83095881599996,
              8.15994620000015
            ],
            [
              -71.82804468899997,
              8.15842318100016
            ],
            [
              -71.82705464999987,
              8.158860200000163
            ],
            [
              -71.82408645499993,
              8.158406147000164
            ],
            [
              -71.823919,
              8.158726
            ],
            [
              -71.82376182999991,
              8.158927571000163
            ],
            [
              -71.822896,
              8.1600380000001
            ],
            [
              -71.820683,
              8.161726000000158
            ],
            [
              -71.819225,
              8.163385000000119
            ],
            [
              -71.81920659899993,
              8.163607953000167
            ],
            [
              -71.8190707839999,
              8.165253539000048
            ],
            [
              -71.81903599999987,
              8.165675
            ],
            [
              -71.818982,
              8.167484000000172
            ],
            [
              -71.81828764399995,
              8.168974019000075
            ],
            [
              -71.817762,
              8.170102
            ],
            [
              -71.815311,
              8.173760000000186
            ],
            [
              -71.81235,
              8.176781
            ],
            [
              -71.810444,
              8.179679
            ],
            [
              -71.80933,
              8.184059
            ],
            [
              -71.808549,
              8.186881000000142
            ],
            [
              -71.8061,
              8.190813
            ],
            [
              -71.805152,
              8.19299500000011
            ],
            [
              -71.804436,
              8.195289000000173
            ],
            [
              -71.80119999999982,
              8.198427
            ],
            [
              -71.798096,
              8.200877000000162
            ],
            [
              -71.799694,
              8.205557000000113
            ],
            [
              -71.798973,
              8.207371000000137
            ],
            [
              -71.79565,
              8.211104
            ],
            [
              -71.793395,
              8.213456000000178
            ],
            [
              -71.791484,
              8.218712
            ],
            [
              -71.791011,
              8.222812000000147
            ],
            [
              -71.790221,
              8.227534
            ],
            [
              -71.7892159999999,
              8.233266
            ],
            [
              -71.789248,
              8.240701
            ],
            [
              -71.79158,
              8.255424
            ],
            [
              -71.792361,
              8.258378
            ],
            [
              -71.795391,
              8.26048400000019
            ],
            [
              -71.795629,
              8.262752
            ],
            [
              -71.795979,
              8.265892000000179
            ],
            [
              -71.79602,
              8.267378
            ],
            [
              -71.798194,
              8.273269
            ],
            [
              -71.79924,
              8.276303
            ],
            [
              -71.80179199999986,
              8.280084000000102
            ],
            [
              -71.80471299999988,
              8.28140500000012
            ],
            [
              -71.805093,
              8.282445
            ],
            [
              -71.803013,
              8.283113
            ],
            [
              -71.802069,
              8.283750000000168
            ],
            [
              -71.800192,
              8.285375000000158
            ],
            [
              -71.7983339999999,
              8.287699
            ],
            [
              -71.797092,
              8.290182000000186
            ],
            [
              -71.79653,
              8.291948000000104
            ],
            [
              -71.7942139999999,
              8.293644
            ],
            [
              -71.792728,
              8.294379000000163
            ],
            [
              -71.792326,
              8.295480000000111
            ],
            [
              -71.793079,
              8.297023
            ],
            [
              -71.7956779999999,
              8.297276
            ],
            [
              -71.79691999999989,
              8.297638000000177
            ],
            [
              -71.79820499999988,
              8.298467000000187
            ],
            [
              -71.800426,
              8.299509
            ],
            [
              -71.802072,
              8.301812
            ],
            [
              -71.80279,
              8.302809
            ],
            [
              -71.802154,
              8.304852
            ],
            [
              -71.80129199999988,
              8.305729
            ],
            [
              -71.80119,
              8.308619000000135
            ],
            [
              -71.80177458899993,
              8.31171781900008
            ]
          ]
        ]
      }
    },
    {
      "type": "Feature",
      "properties": {
        "Pais": "Venezuela",
        "Estado": "Mérida",
        "Municipio": "Rivas Dávila",
        "Parroquia": "Geronimo Maldonado"
      },
      "geometry": {
        "type": "Polygon",
        "coordinates": [
          [
            [
              -71.78876,
              8.322471000000121
            ],
            [
              -71.792049,
              8.323018000000104
            ],
            [
              -71.79557,
              8.323884
            ],
            [
              -71.79767736399992,
              8.32333208000017
            ],
            [
              -71.80105521999991,
              8.322447417000035
            ],
            [
              -71.801599,
              8.322305
            ],
            [
              -71.80647555999997,
              8.323197709000112
            ],
            [
              -71.80552961699993,
              8.321951001000173
            ],
            [
              -71.80536581499996,
              8.321739614000023
            ],
            [
              -71.80495,
              8.321203
            ],
            [
              -71.80472389999989,
              8.319085709000092
            ],
            [
              -71.804596,
              8.317888
            ],
            [
              -71.80425323099985,
              8.317236009000169
            ],
            [
              -71.802011,
              8.312971000000118
            ],
            [
              -71.80177458899993,
              8.31171781900008
            ],
            [
              -71.80119,
              8.308619000000135
            ],
            [
              -71.80129199999988,
              8.305729
            ],
            [
              -71.802154,
              8.304852
            ],
            [
              -71.80279,
              8.302809
            ],
            [
              -71.802072,
              8.301812
            ],
            [
              -71.800426,
              8.299509
            ],
            [
              -71.79820499999988,
              8.298467000000187
            ],
            [
              -71.79691999999989,
              8.297638000000177
            ],
            [
              -71.7956779999999,
              8.297276
            ],
            [
              -71.793079,
              8.297023
            ],
            [
              -71.792326,
              8.295480000000111
            ],
            [
              -71.792728,
              8.294379000000163
            ],
            [
              -71.7942139999999,
              8.293644
            ],
            [
              -71.79653,
              8.291948000000104
            ],
            [
              -71.797092,
              8.290182000000186
            ],
            [
              -71.7983339999999,
              8.287699
            ],
            [
              -71.800192,
              8.285375000000158
            ],
            [
              -71.802069,
              8.283750000000168
            ],
            [
              -71.803013,
              8.283113
            ],
            [
              -71.805093,
              8.282445
            ],
            [
              -71.80471299999988,
              8.28140500000012
            ],
            [
              -71.80179199999986,
              8.280084000000102
            ],
            [
              -71.79924,
              8.276303
            ],
            [
              -71.798194,
              8.273269
            ],
            [
              -71.79602,
              8.267378
            ],
            [
              -71.795979,
              8.265892000000179
            ],
            [
              -71.795629,
              8.262752
            ],
            [
              -71.795391,
              8.26048400000019
            ],
            [
              -71.792361,
              8.258378
            ],
            [
              -71.79158,
              8.255424
            ],
            [
              -71.789248,
              8.240701
            ],
            [
              -71.7892159999999,
              8.233266
            ],
            [
              -71.790221,
              8.227534
            ],
            [
              -71.78780399999988,
              8.229749
            ],
            [
              -71.785748,
              8.228277
            ],
            [
              -71.783111,
              8.225778
            ],
            [
              -71.78006,
              8.226213
            ],
            [
              -71.775975,
              8.226495
            ],
            [
              -71.77051199999988,
              8.226811000000112
            ],
            [
              -71.7665,
              8.227665
            ],
            [
              -71.76301099999984,
              8.227828
            ],
            [
              -71.76063099999982,
              8.22905900000012
            ],
            [
              -71.758711,
              8.230172
            ],
            [
              -71.756677,
              8.23146800000012
            ],
            [
              -71.755705,
              8.233421
            ],
            [
              -71.754713,
              8.235787
            ],
            [
              -71.752596,
              8.238275
            ],
            [
              -71.751456,
              8.239314
            ],
            [
              -71.750639,
              8.240579
            ],
            [
              -71.750333,
              8.242618
            ],
            [
              -71.751019,
              8.245154
            ],
            [
              -71.752824,
              8.246972
            ],
            [
              -71.7546,
              8.247943
            ],
            [
              -71.75664099999989,
              8.250537000000122
            ],
            [
              -71.758474,
              8.252927
            ],
            [
              -71.759966,
              8.255686
            ],
            [
              -71.760673,
              8.258061
            ],
            [
              -71.760877,
              8.260624
            ],
            [
              -71.761576,
              8.264899
            ],
            [
              -71.762337,
              8.268350000000169
            ],
            [
              -71.763127,
              8.272441
            ],
            [
              -71.76425499999982,
              8.275729000000183
            ],
            [
              -71.766297,
              8.278392
            ],
            [
              -71.771873,
              8.28666
            ],
            [
              -71.773919,
              8.289895
            ],
            [
              -71.772863,
              8.292856
            ],
            [
              -71.771252,
              8.295386000000178
            ],
            [
              -71.770815,
              8.298274
            ],
            [
              -71.77029,
              8.301596
            ],
            [
              -71.769437,
              8.304098000000124
            ],
            [
              -71.769592,
              8.306317
            ],
            [
              -71.771213,
              8.30809
            ],
            [
              -71.774743,
              8.312962
            ],
            [
              -71.776824,
              8.314709
            ],
            [
              -71.778696,
              8.316114000000141
            ],
            [
              -71.780621,
              8.318458
            ],
            [
              -71.7833409999999,
              8.319788000000187
            ],
            [
              -71.785439,
              8.32077900000013
            ],
            [
              -71.78876,
              8.322471000000121
            ]
          ]
        ]
      }
    }
  ]
}