{"type": "FeatureCollection", "features": [{"type": "Feature", "properties": {"Pais": "Venezuela", "Estado": "Bol\u00edvar", "Municipio": "Roscio", "Parroquia": "Secci\u00f3n Capital Roscio"}, "geometry": {"type": "Polygon", "coordinates": [[[-62.007327, 7.390533], [-62.006526, 7.392016000000183], [-62.006244, 7.392479], [-62.005868, 7.392803000000129], [-62.005353, 7.392894000000183], [-62.004699, 7.392752000000144], [-62.004091999999844, 7.392425000000117], [-62.003813, 7.392006], [-62.003299, 7.391726000000176], [-62.002505, 7.391537], [-62.00184999999988, 7.391349], [-62.001382, 7.391347], [-62.000915, 7.391299000000174], [-62.0004009999999, 7.39120400000013], [-61.99988599999989, 7.391156], [-61.999604, 7.391526000000113], [-61.99960199999987, 7.391991], [-61.999788, 7.392502], [-62.000254, 7.392922000000169], [-62.000439, 7.393526], [-62.000437, 7.394037], [-62.00043499999987, 7.394594000000154], [-62.000106, 7.395057], [-61.99968299999989, 7.395334000000105], [-61.999260999999876, 7.395658], [-61.998793, 7.395842000000187], [-61.99837, 7.39616500000011], [-61.997809, 7.396303000000159], [-61.997153, 7.396486], [-61.996685, 7.396484], [-61.996124, 7.396436000000165], [-61.99561, 7.39620200000013], [-61.995097, 7.395921000000158], [-61.994629, 7.395734000000118], [-61.994116, 7.39536], [-61.993744, 7.394848], [-61.993699, 7.394384000000173], [-61.993606999999884, 7.393919], [-61.993468, 7.393454000000133], [-61.993096, 7.392895], [-61.992583, 7.392615], [-61.992163, 7.392288000000121], [-61.991554999999835, 7.392239000000131], [-61.99104, 7.392238], [-61.99047899999988, 7.392236], [-61.990011, 7.39228], [-61.989542, 7.392418], [-61.988372, 7.392506], [-61.987858, 7.392504], [-61.986829, 7.392454], [-61.98631399999988, 7.392452], [-61.985659, 7.392636000000152], [-61.985236, 7.393052000000125], [-61.98481399999986, 7.393376000000103], [-61.983924, 7.393558], [-61.983457, 7.393510000000163], [-61.982989, 7.393508000000168], [-61.982334, 7.393459], [-61.981679, 7.393457], [-61.981071, 7.393455], [-61.980228999999895, 7.393452], [-61.979714, 7.39345], [-61.978873, 7.393121000000122], [-61.978641, 7.392656], [-61.978503, 7.392145], [-61.978177, 7.39154], [-61.977945, 7.391075000000114], [-61.976408, 7.389397], [-61.975941, 7.389117000000113], [-61.97290199999986, 7.388502], [-61.97215299999988, 7.388778000000116], [-61.97187, 7.389195], [-61.971447999999896, 7.389472000000183], [-61.970745, 7.38984100000016], [-61.97036899999989, 7.390304000000128], [-61.969713, 7.390534000000116], [-61.969246, 7.390532000000121], [-61.968404, 7.390297], [-61.967937, 7.390063], [-61.967565, 7.38955], [-61.96719199999984, 7.389224], [-61.96686599999987, 7.388851000000159], [-61.966681, 7.388340000000142], [-61.966542, 7.387782000000129], [-61.96649699999989, 7.387318000000107], [-61.96664, 7.386807000000147], [-61.966548, 7.386296000000129], [-61.966503, 7.385832000000107], [-61.966224, 7.385273], [-61.966226, 7.384809000000189], [-61.966181, 7.384298], [-61.965949, 7.38387900000015], [-61.96581, 7.383368000000132], [-61.965719, 7.382764000000122], [-61.9653, 7.382298000000105], [-61.96478499999989, 7.38229600000011], [-61.96431699999988, 7.382248], [-61.963803, 7.382107], [-61.962963, 7.381593], [-61.962497, 7.381127], [-61.962124, 7.380847000000131], [-61.96165599999989, 7.380845000000136], [-61.961141, 7.380843000000141], [-61.960391, 7.381351], [-61.960015, 7.38181400000019], [-61.959547, 7.381952], [-61.959125, 7.382182], [-61.958703, 7.382459], [-61.958233999999834, 7.38269], [-61.957951999999864, 7.38306], [-61.957763, 7.38357], [-61.957761, 7.384035], [-61.958134, 7.3845], [-61.95846, 7.384873], [-61.958692, 7.385338000000104], [-61.958877, 7.385943], [-61.958969, 7.386454], [-61.958967, 7.386918], [-61.958965, 7.387429], [-61.958963, 7.38794], [-61.958728, 7.388357], [-61.958399, 7.388727000000188], [-61.957931, 7.388772000000188], [-61.957416, 7.388816], [-61.9569479999999, 7.388954000000126], [-61.956479, 7.389138], [-61.956011, 7.389229000000171], [-61.955543, 7.389227000000176], [-61.955076, 7.388994], [-61.954562, 7.388759000000164], [-61.954095, 7.388572000000124], [-61.953628, 7.388292], [-61.953068, 7.38815], [-61.952366, 7.388008], [-61.951852, 7.388006], [-61.951337, 7.388005000000135], [-61.950729, 7.388002], [-61.950261, 7.388001000000145], [-61.949792999999886, 7.38813800000014], [-61.949231, 7.388275], [-61.948762, 7.388506], [-61.948293, 7.38892200000015], [-61.947917, 7.389246000000128], [-61.947356, 7.38929], [-61.946841, 7.389288], [-61.94637299999988, 7.389287], [-61.945859, 7.389285], [-61.945203999999876, 7.389329], [-61.944642, 7.389466], [-61.94422, 7.389697000000126], [-61.943658, 7.389834000000121], [-61.943049, 7.390157], [-61.942766, 7.390620000000126], [-61.94229699999988, 7.391036], [-61.941968, 7.391453000000126], [-61.941592, 7.391869], [-61.94116899999989, 7.392286000000126], [-61.94079399999987, 7.392702], [-61.94069799999983, 7.393259000000171], [-61.940462, 7.393676], [-61.940414, 7.39414], [-61.94045899999986, 7.394605000000183], [-61.940784999999835, 7.395117], [-61.941252, 7.395305000000178], [-61.941766, 7.395353], [-61.94237399999986, 7.395355], [-61.942982, 7.39545], [-61.943589, 7.395824000000118], [-61.944102, 7.396337000000131], [-61.944475, 7.396663000000103], [-61.944754, 7.397082000000125], [-61.945033, 7.397501000000148], [-61.945218, 7.397966], [-61.945357, 7.398431000000187], [-61.94549599999988, 7.398896], [-61.94553999999988, 7.39940700000011], [-61.94558499999988, 7.399918000000127], [-61.945724, 7.400476], [-61.945768, 7.401033], [-61.945766, 7.401637], [-61.945623999999896, 7.402101], [-61.945248999999876, 7.402424000000167], [-61.94478, 7.402562], [-61.944312, 7.402607], [-61.943703999999855, 7.402744], [-61.943048, 7.402927], [-61.94257899999985, 7.403157], [-61.94197, 7.403387], [-61.941314, 7.403617000000111], [-61.940846, 7.40375500000016], [-61.9403769999999, 7.404032], [-61.93990899999983, 7.404123], [-61.939394, 7.404307000000188], [-61.939018, 7.40463], [-61.938643, 7.404954], [-61.93817399999989, 7.405138], [-61.93770499999988, 7.405461000000116], [-61.937189, 7.40597], [-61.936671999999874, 7.406572], [-61.936202, 7.406988000000126], [-61.935781, 7.407219], [-61.935312, 7.407496], [-61.934936, 7.407912], [-61.934607, 7.408283], [-61.934325, 7.408653], [-61.934136, 7.409163000000149], [-61.93375999999989, 7.409673], [-61.933384, 7.410043000000144], [-61.933055, 7.410552000000166], [-61.932726, 7.410923000000139], [-61.93258399999985, 7.411386], [-61.932348, 7.411803], [-61.932066, 7.412313], [-61.931783, 7.412777], [-61.931594, 7.413240000000144], [-61.931359, 7.413704000000166], [-61.930983, 7.414027], [-61.930515, 7.414258000000189], [-61.929953, 7.414256], [-61.929392, 7.414254], [-61.92892399999988, 7.414252], [-61.928409, 7.41425], [-61.927802, 7.41410900000011], [-61.927335, 7.413921000000187], [-61.926821, 7.413733], [-61.926354, 7.413453], [-61.92583999999988, 7.413173000000143], [-61.925515, 7.41275300000018], [-61.923653, 7.410193000000106], [-61.92328, 7.409866], [-61.923235, 7.409402], [-61.922909, 7.408797], [-61.922677, 7.408331], [-61.922398, 7.40782], [-61.921886, 7.40726], [-61.92141999999984, 7.406794], [-61.920627, 7.406188], [-61.919927, 7.405628], [-61.918947, 7.405021], [-61.918433, 7.404786], [-61.917778, 7.404784], [-61.91721699999988, 7.404782], [-61.91642099999984, 7.404779000000133], [-61.915906, 7.405056000000172], [-61.91534399999989, 7.405147], [-61.91471399999989, 7.40521200000012], [-61.914106, 7.40520800000013], [-61.91359099999988, 7.40520400000014], [-61.91303, 7.405014], [-61.9121889999999, 7.404452000000106], [-61.91176799999988, 7.404217000000187], [-61.911348, 7.403982], [-61.9109739999999, 7.403516], [-61.910601, 7.403142], [-61.91018, 7.402907], [-61.9091049999999, 7.40239], [-61.908544, 7.402246], [-61.907983, 7.402242], [-61.907374, 7.402238], [-61.906812999999886, 7.402234], [-61.906252, 7.40223], [-61.905269, 7.402222000000165], [-61.90480199999985, 7.401941], [-61.90218399999986, 7.401041000000134], [-61.900781, 7.400799000000177], [-61.899939, 7.400561], [-61.899424, 7.400557], [-61.898769, 7.400552000000175], [-61.898161, 7.400501], [-61.896992, 7.4004], [-61.896337, 7.400395000000174], [-61.895869, 7.400577000000112], [-61.895353999999884, 7.400805000000162], [-61.894932, 7.401034], [-61.894464, 7.401262000000145], [-61.893434, 7.401486], [-61.89305899999988, 7.401808000000187], [-61.892731, 7.402222000000165], [-61.892262, 7.402775], [-61.891979999999876, 7.403376], [-61.891698, 7.40444], [-61.89165, 7.404949], [-61.891649, 7.405413], [-61.891646999999864, 7.406340000000171], [-61.891646999999864, 7.406803], [-61.891645, 7.407406], [-61.891221, 7.408979], [-61.891127, 7.409534000000122], [-61.891126, 7.410091], [-61.891125, 7.410647], [-61.89103, 7.411249000000112], [-61.890842, 7.411803], [-61.890467, 7.412403], [-61.890232, 7.412819000000127], [-61.88967, 7.412907000000132], [-61.888733999999886, 7.413364000000115], [-61.888312, 7.413685], [-61.88611, 7.415662000000168], [-61.884658, 7.416439], [-61.882223, 7.417395], [-61.88152199999985, 7.417390000000182], [-61.880726, 7.417662000000121], [-61.878526, 7.418202], [-61.877075, 7.418377000000135], [-61.87585899999988, 7.418275], [-61.875386, 7.423434], [-61.873842, 7.426864000000137], [-61.87177, 7.427752], [-61.867751, 7.428837000000158], [-61.866717, 7.42916600000018], [-61.868549, 7.442442000000142], [-61.867269, 7.443803000000116], [-61.866097, 7.445511], [-61.864625, 7.451476000000127], [-61.864386, 7.452048], [-61.863336, 7.453297], [-61.85777, 7.458043], [-61.854991, 7.460186000000135], [-61.853447, 7.463616], [-61.852697, 7.467404000000158], [-61.851468, 7.472452], [-61.847878, 7.475158], [-61.84532, 7.477764], [-61.840245, 7.480445], [-61.831394, 7.48341], [-61.830573, 7.484663000000126], [-61.828363, 7.486930000000143], [-61.825456, 7.489762000000155], [-61.823472, 7.492148], [-61.82242, 7.493512], [-61.82159699999988, 7.494881], [-61.821341, 7.496489], [-61.820951, 7.499246], [-61.820781, 7.502468], [-61.819818, 7.505332], [-61.818818, 7.510384], [-61.817784, 7.517392], [-61.815839, 7.524155000000121], [-61.816161, 7.525427], [-61.81646, 7.527966000000106], [-61.817412, 7.532473], [-61.817487, 7.534777], [-61.817418, 7.538807], [-61.816748, 7.544554], [-61.816266, 7.552724000000126], [-61.81601399999988, 7.554102000000114], [-61.815324, 7.554321], [-61.81618, 7.564470000000142], [-61.822356, 7.571021], [-61.828333, 7.575841], [-61.838554, 7.573014000000114], [-61.850001, 7.572165], [-61.864339, 7.576085], [-61.89229, 7.572741], [-61.90028, 7.573447], [-61.913506, 7.582299], [-61.920074, 7.592771], [-61.92266, 7.595346], [-61.924223, 7.597560000000101], [-61.929032, 7.597177], [-61.933459999999855, 7.598976], [-61.934448, 7.601411], [-61.937613, 7.603536], [-61.93881, 7.607126], [-61.942776, 7.609263000000169], [-61.94541, 7.608960000000138], [-61.946497, 7.612317], [-61.948263, 7.616146000000128], [-61.95161799999988, 7.620577000000139], [-61.95319, 7.635919000000172], [-61.955193, 7.645972], [-61.957848, 7.658107000000143], [-61.960724, 7.670706], [-61.970254, 7.682030000000111], [-61.967067, 7.694763], [-61.969807, 7.701832], [-61.96992, 7.708744000000138], [-61.973798, 7.716176], [-61.97872599999988, 7.722359], [-61.98393, 7.732578], [-61.987516, 7.743806], [-62.004235, 7.776782], [-62.009781, 7.780210000000125], [-62.01266, 7.785899], [-62.024566, 7.792078000000117], [-62.031271, 7.787809], [-62.038171, 7.785501], [-62.046785999999884, 7.782934], [-62.053976, 7.777974], [-62.056305, 7.770333], [-62.059727, 7.763423000000103], [-62.065207, 7.761372], [-62.069561, 7.761587], [-62.075378, 7.762485], [-62.07832499999989, 7.764144], [-62.08337, 7.770213], [-62.086168, 7.773942], [-62.091371, 7.777479], [-62.099712, 7.777957], [-62.108879999999886, 7.776836], [-62.121098, 7.77795], [-62.1284169999999, 7.784975], [-62.135859, 7.784517000000164], [-62.140277, 7.780095000000188], [-62.143858, 7.777964000000111], [-62.146757, 7.77547600000014], [-62.150456, 7.773115000000189], [-62.15302, 7.770162], [-62.15477899999985, 7.767541000000108], [-62.1620309999999, 7.764660000000106], [-62.158723, 7.757123], [-62.15656599999983, 7.756168], [-62.156745999999885, 7.75214], [-62.156395, 7.745685], [-62.155857, 7.743603000000121], [-62.155672, 7.740952000000163], [-62.156058, 7.738309000000129], [-62.15620399999989, 7.736354], [-62.156401999999844, 7.73129], [-62.155724, 7.730703000000176], [-62.153206999999895, 7.730779], [-62.150604, 7.729126], [-62.149861, 7.718634], [-62.15102899999988, 7.717156000000159], [-62.15298499999983, 7.71638], [-62.156425, 7.722768], [-62.162273, 7.728849], [-62.163765, 7.728526000000159], [-62.166348, 7.724421000000177], [-62.166227999999876, 7.717740000000163], [-62.16598699999986, 7.711517], [-62.171888, 7.714258], [-62.178436, 7.712403], [-62.210981, 7.72224100000011], [-62.215042, 7.718618000000163], [-62.216888, 7.717611000000147], [-62.221079, 7.720094], [-62.224157, 7.720718], [-62.228181, 7.719399000000124], [-62.23162999999988, 7.718186000000117], [-62.235755, 7.717674], [-62.240302, 7.719357], [-62.247311, 7.721562], [-62.255584, 7.721576000000141], [-62.26093899999984, 7.720614000000126], [-62.265082, 7.716981], [-62.264603, 7.71236800000014], [-62.262978, 7.710151], [-62.26044199999984, 7.704353], [-62.260353, 7.70274], [-62.25839, 7.696836], [-62.255827999999894, 7.692651000000126], [-62.254684, 7.685607000000175], [-62.25749599999989, 7.681390000000135], [-62.275466, 7.680286], [-62.285754, 7.680445], [-62.289565, 7.678086000000121], [-62.287941, 7.672418000000107], [-62.287287, 7.66331], [-62.28897399999988, 7.657923], [-62.289412, 7.652056], [-62.288605, 7.645364], [-62.286413, 7.639457000000164], [-62.28656199999989, 7.637271000000112], [-62.288554, 7.634307], [-62.29172299999988, 7.629174], [-62.296753, 7.622111], [-62.29371899999984, 7.611699000000101], [-62.289674999999875, 7.607260000000167], [-62.288847, 7.601835000000165], [-62.286047, 7.598222], [-62.280381, 7.59514], [-62.275877, 7.590809], [-62.275782, 7.582516], [-62.274872, 7.575131000000113], [-62.27527199999986, 7.571567], [-62.275867, 7.570078], [-62.28031399999986, 7.567064000000187], [-62.280696, 7.566515], [-62.272449, 7.562309], [-62.270084, 7.560085], [-62.262686, 7.558127], [-62.259147, 7.557842000000107], [-62.25457299999988, 7.557886], [-62.249242999999865, 7.555270000000121], [-62.246953, 7.54844], [-62.240746999999885, 7.548209], [-62.239812, 7.548206], [-62.23887599999989, 7.548202], [-62.23794, 7.548198], [-62.23691099999985, 7.548193], [-62.235975, 7.54846700000013], [-62.235038, 7.548741], [-62.233821, 7.549107000000163], [-62.23278999999985, 7.549566000000141], [-62.231759999999895, 7.549839000000134], [-62.23073, 7.550205], [-62.229607, 7.550201], [-62.228672, 7.550197000000139], [-62.227642, 7.550192], [-62.226519, 7.55028], [-62.225583, 7.550647], [-62.224739, 7.551292000000103], [-62.223708, 7.551936000000126], [-62.22220999999985, 7.552022000000136], [-62.221287, 7.552186], [-62.220152, 7.552014], [-62.219216, 7.55201], [-62.214439, 7.552496], [-62.21350299999989, 7.552494], [-62.21257, 7.552028], [-62.211731, 7.55128400000018], [-62.210985, 7.55054100000018], [-62.210241, 7.54952], [-62.21005799999989, 7.548593], [-62.210062, 7.547667], [-62.210067, 7.546555], [-62.210071, 7.545628], [-62.210076, 7.544424000000106], [-62.210081, 7.543312000000128], [-62.209898, 7.54220000000015], [-62.209622, 7.541180000000111], [-62.209064, 7.540252], [-62.208319, 7.539602000000116], [-62.207572, 7.539044000000104], [-62.206637999999884, 7.538856], [-62.205608, 7.538853000000131], [-62.204672, 7.539128000000176], [-62.203734, 7.539589], [-62.202702, 7.540234000000169], [-62.201578, 7.540509], [-62.200642, 7.540599], [-62.199612, 7.540689000000157], [-62.198583, 7.540686000000107], [-62.197647, 7.540683], [-62.196524999999895, 7.540680000000123], [-62.195589, 7.540585], [-62.194563, 7.540026], [-62.193817, 7.539376], [-62.19297799999987, 7.538725], [-62.192138999999884, 7.537889000000121], [-62.191112, 7.53733], [-62.190366, 7.536679], [-62.18962, 7.536121], [-62.188036, 7.534634], [-62.186916, 7.53389], [-62.185795, 7.533609], [-62.18476799999985, 7.532958000000178], [-62.18421, 7.532215000000178], [-62.183841, 7.531102], [-62.183845, 7.530083000000161], [-62.18384999999989, 7.528879000000188], [-62.183948, 7.527953000000139], [-62.184701, 7.526936], [-62.184985, 7.52601], [-62.185364, 7.524992000000111], [-62.185742, 7.523974], [-62.185654, 7.522677], [-62.185191, 7.52174900000017], [-62.184259, 7.520727], [-62.183328, 7.519706], [-62.182583, 7.518777000000114], [-62.182307, 7.517757], [-62.18231099999986, 7.516831], [-62.186368, 7.513289], [-62.190583, 7.507136], [-62.19277099999988, 7.499109], [-62.192597, 7.495766], [-62.188232, 7.490055], [-62.187157, 7.485892], [-62.187532, 7.483940000000189], [-62.192026, 7.481707], [-62.195489, 7.479573000000187], [-62.197326, 7.479025], [-62.19591, 7.474742000000106], [-62.194714, 7.471038], [-62.194511, 7.469422000000122], [-62.193774, 7.46561], [-62.197733, 7.46106500000019], [-62.20164099999988, 7.459744000000171], [-62.202727, 7.449166000000105], [-62.20109799999989, 7.44395800000018], [-62.19756199999989, 7.429391000000123], [-62.2033899999999, 7.422456000000125], [-62.211557, 7.412104000000113], [-62.214361, 7.408347000000163], [-62.22034599999989, 7.405676000000142], [-62.22608699999989, 7.404038000000128], [-62.235563, 7.397505000000137], [-62.242051, 7.384938], [-62.250014, 7.380109000000175], [-62.26051, 7.374053], [-62.270184, 7.369366000000184], [-62.27829, 7.362695000000144], [-62.28179, 7.351118], [-62.284828, 7.332737000000122], [-62.28826599999985, 7.317817], [-62.297707, 7.291935], [-62.301711, 7.28451], [-62.312151, 7.274651000000176], [-62.317908, 7.26472], [-62.324474, 7.254109000000142], [-62.327952, 7.229516000000103], [-62.329308, 7.22331800000012], [-62.33507999999989, 7.212349], [-62.339568, 7.203089], [-62.340441, 7.198495], [-62.342443, 7.194726000000173], [-62.343443, 7.189328000000103], [-62.342514, 7.183094000000153], [-62.34319099999982, 7.176425000000108], [-62.344139, 7.171021], [-62.341199999999844, 7.166184000000101], [-62.34037499999988, 7.155255000000125], [-62.344603, 7.141181], [-62.34483299999988, 7.1271], [-62.340214, 7.120789000000173], [-62.33679099999989, 7.11943], [-62.33633099999986, 7.119653], [-62.332781, 7.120174], [-62.327539999999885, 7.119403], [-62.32457, 7.119472], [-62.323198, 7.119566], [-62.31949999999989, 7.115133], [-62.316718, 7.110598], [-62.311938, 7.102347000000179], [-62.312277, 7.095442000000105], [-62.302023, 7.072594], [-62.301233, 7.072006000000101], [-62.301814, 7.064298], [-62.298704, 7.058837], [-62.291376, 7.05285], [-62.29017999999985, 7.049146000000121], [-62.287961, 7.023773], [-62.287245, 7.018579000000159], [-62.285855, 7.012684], [-62.288022999999896, 7.005692], [-62.289246, 7.000642], [-62.289732, 6.998807], [-62.289971, 6.993041000000119], [-62.289238, 6.99031100000019], [-62.285244, 6.987975000000176], [-62.276583, 6.988628], [-62.266916, 6.99427], [-62.259583, 6.997253000000114], [-62.251261, 6.994245], [-62.23461, 6.992222], [-62.220293, 6.990201000000127], [-62.215301999999895, 6.987198], [-62.213983, 6.978211], [-62.21066999999988, 6.968222], [-62.202353, 6.962551000000133], [-62.191713, 6.952217], [-62.162453, 6.925876000000187], [-62.151797, 6.925191], [-62.147142, 6.921522], [-62.14516099999986, 6.912201], [-62.141505, 6.908201], [-62.138184, 6.90320400000013], [-62.138857, 6.89921100000015], [-62.140864, 6.894888], [-62.14020699999986, 6.88956300000018], [-62.135893, 6.881236], [-62.129255999999884, 6.868578], [-62.128616, 6.854267000000107], [-62.1279669999999, 6.84528100000017], [-62.131642, 6.837967], [-62.134986, 6.830319], [-62.13499999999988, 6.822332000000131], [-62.134679, 6.815343], [-62.13769, 6.807361], [-62.138033999999834, 6.801372000000129], [-62.137388, 6.790057], [-62.13774999999987, 6.774083000000189], [-62.143416999999886, 6.770100000000127], [-62.151413999999875, 6.765455], [-62.15973699999989, 6.764804], [-62.17272, 6.765825], [-62.176384, 6.764167], [-62.177059, 6.758511000000112], [-62.180065, 6.752859], [-62.18639599999989, 6.748876000000166], [-62.194402, 6.73957], [-62.20472599999988, 6.736592], [-62.218043, 6.736281], [-62.234027, 6.732646], [-62.242358, 6.726669000000186], [-62.254682, 6.722029], [-62.266335, 6.721048000000167], [-62.277343, 6.705090000000155], [-62.284009, 6.699775], [-62.290002, 6.698785], [-62.294997, 6.69679600000012], [-62.298657, 6.698132000000157], [-62.301318, 6.699800000000153], [-62.312312, 6.69316], [-62.31665, 6.685179000000119], [-62.325313, 6.679201], [-62.329649, 6.67255], [-62.338973, 6.669567000000143], [-62.344055, 6.665990000000136], [-62.349311, 6.665566], [-62.35340799999989, 6.667435000000125], [-62.361966, 6.66818400000011], [-62.365144, 6.670737000000145], [-62.369146999999884, 6.669959], [-62.373703, 6.671486000000129], [-62.377007, 6.672544], [-62.383027, 6.679284000000166], [-62.383924, 6.679840000000127], [-62.38402699999989, 6.679846000000111], [-62.384093, 6.67977400000018], [-62.384197, 6.679553], [-62.384336, 6.679384], [-62.384579, 6.679097000000127], [-62.384666, 6.678943000000174], [-62.384676, 6.678610000000162], [-62.38468099999989, 6.678538], [-62.384734, 6.678369], [-62.384837, 6.678202000000169], [-62.385019999999884, 6.677942000000144], [-62.385385, 6.677807000000143], [-62.385637, 6.677837000000125], [-62.385776, 6.678020000000174], [-62.385992, 6.678206000000102], [-62.386205, 6.678238], [-62.38679999999982, 6.678109], [-62.387317, 6.677902000000188], [-62.387936, 6.677598000000103], [-62.388495, 6.677270000000135], [-62.389047, 6.676936], [-62.389662, 6.67656600000015], [-62.390336, 6.676317000000154], [-62.390975, 6.67591], [-62.391572, 6.675567], [-62.392116, 6.675279], [-62.392777, 6.67494500000015], [-62.393363, 6.674652], [-62.3939749999999, 6.67442], [-62.394802999999854, 6.674094], [-62.39525899999984, 6.673948], [-62.39580199999989, 6.673805000000129], [-62.396576, 6.673654], [-62.397662, 6.673577], [-62.397989, 6.673519000000113], [-62.398914, 6.673536], [-62.399065, 6.673537000000181], [-62.399407, 6.673517000000118], [-62.399899, 6.673523], [-62.400355, 6.673519000000113], [-62.400926999999854, 6.673609], [-62.401369, 6.673766000000114], [-62.401659, 6.674056000000121], [-62.40200799999985, 6.674538], [-62.40233, 6.674982000000171], [-62.402685, 6.675547], [-62.40289399999989, 6.675878], [-62.403154, 6.676176], [-62.403459999999825, 6.676455], [-62.403864, 6.676644], [-62.404107, 6.676683], [-62.404632999999876, 6.676583000000107], [-62.40508, 6.676401000000169], [-62.405924999999854, 6.676157], [-62.406519, 6.676001], [-62.40692299999989, 6.675948000000176], [-62.407353, 6.676067], [-62.40780499999988, 6.676268000000164], [-62.408129, 6.676412], [-62.40854499999989, 6.676615], [-62.408963, 6.676782], [-62.409392, 6.676951], [-62.410083, 6.677120000000173], [-62.410685, 6.677199], [-62.411235, 6.677278], [-62.411649, 6.67734], [-62.411755999999855, 6.677315000000135], [-62.41228, 6.677288], [-62.412977, 6.677196], [-62.413607, 6.677122000000111], [-62.414275, 6.677032000000167], [-62.414932, 6.677006000000119], [-62.415737, 6.677039], [-62.416238, 6.677087], [-62.416749, 6.677185], [-62.417289, 6.677266000000145], [-62.417904, 6.677295], [-62.418483, 6.677247], [-62.419169999999895, 6.677152000000149], [-62.419815, 6.67700200000013], [-62.420434, 6.676827], [-62.420935, 6.676533], [-62.421446, 6.676003], [-62.42172, 6.675518000000125], [-62.421939, 6.675263000000143], [-62.422292999999854, 6.675221], [-62.422727, 6.675339], [-62.423203999999885, 6.675594], [-62.423824, 6.675738], [-62.424178, 6.675741], [-62.425142, 6.677875], [-62.4262159999999, 6.674936000000116], [-62.426779, 6.674867], [-62.42692099999988, 6.674936000000116], [-62.427184, 6.675091000000123], [-62.42759099999989, 6.6755], [-62.428278, 6.676178], [-62.428967, 6.676491000000169], [-62.42953299999988, 6.676659], [-62.429995999999846, 6.676828000000171], [-62.430359, 6.676920000000109], [-62.430595, 6.677324000000169], [-62.437815, 6.689611000000184], [-62.438708, 6.680723], [-62.43308499999989, 6.667104000000108], [-62.432523, 6.651232000000107], [-62.432301, 6.638845000000174], [-62.431744, 6.627583], [-62.432143, 6.627474], [-62.438514, 6.615092000000175], [-62.438546, 6.610606], [-62.442227, 6.606833], [-62.443632, 6.601895000000184], [-62.451994, 6.59815500000019], [-62.464627, 6.603646], [-62.468618, 6.604248], [-62.472495, 6.604964000000109], [-62.47465099999988, 6.606819], [-62.478777, 6.604545], [-62.484810999999866, 6.575134], [-62.48647199999988, 6.566286000000161], [-62.487178, 6.563414], [-62.4846399999999, 6.55694700000015], [-62.475587, 6.548378], [-62.428893, 6.505201], [-62.415359, 6.454693], [-62.350601, 6.352514], [-62.350588, 6.353834], [-62.349334, 6.354737], [-62.348417, 6.355146000000104], [-62.347474, 6.358112], [-62.34711, 6.361328000000185], [-62.346255, 6.363799], [-62.34525, 6.36462100000017], [-62.34442, 6.364618], [-62.34359, 6.364615000000185], [-62.343013, 6.364201], [-62.341443, 6.363454], [-62.340612, 6.363533000000189], [-62.339527, 6.364107000000104], [-62.339023, 6.364683000000127], [-62.339008, 6.366167000000189], [-62.338566, 6.368805000000123], [-62.338128, 6.37111300000015], [-62.338115, 6.372433000000115], [-62.338097, 6.374247], [-62.338585, 6.375321000000156], [-62.339488, 6.376314], [-62.340065, 6.376728], [-62.340556, 6.377472000000125], [-62.340710999999885, 6.378544], [-62.340868999999884, 6.379370000000165], [-62.341357, 6.380361], [-62.342343, 6.381437000000119], [-62.34357899999986, 6.38234800000015], [-62.345054, 6.384332], [-62.34562099999988, 6.385736000000179], [-62.346527, 6.386481000000174], [-62.34735, 6.387226000000169], [-62.348427, 6.38739500000014], [-62.348839, 6.387726000000157], [-62.34891099999987, 6.388881], [-62.34856799999983, 6.389952000000108], [-62.348806, 6.391025], [-62.348885, 6.391438000000164], [-62.349116999999865, 6.393171], [-62.349437, 6.394326], [-62.34943, 6.395069], [-62.349418, 6.396306], [-62.349077, 6.397212], [-62.34856999999988, 6.398035000000107], [-62.347733, 6.398775], [-62.346897, 6.399349000000143], [-62.346722, 6.400173000000109], [-62.34713, 6.400917], [-62.3471229999999, 6.401659000000109], [-62.34669899999989, 6.402565000000152], [-62.346027999999876, 6.403223], [-62.34494299999983, 6.403796], [-62.34353599999986, 6.403379000000143], [-62.342966, 6.402223], [-62.342975, 6.401316000000179], [-62.342981, 6.400656], [-62.34275, 6.398841], [-62.342182, 6.397519], [-62.34161, 6.396692], [-62.340862, 6.396772], [-62.339601, 6.398253], [-62.339509, 6.399160000000109], [-62.339997999999866, 6.400151], [-62.340567, 6.401308], [-62.341133, 6.402877], [-62.34111799999988, 6.404361], [-62.340693, 6.405349], [-62.339507, 6.407737000000111], [-62.33841399999989, 6.409136], [-62.338405, 6.409961000000123], [-62.338557, 6.411446], [-62.339708, 6.412522], [-62.341102, 6.414258], [-62.342826999999886, 6.416161000000102], [-62.343821999999875, 6.416247000000112], [-62.344409, 6.415671], [-62.34475, 6.414848000000177], [-62.345094, 6.413612], [-62.345353, 6.41262300000011], [-62.345362, 6.411716], [-62.346119, 6.410728000000177], [-62.347359, 6.411227], [-62.347854, 6.411559000000182], [-62.34874599999989, 6.413706], [-62.349322, 6.4142030000001], [-62.350481, 6.414537], [-62.351555, 6.41511800000012], [-62.351716, 6.415613], [-62.35070499999989, 6.417094], [-62.350532, 6.417836000000136], [-62.350523, 6.418661], [-62.351002, 6.420642000000157], [-62.351554, 6.42353], [-62.35146, 6.424685000000181], [-62.350938, 6.426992], [-62.350927, 6.428147], [-62.351084, 6.429055], [-62.351736999999844, 6.430129000000136], [-62.351634, 6.432191], [-62.350961, 6.433096], [-62.35012099999989, 6.43400000000014], [-62.3482, 6.435231], [-62.346860999999876, 6.436299], [-62.344766, 6.438189], [-62.344424, 6.439177], [-62.345489, 6.440583000000174], [-62.34631, 6.441575], [-62.346304, 6.442153], [-62.345631, 6.443058000000121], [-62.345701, 6.444378000000142], [-62.345026, 6.445448], [-62.344598, 6.446683], [-62.343764, 6.447093], [-62.343179, 6.447504000000151], [-62.342096, 6.447830000000124], [-62.341266, 6.447827], [-62.340185, 6.447988], [-62.339185, 6.448398], [-62.337686, 6.448805000000107], [-62.336773, 6.448802], [-62.33628, 6.448223], [-62.335457, 6.447561], [-62.334551, 6.446815000000129], [-62.332315, 6.44623], [-62.33124599999985, 6.445237000000134], [-62.33075699999989, 6.444328], [-62.330769, 6.443091], [-62.330197999999825, 6.442017], [-62.329136, 6.440364], [-62.329227, 6.43954], [-62.3299, 6.438635], [-62.330572, 6.437812], [-62.330576999999835, 6.4374], [-62.330415, 6.436904], [-62.330087999999876, 6.436408], [-62.32926, 6.436241000000109], [-62.3286, 6.435826], [-62.328105, 6.435495], [-62.327446, 6.434998000000121], [-62.326624, 6.434088000000145], [-62.325557, 6.432847], [-62.324242, 6.431523], [-62.322764, 6.429868], [-62.322024, 6.429124000000115], [-62.321365, 6.428627000000176], [-62.320286, 6.428623], [-62.3197, 6.429116000000136], [-62.319681, 6.431013], [-62.3199, 6.433983000000126], [-62.319855, 6.438519], [-62.319827, 6.441323000000125], [-62.320717999999886, 6.443553], [-62.320708, 6.444625000000144], [-62.319869, 6.445447000000115], [-62.319034, 6.445939000000124], [-62.318453, 6.445937000000129], [-62.318207, 6.445607], [-62.318381, 6.444782000000146], [-62.318649, 6.442886000000101], [-62.31866499999984, 6.441319000000135], [-62.317941, 6.439008], [-62.31770399999982, 6.437770000000114], [-62.317133999999896, 6.436613000000136], [-62.31622, 6.436693], [-62.315793, 6.437928], [-62.314118, 6.439407], [-62.312696, 6.440475000000106], [-62.311117, 6.440552], [-62.310526, 6.441540000000145], [-62.310848, 6.442613000000108], [-62.311665, 6.443935], [-62.311657, 6.444678], [-62.31049, 6.445169], [-62.306663, 6.445981], [-62.304415, 6.44663300000019], [-62.303086, 6.446629], [-62.301512999999886, 6.446211], [-62.299531, 6.445133], [-62.298203, 6.445128000000182], [-62.298193, 6.446118], [-62.299168, 6.448266000000103], [-62.300716, 6.451240000000155], [-62.301118, 6.452561], [-62.30061, 6.453466000000105], [-62.299447, 6.453545], [-62.2987, 6.453543], [-62.29804, 6.453128], [-62.29771199999982, 6.452714], [-62.296889, 6.451969], [-62.29622499999988, 6.451967], [-62.29596899999984, 6.452709], [-62.295616, 6.454769000000113], [-62.295182999999895, 6.456583], [-62.29608, 6.458153000000152], [-62.296893999999895, 6.459805], [-62.297704, 6.461869000000149], [-62.29685099999989, 6.464093000000105], [-62.29626499999989, 6.464586], [-62.295601, 6.464584], [-62.29428, 6.46383800000018], [-62.2926829999999, 6.465812], [-62.292339, 6.466965], [-62.291251, 6.467869], [-62.290013, 6.467123000000186], [-62.290023, 6.466133000000127], [-62.289535, 6.465142], [-62.288536, 6.465386], [-62.287122, 6.465628], [-62.285878, 6.465542], [-62.284973, 6.464714000000185], [-62.283571, 6.46372], [-62.282325, 6.463798], [-62.28214999999989, 6.464705000000151], [-62.282137, 6.466024], [-62.282129, 6.466767], [-62.282117, 6.468004], [-62.282098999999846, 6.469818], [-62.282084, 6.471303], [-62.282405, 6.472376000000111], [-62.282482, 6.473036], [-62.28222099999988, 6.474231000000145], [-62.281738, 6.476869], [-62.281843, 6.478807], [-62.282708, 6.479553000000124], [-62.283651, 6.480710000000101], [-62.284382, 6.482362], [-62.285611, 6.48393300000015], [-62.287143, 6.485393000000158], [-62.287737, 6.487047], [-62.287986, 6.488265000000126], [-62.287977999999896, 6.489047], [-62.286832, 6.490342], [-62.286305, 6.490773000000161], [-62.285342, 6.491201], [-62.284551, 6.491804], [-62.283587, 6.492318], [-62.28288899999984, 6.492400000000146], [-62.281848, 6.491959], [-62.280715, 6.491952], [-62.279847, 6.491598], [-62.278812, 6.490462], [-62.277598, 6.489846], [-62.2768999999999, 6.489928], [-62.276892, 6.49071], [-62.277138, 6.492275], [-62.277995, 6.49367100000012], [-62.278074, 6.49454], [-62.278066, 6.495322000000101], [-62.278489, 6.496627000000103], [-62.278824, 6.49793300000016], [-62.27985299999989, 6.499590000000126], [-62.279663, 6.501152], [-62.279045, 6.501930000000129], [-62.277733999999896, 6.502269], [-62.27676599999984, 6.503218000000118], [-62.27510599999988, 6.50364100000013], [-62.274055, 6.504155], [-62.271355999999855, 6.503789], [-62.267606999999884, 6.503938000000176], [-62.266385, 6.504103000000157], [-62.266374, 6.505233], [-62.266537, 6.506363], [-62.26749099999989, 6.506804000000159], [-62.269047, 6.50803000000019], [-62.27077299999985, 6.509779], [-62.271112, 6.51073700000012], [-62.270668, 6.511516000000142], [-62.269708, 6.511683], [-62.268561, 6.513065], [-62.267756, 6.515058], [-62.266966, 6.51566], [-62.265743, 6.515913000000126], [-62.264534, 6.5147750000001], [-62.262981, 6.513201], [-62.261848, 6.513194], [-62.261747, 6.514583], [-62.260865, 6.515619000000129], [-62.259291, 6.516130000000146], [-62.257093, 6.518026], [-62.255596, 6.519580000000133], [-62.255586, 6.520535000000109], [-62.255755, 6.521058], [-62.25661199999985, 6.522540000000106], [-62.25677899999988, 6.523236000000111], [-62.256505, 6.52445], [-62.25527, 6.525919], [-62.252990999999895, 6.527207], [-62.25220399999989, 6.527462000000185], [-62.251427, 6.52676200000019], [-62.250307, 6.525451], [-62.248326, 6.523093000000188], [-62.247111, 6.522563], [-62.246151999999825, 6.522644000000184], [-62.24544699999984, 6.523421000000155], [-62.245504, 6.526374], [-62.245574, 6.528025], [-62.245565, 6.528981000000101], [-62.246335, 6.530376], [-62.247901, 6.530647000000101], [-62.24885599999982, 6.531001000000117], [-62.249195, 6.531959000000143], [-62.248834, 6.53317200000015], [-62.248108, 6.536034000000143], [-62.247312, 6.537245000000155], [-62.246086, 6.537758000000167], [-62.245037, 6.538098], [-62.244336, 6.538441], [-62.24433199999987, 6.538875000000189], [-62.244674, 6.539486000000124], [-62.245375, 6.539143], [-62.247036999999864, 6.538546000000167], [-62.248434, 6.538295000000176], [-62.249126, 6.538821], [-62.249553, 6.539692000000116], [-62.249544, 6.540561], [-62.249099, 6.54151300000018], [-62.248656, 6.542205], [-62.247872, 6.54220000000015], [-62.246656, 6.541757], [-62.245001999999886, 6.541573000000142], [-62.244563, 6.541830000000118], [-62.244555, 6.542699], [-62.245159999999885, 6.543137], [-62.245504, 6.543661], [-62.24549599999989, 6.544442], [-62.245486, 6.545398], [-62.245386, 6.546700000000158], [-62.24501, 6.54939000000013], [-62.244456, 6.552427], [-62.244004, 6.554074000000128], [-62.243033, 6.555284], [-62.242066, 6.556059], [-62.241441, 6.557532], [-62.241169, 6.558659], [-62.240019, 6.560302], [-62.238967, 6.56090300000011], [-62.237833, 6.560982], [-62.23696199999989, 6.560976], [-62.236183, 6.560363000000166], [-62.235324999999875, 6.559054], [-62.233179, 6.555826000000138], [-62.232229, 6.554951000000187], [-62.230571, 6.555114000000174], [-62.228237, 6.553187], [-62.226687, 6.551352000000122], [-62.22453699999983, 6.54847100000012], [-62.222286999999824, 6.546893000000125], [-62.22098, 6.546884], [-62.219759999999894, 6.546876000000168], [-62.218447, 6.547388], [-62.217828999999824, 6.548166000000151], [-62.217373999999836, 6.550074000000109], [-62.21667099999985, 6.550677], [-62.216148, 6.550673], [-62.215629, 6.550236000000154], [-62.21424999999988, 6.548750000000155], [-62.213026, 6.549089], [-62.213016, 6.550044], [-62.213612, 6.551525], [-62.21419, 6.554656000000136], [-62.21392299999985, 6.555176000000188], [-62.212789, 6.555255000000102], [-62.211742, 6.555422], [-62.211647, 6.556203], [-62.21251099999989, 6.556903], [-62.211726, 6.556985000000111], [-62.209625, 6.557926000000123], [-62.209189, 6.557923], [-62.20875499999988, 6.557747], [-62.208761999999865, 6.557052000000112], [-62.20878, 6.555315000000121], [-62.20826099999988, 6.554877], [-62.207743, 6.554439000000116], [-62.206701, 6.553998], [-62.205395999999894, 6.553728], [-62.203918, 6.553458000000148], [-62.201483, 6.552834000000189], [-62.200175999999885, 6.552825000000155], [-62.198859, 6.553771], [-62.197974, 6.555155], [-62.198134, 6.556546], [-62.199246, 6.558639], [-62.200705, 6.560907], [-62.200609, 6.561775000000125], [-62.200086, 6.561771000000135], [-62.198696, 6.561328], [-62.19678, 6.561141], [-62.19555299999985, 6.561828], [-62.194838, 6.56356], [-62.194381, 6.565729], [-62.194178, 6.568507], [-62.193205, 6.569977], [-62.192332, 6.570058000000131], [-62.191986, 6.569795], [-62.191989, 6.569535], [-62.192261, 6.568494], [-62.192275, 6.567105], [-62.191671, 6.566492000000153], [-62.189577, 6.566739000000155], [-62.188172, 6.567772000000161], [-62.186156, 6.568888000000129], [-62.185639, 6.568276000000139], [-62.185647, 6.567494], [-62.186272, 6.566022000000146], [-62.186375, 6.56445900000017], [-62.185445, 6.561586], [-62.184587, 6.560277000000156], [-62.183802, 6.560272000000111], [-62.18318099999988, 6.561397000000113], [-62.182118, 6.563127], [-62.180469, 6.563257], [-62.179413, 6.56337], [-62.17688, 6.563961000000177], [-62.173980999999856, 6.566200000000151], [-62.17267, 6.566539], [-62.170835, 6.566961], [-62.169958, 6.567563000000121], [-62.1682009999999, 6.568941000000109], [-62.16660899999988, 6.571189000000118], [-62.16503299999988, 6.571960000000104], [-62.163455, 6.572818], [-62.161083, 6.574713], [-62.15977, 6.575225000000103], [-62.15863, 6.575913000000185], [-62.158537, 6.57652000000013], [-62.15852, 6.578171000000111], [-62.158856, 6.579476000000113], [-62.15929, 6.579566], [-62.161284, 6.580708], [-62.16352999999987, 6.582634], [-62.164032, 6.584722], [-62.163927, 6.586459], [-62.163484, 6.587238000000184], [-62.162165, 6.588358000000142], [-62.160932, 6.589653000000169], [-62.16048399999988, 6.590866000000176], [-62.1602079999999, 6.592254], [-62.159240999999895, 6.59311600000018], [-62.158796, 6.593982], [-62.158607, 6.595457], [-62.158591, 6.597021000000154], [-62.158935, 6.600720000000138], [-62.158579, 6.603879], [-62.158344, 6.605459], [-62.157205, 6.606125], [-62.155507, 6.604978000000187], [-62.153924, 6.603833000000122], [-62.152221, 6.603816000000165], [-62.150862999999845, 6.602785], [-62.147689, 6.601850000000184], [-62.145192, 6.601599], [-62.143723, 6.600229000000184], [-62.14157299999988, 6.598625], [-62.140215999999896, 6.597595], [-62.138636, 6.595772000000181], [-62.137852, 6.593617], [-62.136718, 6.593267], [-62.13512199999985, 6.594494000000111], [-62.133870999999885, 6.59482], [-62.133752, 6.596062000000188], [-62.133515, 6.59798], [-62.133051, 6.599896000000172], [-62.132705, 6.600909000000115], [-62.13134, 6.601573], [-62.12974599999984, 6.602348000000177], [-62.12837899999988, 6.603238], [-62.127579, 6.6042470000001], [-62.127573, 6.60549], [-62.12768, 6.60684700000013], [-62.129601, 6.608674000000121], [-62.129595, 6.609803], [-62.128227, 6.610806000000139], [-62.126524, 6.610789000000125], [-62.12550499999986, 6.610214000000155], [-62.124717, 6.608964000000128], [-62.123026, 6.606574], [-62.122009999999875, 6.605434], [-62.12099599999982, 6.603843], [-62.11975099999984, 6.603039], [-62.118507, 6.601897000000179], [-62.116814, 6.599959], [-62.115798, 6.598820000000103], [-62.114327, 6.597788], [-62.113192, 6.597777000000178], [-62.113186, 6.598793], [-62.113864, 6.599591000000146], [-62.114995, 6.600506], [-62.11601, 6.601872], [-62.117365, 6.603241], [-62.117357, 6.604823000000124], [-62.117919, 6.606071], [-62.119386, 6.607781000000102], [-62.11938099999986, 6.608797000000152], [-62.118355, 6.609578000000113], [-62.117562, 6.609344000000135], [-62.116317, 6.608541000000116], [-62.11518199999989, 6.608416], [-62.113021, 6.609073], [-62.111995, 6.609966], [-62.11165, 6.610867], [-62.112433999999894, 6.613021], [-62.112427, 6.614264], [-62.111513999999886, 6.615271], [-62.110373, 6.616277], [-62.108442, 6.616483000000187], [-62.105827, 6.617248], [-62.10242099999982, 6.617101000000162], [-62.098459, 6.614802000000168], [-62.097209, 6.614902], [-62.096069, 6.615795000000105], [-62.094701, 6.617024000000185], [-62.093788, 6.617806], [-62.092994, 6.617685000000165], [-62.092203, 6.616999], [-62.090614, 6.616757000000121], [-62.089252, 6.616743], [-62.088341, 6.617299000000173], [-62.087654, 6.618309], [-62.08651599999985, 6.618863], [-62.085494, 6.618852], [-62.084134, 6.6185], [-62.082891, 6.617245000000139], [-62.08198199999987, 6.617349], [-62.08084, 6.618580000000122], [-62.079703, 6.618907], [-62.077318999999875, 6.618884], [-62.074255, 6.618514000000175], [-62.072094, 6.619170000000111], [-62.067888, 6.620145], [-62.067094, 6.62013700000017], [-62.065625, 6.618654], [-62.06415499999986, 6.617509000000155], [-62.063021999999876, 6.616933], [-62.061319, 6.616916000000117], [-62.05996, 6.616224], [-62.058938, 6.616214000000127], [-62.05803, 6.616205], [-62.05723199999983, 6.616762000000165], [-62.057337, 6.618458000000146], [-62.058236, 6.620274000000109], [-62.058683, 6.621748], [-62.058679, 6.622538], [-62.05799599999989, 6.622983], [-62.057087, 6.622974], [-62.05595099999988, 6.62307600000014], [-62.051526, 6.622467], [-62.049368, 6.622671], [-62.04845299999988, 6.623905], [-62.048222, 6.624806], [-62.04673, 6.6279550000001], [-62.045696, 6.630317000000105], [-62.045799, 6.632465], [-62.045904999999834, 6.633934], [-62.047596, 6.636324000000116], [-62.047585, 6.63847], [-62.047570999999834, 6.641407], [-62.04732699999988, 6.644681], [-62.04664, 6.645804], [-62.045504, 6.645906000000139], [-62.04437, 6.645556000000113], [-62.042897, 6.645089], [-62.040969, 6.644505], [-62.039721, 6.644492], [-62.038244, 6.644590000000164], [-62.03766999999988, 6.645827000000168], [-62.037659, 6.647974], [-62.03833099999986, 6.649901000000114], [-62.038554, 6.650581], [-62.037409, 6.652491000000168], [-62.037287999999876, 6.653958], [-62.036376, 6.654740000000118], [-62.035011, 6.655178], [-62.033649, 6.655164000000184], [-62.032513, 6.655266], [-62.030467, 6.655697], [-62.028988, 6.65636], [-62.02762399999989, 6.656573], [-62.02671199999986, 6.657355000000109], [-62.025912, 6.658363000000179], [-62.025337, 6.659713000000181], [-62.024201, 6.659815], [-62.02352, 6.659808], [-62.023067, 6.659691000000123], [-62.021821, 6.659000000000162], [-62.021367, 6.658996000000172], [-62.0207989999999, 6.658990000000188], [-62.019662, 6.659431], [-62.018747, 6.660664000000168], [-62.018284, 6.662467000000106], [-62.018049, 6.664046], [-62.017579, 6.667092], [-62.016779, 6.668214], [-62.015753999999845, 6.668769], [-62.015186, 6.668876000000182], [-62.013823, 6.668862], [-62.011439, 6.668951000000163], [-62.009499, 6.67074], [-62.00801699999988, 6.672066000000143], [-62.007105, 6.673972000000106], [-62.006584, 6.674259], [-62.005329, 6.674315], [-62.00326699999988, 6.674065000000155], [-62.001058999999884, 6.673664], [-61.999289, 6.673639], [-61.997961, 6.67362], [-61.996921, 6.674121000000184], [-61.996319, 6.674998], [-61.99497799999989, 6.675864000000161], [-61.992316, 6.676269000000104], [-61.990173, 6.676533], [-61.987739, 6.676498], [-61.985831, 6.675807], [-61.98311299999989, 6.674957], [-61.980983999999864, 6.674189000000126], [-61.978928, 6.673569000000157], [-61.97694299999989, 6.673024000000169], [-61.975247, 6.673000000000116], [-61.973692999999855, 6.673347], [-61.97235299999983, 6.674139], [-61.966198, 6.676374], [-61.964196, 6.677083], [-61.963, 6.678172000000131], [-61.962543, 6.679198000000156], [-61.962532999999894, 6.679862000000185], [-61.962966, 6.680532], [-61.964063, 6.68121200000013], [-61.964863, 6.682034000000101], [-61.96595, 6.683378000000118], [-61.966377, 6.68449], [-61.966797, 6.686045], [-61.966685, 6.688699], [-61.966938, 6.691653], [-61.967513, 6.692694000000188], [-61.967723, 6.693435], [-61.967712, 6.694246], [-61.967479, 6.695054], [-61.967181, 6.695271], [-61.966586, 6.695557000000122], [-61.965479, 6.695615], [-61.963266, 6.695583000000113], [-61.961348, 6.695556000000181], [-61.959508, 6.695234], [-61.958338, 6.694554], [-61.957307, 6.694391], [-61.955758, 6.694369], [-61.953982, 6.694786], [-61.952793, 6.695359], [-61.952046, 6.69601200000011], [-61.951155, 6.696368], [-61.94974899999988, 6.696716], [-61.948115, 6.697430000000168], [-61.946789, 6.697337000000118], [-61.945695, 6.696436000000176], [-61.944739, 6.696201], [-61.942674999999895, 6.69609800000012], [-61.941568, 6.696156], [-61.940750999999864, 6.696513000000152], [-61.93970999999988, 6.697088000000122], [-61.93896199999989, 6.697814000000164], [-61.93776, 6.699272000000178], [-61.93678199999982, 6.700586], [-61.93633099999988, 6.701169000000107], [-61.936318, 6.702054000000146], [-61.936527, 6.702905], [-61.936515, 6.70379], [-61.936206999999854, 6.704671000000133], [-61.935457, 6.705471], [-61.935007, 6.705981000000179], [-61.934115, 6.706484], [-61.932714, 6.70639], [-61.931985, 6.70579], [-61.930815, 6.705109000000107], [-61.92971599999987, 6.704577], [-61.928831999999886, 6.70449], [-61.928314, 6.704630000000122], [-61.927565, 6.705357], [-61.92637699999989, 6.70593], [-61.925853, 6.706438000000162], [-61.925544999999886, 6.707319], [-61.925017, 6.708123000000114], [-61.924563, 6.708927000000187], [-61.923078, 6.70957], [-61.92159, 6.710433], [-61.919893, 6.710408], [-61.918859, 6.710541000000148], [-61.917742, 6.711262000000147], [-61.917214999999885, 6.711992000000123], [-61.917121, 6.713392000000169], [-61.917108, 6.714277], [-61.917902, 6.715469], [-61.918616, 6.717102000000182], [-61.91858999999988, 6.718871000000149], [-61.918292999999835, 6.724103000000184], [-61.917729, 6.72734000000014], [-61.91698, 6.728141000000107], [-61.916605, 6.728504000000157], [-61.914682, 6.728845], [-61.913146, 6.727937000000111], [-61.912193, 6.727555000000166], [-61.910862, 6.727757000000167], [-61.90975, 6.728109000000131], [-61.909209, 6.729798], [-61.90876, 6.73023400000011], [-61.908235, 6.730816000000118], [-61.907932, 6.731401], [-61.907339, 6.731540000000166], [-61.906155, 6.731818], [-61.905122, 6.731803], [-61.903646, 6.73185500000011], [-61.902463, 6.732059000000106], [-61.901867, 6.732419], [-61.900968, 6.733365], [-61.900151, 6.733795], [-61.899257, 6.734372000000178], [-61.898208, 6.735463], [-61.897758, 6.735973000000115], [-61.896486, 6.73717100000016], [-61.895214, 6.738406], [-61.893504, 6.73934], [-61.891787, 6.740716], [-61.889487, 6.741568000000143], [-61.88652899999988, 6.742040000000145], [-61.88497299999983, 6.742534000000148], [-61.883491, 6.742955000000165], [-61.88252299999988, 6.743604], [-61.881913, 6.744923], [-61.881291, 6.747126000000151], [-61.881204, 6.74801], [-61.881635, 6.748827000000176], [-61.882137, 6.749793000000182], [-61.88218599999988, 6.75149], [-61.88183, 6.755615000000148], [-61.881751, 6.760997], [-61.882, 6.764098], [-61.882498, 6.765359], [-61.882691, 6.76728], [-61.882133, 6.770111000000156], [-61.881276, 6.773196000000155], [-61.880735, 6.774884], [-61.880139, 6.7752440000001], [-61.87918, 6.77523], [-61.8774049999999, 6.775572], [-61.874279999999885, 6.77737000000019], [-61.872781, 6.778896000000145], [-61.872391, 6.780366], [-61.872373, 6.781545000000108], [-61.872653, 6.782582000000104], [-61.872179, 6.784713], [-61.870046, 6.789254], [-61.86844699999989, 6.792623000000106], [-61.867624, 6.793422000000135], [-61.866209, 6.794286], [-61.864942, 6.795152], [-61.86456, 6.796031], [-61.86331599999983, 6.800290000000132], [-61.86203499999988, 6.802115000000128], [-61.86054299999989, 6.80319900000012], [-61.859284999999886, 6.803475], [-61.857735999999875, 6.803452000000107], [-61.855969, 6.803205000000105], [-61.854134, 6.802587000000131], [-61.85340999999988, 6.801692000000173], [-61.852176, 6.800272], [-61.851003, 6.799812], [-61.850114, 6.800020000000188], [-61.848561, 6.800292000000127], [-61.847436, 6.801529000000187], [-61.845972, 6.805711000000144], [-61.845792, 6.807920000000138], [-61.84681, 6.808931000000143], [-61.848636, 6.810138000000165], [-61.850245999999856, 6.811047], [-61.851046, 6.811796], [-61.851386, 6.813719000000162], [-61.851352, 6.816004], [-61.85088, 6.817988], [-61.84967099999989, 6.819888], [-61.848157, 6.822446000000127], [-61.847027, 6.824052000000165], [-61.84612399999986, 6.825218000000177], [-61.844933, 6.825938], [-61.843678, 6.825993000000153], [-61.841909, 6.825892000000181], [-61.840581, 6.825873000000172], [-61.839326, 6.825928], [-61.838582, 6.826359], [-61.83687, 6.827366], [-61.835598, 6.828527], [-61.834391, 6.830278000000135], [-61.83312599999988, 6.830997000000139], [-61.831997999999885, 6.832455000000152], [-61.831961, 6.834888], [-61.83179299999989, 6.836286], [-61.830892, 6.837305000000185], [-61.83021599999989, 6.838106], [-61.829391, 6.839052], [-61.828933, 6.840078000000119], [-61.828938, 6.842161000000146], [-61.829127, 6.844339], [-61.8292229999999, 6.845336], [-61.82983, 6.846636], [-61.830776, 6.847535000000164], [-61.83205, 6.848660000000166], [-61.833181, 6.849525000000142], [-61.834119, 6.850940000000151], [-61.835023, 6.852134], [-61.835411, 6.853282000000149], [-61.83604899999989, 6.855062000000146], [-61.836401, 6.856191000000138], [-61.836785, 6.857598], [-61.836843, 6.858668], [-61.83742199999989, 6.859451], [-61.83804199999986, 6.859903000000145], [-61.83816, 6.860624], [-61.844819, 6.862137], [-61.84487699999988, 6.862118], [-61.84773799999982, 6.86495500000018], [-61.850786999999855, 6.866963], [-61.852913999999885, 6.869416000000115], [-61.854691, 6.87232500000016], [-61.85805, 6.876181000000145], [-61.860178, 6.885314000000164], [-61.86216, 6.903084000000149], [-61.863022, 6.906092000000172], [-61.86286999999987, 6.908279000000107], [-61.861995, 6.912757], [-61.862683, 6.919333000000108], [-61.864309, 6.924427], [-61.869436, 6.938562], [-61.871504, 6.93779], [-61.874674, 6.939339000000189], [-61.883335, 6.946967], [-61.893918, 6.962574], [-61.903752, 6.975173], [-61.90921699999984, 6.989659], [-61.914233, 6.996883], [-61.921713999999895, 7.006909], [-61.921404, 7.011742], [-61.92054899999988, 7.015068], [-61.921145, 7.020375000000115], [-61.92146799999989, 7.028328000000158], [-61.923074, 7.034688], [-61.923862, 7.042073], [-61.925897, 7.050169], [-61.92841799999985, 7.056429], [-61.92496199999988, 7.065011], [-61.923735, 7.070058], [-61.923987, 7.082272], [-61.91676399999989, 7.09747300000015], [-61.913671, 7.111589000000151], [-61.902976, 7.129498000000126], [-61.899995, 7.143731], [-61.9011, 7.152733], [-61.908916, 7.156545000000108], [-61.916169, 7.163677000000121], [-61.917886999999894, 7.172358], [-61.904823, 7.185343000000103], [-61.893512, 7.192258], [-61.889152, 7.198322000000132], [-61.893631, 7.202713], [-61.894777, 7.202501], [-61.902095, 7.202045000000169], [-61.908497, 7.201688000000104], [-61.91302, 7.204411], [-61.91491, 7.207551000000137], [-61.91905899999989, 7.212111000000107], [-61.924434, 7.211737], [-61.93079299999988, 7.214029], [-61.934113, 7.220417], [-61.984818, 7.255443000000184], [-61.991217, 7.255316000000164], [-61.998057, 7.256232000000125], [-62.00204999999988, 7.256527000000176], [-62.007734, 7.25823], [-62.011909, 7.261292], [-62.0148, 7.26606], [-62.01984199999987, 7.278925000000129], [-62.025491, 7.310228], [-62.023411, 7.318487], [-62.023831, 7.327592], [-62.022576, 7.334368], [-62.01544, 7.344389], [-62.013644, 7.349312], [-62.013527, 7.356336000000113], [-62.013736, 7.371196], [-62.015039, 7.375364000000104], [-62.01179699999989, 7.384756], [-62.007327, 7.390533]]]}}, {"type": "Feature", "properties": {"Pais": "Venezuela", "Estado": "Bol\u00edvar", "Municipio": "Roscio", "Parroquia": "Salom"}, "geometry": {"type": "Polygon", "coordinates": [[[-61.63879493999991, 7.946077775000049], [-61.644849221999834, 7.946640767000076], [-61.65185353699991, 7.945145701], [-61.65519963499992, 7.946104627000125], [-61.65540566099992, 7.945752346], [-61.65589644499994, 7.944906934000073], [-61.658979, 7.939597], [-61.661174975999984, 7.938439221000067], [-61.6666, 7.935579], [-61.669676, 7.936322000000132], [-61.674205, 7.932482000000164], [-61.680966, 7.931789], [-61.68141321699994, 7.931716594000079], [-61.694505, 7.929597], [-61.716522, 7.926625000000172], [-61.72854999999987, 7.925789], [-61.751613, 7.927977000000112], [-61.77220199999988, 7.929173000000105], [-61.775174, 7.928863], [-61.773151, 7.926757], [-61.771124, 7.924881], [-61.764457, 7.92005], [-61.760444999999834, 7.91388], [-61.761693, 7.907797000000187], [-61.76484, 7.904395], [-61.768228, 7.900305], [-61.776811, 7.893537000000151], [-61.78473099999985, 7.89194], [-61.796135999999876, 7.893971], [-61.803759, 7.889720000000182], [-61.808331, 7.876553000000172], [-61.814902, 7.873551000000134], [-61.824751999999876, 7.872907000000112], [-61.832346, 7.870268], [-61.828494, 7.868132000000116], [-61.82806, 7.866743], [-61.835241, 7.854768000000149], [-61.840262, 7.848747], [-61.842071, 7.843364000000179], [-61.843129, 7.841654], [-61.842197, 7.835881], [-61.843089, 7.830599], [-61.845577999999875, 7.825457], [-61.847135, 7.821336], [-61.849209, 7.82044900000011], [-61.849417, 7.814925], [-61.848729, 7.808349], [-61.849797, 7.806064], [-61.85235, 7.803917000000183], [-61.857092, 7.80077], [-61.85941799999989, 7.798505], [-61.86038, 7.795757], [-61.859643, 7.785264000000154], [-61.862063, 7.777473000000157], [-61.874958, 7.752233], [-61.874362, 7.740131], [-61.871719, 7.734099000000128], [-61.8678, 7.729198000000167], [-61.867184, 7.725042], [-61.86734, 7.722627], [-61.86491299999989, 7.717405000000156], [-61.862104, 7.71448], [-61.859841, 7.713061], [-61.858279, 7.710732000000121], [-61.85649099999989, 7.708283], [-61.85390399999983, 7.705823], [-61.852233, 7.703147000000115], [-61.850683, 7.70012700000018], [-61.848988, 7.698948], [-61.84800399999989, 7.689603], [-61.850144, 7.684801], [-61.851728, 7.679069], [-61.850181, 7.669140000000141], [-61.848561, 7.663585], [-61.845675, 7.658470000000136], [-61.845346, 7.657659], [-61.844677, 7.649932000000149], [-61.84074699999985, 7.639042], [-61.839111, 7.634408000000178], [-61.837366, 7.629428], [-61.837075, 7.626312], [-61.836901, 7.623085000000174], [-61.838532, 7.621384], [-61.837040999999886, 7.61491100000012], [-61.832435, 7.610113000000126], [-61.828142, 7.607164], [-61.82508899999988, 7.605156000000136], [-61.821894, 7.598914], [-61.81905299999988, 7.59711], [-61.816349999999886, 7.59464700000018], [-61.814823, 7.590361], [-61.815751, 7.582889], [-61.816143999999895, 7.573222], [-61.81618, 7.564470000000142], [-61.815324, 7.554321], [-61.810231, 7.558038000000181], [-61.806568, 7.565003], [-61.801359, 7.5688320000001], [-61.793642, 7.57884], [-61.789776, 7.590985], [-61.78980899999988, 7.595707000000118], [-61.786139999999875, 7.603017], [-61.786958, 7.608673000000181], [-61.783006, 7.612409], [-61.769826, 7.617114000000129], [-61.750665, 7.627472], [-61.73412599999989, 7.632630000000177], [-61.673984999999846, 7.676650000000166], [-61.659513, 7.681138], [-61.641795999999886, 7.680267], [-61.632716, 7.679100000000176], [-61.623413, 7.689920000000143], [-61.61417099999983, 7.69362800000016], [-61.60514199999989, 7.693579], [-61.587083, 7.693482000000188], [-61.578233999999895, 7.697534], [-61.576312, 7.705164], [-61.576837, 7.717093], [-61.56978199999986, 7.727738000000159], [-61.551481, 7.739255], [-61.53895, 7.753692000000171], [-61.51955923799994, 7.781095281000091], [-61.514868, 7.787725], [-61.5088619739999, 7.805010087000142], [-61.50864780599994, 7.805626455000152], [-61.50819, 7.806944], [-61.50035452599997, 7.808454704000098], [-61.492407227999934, 7.809986968999965], [-61.490288645999954, 7.810479857000075], [-61.51451173999993, 7.83180624400012], [-61.51937199599996, 7.841562487999965], [-61.53389269899998, 7.848374606000164], [-61.53507077799992, 7.852885722], [-61.539694003999955, 7.856649808000043], [-61.543147154999986, 7.855441756000118], [-61.546197278999955, 7.851117628999987], [-61.551605521999875, 7.84936656400015], [-61.55560570499995, 7.849550562000104], [-61.558079831999976, 7.851895607000074], [-61.558975906999876, 7.859510810000188], [-61.55969495399995, 7.864129929000171], [-61.56092704099996, 7.872097123000174], [-61.562329132999935, 7.876957251000135], [-61.56911345699996, 7.881448337000108], [-61.572196603999885, 7.881731339999988], [-61.57426771799993, 7.887524483000163], [-61.57556580199997, 7.891807595000159], [-61.58429324299988, 7.902895851000096], [-61.58953649599994, 7.904020856000045], [-61.5936496839999, 7.904320848000168], [-61.59575379599994, 7.908271950000028], [-61.60130506399997, 7.911359009000137], [-61.60417219099986, 7.910946981000109], [-61.611953556999936, 7.910847949000129], [-61.61504072599985, 7.917464106000125], [-61.61663182199993, 7.924631293000118], [-61.61967097599995, 7.927446357000179], [-61.63742284299997, 7.939490606999982], [-61.63879493999991, 7.946077775000049]]]}}]}