{"type": "FeatureCollection", "features": [{"type": "Feature", "properties": {"Pais": "Venezuela", "Estado": "Cojedes", "Municipio": "R\u00f3mulo Gallegos", "Parroquia": "R\u00f3mulo Gallegos"}, "geometry": {"type": "Polygon", "coordinates": [[[-68.629907, 9.617400000000146], [-68.62991996599999, 9.617375854999977], [-68.63019, 9.616873], [-68.629991, 9.61565300000018], [-68.629581, 9.614914000000113], [-68.629332, 9.614131], [-68.62973199999988, 9.613514000000123], [-68.62979803699994, 9.61353978800014], [-68.630933, 9.61398300000019], [-68.63217999999983, 9.614569000000188], [-68.63218553199994, 9.61456625300002], [-68.633181, 9.614072], [-68.634117, 9.612999000000116], [-68.633201, 9.611704], [-68.633259, 9.610372], [-68.635127, 9.608709], [-68.63776199999984, 9.606777000000136], [-68.638828, 9.606809000000112], [-68.63883599399998, 9.606833455000071], [-68.639167, 9.607846000000109], [-68.63921424599982, 9.607815877000178], [-68.639843, 9.607415000000117], [-68.64038899999986, 9.605880000000127], [-68.640374, 9.604914000000178], [-68.639847, 9.604174], [-68.64093999999989, 9.603747], [-68.64226199999985, 9.60362], [-68.642799, 9.60318800000016], [-68.64239099999986, 9.60212700000011], [-68.643108, 9.602248], [-68.64405699999986, 9.602394], [-68.64455, 9.601594], [-68.64467599999989, 9.600446000000147], [-68.64375599999983, 9.599633], [-68.64271899999989, 9.598981], [-68.642522, 9.597577], [-68.64235218699991, 9.596556194000186], [-68.642346, 9.596519000000114], [-68.641417, 9.596695000000125], [-68.6409895569999, 9.597329456000182], [-68.640971, 9.597357000000159], [-68.640237, 9.596524000000159], [-68.640244, 9.595650000000148], [-68.640323, 9.594594], [-68.639732, 9.59325600000011], [-68.640567, 9.593171], [-68.64060597799994, 9.593199552999977], [-68.641741, 9.594031000000143], [-68.642755, 9.594683], [-68.64276134699986, 9.59467067700001], [-68.643132, 9.593951], [-68.64334899999989, 9.592941000000167], [-68.64296463499988, 9.59200000300001], [-68.642963, 9.591996000000165], [-68.64191900199995, 9.591641096999979], [-68.641854, 9.591619], [-68.64172099999985, 9.590905000000134], [-68.6416852029999, 9.589738603000171], [-68.64168499999988, 9.589732], [-68.64009108399989, 9.589266041000144], [-68.640067, 9.589259], [-68.639028, 9.588791000000185], [-68.63868899999989, 9.587753], [-68.63834899999989, 9.58685400000013], [-68.637706, 9.586182000000122], [-68.637276, 9.58496], [-68.63714701899994, 9.584173413000144], [-68.63714399999986, 9.584155000000123], [-68.636496, 9.584080000000142], [-68.63545431999995, 9.583747489000075], [-68.635387, 9.583726000000127], [-68.635882, 9.582673], [-68.6371079999999, 9.58291300000019], [-68.637966, 9.582943], [-68.638113, 9.581979], [-68.63819099999989, 9.580969], [-68.63910099999987, 9.580264], [-68.639694, 9.578637], [-68.63915015499992, 9.577623730000084], [-68.639124, 9.577575000000138], [-68.63859073599991, 9.577890382000135], [-68.638588, 9.577892], [-68.637664, 9.577493000000118], [-68.63818199999986, 9.576601], [-68.63944, 9.575831], [-68.639631, 9.575074000000143], [-68.63892871199982, 9.574112557000092], [-68.638921, 9.574102], [-68.63797128999994, 9.573858269000027], [-68.637904, 9.573841], [-68.638121, 9.5729], [-68.638824, 9.571941], [-68.63953, 9.570683], [-68.63935365099996, 9.569741474000182], [-68.639353, 9.569738], [-68.638682, 9.569502], [-68.637958, 9.57021], [-68.636778, 9.570062], [-68.63540268899993, 9.569808200000182], [-68.635342, 9.569797000000165], [-68.634957, 9.56882700000017], [-68.636168, 9.568079000000125], [-68.637794, 9.567679], [-68.63829, 9.566626000000156], [-68.637951, 9.565589000000159], [-68.638955, 9.564701], [-68.639902, 9.565077], [-68.640976, 9.564143], [-68.642052, 9.56298], [-68.64263999999986, 9.561974], [-68.644064, 9.560676], [-68.64476799999989, 9.559647], [-68.646401, 9.558351], [-68.647817, 9.558087], [-68.649403, 9.556859], [-68.649256, 9.55499600000013], [-68.649797, 9.55408100000011], [-68.650409, 9.552937], [-68.651707, 9.552902], [-68.651649, 9.551522], [-68.650638, 9.550526000000104], [-68.651116, 9.548783000000128], [-68.652749, 9.547609], [-68.65280371899996, 9.547642691000021], [-68.6541749999999, 9.548487], [-68.65417514399991, 9.548472133000075], [-68.654193, 9.54662500000012], [-68.655081, 9.545782], [-68.655672, 9.544385], [-68.656215, 9.54324], [-68.656392, 9.541472], [-68.657279, 9.540721000000133], [-68.657311, 9.539687000000185], [-68.657487, 9.538056], [-68.6584739999999, 9.536433], [-68.659154, 9.535381], [-68.659461, 9.534740000000113], [-68.66016699999983, 9.53341300000011], [-68.66045899999983, 9.531782], [-68.660127, 9.529987000000176], [-68.659373, 9.528647000000149], [-68.659271, 9.527106000000174], [-68.65856, 9.526158], [-68.65850199999988, 9.52489300000019], [-68.659367, 9.523935000000165], [-68.65949, 9.52304], [-68.660027, 9.522562], [-68.66008875199992, 9.522591843000157], [-68.66104299999984, 9.523053], [-68.66105438999989, 9.523052550000159], [-68.66296599999987, 9.52297700000014], [-68.664429, 9.522622], [-68.66365325199996, 9.521770763000063], [-68.663648, 9.521765], [-68.662008, 9.521222], [-68.66064745599988, 9.520992396000054], [-68.660574, 9.52098], [-68.661021, 9.520157], [-68.661724, 9.519151], [-68.662743, 9.519275], [-68.664183, 9.518781], [-68.6643059999999, 9.517932000000144], [-68.663804, 9.517031], [-68.663904, 9.516181], [-68.665136, 9.515732000000185], [-68.666225, 9.515741], [-68.66625499999986, 9.51496], [-68.664946, 9.513478], [-68.66414, 9.512942], [-68.66438099999988, 9.511864], [-68.664484, 9.51064700000012], [-68.66403, 9.509471000000133], [-68.663856, 9.508159], [-68.66399, 9.506046], [-68.664032, 9.503748], [-68.664077, 9.501151], [-68.664351, 9.498923000000104], [-68.664162, 9.496554], [-68.663063, 9.495028], [-68.662478, 9.493046], [-68.662683, 9.490634000000114], [-68.66300299999989, 9.48843], [-68.663649, 9.485999000000163], [-68.663524, 9.484343], [-68.6633369999999, 9.481813], [-68.663246, 9.478801], [-68.66329499999989, 9.475745000000131], [-68.66269, 9.473418000000152], [-68.661553, 9.470857], [-68.660375, 9.467652], [-68.65938199999988, 9.464587], [-68.658518, 9.462695], [-68.657704, 9.460229], [-68.65654499999988, 9.457576000000131], [-68.655663, 9.455132], [-68.654684, 9.453124], [-68.654125, 9.450729], [-68.65388599999989, 9.448842000000127], [-68.653947, 9.447072], [-68.653456, 9.444838000000118], [-68.653034, 9.442697], [-68.6528919999999, 9.440282], [-68.652727, 9.437821], [-68.65225938899994, 9.436090641000135], [-68.652253, 9.436067], [-68.62847288099988, 9.435157825000033], [-68.62839899999989, 9.435155], [-68.628904, 9.43362100000013], [-68.629178, 9.43248], [-68.62840086799997, 9.431494057000123], [-68.628389, 9.431479], [-68.62707099999989, 9.431215], [-68.62609778399991, 9.430840326000123], [-68.6260319999999, 9.430815000000166], [-68.625508, 9.42984500000017], [-68.62460473299984, 9.429310687000111], [-68.62456299999985, 9.429286000000104], [-68.62353839599996, 9.42923420500017], [-68.623475, 9.429231000000186], [-68.623367, 9.428287], [-68.622846, 9.426881], [-68.621995, 9.426184000000148], [-68.621474, 9.424846000000116], [-68.62069899999989, 9.423346000000151], [-68.619386, 9.42243800000017], [-68.61844799999989, 9.421097], [-68.61827599999987, 9.419533000000172], [-68.61835599999989, 9.418338], [-68.617888, 9.416196], [-68.617878, 9.414702], [-68.617798, 9.413208000000111], [-68.618274, 9.411649000000125], [-68.618427, 9.409995], [-68.618145, 9.407855], [-68.618432, 9.406754], [-68.61879, 9.405562], [-68.61901, 9.404116000000158], [-68.618957, 9.402231000000143], [-68.619665, 9.400697], [-68.62038799999982, 9.400151000000164], [-68.622152, 9.399637], [-68.62288, 9.39847], [-68.622246, 9.396787000000188], [-68.621477, 9.394620000000145], [-68.61888418899991, 9.393519960000049], [-68.618823, 9.393494], [-68.61758772399992, 9.393461593000097], [-68.61752699999988, 9.39346], [-68.617305, 9.39233200000018], [-68.61746330999995, 9.390022065000096], [-68.617464, 9.390012], [-68.61677, 9.389845], [-68.61526999999984, 9.389258], [-68.6138842169999, 9.389005002000033], [-68.61381299999988, 9.388992], [-68.614143, 9.38826], [-68.61365117899999, 9.388050998000153], [-68.61359, 9.388025000000141], [-68.61223877599986, 9.388035512000101], [-68.612176, 9.38803600000017], [-68.612002, 9.386724000000129], [-68.6097, 9.38505], [-68.607811, 9.383862000000136], [-68.606759, 9.382267000000127], [-68.605962, 9.380697000000112], [-68.604468, 9.379397], [-68.603527, 9.378378], [-68.601732, 9.3771440000001], [-68.599866, 9.375933], [-68.598763, 9.374889], [-68.59725408999998, 9.373457726000083], [-68.597247, 9.373451000000102], [-68.59534620999989, 9.372834187000137], [-68.59528399999988, 9.372814000000119], [-68.59453611299989, 9.371551630000113], [-68.59453099999985, 9.371543000000145], [-68.592683, 9.371021], [-68.59108785699988, 9.370561498000086], [-68.591041, 9.370548], [-68.58832299999983, 9.368846], [-68.5869239999999, 9.36727100000013], [-68.585385, 9.36583300000018], [-68.584806, 9.363162000000159], [-68.583623, 9.360738], [-68.582805, 9.358938], [-68.583786, 9.357981000000109], [-68.584279, 9.357135000000142], [-68.58301, 9.356596], [-68.583157, 9.355701000000124], [-68.583859, 9.354787], [-68.58497, 9.354935000000182], [-68.58500408699985, 9.35495607100006], [-68.586214, 9.355704], [-68.5862148249999, 9.355689045000133], [-68.58632299999988, 9.353728000000103], [-68.585523, 9.352503], [-68.584781, 9.349968], [-68.584013, 9.347685000000183], [-68.58386799999988, 9.345753], [-68.58293196199998, 9.345224058000099], [-68.58287699999988, 9.345193], [-68.581598, 9.345780000000104], [-68.580338, 9.34691800000013], [-68.57855711599996, 9.346260413000152], [-68.578491, 9.346236], [-68.578945, 9.344653000000108], [-68.57863762299996, 9.343032828], [-68.578635, 9.343019], [-68.57695723699999, 9.342692930000112], [-68.576901, 9.342682000000138], [-68.576376, 9.341827], [-68.577499, 9.340550000000121], [-68.577232, 9.339214], [-68.57669251599992, 9.338560594000171], [-68.576659, 9.338520000000187], [-68.57505932399982, 9.33925150500005], [-68.575032, 9.339264000000128], [-68.574527, 9.338754], [-68.573689, 9.336563], [-68.573722, 9.335483], [-68.573592, 9.334379], [-68.57249790999998, 9.333020340000076], [-68.572492, 9.333013000000165], [-68.57087499999989, 9.332517000000166], [-68.569439, 9.332596000000137], [-68.569289, 9.33379], [-68.569552, 9.335585], [-68.56857899999983, 9.335531000000117], [-68.56759799499991, 9.335218476000023], [-68.56753999999984, 9.3352000000001], [-68.566483, 9.334226000000172], [-68.565407, 9.332837], [-68.56479699999988, 9.331131], [-68.564814, 9.329109], [-68.566221, 9.3284], [-68.565956, 9.326796], [-68.565164, 9.326182], [-68.563837, 9.32525], [-68.563347, 9.324703], [-68.56250899999986, 9.324135000000126], [-68.56113099999988, 9.322401000000184], [-68.56000595099988, 9.32163163600012], [-68.55996699999986, 9.321605], [-68.558461, 9.321661], [-68.556913, 9.322245], [-68.555876, 9.323123], [-68.55482272899991, 9.322826118000023], [-68.55476199999987, 9.322809000000177], [-68.55412926799994, 9.32166488200005], [-68.554105, 9.321621000000107], [-68.552789, 9.322203000000115], [-68.551699, 9.322187], [-68.55045966999995, 9.321780241000056], [-68.550398, 9.32176], [-68.54951099999988, 9.32071], [-68.549968, 9.319836], [-68.550264, 9.31900800000011], [-68.551049, 9.318567], [-68.551854, 9.317461], [-68.550965, 9.316457], [-68.550499, 9.31602400000014], [-68.55105299999985, 9.31567600000011], [-68.551165, 9.315102], [-68.55050370999999, 9.314056987000185], [-68.550486, 9.314029], [-68.54997894499996, 9.314054850000105], [-68.549976, 9.31405500000011], [-68.54914, 9.313716000000113], [-68.548485, 9.312757], [-68.549105, 9.311973000000137], [-68.549703, 9.311304], [-68.549719, 9.310180000000116], [-68.54849797599991, 9.308491853000135], [-68.54848, 9.308467000000121], [-68.54727524599991, 9.308453518000078], [-68.547229, 9.308453], [-68.546738, 9.307837], [-68.54668915199983, 9.307222092000131], [-68.546687, 9.307195], [-68.545576, 9.307225], [-68.54434935099994, 9.306985152000095], [-68.544323, 9.30698], [-68.54339299999987, 9.30650500000013], [-68.54340983999992, 9.305550063999988], [-68.54341, 9.305541000000176], [-68.54246773999995, 9.3053087400001], [-68.542412, 9.305295], [-68.54147799999987, 9.304223], [-68.54105599999986, 9.303446000000179], [-68.540496, 9.302876], [-68.54040402499999, 9.302144891000069], [-68.540398, 9.302097000000117], [-68.539474, 9.302447000000143], [-68.53804243199983, 9.302500966000139], [-68.538015, 9.302502], [-68.536828, 9.301684], [-68.53626499999984, 9.300679], [-68.53568572599994, 9.300280519000182], [-68.53563699999984, 9.300247000000184], [-68.53459799999985, 9.300758], [-68.534003, 9.30186300000014], [-68.533125, 9.302259], [-68.531992, 9.302633], [-68.53090372999998, 9.302860643000145], [-68.530859, 9.302870000000155], [-68.529922, 9.301293], [-68.52894637899993, 9.300579827000092], [-68.52889599999986, 9.300543000000175], [-68.52714399999985, 9.301816000000144], [-68.52610983999989, 9.302346339000053], [-68.526013, 9.302396000000158], [-68.526879, 9.30028], [-68.52698495899995, 9.299086984000098], [-68.526987, 9.299064000000158], [-68.524693, 9.298987000000182], [-68.523377, 9.299661000000185], [-68.52208614399996, 9.300424731000021], [-68.522084, 9.300426], [-68.52143399999983, 9.300155000000188], [-68.522077, 9.299256], [-68.52168592199996, 9.298361409000051], [-68.521677, 9.298341], [-68.52046388499991, 9.29823732300008], [-68.520425, 9.298234], [-68.519866, 9.297779], [-68.519837, 9.296885], [-68.519626, 9.29645], [-68.518463, 9.295838], [-68.51847899999984, 9.294714000000113], [-68.518541, 9.293543], [-68.51662976999995, 9.292276345000175], [-68.516587, 9.292248], [-68.51380232099996, 9.292512975000022], [-68.51373899999987, 9.292519], [-68.51368799999983, 9.291785], [-68.51317, 9.290595], [-68.51260899999988, 9.289842], [-68.511792, 9.288907000000165], [-68.511043, 9.287627000000157], [-68.51094529599999, 9.28685035500007], [-68.51094499999988, 9.286848], [-68.50952382599996, 9.286330601000088], [-68.509459, 9.286307], [-68.509315, 9.285619], [-68.5094969999999, 9.284999000000141], [-68.50968, 9.284631], [-68.509676, 9.284011], [-68.508558, 9.283285], [-68.507671, 9.28232700000018], [-68.507618, 9.281295], [-68.508145, 9.280305], [-68.5071720339999, 9.279487398000072], [-68.507143, 9.279463], [-68.50571818199995, 9.279405354000062], [-68.50566, 9.279403], [-68.505258, 9.278213000000164], [-68.504555, 9.276933], [-68.505012, 9.276013], [-68.506747, 9.275543], [-68.506926, 9.274624000000188], [-68.507311, 9.273176], [-68.508259, 9.27301], [-68.509183, 9.272614000000146], [-68.50973799999986, 9.272450000000106], [-68.509734, 9.271762], [-68.5105329999999, 9.269807], [-68.51173399999988, 9.26934000000017], [-68.51177136199988, 9.269376517000069], [-68.512574, 9.270161], [-68.51262115599991, 9.27016883000016], [-68.51364, 9.270338000000152], [-68.513838, 9.268639], [-68.514712, 9.267647], [-68.516378, 9.26743], [-68.517095, 9.26731], [-68.516601, 9.266052], [-68.51543595699997, 9.265518145000044], [-68.515416, 9.265509], [-68.51422569199991, 9.265080907000083], [-68.514162, 9.265058], [-68.513437, 9.263962000000163], [-68.513478, 9.263159000000144], [-68.51261499999987, 9.262338], [-68.511754, 9.261748000000125], [-68.511185, 9.259916], [-68.5116956789999, 9.259226728000044], [-68.511714, 9.25920200000013], [-68.5101221079999, 9.259189420000155], [-68.510069, 9.259189000000106], [-68.509529, 9.25816], [-68.509733, 9.257402], [-68.509634, 9.256485], [-68.5096, 9.254880000000128], [-68.510588, 9.253589], [-68.51074199999988, 9.252395], [-68.51098799999988, 9.250971000000163], [-68.510568, 9.250492000000122], [-68.509941, 9.250221], [-68.50877499999984, 9.249012], [-68.508584, 9.248141000000146], [-68.50871467699983, 9.246995828000024], [-68.508715, 9.246993], [-68.507879, 9.2467], [-68.50659946299987, 9.247344222000095], [-68.506586, 9.247351000000151], [-68.505679, 9.246783], [-68.50569091199992, 9.245029909000039], [-68.505691, 9.245017], [-68.5046417719999, 9.24480772000004], [-68.504578, 9.244795], [-68.504384, 9.24358], [-68.504631, 9.242386000000181], [-68.50420087799984, 9.241414850000126], [-68.504185, 9.241379], [-68.50301170699993, 9.24161014800012], [-68.502982, 9.241616], [-68.50226, 9.240979000000152], [-68.502171, 9.240138000000172], [-68.50109268799997, 9.239624109000033], [-68.50104, 9.239599000000169], [-68.499812, 9.239518], [-68.498896, 9.241071], [-68.49824060999998, 9.241087580000055], [-68.498224, 9.241088000000104], [-68.49644699999988, 9.240129000000138], [-68.495048, 9.238393], [-68.49353799999989, 9.235944], [-68.49387499999989, 9.234363], [-68.492984, 9.232792], [-68.49333907799996, 9.231191691000049], [-68.493345, 9.231165], [-68.491235, 9.231191], [-68.490332, 9.231136000000163], [-68.48903129599995, 9.232197860000099], [-68.489025, 9.232203], [-68.48794463799993, 9.231643698000084], [-68.487895, 9.231618], [-68.487107, 9.231611], [-68.48534772099998, 9.23212296500003], [-68.485272, 9.232145000000173], [-68.48553699999985, 9.230838], [-68.48439, 9.229495], [-68.484137, 9.229240000000175], [-68.482715, 9.227435000000185], [-68.482281, 9.226673], [-68.482064, 9.22481], [-68.480337, 9.223508], [-68.482039, 9.222192000000177], [-68.482971, 9.221581], [-68.482568, 9.219785000000172], [-68.48168230699986, 9.21803752400018], [-68.481679, 9.218031000000167], [-68.479968, 9.21751], [-68.477716, 9.218016000000148], [-68.475979, 9.218], [-68.47378427299998, 9.21880586900005], [-68.473724, 9.218828], [-68.47353, 9.21703500000018], [-68.47367787799988, 9.215828160000115], [-68.47367899999989, 9.215819], [-68.471737, 9.215341], [-68.47082033799995, 9.215970966000043], [-68.470781, 9.215998000000184], [-68.46981148099997, 9.214036232000012], [-68.4698, 9.214013], [-68.469082, 9.213983], [-68.46754265399994, 9.214147965000109], [-68.467505, 9.214152000000183], [-68.46667799999989, 9.213294], [-68.46775699999989, 9.211605000000134], [-68.466694, 9.208494], [-68.46653, 9.205805], [-68.46533999999986, 9.204048000000114], [-68.46382, 9.20284], [-68.46183999999988, 9.201282], [-68.462706, 9.20018800000014], [-68.462456, 9.199634000000117], [-68.462559, 9.198372000000177], [-68.463649, 9.198244], [-68.463947, 9.195812000000103], [-68.462978, 9.195251], [-68.46226846299999, 9.194534705000024], [-68.462243, 9.194509], [-68.460019, 9.194488000000149], [-68.45761797599988, 9.194074856000043], [-68.457613, 9.194074000000171], [-68.45564263699987, 9.193253662000131], [-68.455581, 9.193228], [-68.45492451399997, 9.193156212000076], [-68.454886, 9.193152000000111], [-68.45313699999986, 9.191734], [-68.451294, 9.190453], [-68.44947699999989, 9.188622], [-68.447873, 9.186493000000155], [-68.446285, 9.1851], [-68.444488, 9.18386500000014], [-68.443158, 9.18219900000014], [-68.442733, 9.180426000000182], [-68.442831, 9.176867], [-68.442292, 9.174887000000183], [-68.442628, 9.173374], [-68.44218524199982, 9.17250013500012], [-68.442172, 9.172474], [-68.44096939499985, 9.172484773000065], [-68.440944, 9.172485], [-68.44030408899994, 9.172074753000118], [-68.440253, 9.172042000000147], [-68.43938294899993, 9.17246254000014], [-68.439322, 9.172492], [-68.439153, 9.170538], [-68.439216, 9.168564000000117], [-68.438944, 9.167757000000165], [-68.438637, 9.165664000000163], [-68.436951, 9.165005000000178], [-68.435661, 9.164143], [-68.435946, 9.163273], [-68.43734499999988, 9.162207000000137], [-68.438328, 9.16095300000012], [-68.437625, 9.159109000000115], [-68.436244, 9.158016], [-68.435675, 9.156816000000106], [-68.43647699999985, 9.15498700000012], [-68.4361909999999, 9.153215], [-68.435836, 9.15126000000015], [-68.436078, 9.149999], [-68.435949, 9.148756000000105], [-68.435894, 9.147033], [-68.436026, 9.145105000000171], [-68.435964, 9.144163], [-68.434333, 9.142425000000117], [-68.434416, 9.140818], [-68.433456, 9.139316], [-68.433331, 9.137523], [-68.433526, 9.136331], [-68.431869, 9.134891], [-68.431945, 9.134087000000136], [-68.433419, 9.132425000000126], [-68.435424, 9.130975], [-68.436472, 9.130204], [-68.437756, 9.129022000000134], [-68.439452, 9.12851], [-68.437239, 9.127134], [-68.4372709999999, 9.126031], [-68.43797199999989, 9.125372], [-68.438676, 9.124208], [-68.438295, 9.122665], [-68.43709799999988, 9.121666], [-68.437296, 9.120198], [-68.436956, 9.119207000000188], [-68.43689399999988, 9.118357000000174], [-68.4372709999999, 9.11758], [-68.43864699999989, 9.116467000000114], [-68.43888899999985, 9.11523000000011], [-68.439441, 9.112823], [-68.438712, 9.111369], [-68.438145, 9.109825000000171], [-68.437795, 9.107409], [-68.437702, 9.104537000000164], [-68.43810699999989, 9.103163000000166], [-68.43677, 9.102255000000184], [-68.435801, 9.101763000000119], [-68.435552, 9.101117000000158], [-68.43589999999989, 9.09820400000018], [-68.43519679799988, 9.09666194200014], [-68.435195, 9.096658000000161], [-68.43323917099991, 9.095991461000153], [-68.433185, 9.095973000000129], [-68.43143304099993, 9.094881072000021], [-68.431388, 9.094853], [-68.43021124399985, 9.094978335000178], [-68.430205, 9.094979000000137], [-68.427828, 9.093923000000188], [-68.427608, 9.092543], [-68.42602599999987, 9.090552000000116], [-68.42537, 9.088639000000114], [-68.423998, 9.086444], [-68.422087, 9.085116000000141], [-68.420732, 9.08363300000019], [-68.42122599999988, 9.082765000000109], [-68.420866, 9.081476], [-68.419784, 9.080615], [-68.418526, 9.078674], [-68.417073, 9.078017], [-68.415434, 9.077174], [-68.41435399999983, 9.076153], [-68.413002, 9.074417], [-68.41215599999987, 9.072985], [-68.411591, 9.07139500000011], [-68.41058164099996, 9.069489306000037], [-68.410564, 9.069456000000116], [-68.40783863799987, 9.069905290000122], [-68.407804, 9.069911000000104], [-68.40601320899998, 9.06812612900012], [-68.405989, 9.06810200000018], [-68.403581, 9.068032], [-68.40295092899993, 9.067817430000048], [-68.402888, 9.067796], [-68.40165299999984, 9.065993000000105], [-68.401177, 9.064656000000127], [-68.40003099999984, 9.063267000000167], [-68.397892, 9.061408], [-68.39685483599993, 9.06033744300015], [-68.3968359999999, 9.060318], [-68.39569049899995, 9.06017612200003], [-68.395633, 9.060169000000144], [-68.395405, 9.059638], [-68.39507093099996, 9.058213296000133], [-68.395065, 9.058188], [-68.39464, 9.058187], [-68.394652, 9.05823], [-68.388718, 9.061594], [-68.387433, 9.062937], [-68.386362, 9.063569], [-68.384759, 9.064105], [-68.384062, 9.064419], [-68.382806, 9.065096000000153], [-68.382638, 9.065760000000182], [-68.383384, 9.067996000000107], [-68.3832139999999, 9.068867], [-68.38284, 9.069368000000111], [-68.381655, 9.069816], [-68.37999545999998, 9.070324184000185], [-68.379983, 9.070328000000131], [-68.37866899999989, 9.069603], [-68.377984, 9.068379000000164], [-68.377666, 9.067595000000154], [-68.376606, 9.066987], [-68.37570830899989, 9.066103962000057], [-68.375687, 9.066083000000106], [-68.374437, 9.065956], [-68.37250799999987, 9.06674], [-68.37087604099992, 9.066859292000174], [-68.37083899999988, 9.066862], [-68.37031, 9.066351], [-68.370529, 9.065136], [-68.37075499999986, 9.06298], [-68.370762, 9.062176000000136], [-68.369499, 9.060877000000119], [-68.36856, 9.059674], [-68.36767195099992, 9.059000973000025], [-68.36763899999988, 9.058976], [-68.3658789999999, 9.058958000000132], [-68.365756, 9.059830000000147], [-68.36572199999989, 9.061093], [-68.364697, 9.061840000000188], [-68.363443, 9.062241], [-68.36189731299999, 9.062248851], [-68.361868, 9.062249000000122], [-68.3609699999999, 9.061620000000119], [-68.36049660599991, 9.06095961], [-68.360489, 9.060949], [-68.358987, 9.060567], [-68.35815, 9.060949], [-68.357629, 9.063035000000127], [-68.35764227899989, 9.063073299], [-68.358052, 9.064255000000173], [-68.35881099999989, 9.064998], [-68.360447, 9.065910000000144], [-68.36046870699982, 9.065910948000067], [-68.362485, 9.065999], [-68.364425, 9.066615], [-68.366273, 9.067230000000109], [-68.36812, 9.067915000000141], [-68.36812496699986, 9.067917849000082], [-68.369342, 9.068616], [-68.37114, 9.069759000000147], [-68.372914, 9.07081], [-68.37345999999985, 9.072055], [-68.373725, 9.07362], [-68.374392, 9.076888], [-68.373911, 9.078973], [-68.37298948499989, 9.079224408000073], [-68.372936, 9.079239], [-68.37258078899993, 9.078034243000104], [-68.372576, 9.0780180000001], [-68.371327, 9.077822], [-68.369727, 9.078036000000168], [-68.367914, 9.078638], [-68.36612, 9.079907000000105], [-68.365598, 9.081371], [-68.36683999999985, 9.082463000000189], [-68.368913, 9.083793], [-68.36894738799987, 9.083798474], [-68.370603, 9.08406200000013], [-68.372524, 9.084242000000131], [-68.37252848599996, 9.084262189000128], [-68.3728359999999, 9.08564600000011], [-68.37279899999987, 9.087345], [-68.373574, 9.088868], [-68.37210997099999, 9.089306421], [-68.372088, 9.089313000000118], [-68.37131742799994, 9.08873459300014], [-68.371282, 9.088708000000167], [-68.370518, 9.08872300000013], [-68.370559, 9.089275], [-68.37061850099991, 9.089502588000187], [-68.370896, 9.090564], [-68.37167099999988, 9.091996], [-68.37212199999988, 9.093447], [-68.37217087199997, 9.093419845000028], [-68.373542, 9.092658000000142], [-68.37358899999987, 9.09269435800013], [-68.374624, 9.093495000000132], [-68.37465060699986, 9.093491003000054], [-68.375343, 9.093387], [-68.375217, 9.091778000000147], [-68.3759189999999, 9.090912], [-68.37598236399992, 9.090940767000063], [-68.37741899999986, 9.091593000000103], [-68.37742308599991, 9.091591101000063], [-68.37862799999988, 9.091031000000157], [-68.37867114599999, 9.091067515000077], [-68.37961699999983, 9.091868000000147], [-68.37891399999984, 9.092871000000173], [-68.376497, 9.093812], [-68.375055, 9.094556000000125], [-68.375324, 9.095639], [-68.37679899999989, 9.096457], [-68.378023, 9.096929], [-68.37900899999988, 9.098178000000132], [-68.379268, 9.10036300000013], [-68.379002, 9.101715], [-68.37808499999988, 9.103337000000181], [-68.376731, 9.104587], [-68.375984, 9.105269000000135], [-68.375395, 9.106526], [-68.375823, 9.107977], [-68.37549, 9.109007000000133], [-68.37426773899989, 9.10890530800009], [-68.37424, 9.108903], [-68.37318230099999, 9.108255565999968], [-68.37313399999988, 9.108226], [-68.37155499999989, 9.108601000000135], [-68.372187, 9.110606000000132], [-68.371732, 9.112392000000114], [-68.371074, 9.113534], [-68.369586, 9.114117], [-68.368485, 9.115599], [-68.366978, 9.115814000000114], [-68.36488999999989, 9.116046], [-68.363355, 9.116766000000155], [-68.3624779999999, 9.119168000000116], [-68.361447, 9.120536000000186], [-68.361527, 9.122053000000108], [-68.362075, 9.123000000000104], [-68.363061, 9.124158], [-68.363166, 9.125514000000123], [-68.36171499999989, 9.127222], [-68.361565, 9.12853], [-68.36163129199991, 9.1285548890001], [-68.362697, 9.128955], [-68.364176, 9.129497000000129], [-68.36418001899995, 9.129500571], [-68.365118, 9.130334000000119], [-68.365082, 9.131941], [-68.364033, 9.132711], [-68.363725, 9.133535000000109], [-68.36475999999988, 9.134372], [-68.3648859999999, 9.135936000000186], [-68.36534099999989, 9.136951000000124], [-68.36540326999989, 9.13696928700017], [-68.365988, 9.137141], [-68.366941, 9.136737], [-68.3669951679999, 9.136766967000085], [-68.367702, 9.137158], [-68.36822299999989, 9.138587000000143], [-68.367937, 9.139503000000104], [-68.36800976699993, 9.139504970000075], [-68.36930399999989, 9.139540000000125], [-68.3695919999999, 9.138302], [-68.3702669999999, 9.137918], [-68.37116999999989, 9.137973000000159], [-68.3711763209999, 9.137994585000058], [-68.37144, 9.138895], [-68.37085, 9.140267], [-68.370468, 9.141549000000111], [-68.371158, 9.142153000000178], [-68.37119389699996, 9.142152260999978], [-68.372664, 9.142122], [-68.37271715399993, 9.142147551000164], [-68.373933, 9.142732], [-68.374851, 9.143751], [-68.37486899999982, 9.144372], [-68.373549, 9.144336000000123], [-68.37309199999987, 9.146375], [-68.373545, 9.147597000000133], [-68.374182, 9.149004000000161], [-68.373941, 9.150081000000114], [-68.37302087399985, 9.150072282999986], [-68.372991, 9.150072], [-68.37222330799995, 9.149533041000154], [-68.372162, 9.14949], [-68.371851, 9.150727], [-68.371906, 9.152358], [-68.37197136399988, 9.152372744], [-68.3729699999999, 9.152598000000182], [-68.373974, 9.151689], [-68.37401259899991, 9.151739155000087], [-68.374455, 9.152314000000104], [-68.37448140899988, 9.15228830500007], [-68.375343, 9.15145], [-68.37538431399997, 9.151499405000152], [-68.376834, 9.153233000000114], [-68.377657, 9.154528], [-68.378249, 9.155705], [-68.378605, 9.157477], [-68.37986699999982, 9.158936], [-68.381107, 9.160257], [-68.38204499999989, 9.161645], [-68.381939, 9.16332], [-68.38245599999988, 9.165186], [-68.38250415399995, 9.165146459000084], [-68.3835069999999, 9.164323], [-68.384463, 9.163506000000154], [-68.38449514099995, 9.163560114000177], [-68.385149, 9.164661000000137], [-68.385972, 9.165909], [-68.387029, 9.166953], [-68.386409, 9.169083000000114], [-68.386743, 9.170694], [-68.387039, 9.171340000000157], [-68.38708341499995, 9.171319942000082], [-68.388434, 9.17071], [-68.3884783659999, 9.170745460000148], [-68.388987, 9.171152], [-68.389231, 9.172464], [-68.388739, 9.173079000000143], [-68.386978, 9.173131000000183], [-68.386025, 9.173489000000131], [-68.38587699999988, 9.174544], [-68.386566, 9.175308], [-68.387988, 9.177022], [-68.388005, 9.17778], [-68.387764, 9.18161300000014], [-68.388469, 9.183275], [-68.389599, 9.183814], [-68.38960743399997, 9.183811919000107], [-68.39148, 9.183350000000132], [-68.39292099999989, 9.182813000000124], [-68.39296562099992, 9.18284606200001], [-68.393612, 9.183325], [-68.39411699999988, 9.1838580000001], [-68.394829, 9.184554000000105], [-68.39488412599997, 9.184568684999988], [-68.396263, 9.184936000000107], [-68.397767, 9.185088], [-68.39780129899998, 9.185109998000144], [-68.39915, 9.185975], [-68.39918618799993, 9.18598104299997], [-68.4001679999999, 9.186145000000124], [-68.40023273999992, 9.186169986000095], [-68.40120699999989, 9.186546], [-68.401083, 9.187624000000142], [-68.401142, 9.188842], [-68.40165, 9.189054000000112], [-68.40165121999996, 9.18905216000013], [-68.402588, 9.187639000000104], [-68.403427, 9.187188000000106], [-68.40345101399993, 9.187235427000019], [-68.40390599999989, 9.188134], [-68.403359, 9.189805], [-68.403558, 9.190933], [-68.40361664699986, 9.190920653000148], [-68.405021, 9.190625], [-68.40633, 9.189214], [-68.407931, 9.188931], [-68.40795975899994, 9.188962727000103], [-68.409171, 9.190299], [-68.409228, 9.191746000000137], [-68.40811799999989, 9.19146], [-68.407099, 9.191427], [-68.407391, 9.192509], [-68.40641429599998, 9.193505616000039], [-68.40640999999988, 9.19351], [-68.40534796499992, 9.192993360000116], [-68.405302, 9.192971], [-68.40403, 9.192775000000154], [-68.401379, 9.193759], [-68.401618, 9.19571400000018], [-68.402852, 9.197862], [-68.403812, 9.199387000000115], [-68.40457299999986, 9.199923], [-68.40458538799999, 9.199911201000077], [-68.405647, 9.198900000000151], [-68.406436, 9.198793], [-68.40645367599996, 9.198824971000079], [-68.406755, 9.199370000000158], [-68.406168, 9.200306000000126], [-68.406415, 9.201296000000184], [-68.40647452499996, 9.201297714000134], [-68.407596, 9.201330000000155], [-68.408837, 9.199735000000146], [-68.40889909299995, 9.199764954000159], [-68.410684, 9.20062600000017], [-68.41167, 9.201875], [-68.409947, 9.202846], [-68.409054, 9.204376], [-68.40827599999989, 9.205999], [-68.408843, 9.207406000000162], [-68.40890750499995, 9.207428938000078], [-68.410969, 9.208162000000186], [-68.41099461399995, 9.208173436000038], [-68.41249199999987, 9.208842000000118], [-68.412991, 9.210179], [-68.412772, 9.211394], [-68.412507, 9.212701], [-68.4125752139999, 9.212714819000041], [-68.414057, 9.213015], [-68.415453, 9.212316000000158], [-68.416254, 9.210625], [-68.417673, 9.209995000000163], [-68.41772747699997, 9.210025808000012], [-68.418665, 9.210556], [-68.41856, 9.211979000000156], [-68.418809, 9.212717000000112], [-68.41886128399989, 9.212701925000033], [-68.420505, 9.212228000000152], [-68.42051491099994, 9.212269954000078], [-68.42072799999988, 9.2131720000001], [-68.41876799999983, 9.214898000000119], [-68.41885324099997, 9.21490693100003], [-68.420944, 9.215126000000112], [-68.42095580699993, 9.215146104000041], [-68.421378, 9.215865000000178], [-68.420969, 9.217676], [-68.420312, 9.218657], [-68.419374, 9.220026000000189], [-68.419503, 9.221244], [-68.418868, 9.222409], [-68.418484, 9.224013], [-68.418634, 9.225462], [-68.418092, 9.226582000000121], [-68.41694799999988, 9.227604000000156], [-68.416775, 9.228912], [-68.417467, 9.229263000000117], [-68.41747484799993, 9.229259621000097], [-68.41939699999989, 9.228432000000112], [-68.41940539599989, 9.228483009000115], [-68.419662, 9.230042], [-68.41930899999983, 9.230706000000112], [-68.418189, 9.23159], [-68.416834, 9.233024], [-68.417223, 9.233556], [-68.41727025699998, 9.233555501000069], [-68.419494, 9.233532], [-68.41954086099992, 9.233557461999965], [-68.42014, 9.233883000000105], [-68.419323, 9.234656], [-68.418634, 9.236625000000117], [-68.419594, 9.238288], [-68.42007199999989, 9.239372], [-68.42015199999986, 9.241003000000148], [-68.420253, 9.242750000000115], [-68.420313, 9.243967000000112], [-68.42052899999987, 9.245784000000128], [-68.420917, 9.2465], [-68.42077299999988, 9.247164000000112], [-68.418729, 9.24765], [-68.418504, 9.2496], [-68.42042, 9.250629000000117], [-68.42043209899992, 9.250626067000098], [-68.42160399999989, 9.25034200000016], [-68.42158019499988, 9.250389274000156], [-68.42110899999989, 9.251325000000122], [-68.419543, 9.25300900000019], [-68.41990199999987, 9.25441400000011], [-68.421787, 9.256269], [-68.42293499999988, 9.25754400000011], [-68.424131, 9.258543000000145], [-68.42454, 9.259603], [-68.424874, 9.26126], [-68.425207, 9.263009000000181], [-68.42498599999988, 9.264477000000113], [-68.424163, 9.265984000000117], [-68.42326999999989, 9.2674], [-68.42224, 9.268745000000138], [-68.4214879999999, 9.27000100000015], [-68.4209939999999, 9.270777], [-68.420313, 9.271918000000142], [-68.41918999999984, 9.2731950000001], [-68.418049, 9.273804], [-68.41702, 9.27496500000018], [-68.417585, 9.276739], [-68.417014, 9.278525], [-68.417, 9.280224], [-68.41703399999989, 9.281694], [-68.41656, 9.282953000000134], [-68.41562, 9.284437], [-68.41481799999985, 9.28622], [-68.4132039999999, 9.287858], [-68.41122799999982, 9.288597], [-68.410827, 9.28944300000012], [-68.410934, 9.290477], [-68.40957999999989, 9.291727], [-68.4086559999999, 9.294038000000171], [-68.408087, 9.29564], [-68.406633, 9.297693], [-68.40660799999984, 9.300655000000177], [-68.405988, 9.302739000000145], [-68.404443, 9.304584], [-68.40435899999983, 9.306306], [-68.40494499999988, 9.308356000000174], [-68.40579, 9.309788], [-68.406401, 9.311564], [-68.406551, 9.313104000000124], [-68.406049, 9.314890000000105], [-68.40508099999988, 9.317063000000132], [-68.404817, 9.31818600000014], [-68.404252, 9.319145], [-68.40282699999989, 9.320555], [-68.401771, 9.322106000000133], [-68.401084, 9.323799], [-68.400379, 9.325055], [-68.400185, 9.325995], [-68.400225, 9.326822], [-68.401239, 9.32752100000016], [-68.401972, 9.328493], [-68.40224199999989, 9.329483000000153], [-68.402046, 9.330813], [-68.402405, 9.332218000000125], [-68.403381, 9.332773], [-68.4045799999999, 9.333786], [-68.404092, 9.334197], [-68.404481, 9.335345], [-68.405147, 9.336494], [-68.404469, 9.337889000000189], [-68.4045809999999, 9.33871500000015], [-68.404648, 9.339220000000182], [-68.404665, 9.340503000000126], [-68.405771, 9.341631], [-68.4061549999999, 9.343696], [-68.40619699999985, 9.344682], [-68.404621, 9.34518], [-68.40341499999988, 9.34561100000019], [-68.402091, 9.346614], [-68.400515, 9.347112], [-68.39911699999988, 9.349170000000129], [-68.398994, 9.350797000000114], [-68.39866399999988, 9.351989000000117], [-68.398012, 9.352857], [-68.39865599999985, 9.353799000000151], [-68.398578, 9.355656000000124], [-68.39811, 9.356686], [-68.397689, 9.357670000000155], [-68.397267, 9.358837], [-68.396867, 9.36025700000016], [-68.396353, 9.361263], [-68.395378, 9.362016], [-68.3945839999999, 9.36350300000015], [-68.39420499999989, 9.365450000000124], [-68.39403599999986, 9.366871000000117], [-68.393591, 9.367946], [-68.393422, 9.36955], [-68.39341599999989, 9.370788000000175], [-68.39367, 9.370950000000107], [-68.393362, 9.372393000000102], [-68.393789, 9.375214], [-68.393761, 9.376314], [-68.394445, 9.378472], [-68.39395499999989, 9.379364000000123], [-68.39403599999986, 9.381817], [-68.393085, 9.382432000000108], [-68.393727, 9.383673000000101], [-68.39415899999989, 9.385325], [-68.39421871599995, 9.385327269000129], [-68.395501, 9.385376000000178], [-68.39552405299997, 9.385400459000152], [-68.396239, 9.386159000000134], [-68.396929, 9.387009], [-68.396899, 9.388454000000138], [-68.398307, 9.389468], [-68.397655, 9.390153000000169], [-68.39719, 9.390747000000147], [-68.397143, 9.390839], [-68.39686099999983, 9.391754000000105], [-68.397386, 9.393408], [-68.398007, 9.394121], [-68.39814, 9.39536], [-68.398388, 9.396897], [-68.398383, 9.397997], [-68.3969, 9.398266], [-68.39636, 9.399983000000134], [-68.395637, 9.401058], [-68.396187, 9.402275], [-68.39645899999988, 9.403674], [-68.39666099999988, 9.404913], [-68.396771, 9.406151000000136], [-68.39683620099999, 9.406165637000186], [-68.397604, 9.406338000000119], [-68.398538, 9.404623000000186], [-68.39859939199994, 9.40465744700009], [-68.400224, 9.405569000000128], [-68.400682, 9.406626000000188], [-68.40106999999983, 9.407911], [-68.40141299999988, 9.408806], [-68.401801, 9.410023], [-68.40186350599993, 9.410039551000068], [-68.40311899999989, 9.410372000000109], [-68.40312395199993, 9.410381633000156], [-68.403922, 9.411934], [-68.4042879999999, 9.412852000000157], [-68.405001, 9.413864], [-68.40582799999987, 9.415265000000147], [-68.406006, 9.416894000000127], [-68.405377, 9.417694], [-68.403129, 9.418281], [-68.401596, 9.419398000000172], [-68.40101, 9.420931000000166], [-68.400358, 9.421708], [-68.39913, 9.421887], [-68.398844, 9.423697], [-68.399348, 9.424959], [-68.399733, 9.426726], [-68.399843, 9.427919], [-68.399606, 9.429201], [-68.398561, 9.429908], [-68.397722, 9.431119], [-68.39783299999988, 9.432197], [-68.398729, 9.43357600000013], [-68.398608, 9.434746000000132], [-68.397123, 9.43533600000012], [-68.395173, 9.436406], [-68.39357399999989, 9.436812], [-68.391835, 9.43724], [-68.39145799999989, 9.43868300000014], [-68.391012, 9.440125], [-68.390103, 9.441406], [-68.39086, 9.442876000000126], [-68.39083199999988, 9.444022], [-68.390361, 9.445533], [-68.3902159999999, 9.446999], [-68.389861, 9.448717], [-68.389185, 9.449632000000122], [-68.388095, 9.450063], [-68.387906, 9.450864], [-68.388529, 9.451279000000113], [-68.389009, 9.452657000000102], [-68.38877, 9.45416900000015], [-68.388693, 9.45586500000013], [-68.387509, 9.456502000000114], [-68.387689, 9.45771800000017], [-68.388471, 9.458707000000118], [-68.38881, 9.460519], [-68.38861799999984, 9.462031000000138], [-68.38685, 9.463766], [-68.386636, 9.46509500000019], [-68.387765, 9.466200000000129], [-68.387225, 9.467733000000123], [-68.38729221199992, 9.467756002000101], [-68.388312, 9.468105], [-68.390045, 9.468754], [-68.39004594599993, 9.468755713000121], [-68.390895, 9.470293], [-68.3901269999999, 9.471069000000114], [-68.388298, 9.471062], [-68.386603, 9.472064], [-68.386063, 9.473667000000148], [-68.385524, 9.475178], [-68.38461599999982, 9.476206], [-68.383315, 9.477026], [-68.38208299999985, 9.478052], [-68.381543, 9.479724], [-68.381444, 9.481122], [-68.381785, 9.482453], [-68.38108699999987, 9.483092000000113], [-68.379946, 9.484577], [-68.3788473649999, 9.484245319000081], [-68.37879, 9.484228], [-68.37763759199999, 9.483099621000122], [-68.37759099999988, 9.483054], [-68.376498, 9.484196000000168], [-68.377202, 9.487042], [-68.378031, 9.488031], [-68.377818, 9.489153000000158], [-68.37687188899997, 9.489740721000032], [-68.376865, 9.489745000000141], [-68.37569589599991, 9.489148986000032], [-68.375641, 9.489121000000182], [-68.373903, 9.489481000000126], [-68.373225, 9.490922000000182], [-68.37234199999989, 9.491492], [-68.371343, 9.492176], [-68.369858, 9.492880000000184], [-68.36922645599986, 9.492710739000074], [-68.369164, 9.492694], [-68.368845, 9.49173], [-68.36787401599997, 9.49075997400007], [-68.367831, 9.490717], [-68.3672959999999, 9.491127], [-68.36743299999989, 9.491678], [-68.36763690999999, 9.492434667000168], [-68.36763699999989, 9.492435000000114], [-68.3665969999999, 9.492019000000141], [-68.36577769199988, 9.491350272999966], [-68.3657209999999, 9.491304000000127], [-68.365111, 9.492746], [-68.36466899999988, 9.493294000000105], [-68.363576, 9.494299000000126], [-68.363247, 9.49526], [-68.363752, 9.496156000000155], [-68.36378832199995, 9.49612887], [-68.364728, 9.495427], [-68.36478754499996, 9.495458004000113], [-68.36525999999986, 9.495704], [-68.364794, 9.496390000000133], [-68.364536, 9.496939000000111], [-68.364996, 9.49772], [-68.365036, 9.499004], [-68.365239, 9.500128000000188], [-68.365398, 9.500908], [-68.365, 9.50168600000012], [-68.366293, 9.502471], [-68.366748, 9.504215000000102], [-68.36697078499992, 9.505577452000011], [-68.366973, 9.505591], [-68.36558626399994, 9.504776507000088], [-68.365519, 9.504737000000148], [-68.365743, 9.506319000000133], [-68.365897, 9.507994000000167], [-68.365036, 9.508838], [-68.364474, 9.510166], [-68.364192, 9.511105000000157], [-68.36426837999988, 9.511093666000079], [-68.36509499999988, 9.510971], [-68.365952, 9.510883], [-68.36596092199994, 9.510914134000188], [-68.36634, 9.512237], [-68.367863, 9.51332100000019], [-68.36791599399999, 9.51333745100004], [-68.369435, 9.513809], [-68.36943482299995, 9.513813968000136], [-68.36938199999986, 9.515299], [-68.36815, 9.516371000000106], [-68.365788, 9.516338], [-68.365618, 9.517965], [-68.36568540199988, 9.517971951000163], [-68.36747, 9.518156], [-68.3674913879999, 9.518176952000147], [-68.368645, 9.519307], [-68.368657, 9.521668], [-68.36872253999991, 9.521680677000063], [-68.369629, 9.521856], [-68.370741, 9.521631000000127], [-68.37075995499998, 9.521666021000101], [-68.371338, 9.522734], [-68.370568, 9.523923], [-68.371139, 9.52569], [-68.371135, 9.526538], [-68.36967299999986, 9.527289], [-68.370037, 9.528528], [-68.368693, 9.528752000000111], [-68.3671389999999, 9.529227000000162], [-68.36662699999988, 9.529867], [-68.365328, 9.530412000000126], [-68.364836, 9.531602], [-68.36543099999989, 9.532957], [-68.364411, 9.533250000000123], [-68.363455, 9.534530000000188], [-68.362918, 9.535651], [-68.36275099999983, 9.536590000000103], [-68.360567, 9.538163], [-68.36046799999986, 9.539401000000112], [-68.36185099999989, 9.540736], [-68.363192, 9.541292000000112], [-68.3631954679999, 9.54129238500002], [-68.364905, 9.541482], [-68.36687399999983, 9.541307], [-68.36691331899988, 9.541335411000034], [-68.367959, 9.542091000000141], [-68.368949, 9.543103], [-68.36883, 9.543928], [-68.36889598199997, 9.543952425000043], [-68.370332, 9.544484], [-68.37035503899989, 9.5444943010001], [-68.37141899999989, 9.544970000000149], [-68.371599, 9.5459570000001], [-68.37029499999989, 9.547579], [-68.371353, 9.548959000000139], [-68.37140052799998, 9.548961306000137], [-68.373414, 9.549059], [-68.376032, 9.54884], [-68.37795299999988, 9.549009000000183], [-68.37796534499995, 9.54903047], [-68.378574, 9.550089000000185], [-68.37879299999986, 9.55268000000018], [-68.37884974299993, 9.552594226000167], [-68.379309, 9.551900000000103], [-68.525072, 9.519878], [-68.52510699499999, 9.519910554000091], [-68.629907, 9.617400000000146]]]}}]}