{
  "type": "FeatureCollection",
  "features": [
    {
      "type": "Feature",
      "properties": {
        "Pais": "Venezuela",
        "Estado": "Táchira",
        "Municipio": "Samuel Darío Maldonado"
      },
      "geometry": {
        "type": "Polygon",
        "coordinates": [
          [
            [
              -71.97430720199992,
              8.647467781000103
            ],
            [
              -71.97487023099995,
              8.648494802000073
            ],
            [
              -71.97514724199988,
              8.648423789000162
            ],
            [
              -71.97502822799999,
              8.64803478600004
            ],
            [
              -71.97493123199996,
              8.647416775000124
            ],
            [
              -71.97490421999993,
              8.646934766000129
            ],
            [
              -71.97522923299994,
              8.647115762000169
            ],
            [
              -71.97546124899992,
              8.647205763000102
            ],
            [
              -71.97576626699993,
              8.647775774000081
            ],
            [
              -71.97616428099991,
              8.64834578500006
            ],
            [
              -71.97646529899987,
              8.648434792000046
            ],
            [
              -71.97674230999996,
              8.648318784000082
            ],
            [
              -71.97666929699994,
              8.647883781000019
            ],
            [
              -71.97666529799989,
              8.647401760000037
            ],
            [
              -71.97689430899993,
              8.64714776400018
            ],
            [
              -71.97728731599994,
              8.647098758000027
            ],
            [
              -71.97786534599999,
              8.647093753000036
            ],
            [
              -71.97825835399988,
              8.64715974699999
            ],
            [
              -71.97881138399998,
              8.646925746000079
            ],
            [
              -71.97933940099989,
              8.646439725000107
            ],
            [
              -71.97970841399996,
              8.646252719000074
            ],
            [
              -71.97968841999983,
              8.646734740000113
            ],
            [
              -71.97960041699992,
              8.647285750000037
            ],
            [
              -71.97985642799995,
              8.647398751000082
            ],
            [
              -71.98075246499985,
              8.646748723000087
            ],
            [
              -71.98147149099992,
              8.646971732000168
            ],
            [
              -71.98225251299988,
              8.646300715000166
            ],
            [
              -71.98281254799997,
              8.64698372700019
            ],
            [
              -71.98348456799994,
              8.647184718
            ],
            [
              -71.98424460099994,
              8.64678870900002
            ],
            [
              -71.98432800599994,
              8.646676664999973
            ],
            [
              -71.98506862999994,
              8.64568168400018
            ],
            [
              -71.98505919499996,
              8.645649913000113
            ],
            [
              -71.98487261899987,
              8.64502167000012
            ],
            [
              -71.98519262599996,
              8.644582655000136
            ],
            [
              -71.98525762799994,
              8.644100646000084
            ],
            [
              -71.98539363099991,
              8.643641636000154
            ],
            [
              -71.98554962899993,
              8.64299762000013
            ],
            [
              -71.98533862499988,
              8.642632611000067
            ],
            [
              -71.98494461099995,
              8.642521621000128
            ],
            [
              -71.98491860499996,
              8.642131612000071
            ],
            [
              -71.98521561099983,
              8.641693590999978
            ],
            [
              -71.98546161099995,
              8.640613577000181
            ],
            [
              -71.98582363099996,
              8.639693547000036
            ],
            [
              -71.98680666399991,
              8.638263513000027
            ],
            [
              -71.98731067399996,
              8.637571496000078
            ],
            [
              -71.98705066399998,
              8.636931479000168
            ],
            [
              -71.98748367299999,
              8.636102467000114
            ],
            [
              -71.9874516669999,
              8.634956435000163
            ],
            [
              -71.98686463199994,
              8.633883426000125
            ],
            [
              -71.98630460999988,
              8.633246414000155
            ],
            [
              -71.98548756999986,
              8.632381401000089
            ],
            [
              -71.98490454699993,
              8.631743384000117
            ],
            [
              -71.98413251499994,
              8.630718363000142
            ],
            [
              -71.98334447499991,
              8.63049536699998
            ],
            [
              -71.98291744999995,
              8.629145339000047
            ],
            [
              -71.98321245599993,
              8.628455322000036
            ],
            [
              -71.98246942399999,
              8.628094324000187
            ],
            [
              -71.9822344129999,
              8.627592308000033
            ],
            [
              -71.98264843299995,
              8.62724430000003
            ],
            [
              -71.98292344499998,
              8.62699029200013
            ],
            [
              -71.98278243699997,
              8.62673929000016
            ],
            [
              -71.9826874289999,
              8.626395282000146
            ],
            [
              -71.98323644699985,
              8.625634264000041
            ],
            [
              -71.98376145799995,
              8.624713240000062
            ],
            [
              -71.98363744999989,
              8.623682219999978
            ],
            [
              -71.98325842599996,
              8.62258420000012
            ],
            [
              -71.98343943499987,
              8.622078184000145
            ],
            [
              -71.98387545099996,
              8.621685181000032
            ],
            [
              -71.98435546699989,
              8.620993152999972
            ],
            [
              -71.98483348299999,
              8.620049140000106
            ],
            [
              -71.98515348999985,
              8.619542118000084
            ],
            [
              -71.98558750499996,
              8.618851107000012
            ],
            [
              -71.98621152399988,
              8.618846102000077
            ],
            [
              -71.98611352199998,
              8.618113090000179
            ],
            [
              -71.98654653199998,
              8.617375074000051
            ],
            [
              -71.9862665259999,
              8.617011058000116
            ],
            [
              -71.98580250499998,
              8.616785056000083
            ],
            [
              -71.98531247799986,
              8.61628505200008
            ],
            [
              -71.98518646999997,
              8.615001031000133
            ],
            [
              -71.9849244479999,
              8.61404101000005
            ],
            [
              -71.9847584389999,
              8.61349099500012
            ],
            [
              -71.98463743699995,
              8.61282698400015
            ],
            [
              -71.98460842499986,
              8.61218597200002
            ],
            [
              -71.98467643199996,
              8.611932959000171
            ],
            [
              -71.98462542599992,
              8.611336954000137
            ],
            [
              -71.98471442199991,
              8.610923945000138
            ],
            [
              -71.98464142099994,
              8.610419928999988
            ],
            [
              -71.9840613909999,
              8.61019493300006
            ],
            [
              -71.98370937899989,
              8.609647922000022
            ],
            [
              -71.98289833899986,
              8.609447914000157
            ],
            [
              -71.98270732999993,
              8.608669908000081
            ],
            [
              -71.98212230699994,
              8.607779883000092
            ],
            [
              -71.9817022869999,
              8.607370884999966
            ],
            [
              -71.98131027199997,
              8.607419879000133
            ],
            [
              -71.98082424499995,
              8.60742389100011
            ],
            [
              -71.98041223599995,
              8.607976901000029
            ],
            [
              -71.97997622099984,
              8.608438916000125
            ],
            [
              -71.9798342069999,
              8.607958906000022
            ],
            [
              -71.97939719799996,
              8.608328909000022
            ],
            [
              -71.97906717999996,
              8.607528897000066
            ],
            [
              -71.97881016299982,
              8.607118893000063
            ],
            [
              -71.97818113799991,
              8.606549877000077
            ],
            [
              -71.97769411699994,
              8.606393880000041
            ],
            [
              -71.97752610799989,
              8.605637869000134
            ],
            [
              -71.97708408199998,
              8.605366860000174
            ],
            [
              -71.97638605599997,
              8.604798849000133
            ],
            [
              -71.97587502799996,
              8.60450485300015
            ],
            [
              -71.97554801599989,
              8.604140849000089
            ],
            [
              -71.97485398999993,
              8.604123847999972
            ],
            [
              -71.97471298099993,
              8.603803846000176
            ],
            [
              -71.97489599099998,
              8.603480838000053
            ],
            [
              -71.97519199199996,
              8.602996817000076
            ],
            [
              -71.9748429839999,
              8.602655814
            ],
            [
              -71.97416895299995,
              8.602225816000157
            ],
            [
              -71.97379592799996,
              8.601907801000038
            ],
            [
              -71.97339591499991,
              8.600970793000158
            ],
            [
              -71.97329990199995,
              8.600649786000133
            ],
            [
              -71.97378392899998,
              8.600393778000068
            ],
            [
              -71.97475496699991,
              8.600408766999976
            ],
            [
              -71.97517398099995,
              8.600657769000179
            ],
            [
              -71.97563299699993,
              8.600264766000066
            ],
            [
              -71.97594900399997,
              8.599321736000036
            ],
            [
              -71.97612300799995,
              8.597944708000114
            ],
            [
              -71.97588299299991,
              8.596868693000033
            ],
            [
              -71.97638100299991,
              8.595419659000015
            ],
            [
              -71.97616699399998,
              8.594779642000105
            ],
            [
              -71.97599997799989,
              8.594024624000156
            ],
            [
              -71.97571596199987,
              8.593315607000022
            ],
            [
              -71.97563995499996,
              8.592398594000088
            ],
            [
              -71.97582294199992,
              8.591755858
            ],
            [
              -71.97600236299985,
              8.591125650000095
            ],
            [
              -71.97606797099996,
              8.591019566
            ],
            [
              -71.97641097799982,
              8.590466544000094
            ],
            [
              -71.97698400199988,
              8.589842534000184
            ],
            [
              -71.97676598099997,
              8.588674507000064
            ],
            [
              -71.97694598499993,
              8.5880084960001
            ],
            [
              -71.9776360109999,
              8.587521481000067
            ],
            [
              -71.97781500899998,
              8.586832458000174
            ],
            [
              -71.97787801099997,
              8.585983440000064
            ],
            [
              -71.977862,
              8.583919400000184
            ],
            [
              -71.97891503999995,
              8.582580362000044
            ],
            [
              -71.97931418599995,
              8.582141623999973
            ],
            [
              -71.97967106199991,
              8.581749350000052
            ],
            [
              -71.98061109999998,
              8.580755314000044
            ],
            [
              -71.98152812599989,
              8.579762295000023
            ],
            [
              -71.98198514099988,
              8.579070278000074
            ],
            [
              -71.98288017199997,
              8.578146248000166
            ],
            [
              -71.98360919299995,
              8.57676421500014
            ],
            [
              -71.98367118999994,
              8.575915196000153
            ],
            [
              -71.98398420299998,
              8.574583174000054
            ],
            [
              -71.98469422399995,
              8.57366015000008
            ],
            [
              -71.98475421999996,
              8.572536124000123
            ],
            [
              -71.98481320999991,
              8.571159096000088
            ],
            [
              -71.98510522299995,
              8.570125070000131
            ],
            [
              -71.98562522899988,
              8.56867603600017
            ],
            [
              -71.98444618099995,
              8.568594034000114
            ],
            [
              -71.98347614899996,
              8.568762053000057
            ],
            [
              -71.98346613799993,
              8.567570020000119
            ],
            [
              -71.98347913999993,
              8.566308998000068
            ],
            [
              -71.98433715899989,
              8.563709932000108
            ],
            [
              -71.98483316999989,
              8.562054902000114
            ],
            [
              -71.98480215799998,
              8.561069869999983
            ],
            [
              -71.98479115299995,
              8.559647848000111
            ],
            [
              -71.98494415699992,
              8.558614828000088
            ],
            [
              -71.98512315599999,
              8.557902805000026
            ],
            [
              -71.98484214399991,
              8.557376796000142
            ],
            [
              -71.98456012699995,
              8.556805791000045
            ],
            [
              -71.98533615599996,
              8.55558475800018
            ],
            [
              -71.98488412899985,
              8.55391472700012
            ],
            [
              -71.98420408699997,
              8.552818707000029
            ],
            [
              -71.98271101699999,
              8.551156675000186
            ],
            [
              -71.98123894599996,
              8.549173647000089
            ],
            [
              -71.9805599209999,
              8.548055620000184
            ],
            [
              -71.98034589999997,
              8.547392602000059
            ],
            [
              -71.98027089799996,
              8.546658597000146
            ],
            [
              -71.98088591199996,
              8.545461559000046
            ],
            [
              -71.98101492099988,
              8.544222532000106
            ],
            [
              -71.98034586799997,
              8.541590482000117
            ],
            [
              -71.98007384599993,
              8.539253434000045
            ],
            [
              -71.97933880999994,
              8.537035399000104
            ],
            [
              -71.97832274899997,
              8.534268341000143
            ],
            [
              -71.97747670899997,
              8.532486304000031
            ],
            [
              -71.97711668499994,
              8.530861279000135
            ],
            [
              -71.97692267099995,
              8.529762253000115
            ],
            [
              -71.97651565199993,
              8.527999216000183
            ],
            [
              -71.97638662599991,
              8.526280178999968
            ],
            [
              -71.97591761099994,
              8.525367165000091
            ],
            [
              -71.9759345999999,
              8.52463314800002
            ],
            [
              -71.97712764399995,
              8.523500116000093
            ],
            [
              -71.9775596589999,
              8.522533092000174
            ],
            [
              -71.97729864299998,
              8.521756080000046
            ],
            [
              -71.97660160999993,
              8.521234069000059
            ],
            [
              -71.97643660699998,
              8.52086806699998
            ],
            [
              -71.97567156799994,
              8.520599058000016
            ],
            [
              -71.97499954799991,
              8.520375056000148
            ],
            [
              -71.97496954199994,
              8.519504043000097
            ],
            [
              -71.97432051199996,
              8.519326041000113
            ],
            [
              -71.97429050599987,
              8.518501029000106
            ],
            [
              -71.97419349799992,
              8.517882012000086
            ],
            [
              -71.97331345699996,
              8.517706010000097
            ],
            [
              -71.97270943299998,
              8.517344007000077
            ],
            [
              -71.97256341799988,
              8.516381987000102
            ],
            [
              -71.97243941099993,
              8.51535096800012
            ],
            [
              -71.97243341099994,
              8.514639951
            ],
            [
              -71.97233339799993,
              8.513722938000058
            ],
            [
              -71.97205058399999,
              8.512902289000124
            ],
            [
              -71.971982,
              8.512871
            ],
            [
              -71.9719583879999,
              8.511982853000063
            ],
            [
              -71.971894,
              8.509561000000133
            ],
            [
              -71.97082,
              8.508308
            ],
            [
              -71.9705779229999,
              8.508326859000078
            ],
            [
              -71.969331,
              8.508424
            ],
            [
              -71.968156,
              8.507802
            ],
            [
              -71.96745757499991,
              8.507175722000113
            ],
            [
              -71.966762,
              8.506552
            ],
            [
              -71.965366,
              8.504881000000182
            ],
            [
              -71.96450999999985,
              8.504362
            ],
            [
              -71.962597,
              8.504691
            ],
            [
              -71.961211,
              8.504386
            ],
            [
              -71.959709,
              8.502821
            ],
            [
              -71.957792,
              8.502625
            ],
            [
              -71.957681,
              8.502101
            ],
            [
              -71.9585249999999,
              8.501149000000112
            ],
            [
              -71.958299,
              8.499365000000125
            ],
            [
              -71.95839399999988,
              8.497894
            ],
            [
              -71.959444,
              8.496101
            ],
            [
              -71.959541,
              8.494840000000181
            ],
            [
              -71.958041,
              8.493485000000135
            ],
            [
              -71.95708,
              8.493072
            ],
            [
              -71.956752,
              8.492023000000131
            ],
            [
              -71.956848,
              8.490552
            ],
            [
              -71.955342,
              8.488567
            ],
            [
              -71.95459099999982,
              8.487732
            ],
            [
              -71.955007,
              8.48646900000017
            ],
            [
              -71.956064,
              8.485516000000189
            ],
            [
              -71.956587,
              8.484357
            ],
            [
              -71.957113,
              8.483513000000187
            ],
            [
              -71.957961,
              8.483086000000185
            ],
            [
              -71.95880099999988,
              8.481610000000103
            ],
            [
              -71.95867999999984,
              8.47972
            ],
            [
              -71.959737,
              8.478662
            ],
            [
              -71.959944,
              8.477925
            ],
            [
              -71.959617,
              8.476877000000172
            ],
            [
              -71.960248,
              8.475927
            ],
            [
              -71.960133,
              8.474877000000106
            ],
            [
              -71.960341,
              8.47414
            ],
            [
              -71.961081,
              8.473504000000162
            ],
            [
              -71.961077,
              8.472161
            ],
            [
              -71.962387,
              8.471837000000107
            ],
            [
              -71.963121,
              8.470136
            ],
            [
              -71.964671,
              8.467463
            ],
            [
              -71.965241,
              8.465681000000188
            ],
            [
              -71.965318,
              8.463412
            ],
            [
              -71.96596999999986,
              8.46171100000015
            ],
            [
              -71.96580299999988,
              8.460172
            ],
            [
              -71.964573,
              8.459524
            ],
            [
              -71.964161,
              8.458309
            ],
            [
              -71.963502,
              8.456688
            ],
            [
              -71.96309,
              8.455554000000177
            ],
            [
              -71.963662,
              8.454582
            ],
            [
              -71.96455999999989,
              8.453367
            ],
            [
              -71.963821,
              8.452071000000103
            ],
            [
              -71.96250899999984,
              8.451666
            ],
            [
              -71.96193499999987,
              8.45101700000015
            ],
            [
              -71.96168299999988,
              8.448263000000168
            ],
            [
              -71.959549,
              8.445752
            ],
            [
              -71.957664,
              8.44526500000012
            ],
            [
              -71.956597,
              8.444860000000176
            ],
            [
              -71.955695,
              8.44429300000013
            ],
            [
              -71.95380999999986,
              8.444050000000118
            ],
            [
              -71.952172,
              8.443888
            ],
            [
              -71.949711,
              8.441862
            ],
            [
              -71.947168,
              8.440403000000174
            ],
            [
              -71.945363,
              8.438702
            ],
            [
              -71.943804,
              8.43740600000018
            ],
            [
              -71.942489,
              8.435137
            ],
            [
              -71.941503,
              8.433355000000176
            ],
            [
              -71.94051799999988,
              8.43213900000012
            ],
            [
              -71.940184,
              8.42906100000016
            ],
            [
              -71.940507,
              8.426792
            ],
            [
              -71.9413229999999,
              8.425334
            ],
            [
              -71.941318,
              8.422418000000107
            ],
            [
              -71.94139599999988,
              8.420716
            ],
            [
              -71.941227,
              8.418123
            ],
            [
              -71.941468,
              8.415693
            ],
            [
              -71.943021,
              8.413749000000166
            ],
            [
              -71.94301799999988,
              8.41229
            ],
            [
              -71.94367,
              8.410589000000186
            ],
            [
              -71.943502,
              8.408645
            ],
            [
              -71.94358,
              8.406782000000135
            ],
            [
              -71.94382399999989,
              8.40581
            ],
            [
              -71.945541,
              8.404271
            ],
            [
              -71.946767,
              8.402894000000117
            ],
            [
              -71.947008,
              8.400625000000161
            ],
            [
              -71.946595,
              8.399005
            ],
            [
              -71.94634699999983,
              8.397385
            ],
            [
              -71.945277,
              8.394954
            ],
            [
              -71.944209,
              8.393172
            ],
            [
              -71.943141,
              8.391389000000174
            ],
            [
              -71.942401,
              8.389769
            ],
            [
              -71.941497,
              8.388310000000104
            ],
            [
              -71.94042999999982,
              8.387014
            ],
            [
              -71.93944399999987,
              8.386123000000168
            ],
            [
              -71.937396,
              8.385636
            ],
            [
              -71.936493,
              8.384421
            ],
            [
              -71.936,
              8.38369200000011
            ],
            [
              -71.935097,
              8.38255700000019
            ],
            [
              -71.93452199999984,
              8.381747000000132
            ],
            [
              -71.93394599999988,
              8.380046
            ],
            [
              -71.932223,
              8.378425
            ],
            [
              -71.930911,
              8.377534
            ],
            [
              -71.93010899999985,
              8.376753000000122
            ],
            [
              -71.92914799999988,
              8.374753000000169
            ],
            [
              -71.927975,
              8.373489
            ],
            [
              -71.92648399999985,
              8.372436000000164
            ],
            [
              -71.925419,
              8.372121
            ],
            [
              -71.924352,
              8.370225000000175
            ],
            [
              -71.92158199999989,
              8.36832900000013
            ],
            [
              -71.920302,
              8.366961000000117
            ],
            [
              -71.917959,
              8.365802000000144
            ],
            [
              -71.915722,
              8.364854
            ],
            [
              -71.914764,
              8.364223
            ],
            [
              -71.913274,
              8.364222000000154
            ],
            [
              -71.912209,
              8.36338000000012
            ],
            [
              -71.91008099999988,
              8.363485
            ],
            [
              -71.907846,
              8.363484
            ],
            [
              -71.907099,
              8.362115
            ],
            [
              -71.905289,
              8.361378
            ],
            [
              -71.903055,
              8.361483
            ],
            [
              -71.901033,
              8.361272000000156
            ],
            [
              -71.899755,
              8.360534
            ],
            [
              -71.89783599999987,
              8.358639
            ],
            [
              -71.897726,
              8.356745
            ],
            [
              -71.8975109999999,
              8.354955
            ],
            [
              -71.89612699999986,
              8.354744
            ],
            [
              -71.894101,
              8.353059
            ],
            [
              -71.891864,
              8.351480000000151
            ],
            [
              -71.890265,
              8.349479000000144
            ],
            [
              -71.888029,
              8.348426
            ],
            [
              -71.886963,
              8.347478000000137
            ],
            [
              -71.88600299999985,
              8.34611
            ],
            [
              -71.88415,
              8.34701500000017
            ],
            [
              -71.881917,
              8.34718800000013
            ],
            [
              -71.879941,
              8.347792
            ],
            [
              -71.8779229999999,
              8.349475000000155
            ],
            [
              -71.876542,
              8.350948000000187
            ],
            [
              -71.874525,
              8.353263
            ],
            [
              -71.872719,
              8.354946
            ],
            [
              -71.871444,
              8.355998
            ],
            [
              -71.868892,
              8.357472000000143
            ],
            [
              -71.867722,
              8.357998000000123
            ],
            [
              -71.8646399999999,
              8.359996
            ],
            [
              -71.86209,
              8.361995
            ],
            [
              -71.85889999999989,
              8.363362
            ],
            [
              -71.85698599999989,
              8.363993
            ],
            [
              -71.85124,
              8.36378000000019
            ],
            [
              -71.847092,
              8.364831
            ],
            [
              -71.844435,
              8.366409
            ],
            [
              -71.84230899999983,
              8.368197
            ],
            [
              -71.84135499999985,
              8.370828000000131
            ],
            [
              -71.840295,
              8.373354
            ],
            [
              -71.838808,
              8.374722
            ],
            [
              -71.836147,
              8.374405
            ],
            [
              -71.833804,
              8.373246
            ],
            [
              -71.830719,
              8.373244
            ],
            [
              -71.83023935499995,
              8.37321106000013
            ],
            [
              -71.82792056099993,
              8.373051817000032
            ],
            [
              -71.827632,
              8.373032
            ],
            [
              -71.825078,
              8.3724
            ],
            [
              -71.821883,
              8.371030000000133
            ],
            [
              -71.81986199999989,
              8.371134
            ],
            [
              -71.81961082399982,
              8.371090034000133
            ],
            [
              -71.81893182799996,
              8.370971181000186
            ],
            [
              -71.8186016759999,
              8.370913390999988
            ],
            [
              -71.81811840899996,
              8.370826149000095
            ],
            [
              -71.81811738399989,
              8.37084171400005
            ],
            [
              -71.81652533199997,
              8.373261772000092
            ],
            [
              -71.81397523699991,
              8.375471831000084
            ],
            [
              -71.81179050499998,
              8.377111604000106
            ],
            [
              -71.81089212099988,
              8.377785895000045
            ],
            [
              -71.80717298599996,
              8.380730971000162
            ],
            [
              -71.80387787699988,
              8.383571059000133
            ],
            [
              -71.80239182799994,
              8.385992110000188
            ],
            [
              -71.80207682299988,
              8.388518164000118
            ],
            [
              -71.80229584899996,
              8.392097242000148
            ],
            [
              -71.80347091599987,
              8.395045295000045
            ],
            [
              -71.80613503199993,
              8.397257337000156
            ],
            [
              -71.80805312199993,
              8.398942355000088
            ],
            [
              -71.80965219699988,
              8.400732383000047
            ],
            [
              -71.81221131899997,
              8.403786442000069
            ],
            [
              -71.81295936099997,
              8.405471466000051
            ],
            [
              -71.8130003839999,
              8.41012356900012
            ],
            [
              -71.81384741999989,
              8.41010556600014
            ],
            [
              -71.81328781699995,
              8.410646759000088
            ],
            [
              -71.81144533399993,
              8.412428626000121
            ],
            [
              -71.8098712819999,
              8.415214700000092
            ],
            [
              -71.80752319599998,
              8.416447732000165
            ],
            [
              -71.80459407599989,
              8.417318772000101
            ],
            [
              -71.80337903799989,
              8.41863580400019
            ],
            [
              -71.80176197499998,
              8.418830811000078
            ],
            [
              -71.80140697199988,
              8.420759854999972
            ],
            [
              -71.8014179779999,
              8.422272884000051
            ],
            [
              -71.80038393799998,
              8.423083913000085
            ],
            [
              -71.79916088899995,
              8.42339092700007
            ],
            [
              -71.79881037899997,
              8.424391443000104
            ],
            [
              -71.79845987299996,
              8.425391965000074
            ],
            [
              -71.79826187399988,
              8.426769005000153
            ],
            [
              -71.79863477399994,
              8.427651259000129
            ],
            [
              -71.79880289699997,
              8.428049027000043
            ],
            [
              -71.79910991499997,
              8.428918040000042
            ],
            [
              -71.79920992899991,
              8.42999506000018
            ],
            [
              -71.79944994499988,
              8.431116093000128
            ],
            [
              -71.79908893099986,
              8.432403120000117
            ],
            [
              -71.79703585199996,
              8.43287713400008
            ],
            [
              -71.79582180899996,
              8.434446174000072
            ],
            [
              -71.79596882899989,
              8.435523193999984
            ],
            [
              -71.79525679699987,
              8.436170217000154
            ],
            [
              -71.79362173799996,
              8.436916245000077
            ],
            [
              -71.79217868399991,
              8.438762293000025
            ],
            [
              -71.79117064999997,
              8.439916314000016
            ],
            [
              -71.78968060099999,
              8.441601361000096
            ],
            [
              -71.78807054399988,
              8.442760398000189
            ],
            [
              -71.78734752199995,
              8.445013444000097
            ],
            [
              -71.78600446399992,
              8.444702447
            ],
            [
              -71.78517943999998,
              8.445580464999978
            ],
            [
              -71.78532945499995,
              8.447229508000135
            ],
            [
              -71.78547746999993,
              8.448421528000154
            ],
            [
              -71.7845594389999,
              8.449368559000106
            ],
            [
              -71.78367739699996,
              8.448847543000113
            ],
            [
              -71.78259335599995,
              8.449108555000066
            ],
            [
              -71.78128730999998,
              8.450700596000047
            ],
            [
              -71.78028427199996,
              8.452702653000074
            ],
            [
              -71.77936924599999,
              8.45394768000017
            ],
            [
              -71.77906125099992,
              8.456128732000138
            ],
            [
              -71.77897825399998,
              8.457298747000038
            ],
            [
              -71.77808722299989,
              8.45877279300015
            ],
            [
              -71.77643415899996,
              8.460298827000088
            ],
            [
              -71.77545613199999,
              8.462484885000151
            ],
            [
              -71.77466711399995,
              8.46517394000017
            ],
            [
              -71.77429111099985,
              8.46744699300001
            ],
            [
              -71.7745151339999,
              8.469738040000152
            ],
            [
              -71.7751151739999,
              8.472692105000021
            ],
            [
              -71.77580321699998,
              8.475002141000061
            ],
            [
              -71.77611322899998,
              8.4763531750001
            ],
            [
              -71.77526720499998,
              8.477597208000077
            ],
            [
              -71.77468119199989,
              8.479666253000119
            ],
            [
              -71.77464174199991,
              8.479998772000044
            ],
            [
              -71.77448519399991,
              8.481318289000058
            ],
            [
              -71.77410618499994,
              8.48322433300018
            ],
            [
              -71.77419420399991,
              8.48572338800011
            ],
            [
              -71.77448823299989,
              8.487945435000029
            ],
            [
              -71.77480324999993,
              8.489891468000167
            ],
            [
              -71.7751012789999,
              8.492664525
            ],
            [
              -71.77583732299996,
              8.495295581000107
            ],
            [
              -71.77768040799998,
              8.4975976180001
            ],
            [
              -71.77891646299992,
              8.499101641999971
            ],
            [
              -71.78004352599993,
              8.50131668400013
            ],
            [
              -71.7805435539999,
              8.50328472300015
            ],
            [
              -71.78151361499988,
              8.506372789000068
            ],
            [
              -71.78240466199998,
              8.508039815000132
            ],
            [
              -71.78271967899991,
              8.509963853000158
            ],
            [
              -71.7835417259999,
              8.511745892000079
            ],
            [
              -71.78462602799993,
              8.513745199000027
            ],
            [
              -71.78464377699999,
              8.513777925999989
            ],
            [
              -71.78407876499995,
              8.515570969000123
            ],
            [
              -71.78363075399989,
              8.517386006000095
            ],
            [
              -71.78401377999995,
              8.519195044000014
            ],
            [
              -71.78662089799997,
              8.521582088
            ],
            [
              -71.78721393299998,
              8.523641122000015
            ],
            [
              -71.78794497099989,
              8.525470166
            ],
            [
              -71.78904602899996,
              8.527502201
            ],
            [
              -71.79207316699996,
              8.530368249
            ],
            [
              -71.79350024299998,
              8.532627279000053
            ],
            [
              -71.79397326999998,
              8.533976314000029
            ],
            [
              -71.79650937499991,
              8.536112344
            ],
            [
              -71.79868647299986,
              8.536599343999967
            ],
            [
              -71.80063355399994,
              8.537249344000145
            ],
            [
              -71.80129759099998,
              8.539560398000049
            ],
            [
              -71.80168562099993,
              8.541896440000016
            ],
            [
              -71.80217065999994,
              8.544941500000107
            ],
            [
              -71.80212067499997,
              8.547487561000025
            ],
            [
              -71.8027586039999,
              8.548631588000092
            ],
            [
              -71.8031517249999,
              8.54933658800013
            ],
            [
              -71.80362875199995,
              8.551282632000039
            ],
            [
              -71.80474879899998,
              8.552649649999978
            ],
            [
              -71.80592186299998,
              8.554909699
            ],
            [
              -71.80615103199995,
              8.555273746000012
            ],
            [
              -71.80718592399995,
              8.556917727000098
            ],
            [
              -71.80693491799997,
              8.557378748000133
            ],
            [
              -71.80661790599993,
              8.558320761000175
            ],
            [
              -71.80704293199983,
              8.559509789000117
            ],
            [
              -71.80776696399994,
              8.560467808000112
            ],
            [
              -71.80856000999995,
              8.56135582100012
            ],
            [
              -71.80949104599995,
              8.562196829000072
            ],
            [
              -71.80906003699994,
              8.563208860000032
            ],
            [
              -71.80860802699993,
              8.564588894
            ],
            [
              -71.8104241879999,
              8.566422037000052
            ],
            [
              -71.81138014799996,
              8.567386936000048
            ],
            [
              -71.81150416799983,
              8.568486956000129
            ],
            [
              -71.81144217199994,
              8.569380981000108
            ],
            [
              -71.81250620499998,
              8.569441970000128
            ],
            [
              -71.81352525599988,
              8.569685967000112
            ],
            [
              -71.81422128199995,
              8.570047982000176
            ],
            [
              -71.81542333099992,
              8.570014970999978
            ],
            [
              -71.81504332799983,
              8.571692008000127
            ],
            [
              -71.8155543439999,
              8.572032017000083
            ],
            [
              -71.81590636899989,
              8.57276302800011
            ],
            [
              -71.81637538399991,
              8.573562035
            ],
            [
              -71.81685840599988,
              8.57326002700006
            ],
            [
              -71.81707241599992,
              8.573969045000126
            ],
            [
              -71.81749443699994,
              8.574837064000121
            ],
            [
              -71.81703842699994,
              8.57564308700006
            ],
            [
              -71.81750444799997,
              8.576075085000127
            ],
            [
              -71.81781346499997,
              8.577196106000088
            ],
            [
              -71.81777446999996,
              8.578137137000056
            ],
            [
              -71.81886050999998,
              8.578082120000033
            ],
            [
              -71.81939553299986,
              8.578445129000102
            ],
            [
              -71.81928353699993,
              8.579019139000025
            ],
            [
              -71.81924768799996,
              8.57907212900011
            ],
            [
              -71.81894052899997,
              8.579526149
            ],
            [
              -71.81933954899995,
              8.580234172000075
            ],
            [
              -71.81996057399988,
              8.579885157999968
            ],
            [
              -71.82065559299991,
              8.579948160000015
            ],
            [
              -71.82109961999998,
              8.58056417
            ],
            [
              -71.82154264099995,
              8.581111181000097
            ],
            [
              -71.82244367099992,
              8.580966162999971
            ],
            [
              -71.82228666799989,
              8.581701186000146
            ],
            [
              -71.82182765199991,
              8.582049194000149
            ],
            [
              -71.82130264099999,
              8.583039219000113
            ],
            [
              -71.82222767799988,
              8.582963213000028
            ],
            [
              -71.82283470799996,
              8.583806221000145
            ],
            [
              -71.82268370399999,
              8.585229261000109
            ],
            [
              -71.82222668899988,
              8.58598927300011
            ],
            [
              -71.82216169899993,
              8.586540283000033
            ],
            [
              -71.82294872099993,
              8.586671291000073
            ],
            [
              -71.82295273299991,
              8.58717630000018
            ],
            [
              -71.82332974599996,
              8.588113320000105
            ],
            [
              -71.8244177979999,
              8.58828831600016
            ],
            [
              -71.82548483699992,
              8.588669320000065
            ],
            [
              -71.82648388099989,
              8.589280326
            ],
            [
              -71.8275469329999,
              8.589226314000143
            ],
            [
              -71.8284519629999,
              8.589632317999985
            ],
            [
              -71.82961301599988,
              8.59031133000002
            ],
            [
              -71.83118807799991,
              8.59066533400005
            ],
            [
              -71.83216312699994,
              8.591116332000013
            ],
            [
              -71.83311716399993,
              8.591934351000134
            ],
            [
              -71.83355919099989,
              8.59232034900009
            ],
            [
              -71.83432421799995,
              8.592566358000113
            ],
            [
              -71.83492123699989,
              8.5919653360001
            ],
            [
              -71.83536425699987,
              8.59248934600015
            ],
            [
              -71.83544126999993,
              8.593497366000065
            ],
            [
              -71.83634330699994,
              8.59353636100019
            ],
            [
              -71.83805737699993,
              8.593844364000176
            ],
            [
              -71.83905842099989,
              8.594730378000122
            ],
            [
              -71.83918717499989,
              8.595030574000077
            ],
            [
              -71.83964644999998,
              8.596101395000119
            ],
            [
              -71.84047350199984,
              8.59841045000013
            ],
            [
              -71.8418485649999,
              8.599775467000029
            ],
            [
              -71.84395866099999,
              8.600584469000125
            ],
            [
              -71.84495169299998,
              8.600370462000114
            ],
            [
              -71.84665776399993,
              8.599737435000065
            ],
            [
              -71.84912886199993,
              8.599236421000171
            ],
            [
              -71.84999390299998,
              8.600490438000122
            ],
            [
              -71.85124795199994,
              8.60126044500015
            ],
            [
              -71.85254601399998,
              8.601662449000173
            ],
            [
              -71.85359005299995,
              8.602044459000183
            ],
            [
              -71.85475110599998,
              8.602745465000055
            ],
            [
              -71.85508412999991,
              8.603958487000057
            ],
            [
              -71.85592015899988,
              8.604432486000121
            ],
            [
              -71.85682419499989,
              8.60472348900015
            ],
            [
              -71.85858927199996,
              8.60567250400004
            ],
            [
              -71.86030234899994,
              8.605911495000043
            ],
            [
              -71.8611803789999,
              8.605881489000012
            ],
            [
              -71.86268344499996,
              8.605823490000091
            ],
            [
              -71.86367748299995,
              8.605861479000168
            ],
            [
              -71.86488153199991,
              8.60608148200015
            ],
            [
              -71.86528055099996,
              8.606765488000065
            ],
            [
              -71.8663296069999,
              8.607835515000033
            ],
            [
              -71.87126681399997,
              8.609377513000084
            ],
            [
              -71.87309489299986,
              8.609569510000085
            ],
            [
              -71.87634402399993,
              8.611125531000141
            ],
            [
              -71.87653703799998,
              8.611202887000161
            ],
            [
              -71.88212027699984,
              8.613440543000024
            ],
            [
              -71.88281730899996,
              8.613893553000025
            ],
            [
              -71.88397735599995,
              8.614342552000096
            ],
            [
              -71.88439837099986,
              8.61502756300007
            ],
            [
              -71.88548442199993,
              8.614903557000105
            ],
            [
              -71.88638345299995,
              8.614552544000105
            ],
            [
              -71.88737349099989,
              8.613948528000037
            ],
            [
              -71.88843353699997,
              8.613596520000044
            ],
            [
              -71.88938157399997,
              8.613519508000081
            ],
            [
              -71.89001160399994,
              8.614225520000048
            ],
            [
              -71.88997560299998,
              8.615532541999983
            ],
            [
              -71.88965759599989,
              8.616268560000151
            ],
            [
              -71.88926858799994,
              8.616822575000072
            ],
            [
              -71.88952960399996,
              8.617691600000114
            ],
            [
              -71.89074365199997,
              8.619148619000157
            ],
            [
              -71.89211671499999,
              8.620329636000065
            ],
            [
              -71.89311276499996,
              8.620528638
            ],
            [
              -71.89376579599997,
              8.621256644000027
            ],
            [
              -71.89491485299993,
              8.623219690000099
            ],
            [
              -71.89661892899989,
              8.625337726
            ],
            [
              -71.89785098299996,
              8.626084733000084
            ],
            [
              -71.89924204099992,
              8.626623733000088
            ],
            [
              -71.89982606999996,
              8.627398745000107
            ],
            [
              -71.90066610999997,
              8.628262764999988
            ],
            [
              -71.90188715999994,
              8.627771750000136
            ],
            [
              -71.90272318799992,
              8.628154754000036
            ],
            [
              -71.90492428099998,
              8.628801749
            ],
            [
              -71.90644035199983,
              8.630416776000175
            ],
            [
              -71.90811943799991,
              8.632214809000175
            ],
            [
              -71.90933348599992,
              8.633671828
            ],
            [
              -71.9099365159999,
              8.633942836000017
            ],
            [
              -71.91067254299998,
              8.633385815000054
            ],
            [
              -71.91191659299994,
              8.632802799000103
            ],
            [
              -71.9132556379999,
              8.632493786000055
            ],
            [
              -71.91443569199993,
              8.632667789000152
            ],
            [
              -71.91505770999999,
              8.632341774999986
            ],
            [
              -71.91570274099996,
              8.63196976000006
            ],
            [
              -71.91574874199995,
              8.63192376000012
            ],
            [
              -71.9162987659999,
              8.631322750000152
            ],
            [
              -71.91719779599987,
              8.630948736000107
            ],
            [
              -71.91784882699989,
              8.631424735000166
            ],
            [
              -71.91831391399995,
              8.631262145
            ],
            [
              -71.91858685399995,
              8.631166727000107
            ],
            [
              -71.91987890399992,
              8.630765714000063
            ],
            [
              -71.92135796499991,
              8.630753703000039
            ],
            [
              -71.92272202199996,
              8.63065169100014
            ],
            [
              -71.92385305699992,
              8.630435685
            ],
            [
              -71.92428107299992,
              8.629010657000094
            ],
            [
              -71.92418105899998,
              8.62800263700018
            ],
            [
              -71.92413406499992,
              8.62793463000014
            ],
            [
              -71.92475008399998,
              8.626897599000017
            ],
            [
              -71.92576712299996,
              8.626866599000152
            ],
            [
              -71.92646114799999,
              8.626814588000173
            ],
            [
              -71.92719917599993,
              8.626694582000027
            ],
            [
              -71.92742510699998,
              8.626083239000138
            ],
            [
              -71.92747118199998,
              8.62595856400003
            ],
            [
              -71.92755518399991,
              8.624879545000056
            ],
            [
              -71.92725016599991,
              8.624286532999974
            ],
            [
              -71.92742716499998,
              8.62329951400011
            ],
            [
              -71.92820919299993,
              8.622719492000101
            ],
            [
              -71.92862020799993,
              8.62216547700018
            ],
            [
              -71.92886921299993,
              8.621430465000117
            ],
            [
              -71.92933223999995,
              8.621449465000069
            ],
            [
              -71.92989026399994,
              8.62192647
            ],
            [
              -71.93042829099988,
              8.622632482000029
            ],
            [
              -71.93104530499994,
              8.621733463000112
            ],
            [
              -71.93177832599991,
              8.62083343900008
            ],
            [
              -71.93248635999998,
              8.619818414000065
            ],
            [
              -71.93252535499994,
              8.618855389000032
            ],
            [
              -71.93347638599994,
              8.619191387000114
            ],
            [
              -71.93316837399993,
              8.618231379000122
            ],
            [
              -71.93353238299994,
              8.617586356000118
            ],
            [
              -71.93436341799998,
              8.617418350000037
            ],
            [
              -71.93487143999988,
              8.617300343000181
            ],
            [
              -71.93577147599984,
              8.617109337000159
            ],
            [
              -71.93579948199994,
              8.617705353000076
            ],
            [
              -71.93575948099993,
              8.618439359000092
            ],
            [
              -71.93645451299994,
              8.618662368000116
            ],
            [
              -71.93705353099995,
              8.618336354000178
            ],
            [
              -71.93767556199998,
              8.61805634100017
            ],
            [
              -71.93807056999998,
              8.61832835500013
            ],
            [
              -71.93828257999996,
              8.618808365000064
            ],
            [
              -71.93877160099998,
              8.619217362000029
            ],
            [
              -71.9392106219999,
              8.61919036300003
            ],
            [
              -71.93957462999992,
              8.618453340000087
            ],
            [
              -71.93954663499983,
              8.617789328000015
            ],
            [
              -71.93963462599999,
              8.617284317999975
            ],
            [
              -71.93986464299985,
              8.617098317000114
            ],
            [
              -71.94030465699984,
              8.61716431200017
            ],
            [
              -71.94083267499991,
              8.616769298000179
            ],
            [
              -71.94126668999996,
              8.616101287000049
            ],
            [
              -71.94191271499994,
              8.615889280000033
            ],
            [
              -71.94262974199995,
              8.615884274000166
            ],
            [
              -71.94300576099994,
              8.61663728100018
            ],
            [
              -71.94346578199992,
              8.616358274000106
            ],
            [
              -71.94376779399994,
              8.616493280999975
            ],
            [
              -71.94434881799998,
              8.616924285000152
            ],
            [
              -71.94495384699985,
              8.617378289000044
            ],
            [
              -71.94576688699988,
              8.617829300000153
            ],
            [
              -71.94669291799994,
              8.618005302000142
            ],
            [
              -71.94791897299996,
              8.618087291000052
            ],
            [
              -71.94873000099983,
              8.618264288000091
            ],
            [
              -71.94937903199997,
              8.618511290000072
            ],
            [
              -71.94974404599998,
              8.617820279
            ],
            [
              -71.95041307199989,
              8.617677273000083
            ],
            [
              -71.95045606699989,
              8.61724126300004
            ],
            [
              -71.95005904699991,
              8.61680824800004
            ],
            [
              -71.95007905399996,
              8.61635024400016
            ],
            [
              -71.95079507399998,
              8.616252233000125
            ],
            [
              -71.95172311699986,
              8.616634243000135
            ],
            [
              -71.95315116999996,
              8.616003216000024
            ],
            [
              -71.95347718899995,
              8.616322224000157
            ],
            [
              -71.95366819799995,
              8.616962241000067
            ],
            [
              -71.9541562249999,
              8.617279238000094
            ],
            [
              -71.95501325499993,
              8.617570241000124
            ],
            [
              -71.95614730699998,
              8.617584236000084
            ],
            [
              -71.95684133299994,
              8.617624237000143
            ],
            [
              -71.95728435399991,
              8.618102247000081
            ],
            [
              -71.95763436699991,
              8.618534246000024
            ],
            [
              -71.95844940699993,
              8.619307258000049
            ],
            [
              -71.95865541699993,
              8.619053251000082
            ],
            [
              -71.95867541199982,
              8.618640242000083
            ],
            [
              -71.95878641399992,
              8.617998236000062
            ],
            [
              -71.95917542299998,
              8.617513221000024
            ],
            [
              -71.95936243299991,
              8.617786218000106
            ],
            [
              -71.95948243999999,
              8.618290234000085
            ],
            [
              -71.95948845199996,
              8.619023246000154
            ],
            [
              -71.9596564609999,
              8.619824263999988
            ],
            [
              -71.95996247199997,
              8.620533281000121
            ],
            [
              -71.95941244899996,
              8.621156298000074
            ],
            [
              -71.95916945499994,
              8.622534332000043
            ],
            [
              -71.95869444399995,
              8.623844360000078
            ],
            [
              -71.95957848599994,
              8.62459437200016
            ],
            [
              -71.95974449499988,
              8.625120382000148
            ],
            [
              -71.96046852599994,
              8.626008396000088
            ],
            [
              -71.96109254499999,
              8.625911390000056
            ],
            [
              -71.96173856999997,
              8.62576838400014
            ],
            [
              -71.96203658199994,
              8.625422375000028
            ],
            [
              -71.96184957299988,
              8.625240374000157
            ],
            [
              -71.96154756099997,
              8.624967366000078
            ],
            [
              -71.96117654699998,
              8.624856364000152
            ],
            [
              -71.96119654199998,
              8.624466355000152
            ],
            [
              -71.9616555579999,
              8.624072347000038
            ],
            [
              -71.96234758399999,
              8.623837340000023
            ],
            [
              -71.96308861699993,
              8.62399234100019
            ],
            [
              -71.96316662299989,
              8.625023361000046
            ],
            [
              -71.96275761999988,
              8.625920380000082
            ],
            [
              -71.96292362999986,
              8.626538391000167
            ],
            [
              -71.96338964999995,
              8.626901400000065
            ],
            [
              -71.96407867099987,
              8.626368385000092
            ],
            [
              -71.96479369699995,
              8.626110377000089
            ],
            [
              -71.96486870999996,
              8.626774389000161
            ],
            [
              -71.96445769599995,
              8.6274654
            ],
            [
              -71.96392867299988,
              8.627882421000152
            ],
            [
              -71.9630786489999,
              8.628508431000057
            ],
            [
              -71.9632686519999,
              8.62912644100004
            ],
            [
              -71.96378067399996,
              8.629580457000145
            ],
            [
              -71.96408569199991,
              8.630105462000131
            ],
            [
              -71.96346466699987,
              8.63047747600001
            ],
            [
              -71.96286464299993,
              8.630642477000094
            ],
            [
              -71.96247662899998,
              8.63133349900005
            ],
            [
              -71.96159559299991,
              8.630973496000024
            ],
            [
              -71.96096756299994,
              8.630543485999965
            ],
            [
              -71.96044154599991,
              8.631304503000138
            ],
            [
              -71.96088757199988,
              8.632171529000118
            ],
            [
              -71.96091557799997,
              8.632767533000049
            ],
            [
              -71.96045555599994,
              8.633023541000114
            ],
            [
              -71.9596245329999,
              8.63321455800019
            ],
            [
              -71.95929851499994,
              8.632941550000169
            ],
            [
              -71.95906249899997,
              8.63227853300009
            ],
            [
              -71.95813746199997,
              8.632286544000124
            ],
            [
              -71.95744743599982,
              8.632819559000097
            ],
            [
              -71.95719843099982,
              8.63348657600011
            ],
            [
              -71.9577094579999,
              8.63373457300014
            ],
            [
              -71.95821746899992,
              8.633661573000154
            ],
            [
              -71.95819547399998,
              8.633821568000144
            ],
            [
              -71.95803947599995,
              8.634511585000098
            ],
            [
              -71.95854949799997,
              8.634644593000132
            ],
            [
              -71.95882950399994,
              8.63494058900011
            ],
            [
              -71.95906251499997,
              8.635236598000176
            ],
            [
              -71.9590675199999,
              8.635855614000036
            ],
            [
              -71.95891152199988,
              8.636544626000045
            ],
            [
              -71.95985855399994,
              8.636421614000142
            ],
            [
              -71.96059857999995,
              8.63641561500009
            ],
            [
              -71.96138661999998,
              8.63670762300012
            ],
            [
              -71.96171363199994,
              8.63704862700007
            ],
            [
              -71.96192664899996,
              8.637757632000046
            ],
            [
              -71.9627136819999,
              8.637842640000144
            ],
            [
              -71.96294469299994,
              8.637748628000168
            ],
            [
              -71.96349371099996,
              8.637102611000103
            ],
            [
              -71.96364970799988,
              8.636298598999986
            ],
            [
              -71.96394471499997,
              8.635654582000086
            ],
            [
              -71.96431473399986,
              8.63565157700009
            ],
            [
              -71.96461674599988,
              8.635809584000128
            ],
            [
              -71.9648747569999,
              8.636196588000189
            ],
            [
              -71.9650397719999,
              8.636677603000123
            ],
            [
              -71.96513777399991,
              8.637341614000036
            ],
            [
              -71.96507377699993,
              8.637937620000173
            ],
            [
              -71.96512077199992,
              8.638028627000153
            ],
            [
              -71.96548879199992,
              8.63788862500013
            ],
            [
              -71.96585780499998,
              8.637679612000113
            ],
            [
              -71.96615882399993,
              8.63781461900004
            ],
            [
              -71.96632483299999,
              8.638294629000143
            ],
            [
              -71.96607282099984,
              8.638594637000097
            ],
            [
              -71.9656818009999,
              8.638826639000115
            ],
            [
              -71.96556879899998,
              8.63921765400005
            ],
            [
              -71.9659878249999,
              8.639534651000076
            ],
            [
              -71.96677385299995,
              8.63950565100015
            ],
            [
              -71.96711986599996,
              8.639410645000112
            ],
            [
              -71.96813290399996,
              8.638783629000102
            ],
            [
              -71.96864192099997,
              8.638939625000035
            ],
            [
              -71.96876192899992,
              8.639489641000068
            ],
            [
              -71.96910994199993,
              8.639623643000164
            ],
            [
              -71.96948296699998,
              8.63996464600001
            ],
            [
              -71.97001698399993,
              8.64023564200005
            ],
            [
              -71.9704610099999,
              8.640850660000126
            ],
            [
              -71.97081102299984,
              8.641168663000087
            ],
            [
              -71.97102203899988,
              8.641602672000033
            ],
            [
              -71.97091002999986,
              8.64203868200002
            ],
            [
              -71.97079902699988,
              8.64252169700012
            ],
            [
              -71.97112605099994,
              8.642931701000123
            ],
            [
              -71.97131605499999,
              8.643571706000046
            ],
            [
              -71.97104204899995,
              8.644055727000023
            ],
            [
              -71.97062804099988,
              8.644379730000082
            ],
            [
              -71.97083904499993,
              8.64472173900009
            ],
            [
              -71.97130106599997,
              8.644672732
            ],
            [
              -71.97183108299993,
              8.644392731000039
            ],
            [
              -71.97215809499983,
              8.644779734000167
            ],
            [
              -71.97241511199996,
              8.645190743000171
            ],
            [
              -71.97318415099988,
              8.645894756000075
            ],
            [
              -71.97390818299993,
              8.646736768999972
            ],
            [
              -71.97430720199992,
              8.647467781000103
            ]
          ]
        ]
      }
    }
  ]
}