{
  "type": "FeatureCollection",
  "features": [
    {
      "type": "Feature",
      "properties": {
        "Pais": "Venezuela",
        "Estado": "Carabobo",
        "Municipio": "San Diego"
      },
      "geometry": {
        "type": "Polygon",
        "coordinates": [
          [
            [
              -67.919893,
              10.335123000000124
            ],
            [
              -67.920764,
              10.33796100000012
            ],
            [
              -67.921645,
              10.34043
            ],
            [
              -67.92290999999989,
              10.341416000000152
            ],
            [
              -67.923888,
              10.342758000000174
            ],
            [
              -67.924088,
              10.34438
            ],
            [
              -67.92385699999988,
              10.346867000000145
            ],
            [
              -67.925216,
              10.349708
            ],
            [
              -67.925441,
              10.352615
            ],
            [
              -67.92576999999983,
              10.35455300000018
            ],
            [
              -67.927351,
              10.356538
            ],
            [
              -67.92757199999988,
              10.35809
            ],
            [
              -67.927896,
              10.359915
            ],
            [
              -67.9296609999999,
              10.361217000000181
            ],
            [
              -67.929969,
              10.361445
            ],
            [
              -67.932531,
              10.361168
            ],
            [
              -67.934895,
              10.360599
            ],
            [
              -67.937836,
              10.359941000000106
            ],
            [
              -67.939007,
              10.358429
            ],
            [
              -67.940249,
              10.356364
            ],
            [
              -67.941052,
              10.353696000000127
            ],
            [
              -67.94156,
              10.351222
            ],
            [
              -67.941916,
              10.350199000000146
            ],
            [
              -67.94332,
              10.348128
            ],
            [
              -67.944242,
              10.346166
            ],
            [
              -67.944322,
              10.343387000000178
            ],
            [
              -67.944419,
              10.342901
            ],
            [
              -67.94476699999984,
              10.341074000000106
            ],
            [
              -67.94513599999982,
              10.338582000000144
            ],
            [
              -67.946563,
              10.336488
            ],
            [
              -67.94868999999989,
              10.334551
            ],
            [
              -67.950884,
              10.334355000000187
            ],
            [
              -67.953399,
              10.334676
            ],
            [
              -67.955406,
              10.336301
            ],
            [
              -67.957439,
              10.337374
            ],
            [
              -67.9597619999999,
              10.338161000000127
            ],
            [
              -67.962202,
              10.337727
            ],
            [
              -67.963331,
              10.336951
            ],
            [
              -67.96526499999987,
              10.335434
            ],
            [
              -67.967021,
              10.334682
            ],
            [
              -67.9684309999999,
              10.335226
            ],
            [
              -67.969409,
              10.335971
            ],
            [
              -67.970232,
              10.336904
            ],
            [
              -67.979025,
              10.302466
            ],
            [
              -67.979107,
              10.29459
            ],
            [
              -67.979602,
              10.29452600000019
            ],
            [
              -67.98079199999984,
              10.293888000000152
            ],
            [
              -67.982584,
              10.293825
            ],
            [
              -67.983169,
              10.293122
            ],
            [
              -67.983735,
              10.291886
            ],
            [
              -67.985034,
              10.290800000000104
            ],
            [
              -67.985382,
              10.290075000000172
            ],
            [
              -67.985559,
              10.288839
            ],
            [
              -67.986361,
              10.287987
            ],
            [
              -67.987031,
              10.287753
            ],
            [
              -67.987961,
              10.28707100000014
            ],
            [
              -67.988613,
              10.285814
            ],
            [
              -67.990019,
              10.284920000000113
            ],
            [
              -67.99002,
              10.284792
            ],
            [
              -67.990627,
              10.284046000000103
            ],
            [
              -67.990693,
              10.283812000000125
            ],
            [
              -67.990824,
              10.283385000000123
            ],
            [
              -67.991691,
              10.28232000000014
            ],
            [
              -67.992235,
              10.281105000000139
            ],
            [
              -67.99262599999986,
              10.280274000000134
            ],
            [
              -67.991901,
              10.277843
            ],
            [
              -67.991498,
              10.275924
            ],
            [
              -67.99107,
              10.275028
            ],
            [
              -67.99270799999988,
              10.269677000000115
            ],
            [
              -67.992735,
              10.268355
            ],
            [
              -67.992218,
              10.268057
            ],
            [
              -67.992219,
              10.26771500000018
            ],
            [
              -67.992522,
              10.26746
            ],
            [
              -67.992285,
              10.267332
            ],
            [
              -67.992134,
              10.267289
            ],
            [
              -67.991747,
              10.267033
            ],
            [
              -67.992029,
              10.266500000000178
            ],
            [
              -67.992203,
              10.266116000000181
            ],
            [
              -67.992939,
              10.265755000000183
            ],
            [
              -67.993025,
              10.265584
            ],
            [
              -67.993199,
              10.265392000000134
            ],
            [
              -67.99341599999985,
              10.264987
            ],
            [
              -67.993611,
              10.264732
            ],
            [
              -67.993526,
              10.264369
            ],
            [
              -67.993206,
              10.26336700000013
            ],
            [
              -67.992691,
              10.262556000000131
            ],
            [
              -67.9914629999999,
              10.262150000000133
            ],
            [
              -67.991274,
              10.2607220000001
            ],
            [
              -67.990867,
              10.259847
            ],
            [
              -67.99033,
              10.259207000000174
            ],
            [
              -67.990266,
              10.25893
            ],
            [
              -67.99033199999985,
              10.258695000000102
            ],
            [
              -67.99028899999985,
              10.258525
            ],
            [
              -67.98957799999988,
              10.2582680000001
            ],
            [
              -67.98729199999985,
              10.257798
            ],
            [
              -67.986882,
              10.257904
            ],
            [
              -67.986062,
              10.257924
            ],
            [
              -67.985781,
              10.258052
            ],
            [
              -67.98491699999988,
              10.257881
            ],
            [
              -67.983989,
              10.25788000000017
            ],
            [
              -67.98375399999986,
              10.257411
            ],
            [
              -67.983648,
              10.25692000000015
            ],
            [
              -67.983476,
              10.256686000000116
            ],
            [
              -67.983306,
              10.255918000000179
            ],
            [
              -67.982599,
              10.254468
            ],
            [
              -67.98338399999989,
              10.252486
            ],
            [
              -67.98338499999988,
              10.252017
            ],
            [
              -67.98312799999985,
              10.251633
            ],
            [
              -67.983286,
              10.249757
            ],
            [
              -67.98367599999989,
              10.249224
            ],
            [
              -67.983765,
              10.248499
            ],
            [
              -67.983686,
              10.246687
            ],
            [
              -67.983103,
              10.246601
            ],
            [
              -67.982095,
              10.244916
            ],
            [
              -67.981648,
              10.243359
            ],
            [
              -67.98208199999988,
              10.242677
            ],
            [
              -67.982019,
              10.24223
            ],
            [
              -67.983258,
              10.239885000000186
            ],
            [
              -67.983281,
              10.239459000000124
            ],
            [
              -67.983435,
              10.238670000000184
            ],
            [
              -67.98305099999988,
              10.237263000000155
            ],
            [
              -67.98351,
              10.235792000000117
            ],
            [
              -67.98338399999989,
              10.234790000000146
            ],
            [
              -67.983753,
              10.234385
            ],
            [
              -67.9838,
              10.233297
            ],
            [
              -67.98434,
              10.233069
            ],
            [
              -67.984353,
              10.232986
            ],
            [
              -67.9837639999999,
              10.232143000000178
            ],
            [
              -67.98396799999989,
              10.231796
            ],
            [
              -67.984203,
              10.231164000000149
            ],
            [
              -67.984235,
              10.2308
            ],
            [
              -67.984284,
              10.230183000000181
            ],
            [
              -67.98458099999988,
              10.229646000000173
            ],
            [
              -67.98458199999988,
              10.229282
            ],
            [
              -67.984676,
              10.228966000000185
            ],
            [
              -67.98482,
              10.227842000000123
            ],
            [
              -67.984637,
              10.226495
            ],
            [
              -67.98337699999985,
              10.226123000000143
            ],
            [
              -67.98313,
              10.22567800000013
            ],
            [
              -67.982853,
              10.224504000000138
            ],
            [
              -67.98241899999988,
              10.223805
            ],
            [
              -67.981691,
              10.222787
            ],
            [
              -67.981537,
              10.222263000000169
            ],
            [
              -67.981901,
              10.219937
            ],
            [
              -67.981902,
              10.219716000000119
            ],
            [
              -67.981781,
              10.218575
            ],
            [
              -67.981503,
              10.217781
            ],
            [
              -67.98162999999988,
              10.216879
            ],
            [
              -67.981866,
              10.216009000000156
            ],
            [
              -67.981325,
              10.214913
            ],
            [
              -67.981266,
              10.213709000000108
            ],
            [
              -67.9808359999999,
              10.21177500000016
            ],
            [
              -67.98088399999989,
              10.21111000000019
            ],
            [
              -67.980575,
              10.21049
            ],
            [
              -67.980561,
              10.209999
            ],
            [
              -67.98116899999985,
              10.209496
            ],
            [
              -67.98241699999988,
              10.20849
            ],
            [
              -67.982823,
              10.208002
            ],
            [
              -67.982808,
              10.207827000000123
            ],
            [
              -67.982872,
              10.207353000000182
            ],
            [
              -67.983421,
              10.205915
            ],
            [
              -67.983811,
              10.20541
            ],
            [
              -67.98498,
              10.204895
            ],
            [
              -67.985199,
              10.204564000000175
            ],
            [
              -67.98545,
              10.203837
            ],
            [
              -67.986354,
              10.203161
            ],
            [
              -67.986652,
              10.202514
            ],
            [
              -67.98761999999988,
              10.201268000000141
            ],
            [
              -67.988604,
              10.199976000000163
            ],
            [
              -67.988669,
              10.199184000000173
            ],
            [
              -67.988312,
              10.198865
            ],
            [
              -67.98812599999985,
              10.198436000000129
            ],
            [
              -67.988066,
              10.197739000000183
            ],
            [
              -67.988053,
              10.196789
            ],
            [
              -67.98765,
              10.19623200000018
            ],
            [
              -67.987402,
              10.196136
            ],
            [
              -67.986702,
              10.195688000000132
            ],
            [
              -67.986549,
              10.195038000000181
            ],
            [
              -67.98658299999988,
              10.194023000000186
            ],
            [
              -67.98643,
              10.193183000000147
            ],
            [
              -67.986525,
              10.192629000000125
            ],
            [
              -67.986386,
              10.192090000000121
            ],
            [
              -67.986372,
              10.191726
            ],
            [
              -67.986825,
              10.191095
            ],
            [
              -67.987154,
              10.190289000000178
            ],
            [
              -67.98749799999985,
              10.1898
            ],
            [
              -67.98745999999988,
              10.189407000000188
            ],
            [
              -67.987368,
              10.189445000000148
            ],
            [
              -67.986121,
              10.187557
            ],
            [
              -67.984656,
              10.185229000000163
            ],
            [
              -67.98441799999989,
              10.184810000000141
            ],
            [
              -67.984321,
              10.184433
            ],
            [
              -67.984386,
              10.18381600000015
            ],
            [
              -67.984731,
              10.182915
            ],
            [
              -67.984859,
              10.182589
            ],
            [
              -67.984862,
              10.182373
            ],
            [
              -67.984971,
              10.182113000000129
            ],
            [
              -67.985261,
              10.181828000000166
            ],
            [
              -67.985782,
              10.181411
            ],
            [
              -67.986496,
              10.181036000000177
            ],
            [
              -67.987272,
              10.180594
            ],
            [
              -67.98754899999989,
              10.180224000000123
            ],
            [
              -67.987543,
              10.180181000000118
            ],
            [
              -67.986356,
              10.180417
            ],
            [
              -67.98529899999988,
              10.180344000000105
            ],
            [
              -67.980074,
              10.182124000000101
            ],
            [
              -67.979385,
              10.182173
            ],
            [
              -67.965474,
              10.184491
            ],
            [
              -67.96072199999986,
              10.185297000000105
            ],
            [
              -67.955232,
              10.1862
            ],
            [
              -67.952697,
              10.186616000000186
            ],
            [
              -67.9513,
              10.186842
            ],
            [
              -67.950051,
              10.187156
            ],
            [
              -67.948161,
              10.187979000000155
            ],
            [
              -67.945796,
              10.188931
            ],
            [
              -67.943967,
              10.189843
            ],
            [
              -67.942033,
              10.190915
            ],
            [
              -67.93946,
              10.192423000000133
            ],
            [
              -67.936871,
              10.193989
            ],
            [
              -67.93356799999987,
              10.195962
            ],
            [
              -67.931709,
              10.196726
            ],
            [
              -67.930058,
              10.197742
            ],
            [
              -67.927557,
              10.199793000000113
            ],
            [
              -67.924848,
              10.201961
            ],
            [
              -67.919727,
              10.206106
            ],
            [
              -67.91728599999988,
              10.208129
            ],
            [
              -67.91561899999988,
              10.209467000000132
            ],
            [
              -67.911153,
              10.213133
            ],
            [
              -67.90980542099999,
              10.214254649000054
            ],
            [
              -67.90907699999985,
              10.216433
            ],
            [
              -67.909271,
              10.218727000000172
            ],
            [
              -67.910782,
              10.221504
            ],
            [
              -67.913253,
              10.222477
            ],
            [
              -67.913473,
              10.224194
            ],
            [
              -67.914072,
              10.226105
            ],
            [
              -67.915628,
              10.228168
            ],
            [
              -67.91732099999984,
              10.229466000000173
            ],
            [
              -67.919558,
              10.231046000000163
            ],
            [
              -67.91978199999988,
              10.232165
            ],
            [
              -67.920851,
              10.232197
            ],
            [
              -67.923016,
              10.232353000000103
            ],
            [
              -67.924313,
              10.233642
            ],
            [
              -67.92629,
              10.234426
            ],
            [
              -67.928261,
              10.235025
            ],
            [
              -67.929129,
              10.236651000000109
            ],
            [
              -67.930121,
              10.239882000000136
            ],
            [
              -67.930417,
              10.24173500000012
            ],
            [
              -67.930961,
              10.243395
            ],
            [
              -67.93145,
              10.246161
            ],
            [
              -67.931636,
              10.248224
            ],
            [
              -67.930737,
              10.249795000000177
            ],
            [
              -67.929144,
              10.252793
            ],
            [
              -67.928135,
              10.255886
            ],
            [
              -67.928996,
              10.257995
            ],
            [
              -67.930387,
              10.259281000000101
            ],
            [
              -67.932061,
              10.261409000000128
            ],
            [
              -67.93198399999989,
              10.264585000000181
            ],
            [
              -67.93203199999988,
              10.266676000000189
            ],
            [
              -67.931296,
              10.269622
            ],
            [
              -67.93136,
              10.271505
            ],
            [
              -67.93098,
              10.273312000000146
            ],
            [
              -67.929914,
              10.276085
            ],
            [
              -67.929211,
              10.278638000000115
            ],
            [
              -67.928568,
              10.280224
            ],
            [
              -67.927353,
              10.282726000000139
            ],
            [
              -67.926051,
              10.286081
            ],
            [
              -67.92547,
              10.28881500000017
            ],
            [
              -67.925082,
              10.293105
            ],
            [
              -67.923186,
              10.2954
            ],
            [
              -67.922508,
              10.297332
            ],
            [
              -67.922151,
              10.298425
            ],
            [
              -67.92137,
              10.301419000000124
            ],
            [
              -67.919204,
              10.306023
            ],
            [
              -67.917375,
              10.31027
            ],
            [
              -67.915265,
              10.313102
            ],
            [
              -67.912612,
              10.317055000000153
            ],
            [
              -67.913148,
              10.319153
            ],
            [
              -67.91365,
              10.320952
            ],
            [
              -67.912816,
              10.322383000000116
            ],
            [
              -67.912155,
              10.32479700000016
            ],
            [
              -67.913302,
              10.326437000000169
            ],
            [
              -67.915134,
              10.327708000000143
            ],
            [
              -67.916485,
              10.329202000000123
            ],
            [
              -67.917297,
              10.329572
            ],
            [
              -67.91719599999988,
              10.329966000000127
            ],
            [
              -67.918444,
              10.331734
            ],
            [
              -67.9192819999999,
              10.333677
            ],
            [
              -67.919893,
              10.335123000000124
            ]
          ]
        ]
      }
    }
  ]
}