{"type": "FeatureCollection", "features": [{"type": "Feature", "properties": {"Pais": "Venezuela", "Estado": "Aragua", "Municipio": "San Casimiro"}, "geometry": {"type": "Polygon", "coordinates": [[[-66.96927012599997, 10.069453260000046], [-66.97073819599996, 10.069985272000167], [-66.97310929699995, 10.070254261000116], [-66.97569042099997, 10.070704259000081], [-66.97870554999997, 10.070598240000095], [-66.98048625699994, 10.070089020000069], [-66.98073931399995, 10.070016653000039], [-66.98097164699988, 10.069950212000094], [-66.98391176399997, 10.069409176000136], [-66.98620486099998, 10.069106163000185], [-66.98792694199983, 10.069428156000072], [-66.98990903399994, 10.070183168000028], [-66.99169410699994, 10.070047155000054], [-66.99773639199992, 10.069001713000034], [-66.99780937299994, 10.068989086000158], [-66.9980613869999, 10.06895809000008], [-66.99836138899997, 10.067027039000095], [-66.99972542699993, 10.064922977000094], [-67.0015714939999, 10.062307894000185], [-67.00164150199993, 10.062352900000178], [-67.00178150499988, 10.062601905000065], [-67.0023735339999, 10.06183887300017], [-67.00326656899983, 10.061025855000025], [-67.00464762099995, 10.060528829000134], [-67.00541565599991, 10.061024837000161], [-67.00649671899993, 10.062617878000083], [-67.00826479399996, 10.06362989000013], [-67.01120192299993, 10.063734883], [-67.01354202999994, 10.0641898720001], [-67.01583413699996, 10.064485870000055], [-67.02081435399992, 10.065415867000183], [-67.02394049199995, 10.065839858], [-67.02720664499998, 10.066467859], [-67.02957474599992, 10.067404871000122], [-67.03181885199996, 10.067562856000109], [-67.03382793599991, 10.067356848000145], [-67.03627802999995, 10.065196776000107], [-67.03750307099989, 10.063141719000157], [-67.03908013699998, 10.061542668000072], [-67.04119122099996, 10.060142622000058], [-67.04486437899993, 10.059871588000021], [-67.04694446499991, 10.059871577000138], [-67.04879354999997, 10.059850565000147], [-67.05068563199995, 10.059531542000116], [-67.05319472899998, 10.058516503000078], [-67.05514280899996, 10.056981459999975], [-67.05591884399996, 10.056472435000046], [-67.05592084299997, 10.056471442000088], [-67.05653267799994, 10.05607039400013], [-67.05654, 10.055996000000164], [-67.05657161199997, 10.055859412000075], [-67.05661335599996, 10.055679048000059], [-67.056699, 10.055309], [-67.056872, 10.054183], [-67.05674489799992, 10.053741000000116], [-67.056583, 10.053178], [-67.056931, 10.051225000000102], [-67.057744, 10.049496], [-67.05869981999984, 10.048513048000075], [-67.05943499999984, 10.047757], [-67.059996, 10.046237], [-67.06018999999986, 10.045043], [-67.06072499999988, 10.043202000000122], [-67.059954, 10.040413000000115], [-67.05910199999988, 10.038658], [-67.05848099999986, 10.036876], [-67.058388, 10.0347450000001], [-67.05839599999985, 10.033460000000161], [-67.059328, 10.03205], [-67.060528, 10.029790000000105], [-67.061966, 10.028145], [-67.06173399999989, 10.026084], [-67.06139299999984, 10.024506], [-67.061348, 10.02258], [-67.062257, 10.021148], [-67.063279, 10.019509000000141], [-67.06447, 10.018578], [-67.066421, 10.017341000000158], [-67.067339, 10.016757000000155], [-67.067968, 10.013127], [-67.067717, 10.011364000000185], [-67.06768199999988, 10.01026400000012], [-67.067585, 10.009957], [-67.067543, 10.009823], [-67.067035, 10.008208], [-67.06678, 10.006147000000169], [-67.06649, 10.004981000000157], [-67.067238, 10.003688000000125], [-67.068755, 10.002937000000145], [-67.07089799999989, 10.002385000000118], [-67.072598, 10.00138], [-67.073717, 10.000129000000129], [-67.074462, 9.998584], [-67.07502199999988, 9.99706300000014], [-67.07546799999983, 9.995137000000113], [-67.075537, 9.992379], [-67.076307, 9.989838], [-67.077788, 9.986848000000123], [-67.080736, 9.982774], [-67.081828, 9.981445000000178], [-67.08223, 9.97918600000014], [-67.083065, 9.976391], [-67.086333, 9.973368000000164], [-67.086957, 9.972324000000128], [-67.086938, 9.972320000000138], [-67.086977, 9.972292000000152], [-67.087236, 9.971858000000111], [-67.088757, 9.971210000000156], [-67.09050499999984, 9.970485], [-67.090809, 9.969566], [-67.091376, 9.969536000000176], [-67.091829, 9.968971000000124], [-67.092328, 9.966895], [-67.093663, 9.964871000000187], [-67.095985, 9.963588], [-67.098568, 9.962598], [-67.101015, 9.96037100000018], [-67.1011759999999, 9.957565], [-67.09975399999985, 9.95458200000013], [-67.0969649999999, 9.95167], [-67.094856, 9.949159000000122], [-67.09355099999988, 9.947483], [-67.091782, 9.945861], [-67.09101, 9.944129000000146], [-67.092384, 9.940314000000114], [-67.09284799999989, 9.938927000000149], [-67.094073, 9.937296000000174], [-67.09342499999985, 9.936022], [-67.091757, 9.933525], [-67.090726, 9.931592], [-67.090206, 9.929695], [-67.089533, 9.928352000000189], [-67.09013599999986, 9.926939000000175], [-67.092826, 9.925466000000142], [-67.09483199999983, 9.924671000000103], [-67.096477, 9.923146], [-67.09737699999988, 9.921522000000152], [-67.098219, 9.919163], [-67.098768, 9.917315], [-67.099897, 9.91548], [-67.100764, 9.913281], [-67.101561, 9.911038], [-67.103238, 9.90864100000016], [-67.105116, 9.907182], [-67.10558499999985, 9.904762], [-67.10516699999988, 9.902081], [-67.105327, 9.897852000000114], [-67.105231, 9.89633700000013], [-67.103466, 9.89625500000011], [-67.100648, 9.897042], [-67.09833599999985, 9.896211], [-67.097502, 9.893585], [-67.096397, 9.891377], [-67.094746, 9.891178], [-67.093991, 9.889879000000121], [-67.095742, 9.888856], [-67.09501399999988, 9.888564], [-67.089399, 9.886054], [-67.08122199999985, 9.884848], [-67.07679, 9.883200000000159], [-67.07143999999988, 9.882807000000128], [-67.069493, 9.884313], [-67.068286, 9.887023000000113], [-67.068531, 9.889109], [-67.069902, 9.891932], [-67.06927, 9.894356], [-67.066705, 9.893622], [-67.0639379999999, 9.894706], [-67.060995, 9.89634500000011], [-67.058757, 9.895789], [-67.05664399999984, 9.897091], [-67.05497699999984, 9.898684], [-67.052314, 9.90038600000014], [-67.049436, 9.903080000000102], [-67.046248, 9.90359500000011], [-67.04285999999985, 9.903144000000111], [-67.039815, 9.903885000000116], [-67.03641199999987, 9.905638], [-67.032837, 9.905588], [-67.032663, 9.905558000000156], [-67.029415, 9.905007], [-67.02496, 9.906421], [-67.021622, 9.906619], [-67.017885, 9.906641], [-67.01516499999985, 9.906369], [-67.011278, 9.907084000000111], [-67.002147, 9.908488], [-66.978259, 9.909328000000187], [-66.975904, 9.909744000000103], [-66.974028, 9.909481], [-66.86110299999984, 9.893878], [-66.85827099999989, 9.89405900000014], [-66.85365799999988, 9.893444], [-66.850925, 9.893415000000175], [-66.84919299999984, 9.89372], [-66.847857, 9.89481700000016], [-66.846442, 9.896377], [-66.844673, 9.897763], [-66.843432, 9.898168000000112], [-66.84181, 9.899021000000175], [-66.839675, 9.89982], [-66.837685, 9.901557], [-66.836433, 9.90315800000019], [-66.835263, 9.905124000000114], [-66.83008199999989, 9.908084], [-66.828323, 9.909791], [-66.826737, 9.910344], [-66.824859, 9.91118200000011], [-66.8227179999999, 9.911774], [-66.820229, 9.912377], [-66.818786, 9.913342000000114], [-66.818531, 9.91351200000014], [-66.818574, 9.913667], [-66.818991, 9.915172], [-66.818939, 9.915455000000122], [-66.817741, 9.918946000000176], [-66.817465, 9.919217], [-66.816151, 9.92031400000019], [-66.815459, 9.921231], [-66.814779, 9.92486], [-66.813615, 9.930893], [-66.813479, 9.932529000000102], [-66.813325, 9.938993], [-66.812102, 9.939995], [-66.810359, 9.941472], [-66.809499, 9.943751000000134], [-66.808409, 9.946886000000177], [-66.806593, 9.94825], [-66.803607, 9.949305], [-66.799602, 9.950504], [-66.797892, 9.950762], [-66.7987629999999, 9.954229], [-66.799066, 9.958151], [-66.798143, 9.960638], [-66.79602, 9.961827], [-66.791903, 9.965443000000107], [-66.73491784199996, 9.975713202000065], [-66.70985233099992, 9.98023065600006], [-66.703636, 9.981351], [-66.70326128199991, 9.98141889600015], [-66.70326431699988, 9.981448194999984], [-66.70326597799993, 9.981456445000163], [-66.70391701699998, 9.982966486000123], [-66.70563209999995, 9.983628493000083], [-66.70655313799995, 9.984934523000163], [-66.70720217399992, 9.985696543000131], [-66.70883724799995, 9.986774552999975], [-66.7094272839999, 9.98710256000004], [-66.71046333299995, 9.98760056500015], [-66.71148337799997, 9.987547559000177], [-66.71295944199994, 9.987986565000085], [-66.71414549499997, 9.988043557000026], [-66.71546154899994, 9.988579567000158], [-66.71724863799994, 9.989331576000097], [-66.7194617429999, 9.99036959000017], [-66.72136983599995, 9.992059629000153], [-66.72331691999995, 9.991956608000066], [-66.72487298099998, 9.99197959999998], [-66.72607704299998, 9.991874596000173], [-66.72712108299993, 9.991821589000153], [-66.72886416099993, 9.991126559], [-66.72967418499996, 9.991033548000075], [-66.73176328199997, 9.991017537000062], [-66.73376036399992, 9.99102753000011], [-66.73554145199995, 9.990791511], [-66.73722951999997, 9.990557502000115], [-66.73844357299998, 9.990016475000175], [-66.73965062299993, 9.989222446000099], [-66.74098966799988, 9.988194417000045], [-66.74208271299983, 9.98825441300005], [-66.74301776699991, 9.989996453000117], [-66.74398482299989, 9.992059504000053], [-66.74623194799995, 9.996890616000087], [-66.74677798499994, 9.997870636000187], [-66.74757402299997, 9.998502647000123], [-66.74959310199995, 9.998593644000096], [-66.76189564599991, 9.99929759500003], [-66.76424275299996, 9.999613590000138], [-66.76561781599997, 10.000147590000097], [-66.76739890199991, 10.001571620000163], [-66.76832796199994, 10.003602671000067], [-66.76966703099998, 10.006842740000025], [-66.77100810099995, 10.008363776000067], [-66.77248917399999, 10.009951812000054], [-66.77413425599997, 10.01167585100012], [-66.77571033599997, 10.013376878000088], [-66.77647238199995, 10.015041925000105], [-66.77734403699998, 10.01640263000013], [-66.77757372599996, 10.016761188000146], [-66.77767543799996, 10.016919967000035], [-66.77908249199999, 10.015928927000118], [-66.78548431799999, 10.014143629000046], [-66.78664181499994, 10.013820834000057], [-66.78776586099991, 10.012798801000145], [-66.78935992599992, 10.01227477700013], [-66.79123701399982, 10.012114759000042], [-66.79327809899996, 10.012090754000099], [-66.79834832099988, 10.013153750000129], [-66.80407758399997, 10.014943763000133], [-66.80519163099996, 10.014953761000072], [-66.8071487229999, 10.015663766000102], [-66.80870479699996, 10.015782767000132], [-66.81002485499994, 10.015606752000053], [-66.81126790199994, 10.014834716999985], [-66.81291897099993, 10.015113714000108], [-66.81420604299996, 10.01606174300008], [-66.81446705699994, 10.018351796000161], [-66.81616614899991, 10.020647848000067], [-66.81840925699998, 10.021951872000102], [-66.82519456799997, 10.024713908000024], [-66.82655163399994, 10.025615923000146], [-66.8286297269999, 10.026691932000062], [-66.82876434499997, 10.026706695000144], [-66.83032580399998, 10.02687793500013], [-66.83157385599998, 10.026518911999972], [-66.83320291899992, 10.025053864000085], [-66.8357080049999, 10.021285750000061], [-66.83831810599986, 10.018570667000063], [-66.84043418199997, 10.015242575000173], [-66.84118620799995, 10.014201541000034], [-66.84372231399988, 10.01288649300011], [-66.84501836599992, 10.012687478000089], [-66.84754047499996, 10.012106451000022], [-66.84922254399999, 10.011260411000023], [-66.85100960599993, 10.009404360000019], [-66.8524956629999, 10.007734310000046], [-66.85456274299997, 10.00608125000008], [-66.85500895699994, 10.00576634700019], [-66.85614981599991, 10.004961218000119], [-66.85742386099997, 10.004808203000152], [-66.85880892199992, 10.004264183999965], [-66.86143803599992, 10.003039138000076], [-66.86413613999997, 10.001745091000032], [-66.86602521399988, 10.000759050000056], [-66.86918336299988, 10.000996036000117], [-66.87130845199994, 10.000213011000085], [-66.87275950999992, 9.999438977000182], [-66.87469007299995, 9.999328248000154], [-66.87479960099995, 9.999321965999968], [-66.87584063499986, 9.999079955000127], [-66.87926479199996, 10.000185957000156], [-66.88118789099997, 10.001790996000182], [-66.88435604799992, 10.004711050000026], [-66.88527963599995, 10.00576634700019], [-66.88626313799989, 10.006890102], [-66.8889072739999, 10.01045917900018], [-66.88980532299996, 10.011755204000053], [-66.89144939899984, 10.013386237000077], [-66.89430054199994, 10.014980261000176], [-66.89729467999996, 10.016916296000034], [-66.89897575299995, 10.017744307000044], [-66.90040983099993, 10.019241336], [-66.90200390699994, 10.020552364000139], [-66.9042640049999, 10.021281370000054], [-66.90602108499996, 10.020801347000031], [-66.90719513099987, 10.02012132599998], [-66.9081511679999, 10.01864228200003], [-66.90902219599997, 10.017782258000068], [-66.91069925999989, 10.01650020700015], [-66.91191931899994, 10.015797185000054], [-66.91483744099997, 10.015372156000183], [-66.91727854999988, 10.015777158999981], [-66.91954964099995, 10.015566135000142], [-66.92149173099989, 10.015015112000128], [-66.92377382499996, 10.013909066000053], [-66.92815900199997, 10.012088996000102], [-66.92963005499985, 10.010992959000134], [-66.93175915499995, 10.01064494000019], [-66.93303720899985, 10.010586929000112], [-66.93337423499992, 10.01231597800006], [-66.93346023399994, 10.012986993000084], [-66.93226119899992, 10.015341064000097], [-66.92724300799995, 10.020243216000154], [-66.92501394099997, 10.025856373000124], [-66.92506395299995, 10.026223383000115], [-66.9326463239999, 10.034558554000114], [-66.9358944839999, 10.038119634000054], [-66.93862461299994, 10.03939365400015], [-66.93966166399997, 10.039401642000087], [-66.94005767699986, 10.039361646000145], [-66.94311381599994, 10.039092615000186], [-66.94562091799997, 10.038481587000092], [-66.94726398899996, 10.038208567000027], [-66.95149915199988, 10.038441068], [-66.95613437399999, 10.03869553100003], [-66.95713442399995, 10.038912532000097], [-66.95860348799994, 10.039444544000105], [-66.95978054899996, 10.040806565000082], [-66.96045358499998, 10.042564607000031], [-66.96267374299998, 10.052812871000128], [-66.96301776799993, 10.054276902000026], [-66.96321878499998, 10.055489930000022], [-66.96361181599997, 10.057205980999981], [-66.96414483699994, 10.058919017000164], [-66.96572091699994, 10.060574055000131], [-66.96674498299996, 10.062603095000156], [-66.96701501199993, 10.065582173999985], [-66.96781205399998, 10.067980235999983], [-66.96927012599997, 10.069453260000046]]]}}]}