{"type": "FeatureCollection", "features": [{"type": "Feature", "properties": {"Pais": "Venezuela", "Estado": "Trujillo", "Municipio": "San Rafael de Carvajal", "Parroquia": "Carvajal"}, "geometry": {"type": "Polygon", "coordinates": [[[-70.593732, 9.352567], [-70.59355099999988, 9.356206000000157], [-70.593559, 9.358074], [-70.593525, 9.360695], [-70.595341, 9.364300000000185], [-70.595468, 9.363773], [-70.5963, 9.361732000000131], [-70.596878, 9.360333], [-70.597386, 9.35824700000012], [-70.598195, 9.357214], [-70.598241, 9.356114], [-70.59784699999989, 9.354234], [-70.597338, 9.352354000000105], [-70.597383, 9.351116], [-70.59789099999989, 9.349006], [-70.597359, 9.347516], [-70.596872, 9.344879000000162], [-70.59550599999983, 9.342862], [-70.59509, 9.342083000000116], [-70.594904, 9.340501000000131], [-70.593792, 9.338369000000114], [-70.593953, 9.3358], [-70.594114, 9.334676000000115], [-70.594113, 9.332773], [-70.59449, 9.330834], [-70.594593, 9.330303000000129], [-70.594413, 9.329488], [-70.593901, 9.327958], [-70.594201, 9.326552000000106], [-70.59397799999988, 9.324306], [-70.59522299999986, 9.322516000000121], [-70.595743, 9.320371], [-70.596112, 9.31751800000012], [-70.596437, 9.31618], [-70.59659799999986, 9.31470800000011], [-70.59691, 9.31261300000017], [-70.59764599999988, 9.309500000000185], [-70.597449, 9.30743600000011], [-70.596875, 9.304943], [-70.596584, 9.304213], [-70.59684, 9.302900000000136], [-70.597054, 9.300439], [-70.597274, 9.298346], [-70.59739, 9.297012], [-70.598581, 9.296165], [-70.59971599999989, 9.294767], [-70.6006809999999, 9.29291300000017], [-70.600625, 9.290939], [-70.599777, 9.290104], [-70.598819, 9.288237000000152], [-70.598213, 9.286617], [-70.59833, 9.285352], [-70.5984289999999, 9.282939], [-70.598736, 9.280500000000188], [-70.598704, 9.278594], [-70.598292, 9.277522], [-70.597617, 9.275972], [-70.597333, 9.274186], [-70.597237, 9.272603000000117], [-70.596699, 9.270959000000175], [-70.596438, 9.26917200000014], [-70.595793, 9.266634], [-70.59518999999989, 9.263843], [-70.594453, 9.261330000000157], [-70.593821, 9.261932], [-70.59232, 9.262283000000139], [-70.590911, 9.262381], [-70.58934099999982, 9.26293800000019], [-70.58709899999985, 9.262603000000183], [-70.585526, 9.261876], [-70.585198, 9.260432], [-70.583991, 9.258626000000106], [-70.581564, 9.258498000000145], [-70.580758, 9.259328], [-70.579882, 9.260272], [-70.579099, 9.260849000000178], [-70.577414, 9.261475], [-70.576123, 9.26226], [-70.574371, 9.263598], [-70.573495, 9.264382], [-70.57255, 9.264982], [-70.57148699999988, 9.265010000000188], [-70.5706371309999, 9.265934450000088], [-70.563214, 9.274009], [-70.554673, 9.290427], [-70.552883, 9.29286], [-70.554109, 9.292701], [-70.55561299999988, 9.292607], [-70.556886, 9.292516], [-70.55748099999983, 9.293447000000128], [-70.557698, 9.293972], [-70.559008, 9.294707], [-70.56020399999989, 9.295605000000137], [-70.56139599999983, 9.296228], [-70.562887, 9.296731], [-70.563136, 9.299138], [-70.5647469999999, 9.299868], [-70.565277, 9.301099000000136], [-70.564896, 9.301886], [-70.564983, 9.302941000000146], [-70.565808, 9.303754], [-70.565689, 9.304996000000187], [-70.566429, 9.306292], [-70.566379, 9.307464], [-70.56548399999986, 9.307985], [-70.563543, 9.309694], [-70.56310699999989, 9.31273300000015], [-70.563676, 9.314905], [-70.565669, 9.316272], [-70.566698, 9.316874], [-70.56673699999988, 9.317838000000108], [-70.5654009999999, 9.319675], [-70.56540599999988, 9.321351000000163], [-70.5651979999999, 9.322801], [-70.563958, 9.3248430000001], [-70.56365499999987, 9.326158], [-70.5641169999999, 9.327436], [-70.56448099999989, 9.328440000000171], [-70.565005, 9.329304], [-70.566402, 9.329663], [-70.56706799999989, 9.330032], [-70.56711599999988, 9.332669000000124], [-70.567926, 9.333998000000122], [-70.568016, 9.336653], [-70.56827395899995, 9.336961037000094], [-70.5687319999999, 9.337508000000128], [-70.576499, 9.337582], [-70.577337, 9.336802000000148], [-70.57748099999986, 9.33472600000016], [-70.57794599999988, 9.3320030000001], [-70.578845, 9.32993800000014], [-70.580134, 9.330246], [-70.580686, 9.329562], [-70.583708, 9.325471000000164], [-70.588253, 9.326657], [-70.588961, 9.332305], [-70.58714299999986, 9.332765], [-70.581992, 9.351324], [-70.588501, 9.351295000000107], [-70.592632, 9.35031], [-70.593732, 9.352567]]]}}, {"type": "Feature", "properties": {"Pais": "Venezuela", "Estado": "Trujillo", "Municipio": "San Rafael de Carvajal", "Parroquia": "Antonio Nicol\u00e1s Brice\u00f1o"}, "geometry": {"type": "Polygon", "coordinates": [[[-70.581992, 9.351324], [-70.557543, 9.350648], [-70.55772899999982, 9.352666], [-70.55886299999986, 9.354041000000109], [-70.557521, 9.355234], [-70.554514, 9.355693], [-70.553103, 9.356450000000109], [-70.55169199999983, 9.357299000000182], [-70.550536, 9.35824], [-70.551184, 9.360188000000107], [-70.55116099999987, 9.362092], [-70.549519, 9.362917000000152], [-70.547228, 9.363033000000144], [-70.545354, 9.363056], [-70.54495, 9.363811], [-70.544753, 9.36418], [-70.54491499999989, 9.364845000000173], [-70.543944, 9.365281], [-70.543065, 9.366863000000137], [-70.542254, 9.367757], [-70.54179199999987, 9.368538000000171], [-70.542301, 9.370303], [-70.53982599999989, 9.370969], [-70.541214, 9.372528000000102], [-70.541678, 9.374293000000137], [-70.540637, 9.375417], [-70.540429, 9.376541000000145], [-70.540105, 9.377298], [-70.540198, 9.378398000000118], [-70.540129, 9.379866000000106], [-70.54008299999987, 9.382204], [-70.540361, 9.382801], [-70.540292, 9.383465000000172], [-70.592006, 9.384824000000151], [-70.592191, 9.382967000000178], [-70.59337, 9.380926], [-70.593809, 9.379411000000118], [-70.593947, 9.378402000000108], [-70.593831, 9.37627], [-70.594663, 9.374321000000123], [-70.594616, 9.373105], [-70.594638, 9.371156], [-70.594707, 9.369322], [-70.594822, 9.367442], [-70.595168, 9.364966], [-70.595341, 9.364300000000185], [-70.593525, 9.360695], [-70.593559, 9.358074], [-70.59355099999988, 9.356206000000157], [-70.593732, 9.352567], [-70.592632, 9.35031], [-70.588501, 9.351295000000107], [-70.581992, 9.351324]]]}}, {"type": "Feature", "properties": {"Pais": "Venezuela", "Estado": "Trujillo", "Municipio": "San Rafael de Carvajal", "Parroquia": "Campo Alegre"}, "geometry": {"type": "Polygon", "coordinates": [[[-70.567002, 9.33863], [-70.565984, 9.340327000000116], [-70.565383, 9.341107], [-70.563347, 9.34156600000017], [-70.561798, 9.342965000000106], [-70.560804, 9.344777], [-70.55906899999985, 9.34608500000013], [-70.55610799999988, 9.347438000000182], [-70.55573799999985, 9.349089000000163], [-70.557543, 9.350648], [-70.581992, 9.351324], [-70.58714299999986, 9.332765], [-70.588961, 9.332305], [-70.588253, 9.326657], [-70.583708, 9.325471000000164], [-70.580686, 9.329562], [-70.580134, 9.330246], [-70.578845, 9.32993800000014], [-70.57794599999988, 9.3320030000001], [-70.57748099999986, 9.33472600000016], [-70.577337, 9.336802000000148], [-70.576499, 9.337582], [-70.5687319999999, 9.337508000000128], [-70.56827395899995, 9.336961037000094], [-70.5677419999999, 9.33743800000019], [-70.567002, 9.33863]]]}}, {"type": "Feature", "properties": {"Pais": "Venezuela", "Estado": "Trujillo", "Municipio": "San Rafael de Carvajal", "Parroquia": "Jos\u00e9 Leonardo Suarez"}, "geometry": {"type": "Polygon", "coordinates": [[[-70.56514999999985, 9.455807000000163], [-70.565167, 9.455548], [-70.56569999999988, 9.455066000000102], [-70.566694, 9.453346], [-70.568498, 9.451488], [-70.569586, 9.45041], [-70.571135, 9.448828], [-70.571945, 9.447956000000147], [-70.57340199999987, 9.445915], [-70.574374, 9.444974000000173], [-70.575414, 9.4427960000001], [-70.57657099999989, 9.441695], [-70.57735699999989, 9.440364000000102], [-70.57730999999984, 9.43850700000013], [-70.578953, 9.437383], [-70.57980799999984, 9.43619], [-70.580989, 9.436030000000187], [-70.581381, 9.434080000000108], [-70.582237, 9.432704000000115], [-70.583325, 9.431191000000183], [-70.582698, 9.428921000000116], [-70.582419, 9.426376], [-70.583692, 9.423968000000116], [-70.583366, 9.422134], [-70.583504, 9.419542], [-70.58452299999988, 9.418234000000155], [-70.585679, 9.416698], [-70.585678, 9.414244], [-70.585492, 9.41169900000017], [-70.585028, 9.409682], [-70.5852349999999, 9.40835200000015], [-70.585743, 9.405829], [-70.58706299999989, 9.404132], [-70.58717699999983, 9.401105], [-70.587037, 9.39879000000019], [-70.586665, 9.39695600000016], [-70.587404, 9.393653], [-70.587473, 9.391131], [-70.588422, 9.388769], [-70.590041, 9.388241], [-70.59142799999984, 9.385306], [-70.592006, 9.384824000000151], [-70.540292, 9.383465000000172], [-70.538487, 9.38397], [-70.53774699999985, 9.385255], [-70.538858, 9.385919000000172], [-70.53978399999988, 9.387226000000112], [-70.539368, 9.389381], [-70.53920599999987, 9.390826], [-70.53953, 9.391491], [-70.53916, 9.392592], [-70.537726, 9.393349000000114], [-70.536963, 9.394862], [-70.53811999999988, 9.395366], [-70.53907, 9.396581], [-70.538352, 9.397797], [-70.538885, 9.398691000000156], [-70.539903, 9.399012], [-70.540899, 9.401557000000139], [-70.5410849999999, 9.403368], [-70.541987, 9.404743000000167], [-70.54302899999988, 9.406165], [-70.543561, 9.406417], [-70.5443709999999, 9.407494], [-70.544163, 9.408985000000143], [-70.5444179999999, 9.410475000000133], [-70.54478899999987, 9.411851000000127], [-70.544859, 9.41348], [-70.543633, 9.415337], [-70.544212, 9.4186160000001], [-70.54412, 9.420336000000134], [-70.545371, 9.422422], [-70.546458, 9.423637], [-70.54678299999989, 9.425884], [-70.547292, 9.426755000000128], [-70.54757099999983, 9.428841], [-70.547594, 9.430767], [-70.5491219999999, 9.431845000000123], [-70.55021, 9.432486], [-70.551298, 9.434481], [-70.552085, 9.435237], [-70.55349699999988, 9.436934000000178], [-70.555002, 9.43819400000018], [-70.555673, 9.43973], [-70.555766, 9.44069300000018], [-70.555928, 9.442046], [-70.555998, 9.443468], [-70.557457, 9.44433800000013], [-70.557088, 9.446219000000156], [-70.558824, 9.447181000000171], [-70.55907899999988, 9.448213000000123], [-70.5605369999999, 9.449428], [-70.561694, 9.45000000000016], [-70.561949, 9.450849], [-70.562829, 9.451972], [-70.563778, 9.453806000000156], [-70.564664, 9.455833000000155], [-70.56514999999985, 9.455807000000163]]]}}]}