{"type": "FeatureCollection", "features": [{"type": "Feature", "properties": {"Pais": "Venezuela", "Estado": "Aragua", "Municipio": "San Sebasti\u00e1n"}, "geometry": {"type": "Polygon", "coordinates": [[[-67.10597826899988, 10.09978828100003], [-67.10471572399996, 10.103192126000067], [-67.10477767899994, 10.103169854000157], [-67.10504204399996, 10.10299562400013], [-67.10611866299996, 10.102286074000062], [-67.108284, 10.100859], [-67.112246, 10.09955200000013], [-67.11397303599995, 10.099287330000095], [-67.11483, 10.099156], [-67.118071, 10.099439000000189], [-67.120091, 10.100196000000153], [-67.12270799999988, 10.100647000000151], [-67.124815, 10.100876], [-67.1283739999999, 10.100651000000141], [-67.1288034669999, 10.100416462000055], [-67.132234, 10.09854300000012], [-67.136228, 10.095975000000124], [-67.139384, 10.092957000000183], [-67.143267, 10.08883], [-67.14626, 10.085700000000145], [-67.149275, 10.082478000000151], [-67.15415699999988, 10.078752], [-67.15904, 10.077159], [-67.172072, 10.072467000000188], [-67.177178, 10.072247], [-67.180642, 10.073766], [-67.183621, 10.075451000000157], [-67.18662499999982, 10.07537], [-67.19338399999987, 10.078089], [-67.195741, 10.07994200000013], [-67.19869, 10.082114], [-67.20254799999987, 10.080665], [-67.205497, 10.079782], [-67.21166199999988, 10.089042], [-67.21463099999988, 10.087838], [-67.217922, 10.086584], [-67.221038, 10.08613400000013], [-67.222965, 10.086685000000102], [-67.225446, 10.087275], [-67.227879, 10.085801000000117], [-67.230391, 10.08701], [-67.233506, 10.08653800000019], [-67.235923, 10.085592], [-67.238299, 10.085151000000167], [-67.240671, 10.084343000000104], [-67.24244599999986, 10.083864], [-67.245635, 10.083619], [-67.24848199999985, 10.083907], [-67.249921, 10.084371], [-67.252758, 10.083833], [-67.255711, 10.083270000000141], [-67.25785999999988, 10.08313], [-67.25998099999987, 10.084596], [-67.262872, 10.086602000000141], [-67.266265, 10.088098000000116], [-67.2698089999999, 10.088560000000143], [-67.274145, 10.089609], [-67.27692899999988, 10.090356], [-67.28226099999989, 10.091531000000145], [-67.287412, 10.093074], [-67.295907, 10.0976280000001], [-67.303366, 10.100657], [-67.310931, 10.101047], [-67.318252, 10.100225], [-67.326177, 10.097722], [-67.332663, 10.09709800000013], [-67.332724, 10.09638], [-67.332764, 10.095578000000103], [-67.332476, 10.092784], [-67.330801, 10.090028000000132], [-67.320321, 10.079927000000112], [-67.31987099999986, 10.078992], [-67.320681, 10.077147000000139], [-67.321423, 10.075395000000128], [-67.320504, 10.071990000000142], [-67.319769, 10.070531], [-67.31849299999988, 10.068184], [-67.31745199999989, 10.066224], [-67.316296, 10.06435800000014], [-67.315724, 10.062989], [-67.31532, 10.062030000000107], [-67.315005, 10.060842], [-67.315752, 10.059548], [-67.317239, 10.058223], [-67.31951, 10.056636], [-67.323176, 10.053886], [-67.32570299999986, 10.052502], [-67.327774, 10.05172], [-67.329358, 10.050783000000138], [-67.330101, 10.049145000000124], [-67.33054, 10.047145], [-67.3311609999999, 10.044982000000118], [-67.331383, 10.043646], [-67.331398, 10.043557], [-67.331178, 10.04212500000017], [-67.3231239999999, 10.041868], [-67.32136499999984, 10.04166], [-67.319569, 10.040421], [-67.317112, 10.03987700000016], [-67.314945, 10.040454000000125], [-67.310369, 10.040555000000154], [-67.3072939999999, 10.040569], [-67.305416, 10.040064], [-67.304176, 10.038887000000159], [-67.30279099999984, 10.037069], [-67.301484, 10.036053000000152], [-67.299514, 10.035687], [-67.296014, 10.033046], [-67.290246, 10.028139], [-67.28847499999989, 10.02501800000016], [-67.28658999999988, 10.022105000000181], [-67.286239, 10.017798000000141], [-67.28575599999988, 10.016084], [-67.285075, 10.01522100000011], [-67.283123, 10.014373], [-67.28064299999988, 10.013760000000161], [-67.277095, 10.012909], [-67.27629999999988, 10.012138000000107], [-67.277093, 10.008849000000112], [-67.27659899999986, 10.004269], [-67.277791, 10.001503000000127], [-67.278783, 9.999403000000143], [-67.27967299999983, 9.996388], [-67.282477, 9.996527000000185], [-67.285706, 9.995317], [-67.28741899999983, 9.993676], [-67.288668, 9.990804], [-67.290278, 9.988637], [-67.292748, 9.986499], [-67.293778, 9.984366000000136], [-67.296164, 9.982736], [-67.29784499999988, 9.980636], [-67.300638, 9.978424000000189], [-67.3022079999999, 9.976602], [-67.302985, 9.974611000000152], [-67.303553, 9.972602], [-67.304695, 9.970214000000169], [-67.306137, 9.967773000000136], [-67.30762, 9.96625100000017], [-67.31008, 9.964849000000129], [-67.31090499999982, 9.962926], [-67.3087599999999, 9.961106], [-67.308303, 9.958909], [-67.3080969539999, 9.957865950000041], [-67.307869, 9.956712000000152], [-67.30697179899988, 9.95483669600003], [-67.306638, 9.954139], [-67.305115, 9.952008000000149], [-67.30441299999984, 9.95041300000014], [-67.3034818569999, 9.948842074000027], [-67.30333599999989, 9.948596], [-67.30304470699997, 9.947866435000037], [-67.30246199999988, 9.946407000000136], [-67.30245334799997, 9.946353820000184], [-67.302175, 9.944643], [-67.3022625299999, 9.942883903000052], [-67.302278, 9.942573], [-67.30330382199998, 9.939824195000028], [-67.30288694399997, 9.939736024000126], [-67.30288447599992, 9.939723425000011], [-67.30257291999999, 9.938132987000074], [-67.30208989099998, 9.937338967000073], [-67.2996037819999, 9.936263954000083], [-67.29864573599997, 9.936008959], [-67.29746268799994, 9.936056964000159], [-67.29539959699997, 9.936261979000165], [-67.29463356399998, 9.936277983000082], [-67.29330149999998, 9.935891977000097], [-67.29184444399988, 9.936175994000052], [-67.29138042299996, 9.936209001000066], [-67.29093940199994, 9.936241002000088], [-67.29013735699994, 9.935682994000103], [-67.28951833399998, 9.934982975000025], [-67.28906130999991, 9.93430296300005], [-67.28858728099993, 9.93387595400003], [-67.28784925199989, 9.934098972000186], [-67.28756424899996, 9.934863988000018], [-67.28718323499993, 9.935470002000102], [-67.2862101849999, 9.935628017000113], [-67.28502713599988, 9.93567602200011], [-67.28399510299994, 9.936250040000175], [-67.2834160669999, 9.93633104700018], [-67.28264704099996, 9.93623305500006], [-67.28213100999989, 9.936014053000065], [-67.28079696399993, 9.936594068000034], [-67.2797769199999, 9.936707077000051], [-67.27907888299995, 9.936653086000092], [-67.27855585999993, 9.936089069000047], [-67.27821684299994, 9.935476059000166], [-67.27767681699993, 9.935188057000119], [-67.27640076099988, 9.93526106100012], [-67.27528570899989, 9.935262073000047], [-67.27444667699996, 9.935164069000109], [-67.27354163399991, 9.935161071000039], [-67.27307161599992, 9.934917069999983], [-67.27286959599991, 9.934209054], [-67.27297060599994, 9.933540037], [-67.27317161399998, 9.933168023000121], [-67.27324360199998, 9.932200003000162], [-67.27291158799994, 9.931907991000173], [-67.27182854399996, 9.931240979000052], [-67.27159952499983, 9.930325961000165], [-67.27138750499995, 9.928122907000159], [-67.27129749599999, 9.927181885000095], [-67.27159149399995, 9.925795839000159], [-67.27175650199985, 9.92484981400014], [-67.27197450099993, 9.924200804000066], [-67.27220851099992, 9.923230773], [-67.27266752299988, 9.921955742000137], [-67.27278251999991, 9.920826708000163], [-67.27331454399996, 9.919688673000053], [-67.2737615559999, 9.91889665900004], [-67.27428156099995, 9.917207612000027], [-67.27470358499988, 9.916347578000114], [-67.27446956399996, 9.91524855900019], [-67.27374352899994, 9.913930526000115], [-67.27347250799988, 9.913222511000072], [-67.27218545099998, 9.9127905040001], [-67.27125040599998, 9.912511503000019], [-67.2704143709999, 9.911447478000014], [-67.26977433499997, 9.910886466000136], [-67.26898929399994, 9.910029454000096], [-67.26847127499997, 9.909718452000163], [-67.2681162589999, 9.909426439000072], [-67.2678252419999, 9.908858424000016], [-67.26745721499992, 9.907991407000168], [-67.26707219599996, 9.907379390000074], [-67.26640915999997, 9.906795389000138], [-67.26498010199998, 9.906250380000074], [-67.26385205699995, 9.906711396000048], [-67.2630760219999, 9.907325418000028], [-67.26253700799998, 9.908164437999972], [-67.2626340199999, 9.909381475000032], [-67.26243901499993, 9.9110415130001], [-67.26230301599998, 9.91226355200007], [-67.2615239889999, 9.912762561000022], [-67.26054794599997, 9.912737568000182], [-67.25998491999991, 9.912473571000078], [-67.25879186499998, 9.912084561000086], [-67.25782082499984, 9.912265576000038], [-67.25690478899998, 9.912882590000095], [-67.25677678599988, 9.914449633000174], [-67.25653278799984, 9.916018676000078], [-67.25550475199998, 9.916752702000053], [-67.25445569799996, 9.91659170600002], [-67.25372866299989, 9.9162617020001], [-67.25253860599986, 9.914998671000149], [-67.25166856499999, 9.91448866200011], [-67.25026650499996, 9.914103661000127], [-67.24876344199987, 9.915446705000079], [-67.24768240999987, 9.917009757000073], [-67.24695037699996, 9.917485765000038], [-67.24573032899991, 9.917970787], [-67.24430326499987, 9.91859881300013], [-67.2429922199999, 9.9191558280001], [-67.2420031719999, 9.919589846000122], [-67.24111013499999, 9.92016087200011], [-67.23981008499999, 9.92021087600017], [-67.2391050459999, 9.919811871000093], [-67.23866103199992, 9.91970687600002], [-67.23772799199992, 9.920576892999975], [-67.23727997499998, 9.92132192500003], [-67.23626493299992, 9.921642929000086], [-67.23500388199994, 9.921346937000123], [-67.23469785999993, 9.921123925000131], [-67.23318080399991, 9.921868952000068], [-67.2332288099999, 9.922970987000042], [-67.23199075899987, 9.922651983000094], [-67.23099371399996, 9.922741991000066], [-67.23089971899992, 9.923756023000124], [-67.22940365299996, 9.92438604900002], [-67.22869561999988, 9.923871037000083], [-67.22828760699997, 9.924317042000098], [-67.22791959199998, 9.925543081000058], [-67.22745758099995, 9.92564508800001], [-67.2254354939999, 9.926653124000154], [-67.22522549099995, 9.927647149000052], [-67.22431744999994, 9.928586178000046], [-67.22350943099997, 9.929890219000185], [-67.22277639399988, 9.93032023800015], [-67.2220843589999, 9.929483211000104], [-67.22153133399996, 9.928644197000096], [-67.22044928399998, 9.928046185000028], [-67.21937524199996, 9.92986224000009], [-67.21810320799995, 9.932257309000079], [-67.21731118099996, 9.93422836800005], [-67.21618313599998, 9.934689383999967], [-67.21545410199997, 9.934290378000185], [-67.21423904599993, 9.932913352000128], [-67.2132349929999, 9.93162332200012], [-67.21215794599988, 9.93123231300001], [-67.20973483599994, 9.930892325000116], [-67.20792175899993, 9.93079232800011], [-67.2060436779999, 9.930969340000047], [-67.20407658799996, 9.931263364000188], [-67.20184748999998, 9.931333370000118], [-67.20082944299998, 9.931492391000063], [-67.19945238399998, 9.93119939100012], [-67.19842234299983, 9.93083038800006], [-67.19704827599992, 9.930629389000046], [-67.19558621599998, 9.930682398000101], [-67.19475955999991, 9.931466784000179], [-67.19447117099992, 9.931740427000136], [-67.19347513799994, 9.932934468999974], [-67.19267310399994, 9.932353449000061], [-67.19242407799993, 9.93159943300003], [-67.19176804999984, 9.930279401000064], [-67.18961195099996, 9.930485422000118], [-67.18921493299996, 9.9303784170001], [-67.18828089299996, 9.930145416000073], [-67.18688383099999, 9.92893239600005], [-67.18530675599999, 9.929034410000156], [-67.18361668999995, 9.929276424000136], [-67.18208061899998, 9.93018245200011], [-67.18019454899996, 9.93102649400015], [-67.17867547599997, 9.930621486], [-67.17748842299994, 9.929427467000096], [-67.17663938299995, 9.928824452000185], [-67.17475829199992, 9.9278054400001], [-67.17316722399994, 9.927264430000093], [-67.1719221589999, 9.926600422000035], [-67.17092212199998, 9.926529428000038], [-67.16814900599991, 9.927184459000102], [-67.16725195999987, 9.927571471000022], [-67.16649993099998, 9.928253488000053], [-67.16530389499997, 9.929842544000053], [-67.16434885399991, 9.92972454500017], [-67.16321780099997, 9.929498546], [-67.16342878699999, 9.926531468000178], [-67.16500183999995, 9.922137340000063], [-67.16495281099998, 9.917838238000172], [-67.1628286909999, 9.914390155000035], [-67.16160663399995, 9.912994125000182], [-67.16229865099984, 9.910756063000122], [-67.16413272399996, 9.909685023000122], [-67.16720385299988, 9.908767989000125], [-67.16953894199992, 9.90640991500004], [-67.16885889999998, 9.903610844000184], [-67.16557274599995, 9.902260826000031], [-67.16362265299995, 9.90119680700019], [-67.15992845499994, 9.894758669000055], [-67.15839136399995, 9.89091657500012], [-67.15867136499992, 9.888304505000178], [-67.15910237199995, 9.886468458000024], [-67.15972036899996, 9.881495321000045], [-67.15980434899996, 9.876500192000037], [-67.15975633099998, 9.873282112000027], [-67.15859326099996, 9.870021042000019], [-67.15622915699998, 9.869068029000175], [-67.15255498499994, 9.867850019000116], [-67.15048187299993, 9.865020956000023], [-67.14790074599995, 9.861730886000146], [-67.14707668899996, 9.858293793000087], [-67.14749570499993, 9.856710749000172], [-67.14826672699996, 9.85416968700008], [-67.14937075599988, 9.85179761900008], [-67.1503037839999, 9.848719533000121], [-67.14935572299999, 9.845081447000041], [-67.1498097299999, 9.843244395000113], [-67.15012373199994, 9.840884334000123], [-67.14862365399989, 9.838949296000067], [-67.1469965679999, 9.836767240000029], [-67.14514046699992, 9.834135185000093], [-67.14319136999995, 9.831484127000124], [-67.13997322499995, 9.830085116000134], [-67.13656407599996, 9.829085104000171], [-67.13345293499992, 9.829062121000106], [-67.13074681399996, 9.828239118000113], [-67.12948675799987, 9.828307120999966], [-67.12723365499994, 9.828436136000107], [-67.12605260499993, 9.82858814500014], [-67.12448954499985, 9.828737164000131], [-67.12324349199997, 9.82920518100002], [-67.12244346199992, 9.829580190000058], [-67.12151741899993, 9.829796208000175], [-67.11992635299993, 9.829481202000068], [-67.11984925999997, 9.829475250000087], [-67.118938, 9.831047000000126], [-67.118822, 9.832381000000169], [-67.11762399999986, 9.834218000000135], [-67.11693608399997, 9.835314984000092], [-67.115569, 9.837495], [-67.113252, 9.840456], [-67.111071, 9.843161], [-67.10853, 9.845207], [-67.10734165899999, 9.84627553900009], [-67.105217, 9.848186000000112], [-67.102693, 9.851219], [-67.101687, 9.853443], [-67.102135, 9.855204000000128], [-67.10517199999987, 9.861810000000105], [-67.10604599999988, 9.864045000000147], [-67.106028, 9.865676], [-67.105278, 9.866609], [-67.10451199999989, 9.867932], [-67.104572, 9.868758000000184], [-67.105994, 9.869123000000172], [-67.107358, 9.870154], [-67.107222, 9.8716960000001], [-67.10628899999983, 9.872793], [-67.10484699999989, 9.872613000000115], [-67.102899, 9.872695000000135], [-67.10088499999989, 9.872984], [-67.098992, 9.873525], [-67.097582, 9.87656], [-67.09771199999989, 9.878763], [-67.09837899999985, 9.881094000000132], [-67.0986329999999, 9.882399000000134], [-67.09804899999989, 9.886201000000142], [-67.096462, 9.888435], [-67.095742, 9.888856], [-67.093991, 9.889879000000121], [-67.094746, 9.891178], [-67.096397, 9.891377], [-67.097502, 9.893585], [-67.09833599999985, 9.896211], [-67.100648, 9.897042], [-67.103466, 9.89625500000011], [-67.105231, 9.89633700000013], [-67.105327, 9.897852000000114], [-67.10516699999988, 9.902081], [-67.10558499999985, 9.904762], [-67.105116, 9.907182], [-67.103238, 9.90864100000016], [-67.101561, 9.911038], [-67.100764, 9.913281], [-67.099897, 9.91548], [-67.098768, 9.917315], [-67.098219, 9.919163], [-67.09737699999988, 9.921522000000152], [-67.096477, 9.923146], [-67.09483199999983, 9.924671000000103], [-67.092826, 9.925466000000142], [-67.09013599999986, 9.926939000000175], [-67.089533, 9.928352000000189], [-67.090206, 9.929695], [-67.090726, 9.931592], [-67.091757, 9.933525], [-67.09342499999985, 9.936022], [-67.094073, 9.937296000000174], [-67.09284799999989, 9.938927000000149], [-67.092384, 9.940314000000114], [-67.09101, 9.944129000000146], [-67.091782, 9.945861], [-67.09355099999988, 9.947483], [-67.094856, 9.949159000000122], [-67.0969649999999, 9.95167], [-67.09975399999985, 9.95458200000013], [-67.1011759999999, 9.957565], [-67.101015, 9.96037100000018], [-67.098568, 9.962598], [-67.095985, 9.963588], [-67.093663, 9.964871000000187], [-67.092328, 9.966895], [-67.091829, 9.968971000000124], [-67.091376, 9.969536000000176], [-67.090809, 9.969566], [-67.09050499999984, 9.970485], [-67.088757, 9.971210000000156], [-67.087236, 9.971858000000111], [-67.086977, 9.972292000000152], [-67.086938, 9.972320000000138], [-67.086957, 9.972324000000128], [-67.086333, 9.973368000000164], [-67.083065, 9.976391], [-67.08223, 9.97918600000014], [-67.081828, 9.981445000000178], [-67.080736, 9.982774], [-67.077788, 9.986848000000123], [-67.076307, 9.989838], [-67.075537, 9.992379], [-67.07546799999983, 9.995137000000113], [-67.07502199999988, 9.99706300000014], [-67.074462, 9.998584], [-67.073717, 10.000129000000129], [-67.072598, 10.00138], [-67.07089799999989, 10.002385000000118], [-67.068755, 10.002937000000145], [-67.067238, 10.003688000000125], [-67.06649, 10.004981000000157], [-67.06678, 10.006147000000169], [-67.067035, 10.008208], [-67.067543, 10.009823], [-67.067585, 10.009957], [-67.06768199999988, 10.01026400000012], [-67.067717, 10.011364000000185], [-67.067968, 10.013127], [-67.067339, 10.016757000000155], [-67.066421, 10.017341000000158], [-67.06447, 10.018578], [-67.063279, 10.019509000000141], [-67.062257, 10.021148], [-67.061348, 10.02258], [-67.06139299999984, 10.024506], [-67.06173399999989, 10.026084], [-67.061966, 10.028145], [-67.060528, 10.029790000000105], [-67.059328, 10.03205], [-67.05839599999985, 10.033460000000161], [-67.058388, 10.0347450000001], [-67.05848099999986, 10.036876], [-67.05910199999988, 10.038658], [-67.059954, 10.040413000000115], [-67.06072499999988, 10.043202000000122], [-67.06018999999986, 10.045043], [-67.059996, 10.046237], [-67.05943499999984, 10.047757], [-67.05869981999984, 10.048513048000075], [-67.057744, 10.049496], [-67.056931, 10.051225000000102], [-67.056583, 10.053178], [-67.05674489799992, 10.053741000000116], [-67.056872, 10.054183], [-67.056699, 10.055309], [-67.05661335599996, 10.055679048000059], [-67.05657161199997, 10.055859412000075], [-67.05654, 10.055996000000164], [-67.05653267799994, 10.05607039400013], [-67.05660586899995, 10.056022419000158], [-67.05904797399995, 10.056868435000126], [-67.06079806499997, 10.058362459000136], [-67.06269415599985, 10.060381502000098], [-67.0651722799999, 10.062898553000082], [-67.06697836899986, 10.065239600000098], [-67.07021452899983, 10.067221634000134], [-67.07354568399995, 10.069453678000059], [-67.07588580299995, 10.071949728000163], [-67.07822291699995, 10.074192775000029], [-67.08155507899994, 10.076539821000097], [-67.08540825499983, 10.077940826000088], [-67.08845038899983, 10.079143845999965], [-67.09130451899989, 10.080051848000153], [-67.09391864499992, 10.08217789400004], [-67.09583674399983, 10.08417393700006], [-67.0981048559999, 10.086417978000043], [-67.10167300899991, 10.087110980000148], [-67.1064422209999, 10.087675966000177], [-67.10987838199998, 10.088965982000161], [-67.1119224869999, 10.09180904700014], [-67.11132947599998, 10.094591121000121], [-67.10853736799999, 10.097145203000025], [-67.10597826899988, 10.09978828100003]]]}}]}