{
  "type": "FeatureCollection",
  "features": [
    {
      "type": "Feature",
      "properties": {
        "Pais": "Venezuela",
        "Estado": "Táchira",
        "Municipio": "San Judas Tadeo",
        "Parroquia": "San Judas Tadeo"
      },
      "geometry": {
        "type": "Polygon",
        "coordinates": [
          [
            [
              -71.98967299999987,
              8.199912
            ],
            [
              -71.989348,
              8.200266
            ],
            [
              -71.9887,
              8.200972
            ],
            [
              -71.98887899999988,
              8.202031
            ],
            [
              -71.988703,
              8.203003
            ],
            [
              -71.987643,
              8.204769000000113
            ],
            [
              -71.985782,
              8.205828000000167
            ],
            [
              -71.983744,
              8.205917
            ],
            [
              -71.981707,
              8.206712000000152
            ],
            [
              -71.980023,
              8.2068000000001
            ],
            [
              -71.979139,
              8.207772
            ],
            [
              -71.978788,
              8.209891
            ],
            [
              -71.977727,
              8.211745000000178
            ],
            [
              -71.976577,
              8.212628
            ],
            [
              -71.97462799999988,
              8.213511
            ],
            [
              -71.97321099999988,
              8.214130000000182
            ],
            [
              -71.970731,
              8.214836000000162
            ],
            [
              -71.969403,
              8.215984000000105
            ],
            [
              -71.967277,
              8.216249000000175
            ],
            [
              -71.965682,
              8.216426
            ],
            [
              -71.96417699999989,
              8.217485000000124
            ],
            [
              -71.961964,
              8.219252
            ],
            [
              -71.96179,
              8.221371000000147
            ],
            [
              -71.9607309999999,
              8.22428500000018
            ],
            [
              -71.95958,
              8.225786
            ],
            [
              -71.957101,
              8.227376000000106
            ],
            [
              -71.955331,
              8.228788
            ],
            [
              -71.95267599999983,
              8.231261
            ],
            [
              -71.951702,
              8.232322
            ],
            [
              -71.951566,
              8.233843
            ],
            [
              -71.951528,
              8.234264
            ],
            [
              -71.952417,
              8.235677
            ],
            [
              -71.952773,
              8.236737000000176
            ],
            [
              -71.952598,
              8.23806100000013
            ],
            [
              -71.95251499999989,
              8.241505000000132
            ],
            [
              -71.952784,
              8.243359
            ],
            [
              -71.953231,
              8.245744
            ],
            [
              -71.953323,
              8.248216000000127
            ],
            [
              -71.952709,
              8.251660000000186
            ],
            [
              -71.95289099999985,
              8.255015000000128
            ],
            [
              -71.95413599999983,
              8.257223000000181
            ],
            [
              -71.955293,
              8.260225
            ],
            [
              -71.955919,
              8.263139000000137
            ],
            [
              -71.955035,
              8.264817
            ],
            [
              -71.95335599999987,
              8.268084
            ],
            [
              -71.952296,
              8.270645000000172
            ],
            [
              -71.952298,
              8.271616
            ],
            [
              -71.952124,
              8.273471
            ],
            [
              -71.952571,
              8.276208
            ],
            [
              -71.9537289999999,
              8.278769000000182
            ],
            [
              -71.95355599999988,
              8.281684
            ],
            [
              -71.953383,
              8.284245000000112
            ],
            [
              -71.955158,
              8.285569
            ],
            [
              -71.95693099999988,
              8.285304000000167
            ],
            [
              -71.957816,
              8.284774
            ],
            [
              -71.959413,
              8.285657
            ],
            [
              -71.961189,
              8.287246
            ],
            [
              -71.962785,
              8.287688
            ],
            [
              -71.963759,
              8.286893
            ],
            [
              -71.96588499999984,
              8.286009
            ],
            [
              -71.967659,
              8.286892
            ],
            [
              -71.970233,
              8.288747000000114
            ],
            [
              -71.9734279999999,
              8.290689
            ],
            [
              -71.975558,
              8.292454
            ],
            [
              -71.975916,
              8.294397
            ],
            [
              -71.977161,
              8.296251000000154
            ],
            [
              -71.979117,
              8.299077
            ],
            [
              -71.979034,
              8.302785
            ],
            [
              -71.97917399999989,
              8.303262
            ],
            [
              -71.980015,
              8.30614
            ],
            [
              -71.981262,
              8.309142
            ],
            [
              -71.98171,
              8.312233
            ],
            [
              -71.982603,
              8.315765
            ],
            [
              -71.984912,
              8.31832500000013
            ],
            [
              -71.987398,
              8.320532000000128
            ],
            [
              -71.990325,
              8.321150000000102
            ],
            [
              -71.993074,
              8.321591000000126
            ],
            [
              -71.996004,
              8.323974000000135
            ],
            [
              -71.999201,
              8.326887000000113
            ],
            [
              -72.000093,
              8.329624
            ],
            [
              -72.003205,
              8.331839
            ],
            [
              -72.00598799999983,
              8.334367000000157
            ],
            [
              -72.007649,
              8.33414
            ],
            [
              -72.00848999999988,
              8.335020000000156
            ],
            [
              -72.011185,
              8.337002
            ],
            [
              -72.013878,
              8.33885000000015
            ],
            [
              -72.014425,
              8.340049
            ],
            [
              -72.015912,
              8.341507
            ],
            [
              -72.01896,
              8.344546
            ],
            [
              -72.02646,
              8.312081
            ],
            [
              -72.028475,
              8.314566000000127
            ],
            [
              -72.029332,
              8.31612
            ],
            [
              -72.031386,
              8.317422
            ],
            [
              -72.034033,
              8.317997000000162
            ],
            [
              -72.035713,
              8.317980000000148
            ],
            [
              -72.03764,
              8.318562
            ],
            [
              -72.038253,
              8.319758
            ],
            [
              -72.03886099999988,
              8.320473
            ],
            [
              -72.040668,
              8.321056000000112
            ],
            [
              -72.042948,
              8.321034
            ],
            [
              -72.04415299999988,
              8.321503000000178
            ],
            [
              -72.045485,
              8.322571
            ],
            [
              -72.046333,
              8.323284
            ],
            [
              -72.04802499999988,
              8.324229000000116
            ],
            [
              -72.048754,
              8.325063
            ],
            [
              -72.04947599999986,
              8.325177
            ],
            [
              -72.0513959999999,
              8.32515700000016
            ],
            [
              -72.051752,
              8.324793
            ],
            [
              -72.053072,
              8.32478
            ],
            [
              -72.054399,
              8.325368
            ],
            [
              -72.05501599999985,
              8.326925
            ],
            [
              -72.05527399999988,
              8.328605000000152
            ],
            [
              -72.055878,
              8.32896
            ],
            [
              -72.056957,
              8.328829
            ],
            [
              -72.058033,
              8.328457000000185
            ],
            [
              -72.059354,
              8.328444000000161
            ],
            [
              -72.061283,
              8.329267
            ],
            [
              -72.063085,
              8.329369000000156
            ],
            [
              -72.065489,
              8.329706000000101
            ],
            [
              -72.06693399999989,
              8.329441
            ],
            [
              -72.106869,
              8.291377000000125
            ],
            [
              -72.11019899999985,
              8.293097000000103
            ],
            [
              -72.112417,
              8.295337000000188
            ],
            [
              -72.11985999999985,
              8.30348400000014
            ],
            [
              -72.123807,
              8.301063
            ],
            [
              -72.128867,
              8.297396
            ],
            [
              -72.13202499999989,
              8.295091
            ],
            [
              -72.142528,
              8.287031
            ],
            [
              -72.14494599999989,
              8.285486000000105
            ],
            [
              -72.154582,
              8.278747000000124
            ],
            [
              -72.155797,
              8.277533
            ],
            [
              -72.15747499999986,
              8.276464
            ],
            [
              -72.159027,
              8.27584700000017
            ],
            [
              -72.1587689999999,
              8.274772
            ],
            [
              -72.159099,
              8.273889000000167
            ],
            [
              -72.159872,
              8.272565
            ],
            [
              -72.159756,
              8.270581
            ],
            [
              -72.159529,
              8.268486
            ],
            [
              -72.15863499999989,
              8.265952
            ],
            [
              -72.15796399999982,
              8.263528000000179
            ],
            [
              -72.156746,
              8.26375
            ],
            [
              -72.15563599999984,
              8.263090000000147
            ],
            [
              -72.154637,
              8.26232
            ],
            [
              -72.153081,
              8.260558
            ],
            [
              -72.151307,
              8.26012
            ],
            [
              -72.15063899999984,
              8.259018
            ],
            [
              -72.150415,
              8.257916
            ],
            [
              -72.149413,
              8.256154
            ],
            [
              -72.14785599999988,
              8.253951
            ],
            [
              -72.14663,
              8.25130700000011
            ],
            [
              -72.145406,
              8.249104
            ],
            [
              -72.144956,
              8.246348000000125
            ],
            [
              -72.14451,
              8.245357000000183
            ],
            [
              -72.142847,
              8.245138
            ],
            [
              -72.141849,
              8.244478000000129
            ],
            [
              -72.14073699999989,
              8.243047
            ],
            [
              -72.139849,
              8.242276000000174
            ],
            [
              -72.13884999999988,
              8.241506
            ],
            [
              -72.13763,
              8.241067000000157
            ],
            [
              -72.136413,
              8.241730000000132
            ],
            [
              -72.135637,
              8.241511000000116
            ],
            [
              -72.13463999999982,
              8.241843
            ],
            [
              -72.13364499999989,
              8.242616
            ],
            [
              -72.132205,
              8.242618
            ],
            [
              -72.131211,
              8.243832000000111
            ],
            [
              -72.129885,
              8.245708
            ],
            [
              -72.127781,
              8.246041000000105
            ],
            [
              -72.125014,
              8.247037
            ],
            [
              -72.123909,
              8.248031
            ],
            [
              -72.122692,
              8.248915
            ],
            [
              -72.121143,
              8.24946800000015
            ],
            [
              -72.11959,
              8.248698
            ],
            [
              -72.117927,
              8.24859
            ],
            [
              -72.116706,
              8.247600000000148
            ],
            [
              -72.11482199999989,
              8.24727200000018
            ],
            [
              -72.1121629999999,
              8.247275
            ],
            [
              -72.110057,
              8.246947
            ],
            [
              -72.10894799999988,
              8.246287
            ],
            [
              -72.106949,
              8.244305
            ],
            [
              -72.104947,
              8.241883
            ],
            [
              -72.10361499999988,
              8.240892
            ],
            [
              -72.10250599999989,
              8.240122
            ],
            [
              -72.103054,
              8.237806000000148
            ],
            [
              -72.102052,
              8.235713
            ],
            [
              -72.102159,
              8.234390000000133
            ],
            [
              -72.101485,
              8.2306430000001
            ],
            [
              -72.101924,
              8.229099
            ],
            [
              -72.10302799999982,
              8.227444
            ],
            [
              -72.103465,
              8.225239
            ],
            [
              -72.102464,
              8.223697000000186
            ],
            [
              -72.10145799999987,
              8.22006
            ],
            [
              -72.099571,
              8.218408000000125
            ],
            [
              -72.098017,
              8.217197000000112
            ],
            [
              -72.097016,
              8.215766
            ],
            [
              -72.09624,
              8.215215
            ],
            [
              -72.095683,
              8.214224000000115
            ],
            [
              -72.09512699999988,
              8.213343
            ],
            [
              -72.094238,
              8.212241000000176
            ],
            [
              -72.093572,
              8.211471
            ],
            [
              -72.092353,
              8.211362000000122
            ],
            [
              -72.09091099999983,
              8.21059200000019
            ],
            [
              -72.09002,
              8.208719
            ],
            [
              -72.088359,
              8.209163
            ],
            [
              -72.087139,
              8.208392
            ],
            [
              -72.085804,
              8.20652
            ],
            [
              -72.08424999999988,
              8.205199000000164
            ],
            [
              -72.081809,
              8.203549
            ],
            [
              -72.079479,
              8.202009
            ],
            [
              -72.078144,
              8.199695
            ],
            [
              -72.078026,
              8.19705
            ],
            [
              -72.07636,
              8.195068
            ],
            [
              -72.073695,
              8.192536000000132
            ],
            [
              -72.071034,
              8.191547000000185
            ],
            [
              -72.068705,
              8.190337
            ],
            [
              -72.065822,
              8.189018
            ],
            [
              -72.06360099999989,
              8.187147
            ],
            [
              -72.061386,
              8.1873700000001
            ],
            [
              -72.055065,
              8.184402
            ],
            [
              -72.05318199999988,
              8.184294000000136
            ],
            [
              -72.048302,
              8.181875000000161
            ],
            [
              -72.0449789999999,
              8.181548000000134
            ],
            [
              -72.042884,
              8.18562900000012
            ],
            [
              -72.04023299999989,
              8.188609
            ],
            [
              -72.03824,
              8.189493
            ],
            [
              -72.03536,
              8.189276
            ],
            [
              -72.032593,
              8.190161000000103
            ],
            [
              -72.027503,
              8.192592000000161
            ],
            [
              -72.022524,
              8.194802
            ],
            [
              -72.018425,
              8.194587000000183
            ],
            [
              -72.0166559999999,
              8.195691
            ],
            [
              -72.015435,
              8.194811
            ],
            [
              -72.013548,
              8.19315900000015
            ],
            [
              -72.010885,
              8.191509
            ],
            [
              -72.006454,
              8.191404
            ],
            [
              -72.003021,
              8.191297000000134
            ],
            [
              -72.00162099999989,
              8.190197
            ],
            [
              -72.001001,
              8.190462000000139
            ],
            [
              -71.99896499999988,
              8.191963000000158
            ],
            [
              -71.996842,
              8.194171
            ],
            [
              -71.995604,
              8.195938
            ],
            [
              -71.991444,
              8.198764
            ],
            [
              -71.98967299999987,
              8.199912
            ]
          ]
        ]
      }
    }
  ]
}