{
  "type": "FeatureCollection",
  "features": [
    {
      "type": "Feature",
      "properties": {
        "Pais": "Venezuela",
        "Estado": "Falcón",
        "Municipio": "San Francisco",
        "Parroquia": "San Francisco"
      },
      "geometry": {
        "type": "Polygon",
        "coordinates": [
          [
            [
              -68.63276499999989,
              11.152345
            ],
            [
              -68.63918299999989,
              11.170324
            ],
            [
              -68.621759,
              11.187937
            ],
            [
              -68.705103,
              11.195719000000167
            ],
            [
              -68.717932,
              11.191209
            ],
            [
              -68.770988,
              11.28079
            ],
            [
              -68.82323,
              11.25731100000013
            ],
            [
              -68.82305999999988,
              11.256604
            ],
            [
              -68.800847,
              11.164144000000135
            ],
            [
              -68.77930632899984,
              11.124194337000063
            ],
            [
              -68.77307989999997,
              11.112646706000021
            ],
            [
              -68.728157,
              11.029332000000181
            ],
            [
              -68.696116,
              11.029302
            ],
            [
              -68.637984,
              11.028333000000146
            ],
            [
              -68.620132,
              11.028311
            ],
            [
              -68.579819,
              11.051772
            ],
            [
              -68.576157,
              11.051767
            ],
            [
              -68.617308,
              11.089354
            ],
            [
              -68.643859,
              11.091648
            ],
            [
              -68.643378,
              11.110639000000162
            ],
            [
              -68.63830599999989,
              11.139573000000155
            ],
            [
              -68.628231,
              11.139561
            ],
            [
              -68.63276499999989,
              11.152345
            ]
          ]
        ]
      }
    }
  ]
}