{"type": "FeatureCollection", "features": [{"type": "Feature", "properties": {"Pais": "Venezuela", "Estado": "Anzo\u00e1tegui", "Municipio": "Santa Ana", "Parroquia": "Santa Ana"}, "geometry": {"type": "Polygon", "coordinates": [[[-64.509055, 9.080833000000155], [-64.518258, 9.111179000000106], [-64.518658, 9.112325], [-64.518365, 9.113982], [-64.518512, 9.115612], [-64.518681, 9.117150000000152], [-64.519804, 9.11935000000011], [-64.52132199999988, 9.121823], [-64.522722, 9.123999], [-64.52465199999989, 9.125321000000156], [-64.525773, 9.127222], [-64.52814099999989, 9.128152], [-64.530958, 9.131079000000113], [-64.53284699999989, 9.133665], [-64.533413, 9.135798000000136], [-64.533125, 9.138304000000176], [-64.53327499999989, 9.1406], [-64.533005, 9.142141], [-64.53263999999984, 9.14336], [-64.532253, 9.144740000000127], [-64.533194, 9.147791], [-64.534291, 9.149278], [-64.535246, 9.150491000000102], [-64.536438, 9.15252900000013], [-64.537463, 9.153742], [-64.539207, 9.155043000000148], [-64.541372, 9.157169], [-64.54309199999989, 9.158056], [-64.54479, 9.159403000000111], [-64.547225, 9.159942000000115], [-64.54734699999989, 9.161273000000108], [-64.547076, 9.162699], [-64.547207, 9.165822000000105], [-64.548164, 9.167127], [-64.549897, 9.166176], [-64.55189, 9.166419000000133], [-64.55187, 9.167085000000156], [-64.55167299999988, 9.16936], [-64.5519369999999, 9.17112800000018], [-64.553376, 9.171741000000111], [-64.55457, 9.174215000000174], [-64.55684799999989, 9.175766], [-64.558944, 9.177799], [-64.560803, 9.179007000000183], [-64.562152, 9.179919000000154], [-64.563822, 9.180232000000103], [-64.56554099999988, 9.181096], [-64.566727, 9.182009], [-64.56920799999989, 9.182479], [-64.5707139999999, 9.182517000000132], [-64.570282, 9.184058000000107], [-64.5702189999999, 9.185483], [-64.5706689999999, 9.187341000000174], [-64.571559, 9.189197], [-64.57258499999989, 9.190593], [-64.573398, 9.190911000000142], [-64.573545, 9.192564000000118], [-64.574571, 9.193799000000183], [-64.575526, 9.194919], [-64.576046, 9.196823], [-64.577117, 9.19792], [-64.578346, 9.19821300000018], [-64.579559, 9.199860000000172], [-64.580194, 9.201581], [-64.580684, 9.202359000000172], [-64.58111, 9.204126], [-64.58278599999989, 9.205472], [-64.583877, 9.205811000000153], [-64.58474299999989, 9.207461], [-64.586094, 9.209016000000133], [-64.587093, 9.209539], [-64.589367, 9.210124000000178], [-64.590457, 9.210256], [-64.59273, 9.210865000000183], [-64.593153, 9.212011000000132], [-64.592861, 9.213873], [-64.592428, 9.215254], [-64.592226, 9.216449000000182], [-64.592141, 9.217943000000162], [-64.591918, 9.219598000000133], [-64.591718, 9.221322000000157], [-64.59186299999988, 9.222493], [-64.59306999999984, 9.222923], [-64.594044, 9.223124], [-64.595067, 9.223739], [-64.595789, 9.22447], [-64.596983, 9.226876000000118], [-64.59752799999984, 9.229285000000118], [-64.598644, 9.229945], [-64.599617, 9.229917], [-64.600684, 9.230256], [-64.601103, 9.230645], [-64.6011539999999, 9.231379], [-64.60109, 9.232459], [-64.601215, 9.234205], [-64.60156699999987, 9.235053000000107], [-64.601504, 9.23627], [-64.60188, 9.237187], [-64.602557, 9.238332000000128], [-64.603395, 9.238925000000165], [-64.60469299999988, 9.239102], [-64.605577, 9.239832], [-64.60606899999988, 9.240794000000108], [-64.607207, 9.2412020000001], [-64.608575, 9.241378000000111], [-64.608971, 9.24179], [-64.608932, 9.24326], [-64.608824, 9.244801000000166], [-64.608738, 9.246019], [-64.608283, 9.247767], [-64.607806, 9.24958400000014], [-64.607881, 9.250617], [-64.608143, 9.25197100000014], [-64.607986, 9.253098], [-64.607648, 9.254960000000153], [-64.606892, 9.256549000000177], [-64.606505, 9.257837000000166], [-64.6064449999999, 9.259675000000186], [-64.606036, 9.261308], [-64.606043, 9.26254900000015], [-64.605791, 9.263147], [-64.605264, 9.264276], [-64.60506, 9.265311], [-64.60453499999988, 9.266807], [-64.604428, 9.268484], [-64.604248, 9.269427], [-64.604044, 9.270415000000128], [-64.603819, 9.271634], [-64.603638, 9.272531], [-64.604179, 9.274113], [-64.604368, 9.274847], [-64.6051619999999, 9.276014], [-64.605374, 9.276542], [-64.606051, 9.277526000000137], [-64.6062409999999, 9.278444], [-64.607263, 9.278989], [-64.608308, 9.279283], [-64.6084039999999, 9.279971000000103], [-64.608293, 9.281005], [-64.60832199999987, 9.282016], [-64.609065, 9.282311000000107], [-64.60985199999988, 9.282077000000129], [-64.6111959999999, 9.28207], [-64.61106399999989, 9.283517], [-64.611389, 9.283677000000182], [-64.611623, 9.284021], [-64.612625, 9.285003], [-64.613298, 9.285367000000178], [-64.614625, 9.286417], [-64.61523199999988, 9.287263], [-64.6147739999999, 9.288254000000165], [-64.6148, 9.288874], [-64.615061, 9.289952000000142], [-64.61506299999985, 9.290434], [-64.61511399999989, 9.291399000000126], [-64.61507299999988, 9.292410000000132], [-64.615471, 9.29307400000016], [-64.56649999999985, 9.322476000000165], [-64.55971599999987, 9.468663000000163], [-64.562239, 9.467531000000122], [-64.564114, 9.465648000000101], [-64.56608199999988, 9.464962000000185], [-64.56774899999988, 9.463977], [-64.569046, 9.464371000000142], [-64.573261, 9.466035000000147], [-64.57465, 9.465739], [-64.576526, 9.464409000000103], [-64.576155, 9.463098000000173], [-64.576734, 9.461512], [-64.577012, 9.460409], [-64.578146, 9.458779], [-64.579929, 9.457725], [-64.58150299999988, 9.456992000000128], [-64.583425, 9.456168000000162], [-64.58240499999982, 9.453384], [-64.583517, 9.452466000000129], [-64.584443, 9.452284000000134], [-64.585299, 9.451412000000118], [-64.58474299999989, 9.44987], [-64.584928, 9.449342], [-64.58692, 9.44925400000011], [-64.588217, 9.450636], [-64.58948999999984, 9.449696], [-64.590555, 9.448388], [-64.592268, 9.449127], [-64.594005, 9.450119], [-64.59615799999989, 9.450009], [-64.598173, 9.450634], [-64.6000729999999, 9.450546], [-64.600489, 9.448914], [-64.601762, 9.44802], [-64.603035, 9.445884000000149], [-64.6025719999999, 9.444526], [-64.602872, 9.442365000000109], [-64.604099, 9.440735], [-64.60523299999988, 9.439266], [-64.605093, 9.437403], [-64.604908, 9.43648300000018], [-64.60689899999988, 9.435037], [-64.607269, 9.433474], [-64.608241, 9.432372], [-64.610394, 9.432445], [-64.61101999999988, 9.433780000000183], [-64.61271, 9.433899], [-64.61347399999983, 9.432820000000106], [-64.614724, 9.432684], [-64.6147, 9.431074], [-64.61382, 9.429969000000142], [-64.614214, 9.429395], [-64.616089, 9.4294450000001], [-64.616877, 9.430573], [-64.617756, 9.430092], [-64.618775, 9.42968], [-64.619284, 9.429727000000184], [-64.62028, 9.430511], [-64.621252, 9.429731000000174], [-64.621576, 9.428513000000123], [-64.621552, 9.427041], [-64.620441, 9.42605], [-64.62143599999985, 9.4255], [-64.623034, 9.425871], [-64.62433, 9.426196], [-64.625535, 9.425554], [-64.625836, 9.424497], [-64.625835, 9.422703], [-64.626159, 9.421186000000148], [-64.62722299999984, 9.419717000000105], [-64.628635, 9.419696000000158], [-64.629747, 9.421055000000138], [-64.631136, 9.420782], [-64.632525, 9.419957], [-64.633498, 9.4213850000001], [-64.634124, 9.422903], [-64.635976, 9.423804], [-64.637273, 9.423668], [-64.639333, 9.42348800000019], [-64.640861, 9.42392800000016], [-64.641765, 9.424827000000107], [-64.64255199999985, 9.424529000000177], [-64.64375499999983, 9.423888], [-64.645747, 9.424559000000158], [-64.64776199999989, 9.424654], [-64.648989, 9.423415], [-64.650563, 9.42291200000011], [-64.652091, 9.423812000000169], [-64.654661, 9.424966], [-64.657069, 9.425408], [-64.65850499999988, 9.424927], [-64.66024, 9.423459], [-64.661305, 9.422817], [-64.664037, 9.422914000000105], [-64.66586699999982, 9.423746], [-64.669247, 9.423982], [-64.669688, 9.425431000000174], [-64.67131, 9.426676000000157], [-64.6728839999999, 9.426357], [-64.67418, 9.425830000000133], [-64.67545399999989, 9.426201000000106], [-64.677052, 9.427744], [-64.679158, 9.427173], [-64.680107, 9.426117], [-64.680986, 9.425383000000124], [-64.682398, 9.42389100000014], [-64.684296, 9.423664], [-64.68524599999989, 9.424471000000153], [-64.684135, 9.425986], [-64.685317, 9.426908], [-64.6871, 9.428613], [-64.68994799999984, 9.429791], [-64.691361, 9.43046], [-64.69326, 9.430211], [-64.694928, 9.430650000000185], [-64.69671, 9.430056], [-64.698724, 9.429208], [-64.700645, 9.427993], [-64.702149, 9.427513000000147], [-64.703724, 9.427447], [-64.704719, 9.426781000000176], [-64.705829, 9.425151], [-64.706546, 9.424094], [-64.708097, 9.423016], [-64.710388, 9.421664], [-64.711707, 9.419965], [-64.711845, 9.418401], [-64.711913, 9.416768000000161], [-64.712514, 9.41486], [-64.713254, 9.41313700000012], [-64.717304, 9.409672000000114], [-64.727378, 9.3778420000001], [-64.727447, 9.376761], [-64.72814099999988, 9.376349], [-64.7287659999999, 9.376212], [-64.730016, 9.376559], [-64.730989, 9.376514], [-64.731614, 9.37658400000015], [-64.732447, 9.376149], [-64.733234, 9.376173], [-64.734391, 9.375692], [-64.735293, 9.37557900000013], [-64.736057, 9.375373000000138], [-64.736358, 9.374523000000124], [-64.735825, 9.374177], [-64.73554699999983, 9.37321100000014], [-64.73480599999988, 9.372566], [-64.735199, 9.371739], [-64.73480499999988, 9.370864], [-64.734526, 9.36976], [-64.733832, 9.369690000000105], [-64.733345, 9.369298000000185], [-64.732581, 9.368331000000126], [-64.732442, 9.368009], [-64.733043, 9.366953000000137], [-64.733806, 9.366517000000101], [-64.73496399999982, 9.366358000000105], [-64.73579699999982, 9.366175], [-64.736792, 9.365924], [-64.737972, 9.365604], [-64.73862, 9.365375000000142], [-64.73899, 9.364548], [-64.738388, 9.363765000000171], [-64.738364, 9.362961], [-64.737739, 9.362316], [-64.73676599999988, 9.361831000000166], [-64.735979, 9.361209], [-64.735469, 9.360427000000186], [-64.73408, 9.359160000000145], [-64.733593, 9.358768], [-64.732505, 9.358007000000157], [-64.7315559999999, 9.357408000000135], [-64.73238799999984, 9.356236], [-64.732943, 9.355663], [-64.7333129999999, 9.354582000000107], [-64.733266, 9.353985], [-64.732896, 9.353087], [-64.731946, 9.352833000000146], [-64.73108999999982, 9.352946], [-64.730673, 9.352945], [-64.730117, 9.35214000000019], [-64.730117, 9.351450000000114], [-64.7300699999999, 9.350231000000178], [-64.729537, 9.348667], [-64.728587, 9.348113], [-64.727453, 9.346939], [-64.727267, 9.346248000000116], [-64.7276829999999, 9.345169], [-64.728168, 9.344319], [-64.728446, 9.342984], [-64.728306, 9.341972000000169], [-64.728375, 9.341145000000154], [-64.728791, 9.340111], [-64.729207, 9.338985], [-64.729785, 9.338043000000141], [-64.730502, 9.337447], [-64.731173, 9.337126000000126], [-64.731705, 9.336506000000156], [-64.731636, 9.336138000000119], [-64.73151899999988, 9.335172000000114], [-64.73138, 9.334114000000113], [-64.731611, 9.333470000000148], [-64.73205, 9.332345000000146], [-64.732605, 9.331196], [-64.733044, 9.33053], [-64.733321, 9.329955], [-64.732416, 9.327171000000135], [-64.735854, 9.322775], [-64.73608899999982, 9.315825000000189], [-64.736986, 9.313108], [-64.73988899999989, 9.307353000000148], [-64.74497, 9.304418000000112], [-64.743027, 9.301262000000122], [-64.744404, 9.29671500000012], [-64.747143, 9.294021], [-64.7489, 9.293606000000125], [-64.751044, 9.2945], [-64.75299699999982, 9.294269], [-64.755538, 9.292896], [-64.756908, 9.291361000000165], [-64.758866, 9.288684], [-64.759262, 9.286605000000122], [-64.757118, 9.285335], [-64.757511, 9.284574000000134], [-64.760448, 9.280746000000136], [-64.76454399999989, 9.28140900000011], [-64.766109, 9.279681], [-64.76767499999988, 9.277765], [-64.767683, 9.274942], [-64.768863, 9.27134], [-64.769066, 9.268325], [-64.77199599999989, 9.267131000000177], [-64.774298, 9.266533], [-64.773174, 9.264472], [-64.77170699999988, 9.263102], [-64.7707989999999, 9.262304], [-64.76974699999988, 9.260794], [-64.76904699999989, 9.259810000000186], [-64.767763, 9.258210000000133], [-64.76587999999987, 9.257095], [-64.76436799999982, 9.256047], [-64.7626269999999, 9.255391], [-64.76083899999986, 9.254758000000152], [-64.761411, 9.253377000000114], [-64.762211, 9.251466], [-64.762109, 9.249790000000132], [-64.7607139999999, 9.248971], [-64.75804099999988, 9.247516], [-64.757987, 9.246046000000149], [-64.757282, 9.24437300000011], [-64.756139, 9.243209], [-64.754305, 9.242438], [-64.753069, 9.240998000000104], [-64.751161, 9.239677], [-64.74909899999989, 9.239665000000116], [-64.746753, 9.238553000000138], [-64.743872, 9.237054000000114], [-64.74134, 9.236034], [-64.739114, 9.23558800000012], [-64.735421, 9.23397800000015], [-64.732816, 9.232430000000136], [-64.73074, 9.229916000000117], [-64.72984599999984, 9.227347], [-64.729832, 9.224866], [-64.729985, 9.22309700000011], [-64.730253, 9.221350000000143], [-64.72973, 9.218987], [-64.729464, 9.216875], [-64.730547, 9.215766000000144], [-64.731076, 9.215143000000126], [-64.73039299999988, 9.213034], [-64.73038699999984, 9.212000000000103], [-64.73146899999983, 9.210685], [-64.732916, 9.208564], [-64.735336, 9.206184000000121], [-64.736319, 9.203813], [-64.7340119999999, 9.201299], [-64.7344, 9.20026300000012], [-64.735704, 9.197339000000113], [-64.73638099999982, 9.194119000000171], [-64.73685299999988, 9.191338], [-64.73642499999988, 9.189455], [-64.734082, 9.188779000000125], [-64.732039, 9.188033], [-64.73059, 9.185813], [-64.730509, 9.1837230000001], [-64.728276, 9.181921], [-64.727503, 9.180455], [-64.728348, 9.17815400000012], [-64.728499, 9.176132000000166], [-64.7271449999999, 9.174371000000122], [-64.724407, 9.173444000000131], [-64.722552, 9.173179], [-64.7210649999999, 9.172268], [-64.7205239999999, 9.170916], [-64.720466, 9.168711], [-64.72151999999988, 9.166615], [-64.721692, 9.164157], [-64.72167899999982, 9.163179], [-64.72165299999989, 9.16124], [-64.71955899999989, 9.159735], [-64.717587, 9.15908], [-64.715928, 9.160812], [-64.7144459999999, 9.160935], [-64.71318599999984, 9.159174000000178], [-64.71152499999988, 9.15626500000019], [-64.70652499999989, 9.152618], [-64.702758, 9.154132000000118], [-64.70118899999983, 9.155266000000154], [-64.700349, 9.154306], [-64.699421, 9.153875000000141], [-64.698306, 9.153536], [-64.697836, 9.152298], [-64.697666, 9.150852000000157], [-64.696696, 9.151409], [-64.69544899999988, 9.152174000000116], [-64.694297, 9.15326], [-64.693142, 9.153840000000116], [-64.69193899999982, 9.154145], [-64.691174, 9.154081000000133], [-64.689878, 9.154271], [-64.68932299999989, 9.154389], [-64.68932599999988, 9.15501], [-64.688821, 9.155862], [-64.687595, 9.15619], [-64.68678199999988, 9.155782], [-64.6867539999999, 9.154909], [-64.686519, 9.154198], [-64.6861679999999, 9.153695], [-64.684989, 9.154023000000109], [-64.684068, 9.155015000000162], [-64.682912, 9.155573000000118], [-64.68186599999984, 9.154867], [-64.681005, 9.154090000000167], [-64.6788289999999, 9.154332000000124], [-64.677347, 9.154478], [-64.675931, 9.154118], [-64.67377, 9.152912], [-64.67241999999987, 9.151564], [-64.668884, 9.14885], [-64.66698, 9.147873], [-64.665904, 9.145995], [-64.66374599999983, 9.14534], [-64.661288, 9.144756], [-64.658808, 9.144632000000115], [-64.656183, 9.143199], [-64.65388799999988, 9.142982000000188], [-64.652028, 9.141751000000113], [-64.652253, 9.140441], [-64.648665, 9.140850000000171], [-64.647502, 9.14003], [-64.64596399999988, 9.13826900000015], [-64.645328, 9.136090000000138], [-64.645639, 9.13363], [-64.646231, 9.131766000000141], [-64.645231, 9.130853], [-64.645274, 9.130278], [-64.644942, 9.128718], [-64.642904, 9.128844000000129], [-64.642273, 9.127722], [-64.6423559999999, 9.126044], [-64.642812, 9.124549], [-64.641226, 9.122559], [-64.638903, 9.121216000000118], [-64.637276, 9.12014500000015], [-64.636483, 9.119115], [-64.6358039999999, 9.117603000000145], [-64.63438699999989, 9.117013], [-64.633822, 9.115339], [-64.633048, 9.113437], [-64.6318169999999, 9.112708000000111], [-64.629033, 9.112011], [-64.627504, 9.111835], [-64.62698199999988, 9.109380000000101], [-64.626024, 9.107846], [-64.62543699999986, 9.106264], [-64.622651, 9.105062], [-64.621331, 9.105023], [-64.620419, 9.103465], [-64.618521, 9.103659000000164], [-64.616459, 9.10360100000014], [-64.616012, 9.102179], [-64.61514299999988, 9.100025], [-64.61361299999987, 9.099757], [-64.6109459999999, 9.099105000000122], [-64.609277, 9.098884000000112], [-64.608239, 9.099670000000174], [-64.607199, 9.100135], [-64.605922, 9.099499], [-64.605539, 9.097134], [-64.60453499999988, 9.095509000000106], [-64.60282099999989, 9.095518], [-64.601729, 9.094880000000103], [-64.60084, 9.093070000000125], [-64.600253, 9.09162600000019], [-64.597635, 9.091341], [-64.595184, 9.09225000000015], [-64.59303399999988, 9.09320300000013], [-64.59176, 9.093232], [-64.58974799999987, 9.09372500000012], [-64.58762699999988, 9.095711000000165], [-64.58577999999983, 9.096847], [-64.584574, 9.096531000000141], [-64.582664, 9.094405000000108], [-64.581132, 9.09381500000012], [-64.579023, 9.093596000000105], [-64.57781, 9.091949000000113], [-64.57632499999983, 9.09129], [-64.57287699999989, 9.09192800000011], [-64.571882, 9.092117000000144], [-64.569913, 9.09238], [-64.567763, 9.09319500000015], [-64.56533199999984, 9.093322000000171], [-64.563317, 9.093332000000146], [-64.56067899999988, 9.093782], [-64.558407, 9.093403000000137], [-64.556987, 9.091894], [-64.554873, 9.090780000000166], [-64.5520489999999, 9.090955], [-64.550703, 9.09061700000018], [-64.549152, 9.090671], [-64.548298, 9.091456000000164], [-64.546678, 9.091855000000123], [-64.543568, 9.090469], [-64.5418509999999, 9.089858000000106], [-64.539068, 9.089228], [-64.5364009999999, 9.088507], [-64.534319, 9.089023000000111], [-64.532166, 9.089194], [-64.53031299999986, 9.089203], [-64.528386, 9.088248000000135], [-64.525211, 9.088126000000159], [-64.52299, 9.088551000000109], [-64.52118699999988, 9.089341000000104], [-64.519429, 9.089855], [-64.516928, 9.090028000000132], [-64.515994, 9.088402], [-64.513931, 9.088136], [-64.5134829999999, 9.086554], [-64.511462, 9.085185], [-64.509055, 9.080833000000155]]]}}, {"type": "Feature", "properties": {"Pais": "Venezuela", "Estado": "Anzo\u00e1tegui", "Municipio": "Santa Ana", "Parroquia": "Pueblo Nuevo"}, "geometry": {"type": "Polygon", "coordinates": [[[-64.56649999999985, 9.322476000000165], [-64.615471, 9.29307400000016], [-64.61507299999988, 9.292410000000132], [-64.61511399999989, 9.291399000000126], [-64.61506299999985, 9.290434], [-64.615061, 9.289952000000142], [-64.6148, 9.288874], [-64.6147739999999, 9.288254000000165], [-64.61523199999988, 9.287263], [-64.614625, 9.286417], [-64.613298, 9.285367000000178], [-64.612625, 9.285003], [-64.611623, 9.284021], [-64.611389, 9.283677000000182], [-64.61106399999989, 9.283517], [-64.6111959999999, 9.28207], [-64.60985199999988, 9.282077000000129], [-64.609065, 9.282311000000107], [-64.60832199999987, 9.282016], [-64.608293, 9.281005], [-64.6084039999999, 9.279971000000103], [-64.608308, 9.279283], [-64.607263, 9.278989], [-64.6062409999999, 9.278444], [-64.606051, 9.277526000000137], [-64.605374, 9.276542], [-64.6051619999999, 9.276014], [-64.604368, 9.274847], [-64.604179, 9.274113], [-64.603638, 9.272531], [-64.603819, 9.271634], [-64.604044, 9.270415000000128], [-64.604248, 9.269427], [-64.604428, 9.268484], [-64.60453499999988, 9.266807], [-64.60506, 9.265311], [-64.605264, 9.264276], [-64.605791, 9.263147], [-64.606043, 9.26254900000015], [-64.606036, 9.261308], [-64.6064449999999, 9.259675000000186], [-64.606505, 9.257837000000166], [-64.606892, 9.256549000000177], [-64.607648, 9.254960000000153], [-64.607986, 9.253098], [-64.608143, 9.25197100000014], [-64.607881, 9.250617], [-64.607806, 9.24958400000014], [-64.608283, 9.247767], [-64.608738, 9.246019], [-64.608824, 9.244801000000166], [-64.608932, 9.24326], [-64.608971, 9.24179], [-64.608575, 9.241378000000111], [-64.607207, 9.2412020000001], [-64.60606899999988, 9.240794000000108], [-64.605577, 9.239832], [-64.60469299999988, 9.239102], [-64.603395, 9.238925000000165], [-64.602557, 9.238332000000128], [-64.60188, 9.237187], [-64.601504, 9.23627], [-64.60156699999987, 9.235053000000107], [-64.601215, 9.234205], [-64.60109, 9.232459], [-64.6011539999999, 9.231379], [-64.601103, 9.230645], [-64.600684, 9.230256], [-64.599617, 9.229917], [-64.598644, 9.229945], [-64.59752799999984, 9.229285000000118], [-64.596983, 9.226876000000118], [-64.595789, 9.22447], [-64.595067, 9.223739], [-64.594044, 9.223124], [-64.59306999999984, 9.222923], [-64.59186299999988, 9.222493], [-64.591718, 9.221322000000157], [-64.591918, 9.219598000000133], [-64.592141, 9.217943000000162], [-64.592226, 9.216449000000182], [-64.592428, 9.215254], [-64.592861, 9.213873], [-64.593153, 9.212011000000132], [-64.59273, 9.210865000000183], [-64.590457, 9.210256], [-64.589367, 9.210124000000178], [-64.587093, 9.209539], [-64.586094, 9.209016000000133], [-64.58474299999989, 9.207461], [-64.583877, 9.205811000000153], [-64.58278599999989, 9.205472], [-64.58111, 9.204126], [-64.580684, 9.202359000000172], [-64.580194, 9.201581], [-64.579559, 9.199860000000172], [-64.578346, 9.19821300000018], [-64.577117, 9.19792], [-64.576046, 9.196823], [-64.575526, 9.194919], [-64.574571, 9.193799000000183], [-64.573545, 9.192564000000118], [-64.573398, 9.190911000000142], [-64.57258499999989, 9.190593], [-64.571559, 9.189197], [-64.5706689999999, 9.187341000000174], [-64.5702189999999, 9.185483], [-64.570282, 9.184058000000107], [-64.5707139999999, 9.182517000000132], [-64.56920799999989, 9.182479], [-64.566727, 9.182009], [-64.56554099999988, 9.181096], [-64.563822, 9.180232000000103], [-64.562152, 9.179919000000154], [-64.560803, 9.179007000000183], [-64.558944, 9.177799], [-64.55684799999989, 9.175766], [-64.55457, 9.174215000000174], [-64.553376, 9.171741000000111], [-64.5519369999999, 9.17112800000018], [-64.55167299999988, 9.16936], [-64.55187, 9.167085000000156], [-64.55189, 9.166419000000133], [-64.549897, 9.166176], [-64.548164, 9.167127], [-64.547207, 9.165822000000105], [-64.547076, 9.162699], [-64.54734699999989, 9.161273000000108], [-64.547225, 9.159942000000115], [-64.54479, 9.159403000000111], [-64.54309199999989, 9.158056], [-64.541372, 9.157169], [-64.539207, 9.155043000000148], [-64.537463, 9.153742], [-64.536438, 9.15252900000013], [-64.535246, 9.150491000000102], [-64.534291, 9.149278], [-64.533194, 9.147791], [-64.532253, 9.144740000000127], [-64.53263999999984, 9.14336], [-64.533005, 9.142141], [-64.53327499999989, 9.1406], [-64.533125, 9.138304000000176], [-64.533413, 9.135798000000136], [-64.53284699999989, 9.133665], [-64.530958, 9.131079000000113], [-64.52814099999989, 9.128152], [-64.525773, 9.127222], [-64.52465199999989, 9.125321000000156], [-64.522722, 9.123999], [-64.52132199999988, 9.121823], [-64.519804, 9.11935000000011], [-64.518681, 9.117150000000152], [-64.518512, 9.115612], [-64.518365, 9.113982], [-64.518658, 9.112325], [-64.518258, 9.111179000000106], [-64.509055, 9.080833000000155], [-64.443691, 9.042241], [-64.48507499999988, 9.151488], [-64.56770199999983, 9.296575000000132], [-64.56649999999985, 9.322476000000165]]]}}]}