{"type": "FeatureCollection", "features": [{"type": "Feature", "properties": {"Pais": "Venezuela", "Estado": "Portuguesa", "Municipio": "Santa Rosal\u00eda", "Parroquia": "Santa Rosal\u00eda"}, "geometry": {"type": "Polygon", "coordinates": [[[-68.994434, 9.157144], [-69.00237, 9.160364], [-69.029049, 9.172296000000188], [-69.029487, 9.173368], [-69.030781, 9.173622000000137], [-69.031888, 9.175575], [-69.032673, 9.17640200000011], [-69.033503, 9.177413000000115], [-69.034035, 9.177781000000152], [-69.03468, 9.178976], [-69.03542, 9.178931], [-69.036345, 9.17868], [-69.036598, 9.179805000000101], [-69.036711, 9.181045], [-69.03678, 9.181756], [-69.03737799999982, 9.183318], [-69.037908, 9.184857000000136], [-69.0389, 9.186305], [-69.04054, 9.187294000000179], [-69.04176599999988, 9.18679], [-69.043036, 9.188376000000176], [-69.043102, 9.190144], [-69.04388799999987, 9.190535000000125], [-69.045065, 9.191386], [-69.04612899999984, 9.19164], [-69.04709899999989, 9.192261], [-69.0479749999999, 9.193593], [-69.0495, 9.194284000000152], [-69.050353, 9.195754], [-69.051531, 9.196536000000151], [-69.051817, 9.197326000000146], [-69.055814, 9.199432000000115], [-69.097686, 9.222951], [-69.1086959999999, 9.229135000000156], [-69.111257, 9.22979], [-69.1106549999999, 9.22874400000012], [-69.109662, 9.22771], [-69.10885299999984, 9.227456000000132], [-69.10811399999989, 9.226836], [-69.10760699999986, 9.225963], [-69.107123, 9.22502100000014], [-69.10673, 9.22453800000011], [-69.106824, 9.223414], [-69.10698699999989, 9.223046000000124], [-69.107427, 9.222014], [-69.10694299999989, 9.221233], [-69.10588, 9.220864], [-69.105881, 9.21987700000011], [-69.10618199999982, 9.219327], [-69.107062, 9.21857000000017], [-69.107457, 9.217193], [-69.107296, 9.216711], [-69.106973, 9.21606700000018], [-69.10746, 9.214897000000178], [-69.107462, 9.213864000000171], [-69.10686099999987, 9.213198000000148], [-69.106677, 9.212738], [-69.106678, 9.212325], [-69.10561399999989, 9.211681], [-69.105036, 9.211313000000132], [-69.10385799999989, 9.210440000000176], [-69.10379, 9.209704], [-69.104047, 9.208212], [-69.104048, 9.207317], [-69.10448999999988, 9.20532], [-69.104999, 9.20474600000017], [-69.10493899999989, 9.204431], [-69.104724, 9.2033], [-69.104008, 9.202518], [-69.103802, 9.201347000000112], [-69.103757, 9.200245], [-69.10311, 9.200061000000119], [-69.103551, 9.198753], [-69.103714, 9.198202000000151], [-69.104016, 9.196756], [-69.104619, 9.195747], [-69.104666, 9.194668], [-69.104598, 9.194208], [-69.103374, 9.193289], [-69.102564, 9.193472], [-69.101802, 9.192943], [-69.101688, 9.192070000000115], [-69.101736, 9.190486000000135], [-69.101875, 9.190165], [-69.102478, 9.189247000000137], [-69.103588, 9.188858], [-69.10382099999987, 9.18778], [-69.1034059999999, 9.186539], [-69.104217, 9.185599], [-69.104102, 9.184887000000117], [-69.103456, 9.183853], [-69.10248699999988, 9.182705], [-69.10248899999988, 9.181052], [-69.102605, 9.180662000000154], [-69.10263, 9.179674], [-69.10214599999983, 9.17825], [-69.101662, 9.177469], [-69.101432, 9.17639], [-69.101526, 9.175587000000178], [-69.10194399999989, 9.173934], [-69.101714, 9.173406], [-69.101668, 9.172832000000142], [-69.103102, 9.172811], [-69.103796, 9.172352], [-69.103798, 9.170906000000116], [-69.103059, 9.170331000000147], [-69.102968, 9.169091], [-69.102669, 9.16831], [-69.101837, 9.167667000000165], [-69.101422, 9.16677], [-69.101216, 9.165186], [-69.1012879999999, 9.16376200000019], [-69.10147499999982, 9.162523], [-69.101568, 9.161811], [-69.101014, 9.161374000000137], [-69.099997, 9.160754000000168], [-69.099906, 9.160019], [-69.10053099999988, 9.159537], [-69.101433, 9.159424], [-69.102289, 9.158529000000101], [-69.10215199999988, 9.157611], [-69.1017829999999, 9.157105], [-69.101668, 9.156646], [-69.100743, 9.156507000000147], [-69.10035099999982, 9.155818000000124], [-69.100515, 9.154372], [-69.100563, 9.153155], [-69.099084, 9.152465000000177], [-69.098738, 9.151960000000145], [-69.097999, 9.151431], [-69.097121, 9.151246], [-69.0962439999999, 9.150488], [-69.095898, 9.149890000000141], [-69.0970319999999, 9.148835], [-69.096339, 9.148376], [-69.095646, 9.1483980000001], [-69.095647, 9.147296], [-69.095579, 9.146768], [-69.09553299999988, 9.146148], [-69.096043, 9.14555200000018], [-69.096344, 9.144679], [-69.09616099999988, 9.143899], [-69.09595399999989, 9.142842000000144], [-69.09581599999984, 9.142475000000161], [-69.095655, 9.142107], [-69.09554, 9.14121200000011], [-69.095171, 9.140569], [-69.095218, 9.140431000000149], [-69.09473399999985, 9.139168], [-69.094434, 9.139076000000102], [-69.094805, 9.138135], [-69.09439, 9.137583], [-69.093813, 9.136756], [-69.093675, 9.135907], [-69.093631, 9.134874], [-69.093261, 9.134827], [-69.092753, 9.134069], [-69.093333, 9.133083], [-69.09287199999989, 9.131521000000134], [-69.092664, 9.131176000000153], [-69.092019, 9.12975200000011], [-69.091673, 9.128765000000158], [-69.091513, 9.127961], [-69.091515, 9.126446000000158], [-69.091492, 9.125941], [-69.0914949999999, 9.124196000000154], [-69.091473, 9.123438000000135], [-69.092168, 9.122636], [-69.09269999999987, 9.12236], [-69.0931619999999, 9.122154], [-69.093625, 9.121649], [-69.093764, 9.121374], [-69.09415899999988, 9.120134000000121], [-69.094554, 9.119722000000138], [-69.095039, 9.119699], [-69.09568799999983, 9.11862100000019], [-69.096198, 9.117588000000126], [-69.096731, 9.116694], [-69.097264, 9.115799], [-69.097404, 9.114743], [-69.09802899999988, 9.11382500000019], [-69.098354, 9.112839000000122], [-69.099026, 9.11199], [-69.099073, 9.11111700000015], [-69.098959, 9.11031400000013], [-69.09872899999988, 9.10953300000017], [-69.0984059999999, 9.108936000000142], [-69.09746, 9.107948000000135], [-69.096975, 9.107511], [-69.096143, 9.10698200000013], [-69.095728, 9.105925], [-69.09462, 9.105029000000172], [-69.094343, 9.10456900000014], [-69.09406699999988, 9.103766000000121], [-69.094277, 9.102343000000133], [-69.094208, 9.101654000000167], [-69.0936999999999, 9.101309], [-69.093123, 9.101124], [-69.09264, 9.099333000000172], [-69.091184, 9.099079], [-69.089821, 9.098687], [-69.089036, 9.097883], [-69.087905, 9.097009], [-69.087397, 9.096733000000143], [-69.086288, 9.096457], [-69.085271, 9.09641], [-69.08510799999982, 9.097259000000122], [-69.084506, 9.097557000000108], [-69.083259, 9.097004], [-69.082936, 9.096614], [-69.081896, 9.096245], [-69.080996, 9.095349], [-69.079402, 9.094819], [-69.078201, 9.094106], [-69.077416, 9.093462], [-69.0767929999999, 9.092635], [-69.07596199999989, 9.091853000000128], [-69.075479, 9.090843], [-69.07404799999989, 9.088477], [-69.072848, 9.087098], [-69.072619, 9.085835000000145], [-69.072412, 9.085031], [-69.072182, 9.084089], [-69.071607, 9.082206], [-69.07103, 9.081655000000126], [-69.070476, 9.08147], [-69.070108, 9.080414000000133], [-69.06999399999984, 9.07942700000018], [-69.068882, 9.079415], [-69.069555, 9.07915800000012], [-69.068815, 9.079219], [-69.069509, 9.078875000000153], [-69.070018, 9.07850800000017], [-69.070319, 9.078256], [-69.071244, 9.077982000000134], [-69.07186999999988, 9.076789], [-69.07258699999988, 9.075940000000116], [-69.07393, 9.074793], [-69.07557, 9.075231], [-69.07524399999988, 9.076861000000122], [-69.077925, 9.077691], [-69.07887299999987, 9.077371], [-69.080398, 9.077510000000188], [-69.081923, 9.077627], [-69.08469899999989, 9.076481000000115], [-69.085974, 9.07359], [-69.086624, 9.071294000000137], [-69.089101, 9.068818], [-69.089821, 9.06647700000019], [-69.08924599999989, 9.064502000000175], [-69.088879, 9.062298], [-69.088765, 9.061655], [-69.08923, 9.05952], [-69.089346, 9.059222000000148], [-69.08969599999989, 9.057133000000135], [-69.090668, 9.055917], [-69.09131699999983, 9.054609], [-69.091088, 9.053209000000152], [-69.09115899999989, 9.052038], [-69.091461, 9.051166], [-69.091393, 9.049743], [-69.090007, 9.049328], [-69.08929099999989, 9.049212], [-69.089615, 9.04873], [-69.08998599999984, 9.048295], [-69.090288, 9.04717], [-69.091722, 9.046207], [-69.0915389999999, 9.044692000000168], [-69.091519, 9.042672000000152], [-69.09186699999987, 9.041593], [-69.0922379999999, 9.040606], [-69.093142, 9.038977000000159], [-69.09318899999982, 9.038449000000185], [-69.093006, 9.03737], [-69.093239, 9.036038000000133], [-69.09287099999989, 9.034683000000143], [-69.092478, 9.034269000000165], [-69.092271, 9.033603000000141], [-69.091602, 9.032891000000177], [-69.091396, 9.031812], [-69.091305, 9.030526], [-69.09144499999985, 9.029470000000117], [-69.091309, 9.028207], [-69.09149599999989, 9.026463], [-69.09122, 9.025521], [-69.090897, 9.024901], [-69.089997, 9.02405], [-69.089259, 9.023085], [-69.08852, 9.022465000000125], [-69.08792, 9.022303], [-69.087527, 9.02202700000015], [-69.086603, 9.021751], [-69.085218, 9.020900000000154], [-69.084895, 9.020463], [-69.085798, 9.019546], [-69.086515, 9.019019000000128], [-69.086262, 9.018169000000114], [-69.085385, 9.017456], [-69.083746, 9.016238], [-69.08302899999984, 9.015663], [-69.08219899999989, 9.014514], [-69.081461, 9.013343000000134], [-69.081186, 9.01185], [-69.080726, 9.010564000000102], [-69.080612, 9.009852000000137], [-69.080566, 9.00914], [-69.08012799999989, 9.008405000000153], [-69.07927599999982, 9.006545], [-69.079301, 9.005603000000121], [-69.07884, 9.004570000000115], [-69.078055, 9.00388], [-69.078149, 9.003192000000126], [-69.077574, 9.00126200000011], [-69.077552, 9.000229000000104], [-69.077438, 8.999334], [-69.077023, 8.998714000000177], [-69.075985, 8.997289], [-69.075986, 8.9966], [-68.94364399999989, 9.019725000000108], [-68.93130299999984, 9.018314], [-68.882325, 9.012757], [-68.883802, 9.045615000000112], [-68.88398599999982, 9.048482], [-68.883999, 9.051209], [-68.884258, 9.056882000000144], [-68.887195, 9.11582], [-68.887886, 9.130379000000119], [-68.888386, 9.140624000000116], [-68.8886, 9.145129], [-68.88932299999988, 9.160511000000156], [-68.994434, 9.157144]]]}}, {"type": "Feature", "properties": {"Pais": "Venezuela", "Estado": "Portuguesa", "Municipio": "Santa Rosal\u00eda", "Parroquia": "Florida"}, "geometry": {"type": "Polygon", "coordinates": [[[-68.763314, 9.086023], [-68.761962, 9.087914000000183], [-68.761558, 9.089729], [-68.762766, 9.090271], [-68.764053, 9.088885], [-68.764522, 9.088053000000116], [-68.79257699999988, 9.068817], [-68.80977199999984, 9.057496000000128], [-68.879362, 9.012414], [-68.882325, 9.012757], [-68.93130299999984, 9.018314], [-68.94364399999989, 9.019725000000108], [-69.075986, 8.9966], [-69.07646099999988, 8.996058000000119], [-69.076825, 8.994747000000189], [-69.07715, 8.993479], [-69.077401, 8.991868000000181], [-69.07715499999983, 8.989599], [-69.077598, 8.988421], [-69.0767929999999, 8.987263], [-69.075122, 8.985477], [-69.07499299999989, 8.9833220000001], [-69.074284, 8.982346000000177], [-69.073186, 8.981676000000164], [-69.0715019999999, 8.980555], [-69.070275, 8.979037000000119], [-69.069895, 8.977024], [-69.0690039999999, 8.976327], [-69.066862, 8.975398], [-69.065008, 8.973821], [-69.06382799999983, 8.973749000000112], [-69.062478, 8.974643000000185], [-69.0609209999999, 8.975541], [-69.059973, 8.975556], [-69.0587139999999, 8.974911000000134], [-69.057734, 8.974399], [-69.056301, 8.974446], [-69.054948, 8.97511], [-69.053483, 8.974583000000166], [-69.05279299999984, 8.974847000000182], [-69.05200199999985, 8.974516000000108], [-69.051739, 8.972638000000188], [-69.05074999999988, 8.971506000000147], [-69.049051, 8.970845000000168], [-69.04752, 8.970526], [-69.04557, 8.970099], [-69.044097, 8.97049], [-69.041743, 8.970758], [-69.040244, 8.971035], [-69.038101, 8.971506000000147], [-69.03747199999987, 8.971218], [-69.037354, 8.969705000000147], [-69.037026, 8.96801100000016], [-69.036607, 8.967811], [-69.035737, 8.96693], [-69.035184, 8.967077000000131], [-69.03542799999985, 8.967877], [-69.035603, 8.968677000000184], [-69.034623, 8.968119], [-69.034057, 8.967440000000124], [-69.033987, 8.965972], [-69.035128, 8.965058], [-69.035834, 8.964404000000116], [-69.035294, 8.963907], [-69.034327, 8.964199], [-69.033984, 8.964434], [-69.033588, 8.964211000000148], [-69.03318399999989, 8.963552000000163], [-69.032863, 8.963718], [-69.03255199999984, 8.964526], [-69.032158, 8.964418], [-69.032184, 8.963224], [-69.0323039999999, 8.962074], [-69.031147, 8.962024], [-69.03051099999988, 8.9627], [-69.029126, 8.96286], [-69.027705, 8.96221700000018], [-69.0282289999999, 8.961727000000167], [-69.029237, 8.96116000000012], [-69.028676, 8.960778000000118], [-69.027706, 8.960886000000187], [-69.02785499999987, 8.960103], [-69.02858, 8.95775], [-69.030178, 8.95653], [-69.03050899999988, 8.955538], [-69.0316509999999, 8.954739000000131], [-69.03122899999988, 8.954378000000133], [-69.030419, 8.954323], [-69.028853, 8.954693], [-69.02742499999982, 8.955037000000118], [-69.02693099999988, 8.954517], [-69.0272, 8.954008], [-69.027933, 8.953583], [-69.027487, 8.9532], [-69.026425, 8.953240000000108], [-69.026335, 8.951979], [-69.026282, 8.951612], [-69.025618, 8.951968], [-69.025612, 8.953024], [-69.025197, 8.953076], [-69.024822, 8.95283000000012], [-69.024644, 8.951823000000104], [-69.024189, 8.95226600000018], [-69.023466, 8.953265], [-69.023131, 8.952628000000118], [-69.02344099999988, 8.951796], [-69.024489, 8.950815], [-69.0249409999999, 8.950188], [-69.023829, 8.950068], [-69.022483, 8.951169], [-69.021088, 8.95211], [-69.020784, 8.950485], [-69.02094199999988, 8.9488300000001], [-69.0201909999999, 8.948245], [-69.019738, 8.947403000000179], [-69.02038, 8.945671], [-69.021508, 8.945309], [-69.023827, 8.945707], [-69.023806, 8.945235], [-69.023555, 8.944513000000143], [-69.023173, 8.943881], [-69.023332, 8.943874], [-69.023246, 8.943626000000108], [-69.02147299999984, 8.944351], [-69.020084, 8.944667], [-69.018771, 8.943147], [-69.018267, 8.941401], [-69.018132, 8.940023], [-69.019106, 8.938696], [-69.02035599999988, 8.938058000000183], [-69.021628, 8.937741], [-69.02276399999988, 8.937241], [-69.02359899999988, 8.936165], [-69.023488, 8.934075000000178], [-69.02192, 8.9324620000001], [-69.020003, 8.931721], [-69.017251, 8.932054000000107], [-69.014708, 8.932206], [-69.01285799999988, 8.932267000000138], [-69.01052, 8.933522], [-69.009269, 8.934412000000123], [-69.00889499999988, 8.936132], [-69.009422, 8.937787000000128], [-69.01001899999989, 8.939327], [-69.010479, 8.940293], [-69.01089299999984, 8.941052000000127], [-69.01077399999986, 8.94242800000012], [-69.010079, 8.942816], [-69.009177, 8.943019000000163], [-69.008392, 8.942419], [-69.00726, 8.942346], [-69.005688, 8.942294], [-69.005222, 8.941946], [-69.004718, 8.941809], [-69.004718, 8.941750000000127], [-69.004575, 8.941786], [-69.00298499999985, 8.941527000000178], [-69.002294, 8.940629000000115], [-69.00244, 8.938105000000178], [-69.002441, 8.937577], [-69.001842, 8.93667900000014], [-69.001589, 8.936334], [-69.001334, 8.936379], [-69.00085399999983, 8.934744], [-69.00044, 8.934055000000114], [-68.999353, 8.934145], [-68.998843, 8.934282], [-68.99838, 8.934625], [-68.99727, 8.934669], [-68.99623, 8.934185000000184], [-68.995398, 8.934161000000188], [-68.994265, 8.934457000000123], [-68.992763, 8.933927000000153], [-68.992, 8.9339480000001], [-68.991351, 8.934544], [-68.989315, 8.935321], [-68.98786099999984, 8.934102], [-68.98707699999989, 8.933389], [-68.986501, 8.932332], [-68.984995, 8.9335], [-68.984528, 8.935634], [-68.984642, 8.936736], [-68.98445299999986, 8.938686000000132], [-68.98401, 8.939971], [-68.983523, 8.940682], [-68.982041, 8.941689], [-68.981186, 8.941687], [-68.979478, 8.940514000000178], [-68.97846, 8.940581], [-68.978273, 8.941499], [-68.97829499999989, 8.941958000000113], [-68.978085, 8.942967000000124], [-68.977253, 8.943012000000124], [-68.976146, 8.941747], [-68.975478, 8.940277], [-68.97483299999988, 8.939151], [-68.975135, 8.938486], [-68.97544, 8.936444], [-68.9757919999999, 8.93431], [-68.976094, 8.93353000000019], [-68.977071, 8.931053], [-68.97732699999989, 8.930181], [-68.977562, 8.928529], [-68.977449, 8.927267000000143], [-68.975971, 8.926094], [-68.97507, 8.925541000000123], [-68.973985, 8.92508], [-68.971903, 8.92526], [-68.970148, 8.924545], [-68.9682069999999, 8.92426600000016], [-68.966934, 8.924792], [-68.96487499999989, 8.925500000000113], [-68.96263099999987, 8.925978], [-68.96170599999988, 8.925999], [-68.9597629999999, 8.926317], [-68.957866, 8.926795], [-68.957149, 8.927069], [-68.95717599999989, 8.925210000000106], [-68.958129, 8.923123], [-68.958687, 8.921655000000158], [-68.95938499999988, 8.919774000000132], [-68.959987, 8.919270000000154], [-68.960478, 8.916723000000104], [-68.959604, 8.915], [-68.959188, 8.914609000000155], [-68.958496, 8.913919], [-68.957943, 8.913459], [-68.95725, 8.912815], [-68.956974, 8.912379], [-68.95699799999983, 8.911759], [-68.957208, 8.910979], [-68.957857, 8.91036000000014], [-68.958782, 8.910156000000143], [-68.958944, 8.910202], [-68.960075, 8.910732000000166], [-68.961023, 8.910802000000103], [-68.96128, 8.909678], [-68.96012499999989, 8.90907900000019], [-68.95887899999985, 8.908182], [-68.958116, 8.90815700000013], [-68.95767599999988, 8.908662000000163], [-68.95704999999987, 8.909510000000125], [-68.956469, 8.910564000000136], [-68.956029, 8.910862000000122], [-68.955844, 8.911022], [-68.95434099999989, 8.910584], [-68.953072, 8.90987], [-68.951663, 8.909155], [-68.951087, 8.908168000000103], [-68.950283, 8.9061], [-68.94774, 8.90605], [-68.94729699999988, 8.907656], [-68.946278, 8.908595000000105], [-68.946414, 8.90946700000012], [-68.945651, 8.909833], [-68.94436, 8.90820100000019], [-68.944711, 8.906182000000115], [-68.944992, 8.904553], [-68.945064, 8.903222], [-68.945438, 8.901662], [-68.946041, 8.900561], [-68.946621, 8.89978200000013], [-68.94729299999983, 8.899094], [-68.947688, 8.898085], [-68.94783, 8.897030000000143], [-68.947995, 8.8955610000001], [-68.947396, 8.894389000000103], [-68.946613, 8.892965], [-68.946106, 8.892482], [-68.945323, 8.891149], [-68.944077, 8.890022000000101], [-68.942117, 8.888045000000147], [-68.94017699999989, 8.886939], [-68.939717, 8.885883], [-68.93930299999988, 8.885055], [-68.938796, 8.884618000000103], [-68.936832, 8.883995], [-68.935168, 8.883923000000152], [-68.93313399999988, 8.883322000000135], [-68.931795, 8.88254000000012], [-68.931635, 8.881736], [-68.930897, 8.881138], [-68.929648, 8.881457000000182], [-68.928955, 8.881157], [-68.928494, 8.880353000000127], [-68.927294, 8.879616000000112], [-68.926092, 8.879751], [-68.92542, 8.880094], [-68.92408, 8.880115], [-68.923551, 8.87862200000012], [-68.92318399999988, 8.877680000000169], [-68.921688, 8.874556], [-68.921484, 8.873178000000166], [-68.92160299999989, 8.871664000000123], [-68.922114, 8.870586000000117], [-68.922741, 8.869461000000115], [-68.923322, 8.867833], [-68.923717, 8.867283], [-68.923833, 8.866985], [-68.924344, 8.865723], [-68.92476099999988, 8.86538000000013], [-68.92538799999988, 8.864302], [-68.92562, 8.863958], [-68.92564499999986, 8.863224], [-68.92396, 8.861935000000187], [-68.92112, 8.860645], [-68.919155, 8.860526000000107], [-68.917329, 8.86059100000017], [-68.916913, 8.860728000000165], [-68.916818, 8.861899], [-68.91836299999989, 8.863187], [-68.918963, 8.863762000000179], [-68.919723, 8.864911], [-68.920044, 8.866059000000178], [-68.919464, 8.867137000000184], [-68.91865299999989, 8.867686000000106], [-68.917383, 8.867362000000128], [-68.916573, 8.867384000000186], [-68.915509, 8.867726], [-68.915206, 8.868758000000184], [-68.915504, 8.870091000000173], [-68.915315, 8.871514000000161], [-68.912887, 8.871922000000154], [-68.91147399999983, 8.872860000000117], [-68.91114899999985, 8.873571], [-68.908881, 8.874646], [-68.90814199999983, 8.874346000000173], [-68.907775, 8.873152000000118], [-68.9078229999999, 8.87209600000017], [-68.907803, 8.871155000000101], [-68.907414, 8.869479000000183], [-68.9075299999999, 8.868951], [-68.908203, 8.86808], [-68.9081609999999, 8.866197], [-68.90915699999988, 8.865166000000158], [-68.90973899999989, 8.863721000000169], [-68.91009, 8.861725], [-68.90704, 8.861306000000184], [-68.903896, 8.861277], [-68.902761, 8.862284000000102], [-68.902505, 8.863202], [-68.902525, 8.86448700000011], [-68.90189899999984, 8.865198], [-68.899166, 8.867282000000102], [-68.897172, 8.869986], [-68.895643, 8.87136], [-68.893673, 8.873284], [-68.891795, 8.875782000000129], [-68.891284, 8.87695200000013], [-68.8900809999999, 8.877294000000177], [-68.886963, 8.875497000000166], [-68.885188, 8.87368], [-68.88387299999988, 8.87253], [-68.88253499999985, 8.871426000000156], [-68.881473, 8.870873], [-68.881799, 8.869703], [-68.88161699999989, 8.868807000000174], [-68.878866, 8.86861800000014], [-68.87745299999989, 8.870038], [-68.877013, 8.87033600000018], [-68.875838, 8.86870400000015], [-68.875377, 8.868129000000181], [-68.874357, 8.869229], [-68.873431, 8.870007000000157], [-68.87229799999989, 8.870074], [-68.87241899999987, 8.867595], [-68.873531, 8.866863], [-68.873925, 8.866313], [-68.872655, 8.865713000000142], [-68.871591, 8.866170000000125], [-68.87066699999986, 8.865663], [-68.869815, 8.864468000000159], [-68.868682, 8.8645810000001], [-68.867781, 8.864579000000106], [-68.867276, 8.863063], [-68.867045, 8.862925000000189], [-68.866677, 8.862052], [-68.866817, 8.861685], [-68.866866, 8.860491], [-68.866892, 8.859413], [-68.8676789999999, 8.858886000000155], [-68.868605, 8.858359], [-68.868722, 8.857923], [-68.87003999999985, 8.857742], [-68.871309, 8.858457], [-68.872233, 8.85891800000013], [-68.8737119999999, 8.858989000000122], [-68.874015, 8.858049000000165], [-68.87367199999989, 8.856579], [-68.873258, 8.855523], [-68.873561, 8.854559], [-68.87266199999988, 8.853685], [-68.869055, 8.854022], [-68.86787599999985, 8.854226], [-68.86632999999983, 8.852548000000127], [-68.864367, 8.851763000000176], [-68.862473, 8.8513], [-68.86170999999985, 8.851276], [-68.860319, 8.853201000000126], [-68.85923, 8.854048], [-68.858374, 8.854207], [-68.857935, 8.854412], [-68.85519, 8.852111], [-68.85422199999988, 8.850893000000156], [-68.853324, 8.849674000000164], [-68.85142899999988, 8.849418000000128], [-68.850527, 8.849645], [-68.850085, 8.850654], [-68.849642, 8.852145000000178], [-68.848647, 8.85239600000017], [-68.847748, 8.851545000000101], [-68.847033, 8.850923000000137], [-68.846249, 8.85037100000011], [-68.845997, 8.849292], [-68.846692, 8.848582], [-68.84630299999986, 8.847364], [-68.845288, 8.846191], [-68.84501399999988, 8.84486], [-68.84564099999989, 8.843989], [-68.846548, 8.84162700000013], [-68.847268, 8.840458], [-68.847965, 8.838852], [-68.84854599999989, 8.83768300000014], [-68.849081, 8.836445], [-68.84987, 8.83523], [-68.850197, 8.833876], [-68.84950699999985, 8.832291], [-68.847426, 8.832700000000102], [-68.845316, 8.835083000000111], [-68.843442, 8.835629], [-68.841619, 8.834593], [-68.839237, 8.83513900000014], [-68.83722399999988, 8.835639000000128], [-68.835211, 8.836737], [-68.833983, 8.837606000000164], [-68.832709, 8.838912], [-68.831756, 8.840746], [-68.829774, 8.838423], [-68.828945, 8.837457], [-68.829062, 8.836677], [-68.83010499999989, 8.83562400000011], [-68.830869, 8.835304000000122], [-68.831542, 8.834181000000115], [-68.831821, 8.83360800000014], [-68.833211, 8.832371], [-68.834068, 8.831707], [-68.834579, 8.830584], [-68.834535, 8.82978], [-68.83301099999989, 8.829112], [-68.83211, 8.829179000000124], [-68.831483, 8.830233000000135], [-68.830835, 8.830622000000119], [-68.829889, 8.83], [-68.829638, 8.828645000000165], [-68.829824, 8.82807200000019], [-68.82754, 8.826483000000167], [-68.825622, 8.826571000000172], [-68.822916, 8.826726], [-68.82138999999984, 8.826699], [-68.81917, 8.827268000000117], [-68.81852, 8.828231000000187], [-68.817983, 8.830295], [-68.817633, 8.831718], [-68.81763, 8.833026], [-68.817512, 8.833967000000143], [-68.817785, 8.835321], [-68.817829, 8.83624], [-68.815679, 8.836419], [-68.810986, 8.836638000000164], [-68.809391, 8.837001], [-68.80923899999988, 8.837377], [-68.80885499999988, 8.838331], [-68.80822499999982, 8.840832], [-68.807665, 8.842690000000175], [-68.806875, 8.844341000000156], [-68.806551, 8.844592000000148], [-68.805766, 8.84422300000017], [-68.803757, 8.843370000000107], [-68.803086, 8.843689], [-68.801007, 8.84322600000013], [-68.798973, 8.843038], [-68.797606, 8.844252], [-68.797399, 8.844068000000163], [-68.797332, 8.842690000000175], [-68.79719399999988, 8.842368], [-68.795646, 8.842181000000153], [-68.793956, 8.843142], [-68.794185, 8.844152000000179], [-68.79499199999987, 8.844912], [-68.796145, 8.845901], [-68.796095, 8.847118], [-68.7948679999999, 8.847895], [-68.794358, 8.848445], [-68.79382399999986, 8.84927000000016], [-68.79245999999989, 8.849450000000104], [-68.791726, 8.847406], [-68.790989, 8.84644], [-68.78957999999989, 8.845771000000184], [-68.789296, 8.848319000000174], [-68.78977999999984, 8.849100000000135], [-68.791693, 8.850872], [-68.791227, 8.852271], [-68.789074, 8.853781], [-68.787988, 8.853273], [-68.787232, 8.85111400000011], [-68.786797, 8.849300000000142], [-68.785595, 8.849251], [-68.7846689999999, 8.849846000000184], [-68.784942, 8.851499], [-68.783988, 8.85393], [-68.783185, 8.85167900000016], [-68.780139, 8.8497440000001], [-68.779009, 8.848708], [-68.777067, 8.849048], [-68.776561, 8.847853000000157], [-68.776264, 8.846705], [-68.775021, 8.844751], [-68.773889, 8.844634], [-68.773365, 8.841488], [-68.77156, 8.842172000000119], [-68.770051, 8.844441], [-68.769517, 8.845611], [-68.76661799999982, 8.849115], [-68.766038, 8.849619], [-68.764933, 8.848102000000154], [-68.764081, 8.84686], [-68.762348, 8.846718], [-68.76096399999989, 8.845843000000116], [-68.75773, 8.845055000000116], [-68.75662, 8.845075000000122], [-68.756018, 8.845441], [-68.75601199999988, 8.84769000000017], [-68.757556, 8.849209], [-68.75901099999987, 8.849625], [-68.75988699999988, 8.850752], [-68.75933, 8.85160000000019], [-68.75842699999987, 8.852080000000115], [-68.758744, 8.85449100000011], [-68.75841799999984, 8.85511], [-68.756453, 8.85522], [-68.75416599999983, 8.854893000000175], [-68.751947, 8.85475], [-68.750153, 8.851624], [-68.749278, 8.849878], [-68.747482, 8.847441000000174], [-68.747531, 8.846431], [-68.746447, 8.846018000000186], [-68.745892, 8.84580700000015], [-68.74443, 8.84768600000018], [-68.74313299999989, 8.848693], [-68.74234499999989, 8.849379000000113], [-68.741903, 8.85048], [-68.74171399999983, 8.851834], [-68.740443, 8.851831000000118], [-68.740176, 8.848272000000179], [-68.739855, 8.847239000000116], [-68.73763699999989, 8.846981], [-68.73708, 8.847875], [-68.736408, 8.848355], [-68.736402, 8.850375], [-68.735912, 8.852072], [-68.7349329999999, 8.854893000000175], [-68.734375, 8.856085], [-68.734094, 8.857347000000175], [-68.733995, 8.85966500000012], [-68.734361, 8.860974], [-68.734078, 8.862855], [-68.73387, 8.862992], [-68.731054, 8.861677000000157], [-68.7294409999999, 8.859745], [-68.726956, 8.855815], [-68.72710699999988, 8.851385000000164], [-68.72651, 8.849892], [-68.72431499999988, 8.849381000000108], [-68.722419, 8.849423], [-68.720711, 8.84873], [-68.7187009999999, 8.848541], [-68.71622699999983, 8.848627], [-68.715205, 8.850484], [-68.71464, 8.853902], [-68.715121, 8.855441], [-68.71523099999985, 8.857392000000175], [-68.71480899999983, 8.859572], [-68.714737, 8.86049], [-68.711402, 8.862386000000186], [-68.709226, 8.863552], [-68.7073999999999, 8.863547000000153], [-68.703842, 8.863056], [-68.702688, 8.862456000000122], [-68.70212, 8.858943], [-68.700363, 8.858572], [-68.6992029999999, 8.860107], [-68.69811599999986, 8.860287], [-68.697263, 8.859689000000174], [-68.696524, 8.859205], [-68.69520299999988, 8.860647], [-68.695079, 8.863218000000131], [-68.694798, 8.864640000000179], [-68.694425, 8.865788000000123], [-68.692024, 8.864657], [-68.691334, 8.863392], [-68.688124, 8.862603], [-68.68801, 8.86202900000012], [-68.68903199999988, 8.86031], [-68.68949399999985, 8.86044900000013], [-68.688896, 8.859300000000133], [-68.686636, 8.857642], [-68.686129, 8.857113], [-68.686272, 8.855506000000105], [-68.685816, 8.853531], [-68.683923, 8.852815], [-68.6819119999999, 8.852626], [-68.681055, 8.853358000000185], [-68.68065899999988, 8.854413], [-68.679204, 8.853996], [-68.678562, 8.852158], [-68.67794, 8.851055], [-68.67340899999982, 8.851135000000113], [-68.674561, 8.852630000000147], [-68.67529699999989, 8.853894], [-68.676055, 8.855297], [-68.675103, 8.856763000000171], [-68.674063, 8.856760000000122], [-68.671775, 8.856525], [-68.67191899999989, 8.857088], [-68.672438, 8.859120000000132], [-68.674324, 8.862041], [-68.675198, 8.863696], [-68.675352, 8.866244], [-68.6742569999999, 8.869179], [-68.673167, 8.870232000000101], [-68.671892, 8.871353000000113], [-68.673137, 8.872481], [-68.673437, 8.872849], [-68.674221, 8.873425000000168], [-68.675886, 8.873108], [-68.675605, 8.87437], [-68.67448999999982, 8.876042000000155], [-68.674233, 8.877235], [-68.674393, 8.877763], [-68.675202, 8.877674000000184], [-68.67561599999982, 8.878845], [-68.675148, 8.880359000000112], [-68.674153, 8.880655000000104], [-68.67265, 8.880926000000159], [-68.670616, 8.880623000000128], [-68.668931, 8.879884], [-68.66791399999988, 8.879766], [-68.667433, 8.878342], [-68.66871, 8.876555000000167], [-68.66959, 8.875869], [-68.67037799999986, 8.875343], [-68.67070599999988, 8.873806], [-68.66978399999982, 8.873000000000161], [-68.668446, 8.87221600000015], [-68.666566, 8.874713000000156], [-68.665916, 8.875492000000122], [-68.66517299999987, 8.876546000000133], [-68.664386, 8.876865], [-68.66367099999985, 8.876496], [-68.6628429999999, 8.874864], [-68.6618059999999, 8.873829], [-68.66058, 8.874124000000108], [-68.659492, 8.874833000000137], [-68.65863799999988, 8.874234000000115], [-68.657254, 8.873197000000118], [-68.655434, 8.871172], [-68.654118, 8.870733], [-68.653814, 8.87188], [-68.65478, 8.873650000000112], [-68.653985, 8.876379000000156], [-68.65253, 8.876191], [-68.651328, 8.875545], [-68.6499, 8.874142000000177], [-68.649421, 8.87200600000017], [-68.64954399999982, 8.869367000000125], [-68.650427, 8.867992], [-68.65080199999989, 8.866478], [-68.650435, 8.865513], [-68.650232, 8.863906], [-68.650095, 8.863309000000186], [-68.650814, 8.862576000000104], [-68.652136, 8.861088000000109], [-68.651955, 8.859825], [-68.653163, 8.85774], [-68.653814, 8.856502], [-68.65196499999985, 8.856313], [-68.650971, 8.856517], [-68.647486, 8.854855], [-68.64589199999989, 8.854461000000128], [-68.644526, 8.855192], [-68.642696, 8.856495], [-68.641235, 8.857891], [-68.64076099999988, 8.861654], [-68.64233, 8.862554], [-68.643649, 8.862236], [-68.64501399999989, 8.861803], [-68.646539, 8.862083000000155], [-68.647301, 8.862131], [-68.64771499999983, 8.862798000000168], [-68.64738899999986, 8.863623], [-68.646695, 8.863988], [-68.64535099999989, 8.864949], [-68.642831, 8.865057], [-68.63880999999986, 8.864702000000136], [-68.638671, 8.864701], [-68.637681, 8.863551000000143], [-68.636202, 8.863363], [-68.6357359999999, 8.863871000000131], [-68.635298, 8.864348000000177], [-68.63413799999984, 8.865538], [-68.63247499999989, 8.865052000000162], [-68.63155199999983, 8.86463600000019], [-68.630907, 8.863854000000174], [-68.630842, 8.862569], [-68.627218, 8.860447], [-68.624513, 8.860761], [-68.62427799999989, 8.861862], [-68.622844, 8.862226], [-68.621641, 8.862613000000124], [-68.6218, 8.8636], [-68.62216642999988, 8.864780718000077], [-68.622349, 8.8653690000001], [-68.622507, 8.866425], [-68.622457, 8.867618], [-68.620631, 8.867705000000115], [-68.619947, 8.864582000000155], [-68.620041, 8.86405400000018], [-68.61997599999984, 8.862654], [-68.61998424199999, 8.862541479000186], [-68.620097, 8.861002], [-68.620543, 8.858891], [-68.6208, 8.857997000000125], [-68.62214199999988, 8.857748000000129], [-68.623227, 8.857981], [-68.62443, 8.857915000000105], [-68.624384, 8.857594000000176], [-68.623235, 8.855662], [-68.62256699999989, 8.854903], [-68.622454, 8.853985], [-68.621348, 8.852995], [-68.62084, 8.852626], [-68.62044999999989, 8.851661], [-68.621263, 8.850585], [-68.62156499999986, 8.849989000000107], [-68.6218669999999, 8.849393], [-68.622285, 8.848980000000154], [-68.622585, 8.848889], [-68.62251899999984, 8.84808500000014], [-68.62178099999988, 8.847395], [-68.62006999999988, 8.847551], [-68.619984, 8.845531], [-68.619758, 8.843786], [-68.618834, 8.843691], [-68.61806699999988, 8.845089], [-68.617001, 8.84589], [-68.616408, 8.843593000000112], [-68.61706, 8.841805000000136], [-68.61777799999987, 8.841393000000153], [-68.620159, 8.841423000000134], [-68.6199079999999, 8.840183], [-68.619012, 8.83878], [-68.61894299999989, 8.838459], [-68.618576, 8.837471000000164], [-68.619966, 8.836534], [-68.620132, 8.835272000000145], [-68.617154, 8.834231000000159], [-68.61383350199998, 8.833819885000139], [-68.612106, 8.833606000000145], [-68.61149299999988, 8.833549], [-68.610427, 8.834556], [-68.60960732899991, 8.83578686300018], [-68.608916, 8.836825], [-68.6072, 8.838587000000132], [-68.60528099999988, 8.838720000000137], [-68.603733, 8.838646], [-68.604053, 8.839726], [-68.603796, 8.840597000000173], [-68.603288, 8.840412000000129], [-68.603168, 8.841651000000184], [-68.603005, 8.842087], [-68.601872, 8.842268], [-68.600767, 8.840910000000122], [-68.60077, 8.8399], [-68.601605, 8.839031], [-68.602163, 8.837908], [-68.602379, 8.835590000000138], [-68.604345, 8.835205], [-68.604718, 8.834082], [-68.602874, 8.832585], [-68.60132399999986, 8.832833000000107], [-68.60004458699996, 8.831632153000157], [-68.599435, 8.83106000000015], [-68.597998, 8.832181000000162], [-68.597173, 8.8300440000001], [-68.597798, 8.829816], [-68.59574, 8.830109000000164], [-68.5935429999999, 8.830355], [-68.592409, 8.830765], [-68.589686, 8.829449], [-68.589224, 8.828761], [-68.58928380099991, 8.828762416000131], [-68.58880327699995, 8.826649627], [-68.5887092719999, 8.825921604000087], [-68.58817823099992, 8.82279053200017], [-68.58602813899995, 8.822307527000078], [-68.5855201419999, 8.827567664000014], [-68.58448111599989, 8.829588716999979], [-68.58455012799993, 8.831495757000027], [-68.58415812599992, 8.834159818000103], [-68.58013495899985, 8.83654789500008], [-68.57670982399998, 8.837617947000183], [-68.57639080799993, 8.837717943000087], [-68.57329267999995, 8.83801596800015], [-68.57058755599991, 8.837347972000146], [-68.56748941799998, 8.835578937000037], [-68.56418326799991, 8.83367090900009], [-68.56090012499988, 8.833071916000165], [-68.55893505199998, 8.83447296200012], [-68.55680895999996, 8.835321993000093], [-68.55616094499999, 8.83727404300015], [-68.55574492699992, 8.838032058000067], [-68.55271680099992, 8.837365056000124], [-68.55095972599986, 8.838535095], [-68.55049771099993, 8.840097134000018], [-68.55260180399983, 8.840764140000147], [-68.55391887399992, 8.841500151000048], [-68.55438332499989, 8.841650905000051], [-68.56483135299999, 8.8450421820001], [-68.56587239999988, 8.84520317700003], [-68.56675043699988, 8.846007198], [-68.56765247699991, 8.846398196000052], [-68.56784851199996, 8.851691322000136], [-68.5709166399999, 8.84936024700005], [-68.57177167099985, 8.849337243000093], [-68.57163367399988, 8.850692279000157], [-68.57205069799994, 8.85234532200002], [-68.57336975399983, 8.852966320000064], [-68.57505682599998, 8.852553301000114], [-68.57702191499993, 8.852026285000022], [-68.5785019729999, 8.852257285000121], [-68.57875699999988, 8.854231325000057], [-68.57896700599991, 8.855747361000056], [-68.5780659799999, 8.857101396000076], [-68.57651792299998, 8.858708449000119], [-68.57575690199997, 8.860522487000082], [-68.57647393699989, 8.861969519000127], [-68.57774599899989, 8.862681537000014], [-68.57966507599997, 8.862315511000133], [-68.58001309499997, 8.863601544000062], [-68.5790890699999, 8.86513958100005], [-68.57959809099992, 8.865851602000077], [-68.58001510699995, 8.86617360200006], [-68.58100814999989, 8.865255577000028], [-68.58200218599995, 8.864543560000186], [-68.58424427899996, 8.864521541000045], [-68.58646739699986, 8.867898606000153], [-68.58723043199996, 8.869046636000064], [-68.58739344199984, 8.870332658999985], [-68.58577538499998, 8.87111268700005], [-68.58556938599997, 8.873638758000084], [-68.58705045299996, 8.874488763000159], [-68.58799849599995, 8.875247776000151], [-68.58823051999997, 8.876670806000106], [-68.58929455899994, 8.877406818000111], [-68.59075162799996, 8.87761382399998], [-68.59151566499992, 8.878142824000065], [-68.59350274399992, 8.876397780000104], [-68.59438077199985, 8.875686757000153], [-68.59620685499993, 8.875664741000094], [-68.59738690299997, 8.87639975899998], [-68.59815094199996, 8.877433781000093], [-68.59637187299984, 8.878855816000112], [-68.59570184699999, 8.880348857000058], [-68.59554185699989, 8.881978902000014], [-68.59491883899994, 8.883677938000119], [-68.59524385999993, 8.885491983000179], [-68.59762496299987, 8.88567697700006], [-68.59949703899997, 8.884046922999971], [-68.60016807099998, 8.885103946000129], [-68.60042408999993, 8.88684899000009], [-68.60128013199994, 8.887814012000035], [-68.60264418899993, 8.887033985000073], [-68.60352120699991, 8.885495937000144], [-68.60444625699989, 8.885288930000172], [-68.60551130399995, 8.88650695300015], [-68.60456426799993, 8.888367004000145], [-68.60303920799993, 8.889353040000174], [-68.60163016099995, 8.89121308100016], [-68.60283422199996, 8.893349135000165], [-68.60406028599994, 8.894727153000133], [-68.60493932299994, 8.894704148000073], [-68.60653538899993, 8.894751146000033], [-68.60792245199997, 8.895280154000147], [-68.60794745999988, 8.896979187000113], [-68.60928952099988, 8.898334216000023], [-68.61072359299999, 8.899184234000018], [-68.61252565999996, 8.897348172000022], [-68.6140977309999, 8.897257168000124], [-68.61576279799993, 8.897166152000011], [-68.61650483399995, 8.899049195000146], [-68.6175928959999, 8.900611225999967], [-68.61782490799993, 8.902172257000075], [-68.61662285899996, 8.902447272000188], [-68.61643968199996, 8.902790728000184], [-68.61602283799994, 8.903572309000083], [-68.61604685099996, 8.90481233200012], [-68.61787392799988, 8.90495132899997], [-68.61930798899988, 8.906054349000101], [-68.6200950299999, 8.90711036600004], [-68.61949500599991, 8.907592380000096], [-68.61859297199999, 8.908304408000049], [-68.61910401099988, 8.910462448999965], [-68.62102308899995, 8.910325443000033], [-68.62167112099985, 8.91145146700012], [-68.62118711199986, 8.913333511000019], [-68.62024007299993, 8.914481538000075], [-68.62088911199999, 8.916089573000022], [-68.62218517299993, 8.917697604000068], [-68.62015109199996, 8.917926623000142], [-68.62005909699997, 8.919372654000142], [-68.62036111599997, 8.920842689000153], [-68.62168017299996, 8.921623707000151], [-68.62071014599991, 8.923093749000088], [-68.61893107699996, 8.924607785000092], [-68.61962510999996, 8.92559580700015], [-68.62129118599995, 8.926308816000073], [-68.62108418899987, 8.928053863000116], [-68.62143220899998, 8.929316884000116], [-68.62335229699994, 8.930028898000046], [-68.62434733299995, 8.930534909000073], [-68.62444135399988, 8.93216494100011], [-68.62497337799988, 8.933198965000031], [-68.62488237799988, 8.93496701100014], [-68.62594743299991, 8.935587017000103], [-68.62682647399998, 8.936116028000072], [-68.62747551299998, 8.937608056999977], [-68.62914058499996, 8.938596074000145], [-68.63025162999998, 8.939217073000066], [-68.63129168299997, 8.939125067000134], [-68.63214771899999, 8.938988067000139], [-68.63201071599997, 8.940434099000072], [-68.63083167199983, 8.941720140000143], [-68.63032466199996, 8.943350175000091], [-68.63175973299997, 8.94530221500014], [-68.63365882899996, 8.947944270000164], [-68.63486187699993, 8.948564275000024], [-68.63608793799995, 8.949368293000134], [-68.63782400999997, 8.95037931100012], [-68.63886506099988, 8.951091317000078], [-68.6402531309999, 8.951850328000091], [-68.6414791769999, 8.952080323000189], [-68.6431912519999, 8.952356328000178], [-68.64432430199986, 8.952517323999984], [-68.64550335199988, 8.952448317000062], [-68.64679940799994, 8.953207328000076], [-68.64781846599993, 8.954493346000106], [-68.64842149499992, 8.95658239800008], [-68.65066560299988, 8.957387404000087], [-68.65353472699996, 8.958926427000165], [-68.65494679599993, 8.960580457000049], [-68.65543282699997, 8.961062465000111], [-68.65698289499989, 8.96191248200006], [-68.65814094899997, 8.962900503000185], [-68.65809594899997, 8.964370528000188], [-68.65791195199995, 8.965908572000103], [-68.65708091999994, 8.967033599], [-68.65516285499996, 8.968686654000066], [-68.65458583599997, 8.969880679000028], [-68.65546587599988, 8.971740721000117], [-68.6557678939999, 8.972911742000065], [-68.65717896199993, 8.973164749000148], [-68.65873004099996, 8.975002780000068], [-68.65873204999991, 8.976907822000157], [-68.65820202799995, 8.978698870000187], [-68.65778702199998, 8.980650920000073], [-68.65679499099997, 8.98262597200005], [-68.65772104399997, 8.984348013000158], [-68.65959612499995, 8.985244017000014], [-68.66086818399992, 8.98545102300011], [-68.66216323999998, 8.985015007000072], [-68.66363369999993, 8.984509585000012], [-68.663832, 8.984393], [-68.66515, 8.984783000000164], [-68.66579699999988, 8.984393], [-68.66658299999989, 8.983773], [-68.666999, 8.983154], [-68.66757699999982, 8.982603], [-68.66917199999989, 8.982741000000146], [-68.67000599999989, 8.984073], [-68.670101, 8.986025], [-68.671281, 8.986898], [-68.674034, 8.987886], [-68.674845, 8.989379000000156], [-68.675518, 8.991102], [-68.67650351099996, 8.99207969000014], [-68.676652, 8.992227], [-68.67783199999985, 8.99236500000012], [-68.678503, 8.992985], [-68.679476, 8.994685], [-68.680333, 8.99555800000013], [-68.680126, 8.996522000000141], [-68.67933399999987, 8.997352], [-68.679568, 8.997786000000133], [-68.679645, 8.998772000000145], [-68.679978, 9.000146000000143], [-68.67986699999983, 9.000812], [-68.678553, 9.001487000000111], [-68.679024, 9.002607], [-68.680694, 9.003169000000184], [-68.683108, 9.004093], [-68.683756, 9.004066000000137], [-68.68549199999984, 9.00387], [-68.686585, 9.004666], [-68.688718, 9.005041000000176], [-68.689975, 9.006064], [-68.69207199999988, 9.004765], [-68.69409736199998, 9.005042171000184], [-68.69478299999986, 9.005136], [-68.697663, 9.00647], [-68.698642, 9.007404000000122], [-68.69856, 9.008849000000112], [-68.699675, 9.009484], [-68.69994899999989, 9.008954], [-68.701273, 9.009519000000125], [-68.702364, 9.010016], [-68.70381, 9.011428], [-68.705644, 9.012241], [-68.707595, 9.013007], [-68.70908, 9.01352500000013], [-68.710589, 9.014042], [-68.712078, 9.015109], [-68.71317, 9.015698000000157], [-68.7145359999999, 9.015689000000123], [-68.716177, 9.01531], [-68.717472, 9.015164], [-68.718926, 9.014557], [-68.72005899999988, 9.01438800000011], [-68.721687, 9.015455], [-68.7236, 9.017483], [-68.724906, 9.018759000000102], [-68.726236, 9.020309000000111], [-68.7277289999999, 9.021859], [-68.72844, 9.024217000000135], [-68.728268, 9.025938], [-68.728487, 9.027336000000105], [-68.728363, 9.029493], [-68.727657, 9.031104000000141], [-68.728135, 9.033211], [-68.726934, 9.033747000000119], [-68.72748, 9.0355330000001], [-68.72989799999988, 9.036961000000133], [-68.731245, 9.037502000000131], [-68.732138, 9.039308000000176], [-68.73372499999988, 9.041086], [-68.735793, 9.042127], [-68.737067, 9.042324000000121], [-68.738629, 9.043850000000134], [-68.74003, 9.045446], [-68.741021, 9.048055], [-68.74180599999988, 9.050917], [-68.74146699999989, 9.05218100000019], [-68.739629, 9.054075], [-68.73917, 9.054698], [-68.73911, 9.055937], [-68.739721, 9.05721700000015], [-68.738824, 9.058072], [-68.738965, 9.058085], [-68.73889799999989, 9.058142], [-68.741202, 9.060327], [-68.7411479999999, 9.062460000000158], [-68.74118299999986, 9.064112], [-68.742609, 9.066052000000184], [-68.743315, 9.067584000000124], [-68.74367499999988, 9.069439000000102], [-68.744292, 9.071499], [-68.74522799999988, 9.072915000000137], [-68.74642399999988, 9.074902], [-68.74741, 9.076753], [-68.748247, 9.0772750000001], [-68.749412, 9.07823], [-68.750069, 9.079442], [-68.75134899999989, 9.080304], [-68.752421, 9.081352], [-68.754274, 9.081430000000182], [-68.75483899999989, 9.082688000000132], [-68.75655099999989, 9.082561000000112], [-68.758407, 9.083053000000177], [-68.75882999999982, 9.083853], [-68.759397, 9.085408000000143], [-68.76068, 9.086684], [-68.762664, 9.085683000000131], [-68.763314, 9.086023]]]}}]}