{"type": "FeatureCollection", "features": [{"type": "Feature", "properties": {"Pais": "Venezuela", "Estado": "Aragua", "Municipio": "Santos Michelena"}, "geometry": {"type": "Polygon", "coordinates": [[[-67.18327680899989, 10.29883804900004], [-67.18416286299993, 10.301419107000072], [-67.18635148599992, 10.311868955000136], [-67.18637969299994, 10.312003620000155], [-67.18986186699993, 10.3079717170001], [-67.19275560199992, 10.304621149000127], [-67.202984, 10.292778000000169], [-67.195907, 10.252961000000141], [-67.195025, 10.247532000000149], [-67.198695, 10.17994700000014], [-67.198678, 10.178935], [-67.199098, 10.17252], [-67.208223, 10.172570000000121], [-67.19869, 10.082114], [-67.195741, 10.07994200000013], [-67.19338399999987, 10.078089], [-67.18662499999982, 10.07537], [-67.183621, 10.075451000000157], [-67.180642, 10.073766], [-67.177178, 10.072247], [-67.172072, 10.072467000000188], [-67.15904, 10.077159], [-67.15415699999988, 10.078752], [-67.149275, 10.082478000000151], [-67.14626, 10.085700000000145], [-67.143267, 10.08883], [-67.139384, 10.092957000000183], [-67.136228, 10.095975000000124], [-67.132234, 10.09854300000012], [-67.1288034669999, 10.100416462000055], [-67.1283739999999, 10.100651000000141], [-67.124815, 10.100876], [-67.12270799999988, 10.100647000000151], [-67.120091, 10.100196000000153], [-67.118071, 10.099439000000189], [-67.11483, 10.099156], [-67.11397303599995, 10.099287330000095], [-67.112246, 10.09955200000013], [-67.108284, 10.100859], [-67.10611866299996, 10.102286074000062], [-67.10504204399996, 10.10299562400013], [-67.10477767899994, 10.103169854000157], [-67.10471572399996, 10.103192126000067], [-67.10467223199998, 10.103309382000134], [-67.10534027499995, 10.10467941100012], [-67.10669934399994, 10.106292447000158], [-67.10967248799983, 10.109537520000174], [-67.11207860399998, 10.111734555000112], [-67.11556778099998, 10.115615638000179], [-67.11732887499994, 10.117980691000184], [-67.1173799039999, 10.122450812000125], [-67.11785393599996, 10.125518887000055], [-67.11887899899995, 10.128166947000125], [-67.12161813799992, 10.131162011000129], [-67.12414326699997, 10.133610061000184], [-67.12615236299985, 10.135444096000128], [-67.12657537699994, 10.136036116000128], [-67.12704940799989, 10.136993136000058], [-67.12699540899996, 10.13841617100013], [-67.12898052199989, 10.142085258], [-67.13155765099998, 10.14505932100019], [-67.13175266199994, 10.145262249000098], [-67.13441279799997, 10.14803038000008], [-67.13742794299992, 10.150816441000075], [-67.13881100599997, 10.15245147200011], [-67.13966806099984, 10.154620525000098], [-67.13977607199996, 10.155994555000063], [-67.1394240709999, 10.157603604000087], [-67.13765999599997, 10.159045651000099], [-67.1346248779999, 10.160525700999983], [-67.1311727339999, 10.16203276200008], [-67.12924266199991, 10.163155800000084], [-67.12537653999993, 10.17260007200008], [-67.12536854599983, 10.17259207800015], [-67.12519453599998, 10.172964080000042], [-67.12457251899997, 10.173877116000085], [-67.12322445999996, 10.174489130999973], [-67.12173339499998, 10.174968159], [-67.12049834099992, 10.175462181000057], [-67.11974431199997, 10.175805190000062], [-67.1188042839999, 10.176934229000153], [-67.11750022799993, 10.17745324900011], [-67.11680320099998, 10.178184270000088], [-67.11602216699993, 10.179171298000085], [-67.11525314499988, 10.179789317000143], [-67.11372108599994, 10.181256362000113], [-67.11257103699995, 10.182299397000179], [-67.11170100899989, 10.184252459000106], [-67.11198903799993, 10.185392488000048], [-67.11182504399994, 10.187715548000028], [-67.11191405099993, 10.189159584000151], [-67.11166104899996, 10.190039614000113], [-67.11157404199997, 10.191005636000114], [-67.11163806199994, 10.19240467600008], [-67.1109230369999, 10.193297693000147], [-67.11075203099989, 10.193807708000122], [-67.11071503599993, 10.19491073800009], [-67.11110306299997, 10.196299772000089], [-67.1116410869999, 10.198097820000044], [-67.11237513299989, 10.200258868000105], [-67.11244214599992, 10.201771916000098], [-67.11241816099988, 10.20333395800003], [-67.11324620299985, 10.204710987000169], [-67.11324862699996, 10.204712964000066], [-67.11328419899996, 10.20474198100004], [-67.11412324699995, 10.20542099700009], [-67.11471327699991, 10.206598027000155], [-67.11520430099995, 10.207571046000112], [-67.11539531299985, 10.208576078000135], [-67.11591434199988, 10.20968609400012], [-67.11682939599984, 10.210900123000158], [-67.1162353709999, 10.211973155000123], [-67.11571735699994, 10.212469171000123], [-67.11521933899996, 10.212874191000026], [-67.1149495809999, 10.213176458000078], [-67.11454731099985, 10.213627207000172], [-67.11455932599995, 10.215647266000076], [-67.11427231099992, 10.216138278000187], [-67.1141293089999, 10.216785301000186], [-67.11358028699993, 10.21700730100008], [-67.11333726999999, 10.216623299000105], [-67.11309325999997, 10.216194290000033], [-67.11270124399994, 10.216228290000174], [-67.11250223499991, 10.216578296000023], [-67.11240723199995, 10.217293314000187], [-67.11231023099992, 10.217915338000125], [-67.1121122269999, 10.218265345000077], [-67.11144119999989, 10.218307352000068], [-67.11070416299992, 10.218443360000151], [-67.10986513399996, 10.219041382000057], [-67.10918911299996, 10.220460424000066], [-67.10759305099998, 10.221332454999981], [-67.10622399099998, 10.222036483000181], [-67.10513494799989, 10.22277950900019], [-67.10292286099991, 10.223966546999975], [-67.10200282999995, 10.224980585000026], [-67.10149081699984, 10.226486624000017], [-67.10049977799991, 10.228213670000116], [-67.0999017549999, 10.229172706000043], [-67.09930974099996, 10.230313734000163], [-67.09911174099989, 10.231444767000028], [-67.09855671499997, 10.232286791999968], [-67.09719366399992, 10.23317482200008], [-67.09618762199989, 10.233616834000088], [-67.0963206269999, 10.234232849000136], [-67.09658265099989, 10.235280878000083], [-67.09695667399996, 10.236188906000052], [-67.09719968399997, 10.237375930000042], [-67.0970776829999, 10.237912942000094], [-67.09758714599997, 10.238386280000157], [-67.09759971099993, 10.23839795400005], [-67.09845574999997, 10.23862796300017], [-67.1198218379999, 10.264594516000045], [-67.12858915999993, 10.270721428000058], [-67.12864526099997, 10.27076063300018], [-67.12917394699991, 10.271129686000052], [-67.12921828099996, 10.271160633000079], [-67.13856873399993, 10.277612754000188], [-67.13983529199999, 10.278512065000086], [-67.14689512899997, 10.283524855000053], [-67.1493052429999, 10.285927910000055], [-67.15234439499983, 10.288690960000054], [-67.15584256299996, 10.291150003000041], [-67.15942673599989, 10.293036037000093], [-67.16231286899995, 10.29456205300005], [-67.16556301299994, 10.295533070000033], [-67.16899117399998, 10.297925110000051], [-67.17279834699997, 10.299027113000022], [-67.17515144499987, 10.29847308400008], [-67.17866960899988, 10.298547066000026], [-67.1810247059999, 10.29813004500005], [-67.18327680899989, 10.29883804900004]]]}}]}