{"type": "FeatureCollection", "features": [{"type": "Feature", "properties": {"Pais": "Venezuela", "Estado": "Falc\u00f3n", "Municipio": "Silva"}, "geometry": {"type": "Polygon", "coordinates": [[[-68.488258, 10.875042000000121], [-68.497771, 10.876306000000113], [-68.504648, 10.877086000000133], [-68.512043, 10.875515], [-68.52176899999984, 10.871472], [-68.533235, 10.868455], [-68.538649, 10.869442], [-68.545224, 10.867585], [-68.547717, 10.867795], [-68.548755, 10.861787000000163], [-68.552988, 10.856252], [-68.57033599999988, 10.847624000000167], [-68.58537299999989, 10.842708000000187], [-68.608756, 10.834754], [-68.617296, 10.829512], [-68.625217, 10.820767], [-68.624252, 10.807974], [-68.62059, 10.799268], [-68.618541, 10.792394], [-68.61644299999989, 10.782697000000155], [-68.61660777099996, 10.781589212000142], [-68.61673502999997, 10.78073362900011], [-68.61768819499997, 10.774325324000074], [-68.617711, 10.774172], [-68.617165, 10.772756], [-68.615647, 10.771755], [-68.611831, 10.771706], [-68.610663, 10.771002], [-68.609521, 10.770595000000128], [-68.608982, 10.769910000000152], [-68.607585, 10.769688], [-68.607089, 10.76861300000013], [-68.60697, 10.768155], [-68.6060379999999, 10.767885], [-68.605085, 10.767982000000131], [-68.603805, 10.767805], [-68.603126, 10.767144], [-68.602211, 10.765909], [-68.602205, 10.765802], [-68.60210599999982, 10.763961000000108], [-68.601613, 10.763345000000129], [-68.600331, 10.762824], [-68.599813, 10.761864000000173], [-68.5997799999999, 10.760352000000125], [-68.599234, 10.758727000000135], [-68.598231, 10.758228], [-68.597343, 10.757613000000163], [-68.597058, 10.756629], [-68.597027, 10.755414000000144], [-68.596347, 10.754615000000115], [-68.594604, 10.754693000000145], [-68.593515, 10.7553410000001], [-68.59256, 10.755139], [-68.592065, 10.75491200000016], [-68.590879, 10.754368], [-68.591013, 10.753451], [-68.59098399999982, 10.752511], [-68.590145, 10.75228600000014], [-68.58877, 10.751881], [-68.587883, 10.751289], [-68.586902, 10.750744], [-68.585761, 10.750498000000164], [-68.585386, 10.749949], [-68.584847, 10.74931], [-68.584122, 10.748695], [-68.58307499999984, 10.7487], [-68.582352, 10.748337], [-68.58174799999989, 10.748432], [-68.580703, 10.748758], [-68.579473, 10.749177], [-68.57854, 10.748655], [-68.578147, 10.749138], [-68.577308, 10.748798], [-68.576744, 10.747953], [-68.575602, 10.74754600000017], [-68.574692, 10.746978], [-68.574225, 10.74670500000019], [-68.573272, 10.746893000000114], [-68.572641, 10.746301000000187], [-68.57208399999985, 10.746487000000116], [-68.5720419999999, 10.747312], [-68.57204699999988, 10.748137], [-68.571305, 10.748393], [-68.57000599999986, 10.748904], [-68.569193, 10.74929800000018], [-68.568939, 10.749643000000106], [-68.568265, 10.749624000000154], [-68.568197, 10.749968], [-68.567873, 10.750153], [-68.56670799999984, 10.74988400000018], [-68.566454, 10.75016], [-68.5655, 10.750119], [-68.565332, 10.749295], [-68.564496, 10.749436], [-68.563991, 10.749901000000136], [-68.5637119999999, 10.74982], [-68.563403, 10.749534000000153], [-68.563844, 10.749371000000167], [-68.563842, 10.748981], [-68.562888, 10.749009], [-68.562497, 10.749584], [-68.56247499999989, 10.749593], [-68.561986, 10.749793], [-68.56073, 10.749685], [-68.56061, 10.749271], [-68.560397, 10.748540000000162], [-68.559745, 10.74836], [-68.558487, 10.748045], [-68.5578809999999, 10.747911000000158], [-68.556998, 10.747961], [-68.55681, 10.747618], [-68.555997, 10.747783], [-68.55525399999988, 10.748107], [-68.554606, 10.748546], [-68.55363099999988, 10.748872], [-68.552329, 10.748901], [-68.551028, 10.749160000000131], [-68.550145, 10.749325000000113], [-68.54983, 10.749488], [-68.54894, 10.749950000000126], [-68.548194, 10.74978300000015], [-68.547542, 10.749636], [-68.546823, 10.749961000000155], [-68.54536, 10.750380000000177], [-68.54373, 10.750136], [-68.54238, 10.749769], [-68.54193, 10.749195000000157], [-68.54191, 10.749160000000131], [-68.54230299999989, 10.748768], [-68.54213799999985, 10.74837900000017], [-68.54117999999988, 10.748237000000131], [-68.54034499999989, 10.74811300000016], [-68.539256, 10.747051], [-68.538777, 10.746493], [-68.537827, 10.746979000000124], [-68.5369419999999, 10.746869000000117], [-68.535912, 10.745728], [-68.53545, 10.746212], [-68.535198, 10.746878000000152], [-68.534613, 10.74639900000011], [-68.534327, 10.745232], [-68.533441, 10.744915], [-68.532702, 10.74464], [-68.5310649999999, 10.744193], [-68.530155, 10.743649000000119], [-68.530038, 10.743579000000182], [-68.52991, 10.74359800000019], [-68.52783, 10.74391100000014], [-68.52715299999988, 10.743456000000151], [-68.526383, 10.74338], [-68.524239, 10.742885000000172], [-68.523379, 10.742626], [-68.522127, 10.74316000000016], [-68.521672, 10.742553], [-68.521494, 10.742315], [-68.520538, 10.742021], [-68.51868, 10.742374000000154], [-68.518797, 10.741133000000161], [-68.518856, 10.74079200000017], [-68.51894299999987, 10.739737000000105], [-68.51960999999989, 10.738610000000108], [-68.518142, 10.73815900000011], [-68.516955, 10.737982], [-68.515836, 10.737483000000111], [-68.51646, 10.736815], [-68.515619, 10.736246000000108], [-68.51348099999984, 10.73644000000013], [-68.512386, 10.736239], [-68.51281999999986, 10.734838000000138], [-68.513651, 10.733917000000133], [-68.51281099999983, 10.733371], [-68.512089, 10.733283], [-68.511503, 10.732529], [-68.510387, 10.732512], [-68.508856, 10.733276], [-68.508522, 10.733531000000141], [-68.508273, 10.733372000000145], [-68.50832099999985, 10.7331870000001], [-68.507781, 10.732364], [-68.507035, 10.732116000000133], [-68.506219, 10.731776], [-68.5058, 10.731594], [-68.50547, 10.730908], [-68.505005, 10.730911000000106], [-68.50483, 10.73091200000016], [-68.503842, 10.73091600000015], [-68.502629, 10.730349000000103], [-68.50220499999989, 10.729411000000141], [-68.50186, 10.729031000000134], [-68.500224, 10.728373], [-68.498717, 10.728605], [-68.497292, 10.728149], [-68.49595499999987, 10.727461000000119], [-68.49516499999987, 10.727429], [-68.49441699999988, 10.72719], [-68.49387499999989, 10.726718], [-68.49351, 10.725784], [-68.49291099999988, 10.726070000000107], [-68.492103, 10.726382000000172], [-68.490597, 10.724876000000108], [-68.490628, 10.724852], [-68.489469, 10.723126], [-68.488462, 10.721287000000132], [-68.48649299999988, 10.72029], [-68.483919, 10.719211000000143], [-68.482003, 10.718602], [-68.48082, 10.718714], [-68.479367, 10.71805200000017], [-68.476986, 10.717451], [-68.47662999999989, 10.717105000000174], [-68.475805, 10.716302000000155], [-68.474189, 10.715551000000175], [-68.471854, 10.714857000000109], [-68.471572, 10.714838000000157], [-68.469766, 10.714739000000122], [-68.469063, 10.714489], [-68.468241, 10.714209000000153], [-68.46704799999986, 10.713725], [-68.466199, 10.71296], [-68.465334, 10.7126540000001], [-68.46417199999985, 10.712674000000163], [-68.462835, 10.71191800000014], [-68.45857, 10.709921000000122], [-68.5010169059999, 10.631888569000125], [-68.51196136199997, 10.611768787000187], [-68.51966308999994, 10.59761028500003], [-68.52010676499998, 10.596794655000053], [-68.38445258499996, 10.587713952000058], [-68.34699466899997, 10.585206517000131], [-68.28371360199998, 10.580970475000129], [-68.26907714899983, 10.579990709000072], [-68.24872068099995, 10.57862804500013], [-68.24853768199989, 10.578742054000031], [-68.24832067299997, 10.578854053000157], [-68.24701661899991, 10.579527086000155], [-68.24644159399992, 10.579964094000047], [-68.24565956599997, 10.580769118999967], [-68.2450415479999, 10.5819631600001], [-68.24467352899995, 10.582308166000018], [-68.24405150999996, 10.58283818000001], [-68.24349948499997, 10.583183198000143], [-68.24287645999993, 10.583461203000127], [-68.24241544299997, 10.583531211999968], [-68.24188342399998, 10.58334921200003], [-68.24141939999998, 10.582984203000137], [-68.24122997699993, 10.58269053400005], [-68.24081436599994, 10.582046187000117], [-68.2402343309999, 10.58131517400011], [-68.23974431099992, 10.580239144000075], [-68.23900127399992, 10.579485132000059], [-68.23828069099989, 10.57890927], [-68.23825923099997, 10.578892120000035], [-68.2377032039999, 10.578389111000035], [-68.23719418599995, 10.578231104000054], [-68.23615313699997, 10.577959104000115], [-68.23548311399998, 10.577698099999964], [-68.23627414999999, 10.578352118000112], [-68.23798823499993, 10.58044415900008], [-68.23944931499994, 10.582630212000026], [-68.2412854069999, 10.58522526600018], [-68.24213344599991, 10.586455294000189], [-68.2429824909999, 10.587822319000054], [-68.2442265549999, 10.589208356000029], [-68.24634766999998, 10.592442424000126], [-68.24705770599985, 10.593742447000125], [-68.24888879299994, 10.59587850100013], [-68.25008485799992, 10.597196519000079], [-68.25161794399997, 10.59954256900005], [-68.25359203999994, 10.602067627000054], [-68.25499411499999, 10.605149697000172], [-68.2575042389999, 10.60792075400002], [-68.25885132199988, 10.61022280300017], [-68.26054440599984, 10.612406857000053], [-68.26191347099996, 10.614616905000105], [-68.26245850399994, 10.615665925000087], [-68.26342155699996, 10.616894959000149], [-68.26457123199992, 10.61838740700017], [-68.26513864799989, 10.619123996000098], [-68.26573368099992, 10.62051703800006], [-68.26637271499999, 10.621634065000023], [-68.26696174899996, 10.622522083000149], [-68.26747976999991, 10.623274099000014], [-68.26799980299995, 10.624185118000185], [-68.2688688419999, 10.625208132000068], [-68.26939186799984, 10.626349165000079], [-68.27010690899994, 10.628085199], [-68.27100095999992, 10.629245233000063], [-68.27171499499985, 10.63095826700004], [-68.27287105699992, 10.63275830900011], [-68.27334208299999, 10.633441324000046], [-68.27358609699996, 10.634448355000188], [-68.27452514399994, 10.635515370000064], [-68.2754202019999, 10.636790394000059], [-68.27597123299995, 10.638390438000101], [-68.2766332679999, 10.639530465], [-68.27733231299993, 10.64190851900014], [-68.27857437799986, 10.643156543000032], [-68.27949341699997, 10.644454578000023], [-68.28027745999998, 10.646189619000154], [-68.28085449699995, 10.647972659000061], [-68.28182554799992, 10.64975069500008], [-68.28253658899996, 10.651165732000038], [-68.2832006239999, 10.652442755000095], [-68.28398467799997, 10.654131795000069], [-68.28523873999995, 10.656412854000052], [-68.28625980399988, 10.658557901000165], [-68.28833690499988, 10.661815973999978], [-68.28867893799998, 10.664281029000108], [-68.2887009449999, 10.664235029000054], [-68.28935098399995, 10.666613095000173], [-68.29046805099995, 10.66935315500001], [-68.2927221789999, 10.67428227400012], [-68.29492630599992, 10.678868377000015], [-68.29591536899989, 10.682778470000187], [-68.29761745799993, 10.685855548000063], [-68.29792148499996, 10.688557618000175], [-68.29932056899997, 10.691569682000136], [-68.30129968399996, 10.696914806000109], [-68.3030958029999, 10.70269694700005], [-68.30507992499992, 10.70859109600002], [-68.30662101099989, 10.711854163999988], [-68.30837812199997, 10.718392333000168], [-68.31021424199992, 10.723372446000042], [-68.3120033429999, 10.728236564000156], [-68.31410945599998, 10.732158653], [-68.31456349299998, 10.733529689000136], [-68.31592257499989, 10.737115766000102], [-68.31679661999993, 10.738642810000158], [-68.31693258099989, 10.739194768000175], [-68.31787406399991, 10.743016812000064], [-68.31788369599997, 10.74305591600006], [-68.31969980899999, 10.748356045000094], [-68.32035084299991, 10.750917109000113], [-68.32114590399988, 10.753958184000112], [-68.32202895299997, 10.756333234000124], [-68.32251498499994, 10.758644299000139], [-68.32327504899996, 10.76292340200007], [-68.32350807599994, 10.765579473], [-68.32395811799995, 10.769082553000146], [-68.32382813099997, 10.772682653000118], [-68.32364314999995, 10.775412729000038], [-68.32355716499984, 10.77878281300002], [-68.32374618999995, 10.781623891000095], [-68.3217321279999, 10.78533400100008], [-68.32053608199988, 10.78695004400015], [-68.31919903899995, 10.788293089000149], [-68.31633292699985, 10.790453166000077], [-68.31344381499997, 10.792705244000103], [-68.31469488299996, 10.794618288000095], [-68.31700898999992, 10.795833301000187], [-68.3196701309999, 10.799337374000118], [-68.32111019699988, 10.801615429000037], [-68.32372234799993, 10.807411566000098], [-68.3238563669999, 10.80933662000001], [-68.3230203569999, 10.812117691000026], [-68.32372540299997, 10.815457782000067], [-68.32389443399995, 10.818664866], [-68.32232238599988, 10.822416965000059], [-68.31983025999995, 10.819713914000147], [-68.31668911499992, 10.817131865000079], [-68.31308195599996, 10.817212891000054], [-68.31087984599992, 10.815514860000178], [-68.30806270699998, 10.812791802999982], [-68.30399054999992, 10.815513898000063], [-68.30389856499988, 10.818219968000164], [-68.30316055599991, 10.82157306400012], [-68.30408260199994, 10.823215098000105], [-68.30645572599997, 10.825736157000051], [-68.31079892799988, 10.82732117200004], [-68.31505811099998, 10.827302142000065], [-68.31683818999988, 10.828568161000078], [-68.31739723399988, 10.83122223100014], [-68.32056937399989, 10.831993234000038], [-68.32473554899997, 10.83202121000005], [-68.32424254499995, 10.834135259999982], [-68.32010336999997, 10.834450300000128], [-68.31680423399996, 10.835170341000094], [-68.31406910199996, 10.833822319000149], [-68.31011291999988, 10.831270275000179], [-68.30681476099994, 10.829446253000071], [-68.30484866699999, 10.828204229000164], [-68.30313458299992, 10.826502198000128], [-68.30115948299994, 10.824183148000088], [-68.29673427499995, 10.82126909900012], [-68.29423718699996, 10.823059160000184], [-68.29264113299996, 10.826810266], [-68.29284615399996, 10.828940323000154], [-68.29463425599994, 10.831123371000103], [-68.29737738699998, 10.833274415000119], [-68.29813442999989, 10.83468844500004], [-68.29881047599997, 10.837409505000096], [-68.30082956499996, 10.839384545000087], [-68.30288065499997, 10.839707541000166], [-68.30423572099988, 10.840290556000184], [-68.3027546639999, 10.841199588999984], [-68.3016146139999, 10.84132458900001], [-68.30213564099995, 10.842282614000169], [-68.30443774799983, 10.842076603000066], [-68.3070548419999, 10.840561539000134], [-68.30993496499991, 10.839914511000075], [-68.31172503899995, 10.839690493000035], [-68.3112230289999, 10.840795524000043], [-68.30929494099996, 10.841226545000097], [-68.30816290299992, 10.842223580000052], [-68.30693886299991, 10.843312616000105], [-68.30722787399992, 10.844341642000188], [-68.3088549449999, 10.844142623000153], [-68.31045501499995, 10.843439598000145], [-68.31179806899996, 10.842669573000137], [-68.31403516199998, 10.842991562], [-68.31497220899996, 10.843692573000055], [-68.31321513399996, 10.844924616000071], [-68.31289912799997, 10.846028653000076], [-68.31411518499993, 10.846681663000084], [-68.31577326799999, 10.847329668000157], [-68.31707932699987, 10.847637662000068], [-68.31812536399991, 10.847466649000182], [-68.31909639899999, 10.846746624000048], [-68.32012645299994, 10.847355633000063], [-68.32096348599998, 10.847347634000016], [-68.32106549899999, 10.848263657000075], [-68.32025746599993, 10.849027684000134], [-68.32056648299994, 10.849735699000178], [-68.32187654199987, 10.850455711000052], [-68.32294659699994, 10.850376699000094], [-68.32424064399999, 10.84935567000008], [-68.32438765199998, 10.850202681000098], [-68.32439966399983, 10.851554716000123], [-68.32512769399995, 10.852257738000048], [-68.32558173099994, 10.853536761999976], [-68.32528071399997, 10.853769770000099], [-68.32427567299993, 10.853251768000064], [-68.32303960899998, 10.852943762000109], [-68.32211158099994, 10.853341784], [-68.3226336009999, 10.854391810000038], [-68.32217559299994, 10.855266838000148], [-68.32168457199998, 10.855019834000132], [-68.32013448599997, 10.853498801000114], [-68.3193524429999, 10.851970762000121], [-68.31720135099994, 10.850799750000022], [-68.31522626799995, 10.851185765000082], [-68.31454024399994, 10.852590805000148], [-68.31584730799989, 10.852944812000032], [-68.31677834299984, 10.852935807000108], [-68.31718136099988, 10.853734829000132], [-68.31667735199994, 10.854632847000175], [-68.31705537099992, 10.855339868000158], [-68.31741139399998, 10.856046890000016], [-68.31655435499994, 10.856513900000095], [-68.31545329999989, 10.855791889000159], [-68.31419725399996, 10.8558729], [-68.31364723199994, 10.85681792400004], [-68.31280619899997, 10.856458924000037], [-68.31298319699988, 10.855471899000122], [-68.31304519299994, 10.854599877000112], [-68.31282817699991, 10.853753848], [-68.31302318199982, 10.852147803000094], [-68.31284316099993, 10.850177754000072], [-68.31066505799993, 10.848686737000094], [-68.30879896499988, 10.848223729000154], [-68.30576082799996, 10.846831719000079], [-68.30445977499994, 10.847165733000168], [-68.30671388499997, 10.84927477600013], [-68.30786994699986, 10.8510518060001], [-68.30907400899991, 10.852942856000084], [-68.30927702999992, 10.854796898000188], [-68.30771996599998, 10.855087917000162], [-68.30666091199998, 10.853745892000063], [-68.30587786399997, 10.852125853000075], [-68.3041637799999, 10.85044581700015], [-68.30352274599994, 10.849030780000021], [-68.30261069999989, 10.848581779000085], [-68.30091062799994, 10.848437781000086], [-68.29956856299998, 10.846731751000164], [-68.29776047799999, 10.844915713000148], [-68.29637040099988, 10.843026674999976], [-68.29482533199996, 10.842055661000131], [-68.29240222399983, 10.841804660000037], [-68.2903421449999, 10.843084716000078], [-68.29093117799988, 10.843858726000178], [-68.29070416799993, 10.844479746000047], [-68.28886408199998, 10.844359754000095], [-68.28710001399998, 10.84488178200013], [-68.28567196499995, 10.846614838000164], [-68.2858959859999, 10.84821687100009], [-68.28815708499997, 10.848561873000051], [-68.28944412699985, 10.846738815000037], [-68.29064516699992, 10.84571777399998], [-68.2929602619999, 10.844320729000117], [-68.2949933569999, 10.845263738000085], [-68.29633442799991, 10.846808778000025], [-68.29861053299987, 10.848941814000113], [-68.30010960099992, 10.84993582900006], [-68.30214970199995, 10.851703866000037], [-68.30270274699996, 10.85364691600006], [-68.30320877299994, 10.855543965000095], [-68.30287077199995, 10.856853999000123], [-68.30212873499983, 10.85711400700012], [-68.3003176609999, 10.857590034000168], [-68.29876259799994, 10.858178058000135], [-68.29781056199994, 10.858416072000125], [-68.29704053099982, 10.85814906100012], [-68.29540845399998, 10.857890073000021], [-68.2934443609999, 10.856900058000122], [-68.29196030999992, 10.857510077000029], [-68.28969020899996, 10.858656129000167], [-68.2880891449999, 10.859244153000134], [-68.28791913599997, 10.858444136000116], [-68.2866580839999, 10.857997123000189], [-68.28623005299994, 10.856993098000146], [-68.28501500199985, 10.856409100000178], [-68.28315692099994, 10.856885116000115], [-68.28199986999994, 10.857630142000119], [-68.28092982799996, 10.857778154000073], [-68.28015078999988, 10.856525125000076], [-68.27840070499997, 10.855946121000102], [-68.27664562699988, 10.85495410700014], [-68.27612060099995, 10.853515075000075], [-68.27792967399989, 10.85269503800015], [-68.2766376109999, 10.851447014000087], [-68.27910769699992, 10.849130940000123], [-68.27991572999997, 10.848320912000077], [-68.27769762499997, 10.847585912], [-68.27602455399989, 10.847899932000075], [-68.27436147699996, 10.84670090200018], [-68.27201138099997, 10.84679291800012], [-68.27289142599994, 10.848938971000166], [-68.27219540099998, 10.849151984000116], [-68.27045532799997, 10.849742008000078], [-68.26860625299992, 10.851204066000093], [-68.26645617299994, 10.852898114000084], [-68.26586315499998, 10.85425616100008], [-68.26435209299996, 10.854431173000023], [-68.26262401399993, 10.853783169000053], [-68.26279501199997, 10.85206212300011], [-68.26067092099998, 10.851441118000139], [-68.25789479399998, 10.850665111000183], [-68.25659774099995, 10.851388142000019], [-68.25530969399995, 10.853097192000064], [-68.25359463299998, 10.853984232000073], [-68.25097352599994, 10.854995265000127], [-68.24900842599993, 10.85382225300009], [-68.24848439399995, 10.852474218], [-68.2464273039999, 10.851463202000048], [-68.24411820299997, 10.850935204000052], [-68.24278015499993, 10.852231243000062], [-68.2412390859999, 10.851764248000052], [-68.24029303399993, 10.85003120600004], [-68.23785393099985, 10.850582234000115], [-68.23560884299997, 10.852001286000132], [-68.23463179499998, 10.852079292000042], [-68.23312073299991, 10.852300316000026], [-68.23130866399998, 10.852684331000091], [-68.22954157899989, 10.852861343000143], [-68.22746748899993, 10.852583355000093], [-68.2260284329999, 10.853055371000039], [-68.22370834399999, 10.853880414000173], [-68.22441337299995, 10.854583424999987], [-68.22573942699995, 10.854571414000134], [-68.22736550399998, 10.854234394000173], [-68.22755851299996, 10.85498941600008], [-68.22728850799996, 10.856092447000151], [-68.22729851999992, 10.857238474000042], [-68.22742652699992, 10.85849751500001], [-68.22668450299994, 10.858917531000145], [-68.22554144699996, 10.85858452500014], [-68.22451439899987, 10.85825052600012], [-68.22373836699995, 10.857295506000128], [-68.22324833999994, 10.85716249800015], [-68.22213629299983, 10.857268507000128], [-68.22076224199992, 10.85766752600017], [-68.21923816699996, 10.85726152500007], [-68.21787531099989, 10.85754611699997], [-68.21955393599995, 10.857971336000105], [-68.23689430899992, 10.862363890000097], [-68.245627, 10.86457600000017], [-68.25872855999995, 10.866095354000095], [-68.265624, 10.866895], [-68.323857, 10.867150000000152], [-68.34921827299996, 10.870239761999983], [-68.36976882599998, 10.872743433000096], [-68.374723, 10.873347], [-68.3877169999999, 10.875001000000111], [-68.388607, 10.875376], [-68.402542, 10.860794], [-68.4292789999999, 10.865332], [-68.467495, 10.87578], [-68.477136, 10.872997], [-68.488258, 10.875042000000121]]]}}]}