{
  "type": "FeatureCollection",
  "features": [
    {
      "type": "Feature",
      "properties": {
        "Pais": "Venezuela",
        "Estado": "Anzoátegui",
        "Municipio": "Simón Rodríguez"
      },
      "geometry": {
        "type": "Polygon",
        "coordinates": [
          [
            [
              -64.284957,
              8.946305
            ],
            [
              -64.28741199999985,
              8.946245
            ],
            [
              -64.28953799999988,
              8.945915000000127
            ],
            [
              -64.291732,
              8.943859
            ],
            [
              -64.29396,
              8.942516000000126
            ],
            [
              -64.297437,
              8.942626000000132
            ],
            [
              -64.3004509999999,
              8.94442
            ],
            [
              -64.30182699999989,
              8.945089
            ],
            [
              -64.30527399999983,
              8.944785
            ],
            [
              -64.308071,
              8.944353
            ],
            [
              -64.311015,
              8.94293
            ],
            [
              -64.313747,
              8.942774000000156
            ],
            [
              -64.315574,
              8.942632000000117
            ],
            [
              -64.317188,
              8.942056
            ],
            [
              -64.323431,
              8.939665000000105
            ],
            [
              -64.325176,
              8.940213000000142
            ],
            [
              -64.32623299999989,
              8.941209000000129
            ],
            [
              -64.328284,
              8.942098000000158
            ],
            [
              -64.33048799999989,
              8.940732
            ],
            [
              -64.333961,
              8.939025
            ],
            [
              -64.33711,
              8.938909
            ],
            [
              -64.340172,
              8.939254
            ],
            [
              -64.343329,
              8.939598
            ],
            [
              -64.345615,
              8.939127
            ],
            [
              -64.346595,
              8.937098000000162
            ],
            [
              -64.356196,
              8.82873700000016
            ],
            [
              -64.355333,
              8.828336
            ],
            [
              -64.355077,
              8.827846000000136
            ],
            [
              -64.354861,
              8.827432000000158
            ],
            [
              -64.354871,
              8.826041
            ],
            [
              -64.354886,
              8.824642
            ],
            [
              -64.35367,
              8.823809
            ],
            [
              -64.351858,
              8.823468000000105
            ],
            [
              -64.35024,
              8.822090000000117
            ],
            [
              -64.348354,
              8.819751
            ],
            [
              -64.34755999999987,
              8.819303000000104
            ],
            [
              -64.34487,
              8.81904400000019
            ],
            [
              -64.341536,
              8.819071
            ],
            [
              -64.33902299999988,
              8.818189000000132
            ],
            [
              -64.336898,
              8.818611
            ],
            [
              -64.33348499999988,
              8.817972000000111
            ],
            [
              -64.331957,
              8.81634
            ],
            [
              -64.331199,
              8.813638
            ],
            [
              -64.32918,
              8.813323
            ],
            [
              -64.32810399999988,
              8.810972
            ],
            [
              -64.32654,
              8.810075
            ],
            [
              -64.32476699999984,
              8.809159000000136
            ],
            [
              -64.322309,
              8.80894300000017
            ],
            [
              -64.31752799999987,
              8.806577000000175
            ],
            [
              -64.315725,
              8.805178
            ],
            [
              -64.31366,
              8.80486400000018
            ],
            [
              -64.311916,
              8.802774000000113
            ],
            [
              -64.309794,
              8.801771
            ],
            [
              -64.308169,
              8.799887000000126
            ],
            [
              -64.306821,
              8.799516
            ],
            [
              -64.306503,
              8.798325
            ],
            [
              -64.305727,
              8.79753200000016
            ],
            [
              -64.305533,
              8.795259
            ],
            [
              -64.302982,
              8.794998000000135
            ],
            [
              -64.30083499999989,
              8.793834
            ],
            [
              -64.298089,
              8.79284
            ],
            [
              -64.296642,
              8.793712
            ],
            [
              -64.294473,
              8.794181
            ],
            [
              -64.292843,
              8.795171
            ],
            [
              -64.291234,
              8.795976
            ],
            [
              -64.289238,
              8.795684
            ],
            [
              -64.286474,
              8.79515
            ],
            [
              -64.285296,
              8.793765
            ],
            [
              -64.283379,
              8.792414000000178
            ],
            [
              -64.281188,
              8.791434
            ],
            [
              -64.280358,
              8.791699000000165
            ],
            [
              -64.277257,
              8.79179100000016
            ],
            [
              -64.27566899999988,
              8.79087200000015
            ],
            [
              -64.275574,
              8.789034000000129
            ],
            [
              -64.273113,
              8.788565
            ],
            [
              -64.27224499999983,
              8.786209000000156
            ],
            [
              -64.268651,
              8.785825000000159
            ],
            [
              -64.2659,
              8.784601000000123
            ],
            [
              -64.264976,
              8.783098000000109
            ],
            [
              -64.262478,
              8.781686
            ],
            [
              -64.260275,
              8.77981
            ],
            [
              -64.25765,
              8.779205000000104
            ],
            [
              -64.255541,
              8.777443000000119
            ],
            [
              -64.253294,
              8.777361
            ],
            [
              -64.251118,
              8.77734700000019
            ],
            [
              -64.249148,
              8.777238
            ],
            [
              -64.246699,
              8.775963
            ],
            [
              -64.244583,
              8.775373000000116
            ],
            [
              -64.242125,
              8.775133000000153
            ],
            [
              -64.240581,
              8.775662
            ],
            [
              -64.238488,
              8.773347000000172
            ],
            [
              -64.237859,
              8.771494000000132
            ],
            [
              -64.236742,
              8.771074
            ],
            [
              -64.233744,
              8.76865800000013
            ],
            [
              -64.231707,
              8.767009000000144
            ],
            [
              -64.229135,
              8.765277
            ],
            [
              -64.224271,
              8.761945
            ],
            [
              -64.22190199999989,
              8.76138200000014
            ],
            [
              -64.220003,
              8.761364
            ],
            [
              -64.21769199999989,
              8.760041
            ],
            [
              -64.214522,
              8.760156000000109
            ],
            [
              -64.21344699999986,
              8.759413000000109
            ],
            [
              -64.21219699999989,
              8.757822
            ],
            [
              -64.210275,
              8.756125
            ],
            [
              -64.20823,
              8.755649
            ],
            [
              -64.206375,
              8.753791
            ],
            [
              -64.204888,
              8.751721000000146
            ],
            [
              -64.2040439999999,
              8.749411000000123
            ],
            [
              -64.203766,
              8.747760000000142
            ],
            [
              -64.202422,
              8.746055000000126
            ],
            [
              -64.20040199999983,
              8.745602000000133
            ],
            [
              -64.197479,
              8.745184000000165
            ],
            [
              -64.19527,
              8.744549
            ],
            [
              -64.19348799999983,
              8.742965
            ],
            [
              -64.191771,
              8.741036000000122
            ],
            [
              -64.190529,
              8.73995
            ],
            [
              -64.189649,
              8.736652000000163
            ],
            [
              -64.18787299999985,
              8.735483
            ],
            [
              -64.18716299999988,
              8.734343
            ],
            [
              -64.186995,
              8.732300000000123
            ],
            [
              -64.186741,
              8.730671
            ],
            [
              -64.185898,
              8.728315000000123
            ],
            [
              -64.185561,
              8.725745
            ],
            [
              -64.183971,
              8.723056
            ],
            [
              -64.18391799999989,
              8.720895
            ],
            [
              -64.18398,
              8.718733
            ],
            [
              -64.183985,
              8.717400000000112
            ],
            [
              -64.18441,
              8.716336000000183
            ],
            [
              -64.184855,
              8.715042
            ],
            [
              -64.183515,
              8.711981
            ],
            [
              -64.18274599999984,
              8.709946000000116
            ],
            [
              -64.18200799999988,
              8.708485000000167
            ],
            [
              -64.181734,
              8.707064
            ],
            [
              -64.18162999999987,
              8.704652000000124
            ],
            [
              -64.181091,
              8.702498
            ],
            [
              -64.18070499999988,
              8.699744000000123
            ],
            [
              -64.18058699999989,
              8.697884
            ],
            [
              -64.18054799999987,
              8.69512500000019
            ],
            [
              -64.1808319999999,
              8.693903000000148
            ],
            [
              -64.180272,
              8.691934000000117
            ],
            [
              -64.1778819999999,
              8.689853
            ],
            [
              -64.175152,
              8.686674000000153
            ],
            [
              -64.171409,
              8.683831000000112
            ],
            [
              -64.1693049999999,
              8.682344000000171
            ],
            [
              -64.166409,
              8.680570000000102
            ],
            [
              -64.16424,
              8.679428
            ],
            [
              -64.1625939999999,
              8.677567000000124
            ],
            [
              -64.161484,
              8.67601900000011
            ],
            [
              -64.159304,
              8.674074000000132
            ],
            [
              -64.157871,
              8.672554000000162
            ],
            [
              -64.15576399999986,
              8.669205000000147
            ],
            [
              -64.155315,
              8.66682
            ],
            [
              -64.155317,
              8.665303
            ],
            [
              -64.1562229999999,
              8.6639100000001
            ],
            [
              -64.156217,
              8.663451000000123
            ],
            [
              -64.153673,
              8.661232
            ],
            [
              -64.152529,
              8.658691
            ],
            [
              -64.14967899999988,
              8.655589000000134
            ],
            [
              -64.150235,
              8.651630000000125
            ],
            [
              -64.144528,
              8.643449
            ],
            [
              -64.14168099999989,
              8.641196
            ],
            [
              -64.140537,
              8.638655
            ],
            [
              -64.137127,
              8.638382
            ],
            [
              -64.1342709999999,
              8.63302
            ],
            [
              -64.128007,
              8.628232
            ],
            [
              -64.126293,
              8.625410000000159
            ],
            [
              -64.12544799999989,
              8.627674
            ],
            [
              -64.12060599999984,
              8.623165
            ],
            [
              -64.11747899999983,
              8.622326
            ],
            [
              -64.116334,
              8.619503
            ],
            [
              -64.114345,
              8.619226
            ],
            [
              -64.112353,
              8.618101
            ],
            [
              -64.11036599999989,
              8.618389
            ],
            [
              -64.107229,
              8.614158000000145
            ],
            [
              -64.102115,
              8.61389
            ],
            [
              -64.099841,
              8.613614
            ],
            [
              -64.098979,
              8.609941000000106
            ],
            [
              -64.094434,
              8.609954
            ],
            [
              -64.094431,
              8.608823000000143
            ],
            [
              -64.089592,
              8.60516100000018
            ],
            [
              -64.085056,
              8.60828400000014
            ],
            [
              -64.083067,
              8.60829
            ],
            [
              -64.081917,
              8.603486000000146
            ],
            [
              -64.079359,
              8.60292800000019
            ],
            [
              -64.07538399999987,
              8.603504
            ],
            [
              -64.072259,
              8.603513
            ],
            [
              -64.07025699999986,
              8.598430000000121
            ],
            [
              -64.068546,
              8.596173
            ],
            [
              -64.06229699999989,
              8.59619
            ],
            [
              -64.0552,
              8.597906000000137
            ],
            [
              -64.048099,
              8.597643
            ],
            [
              -64.040427,
              8.597098
            ],
            [
              -64.037858,
              8.592582000000164
            ],
            [
              -64.037282,
              8.589474
            ],
            [
              -64.028181,
              8.584975
            ],
            [
              -64.025906,
              8.584133
            ],
            [
              -64.0256179999999,
              8.58272
            ],
            [
              -64.021927,
              8.583295
            ],
            [
              -64.01965399999989,
              8.583301000000176
            ],
            [
              -64.01511599999986,
              8.585575
            ],
            [
              -64.010574,
              8.586435000000108
            ],
            [
              -64.006313,
              8.586446000000137
            ],
            [
              -64.001478,
              8.585774000000129
            ],
            [
              -64.000549,
              8.584656
            ],
            [
              -63.99941199999989,
              8.583493
            ],
            [
              -63.998990999999876,
              8.58251
            ],
            [
              -63.999584,
              8.580971
            ],
            [
              -63.999783,
              8.57904400000018
            ],
            [
              -63.999222,
              8.577809000000173
            ],
            [
              -63.99815499999983,
              8.576875000000143
            ],
            [
              -63.99745699999988,
              8.575939000000119
            ],
            [
              -63.996530999999834,
              8.575395
            ],
            [
              -63.995489,
              8.574736
            ],
            [
              -63.995735,
              8.57322100000016
            ],
            [
              -63.99520199999989,
              8.572766000000172
            ],
            [
              -63.994409999999846,
              8.571349000000168
            ],
            [
              -63.992906,
              8.570647000000179
            ],
            [
              -63.992441,
              8.570077
            ],
            [
              -63.991077,
              8.569787
            ],
            [
              -63.989203,
              8.568972000000144
            ],
            [
              -63.987787,
              8.569302
            ],
            [
              -63.987783,
              8.569313
            ],
            [
              -63.988181,
              8.569764
            ],
            [
              -63.988956,
              8.570487
            ],
            [
              -63.989974,
              8.57089400000018
            ],
            [
              -63.991435,
              8.572123
            ],
            [
              -63.993200999999885,
              8.574428000000182
            ],
            [
              -63.994226,
              8.576279
            ],
            [
              -63.994307,
              8.578617
            ],
            [
              -63.993323,
              8.580388
            ],
            [
              -63.992106,
              8.581839000000173
            ],
            [
              -63.99246099999988,
              8.583580000000154
            ],
            [
              -63.992858,
              8.584655000000112
            ],
            [
              -63.993189,
              8.58607400000011
            ],
            [
              -63.99344899999983,
              8.587425000000167
            ],
            [
              -63.993154,
              8.588505000000168
            ],
            [
              -63.991798,
              8.589842
            ],
            [
              -63.990856,
              8.59081
            ],
            [
              -63.99069999999983,
              8.59189
            ],
            [
              -63.991588,
              8.594086
            ],
            [
              -63.993192,
              8.59620800000016
            ],
            [
              -63.993865,
              8.596984
            ],
            [
              -63.994147,
              8.597876000000156
            ],
            [
              -63.994271,
              8.599641000000133
            ],
            [
              -63.994949,
              8.601448000000119
            ],
            [
              -63.995392,
              8.602248
            ],
            [
              -63.996067,
              8.60339
            ],
            [
              -63.99662599999988,
              8.60402900000014
            ],
            [
              -63.997115999999835,
              8.605195000000151
            ],
            [
              -63.996843,
              8.606045000000165
            ],
            [
              -63.996202,
              8.607057
            ],
            [
              -63.997174,
              8.607579
            ],
            [
              -63.99791399999987,
              8.607804
            ],
            [
              -63.998543,
              8.608923
            ],
            [
              -63.99824999999987,
              8.610392000000104
            ],
            [
              -63.997814,
              8.61103700000018
            ],
            [
              -63.997933,
              8.611563
            ],
            [
              -63.999526,
              8.61162300000018
            ],
            [
              -63.999853,
              8.612286000000154
            ],
            [
              -63.998889,
              8.613506
            ],
            [
              -63.998526,
              8.614815000000135
            ],
            [
              -63.998375999999894,
              8.617177
            ],
            [
              -63.99835999999982,
              8.618667000000187
            ],
            [
              -63.998205,
              8.620067000000176
            ],
            [
              -63.998211,
              8.621328
            ],
            [
              -63.998931,
              8.622172
            ],
            [
              -63.999397,
              8.62297100000012
            ],
            [
              -63.99912399999988,
              8.623798
            ],
            [
              -63.997927,
              8.624516
            ],
            [
              -63.997793999999885,
              8.625709
            ],
            [
              -63.999048,
              8.627123
            ],
            [
              -64.00016199999988,
              8.628308000000118
            ],
            [
              -64.000517,
              8.630003
            ],
            [
              -64.00073,
              8.631125000000111
            ],
            [
              -64.00076,
              8.632432000000108
            ],
            [
              -64.000766,
              8.633624000000111
            ],
            [
              -64.00040599999988,
              8.635713000000123
            ],
            [
              -64.00087799999989,
              8.637682000000154
            ],
            [
              -64.001205,
              8.638344
            ],
            [
              -64.001626,
              8.639442000000145
            ],
            [
              -64.00227799999988,
              8.640562
            ],
            [
              -64.002723,
              8.641912
            ],
            [
              -64.003308,
              8.643376
            ],
            [
              -64.003547,
              8.645071
            ],
            [
              -64.003257,
              8.647067
            ],
            [
              -64.00320399999987,
              8.650391000000127
            ],
            [
              -64.002108,
              8.65308
            ],
            [
              -64.001073,
              8.653888
            ],
            [
              -63.999253999999894,
              8.65509100000014
            ],
            [
              -63.997874,
              8.656245
            ],
            [
              -63.997118999999884,
              8.657740000000103
            ],
            [
              -63.997678,
              8.658585
            ],
            [
              -63.998145,
              8.659637
            ],
            [
              -63.99837799999989,
              8.660117000000128
            ],
            [
              -64.00058599999988,
              8.662855
            ],
            [
              -64.002343,
              8.665393
            ],
            [
              -64.00395199999986,
              8.669367
            ],
            [
              -64.006018,
              8.67266
            ],
            [
              -64.009915,
              8.677651
            ],
            [
              -64.013805,
              8.679573
            ],
            [
              -64.017714,
              8.682912000000101
            ],
            [
              -64.02181299999984,
              8.683872000000122
            ],
            [
              -64.02627399999989,
              8.686019000000101
            ],
            [
              -64.030851,
              8.68839400000013
            ],
            [
              -64.033943,
              8.691000000000145
            ],
            [
              -64.0363579999999,
              8.69679100000019
            ],
            [
              -64.039457,
              8.702012
            ],
            [
              -64.040152,
              8.705534
            ],
            [
              -64.043241,
              8.707117000000153
            ],
            [
              -64.0461049999999,
              8.707161
            ],
            [
              -64.18323843199988,
              8.895128552000187
            ],
            [
              -64.20785690299988,
              8.928872867000052
            ],
            [
              -64.209767,
              8.92860300000018
            ],
            [
              -64.214241,
              8.928837
            ],
            [
              -64.217292,
              8.92837900000012
            ],
            [
              -64.21955,
              8.929173000000105
            ],
            [
              -64.221302,
              8.93022800000017
            ],
            [
              -64.223805,
              8.930307000000141
            ],
            [
              -64.22608,
              8.930641
            ],
            [
              -64.227996,
              8.931786000000102
            ],
            [
              -64.229583,
              8.930981000000145
            ],
            [
              -64.232217,
              8.930505
            ],
            [
              -64.235192,
              8.931175
            ],
            [
              -64.23768599999988,
              8.932264
            ],
            [
              -64.23914799999989,
              8.934105000000159
            ],
            [
              -64.241002,
              8.935802
            ],
            [
              -64.242829,
              8.935546
            ],
            [
              -64.246678,
              8.93422500000014
            ],
            [
              -64.249295,
              8.932577
            ],
            [
              -64.251667,
              8.933186000000148
            ],
            [
              -64.254494,
              8.934868
            ],
            [
              -64.25762899999984,
              8.935397000000137
            ],
            [
              -64.262116,
              8.936572000000183
            ],
            [
              -64.264478,
              8.938101000000188
            ],
            [
              -64.265038,
              8.940001
            ],
            [
              -64.268449,
              8.942065
            ],
            [
              -64.271147,
              8.942853
            ],
            [
              -64.273977,
              8.94472
            ],
            [
              -64.277057,
              8.946191
            ],
            [
              -64.27983399999988,
              8.946012000000167
            ],
            [
              -64.28096526299998,
              8.945822201
            ],
            [
              -64.282838,
              8.945508
            ],
            [
              -64.284957,
              8.946305
            ]
          ]
        ]
      }
    }
  ]
}