{"type": "FeatureCollection", "features": [{"type": "Feature", "properties": {"Pais": "Venezuela", "Estado": "Monagas", "Municipio": "Sotillo"}, "geometry": {"type": "Polygon", "coordinates": [[[-61.99678937999994, 8.882173357000056], [-61.99712941899992, 8.886542471000041], [-62.00086960999994, 8.890574571000059], [-62.00903198599991, 8.891246557000102], [-62.027459801999896, 8.883683270000176], [-62.03113796699995, 8.88217320700005], [-62.03896030699997, 8.876461020000022], [-62.044401551999954, 8.877133018], [-62.048984275999885, 8.87928891700011], [-62.050844, 8.876280000000122], [-62.054306, 8.872917], [-62.07374347999996, 8.870169691], [-62.08544234699991, 8.868516163000152], [-62.27241, 8.84209], [-62.496249, 8.768881000000135], [-62.501696, 8.756651], [-62.503698, 8.755183], [-62.505746, 8.753667], [-62.507002999999884, 8.752661000000103], [-62.50825999999989, 8.751082], [-62.50967, 8.749841], [-62.510574, 8.749283], [-62.512035, 8.748796], [-62.513203, 8.747907], [-62.514821, 8.747277000000167], [-62.5162509999999, 8.746562000000154], [-62.51750299999986, 8.746036000000117], [-62.518920999999864, 8.744429], [-62.520072, 8.743083], [-62.521495, 8.742185000000177], [-62.522688, 8.741341000000148], [-62.523802, 8.74022500000018], [-62.524768, 8.739504], [-62.526271, 8.738282], [-62.52757799999989, 8.737388000000124], [-62.528726, 8.737141000000122], [-62.530542, 8.736252], [-62.532444999999825, 8.73584000000011], [-62.53416399999986, 8.735436], [-62.535849, 8.735352], [-62.538051, 8.734885000000133], [-62.539318, 8.734152], [-62.540881, 8.733295], [-62.542581, 8.731792], [-62.545129, 8.731312000000116], [-62.546748, 8.730705000000114], [-62.548572, 8.730021], [-62.54998199999983, 8.728803000000141], [-62.551864, 8.727797], [-62.552646, 8.7277], [-62.553551, 8.725974], [-62.554897, 8.724895000000117], [-62.55574299999989, 8.722827], [-62.557052, 8.721384], [-62.557876, 8.721171], [-62.558417, 8.720213000000115], [-62.557874, 8.718699], [-62.557498, 8.717934], [-62.558345, 8.71653], [-62.558661, 8.715122], [-62.55951, 8.714336], [-62.561328, 8.714111000000116], [-62.562536, 8.713655000000188], [-62.56464199999988, 8.713694], [-62.565586, 8.712997], [-62.56644199999988, 8.711798], [-62.567387, 8.711101], [-62.568902, 8.710222], [-62.570305, 8.710012], [-62.571122, 8.709616000000153], [-62.571592, 8.708615000000123], [-62.5727, 8.708575000000167], [-62.573717, 8.707942], [-62.576465, 8.706012], [-62.577397, 8.705612000000144], [-62.578868, 8.704163000000165], [-62.579489, 8.703477], [-62.580791, 8.701851], [-62.5821059999999, 8.701780000000156], [-62.583245, 8.701923], [-62.584454, 8.701513], [-62.584966999999835, 8.701014], [-62.58572399999986, 8.700849], [-62.58659999999986, 8.700795], [-62.587482, 8.700283000000127], [-62.588244, 8.700255], [-62.588849999999866, 8.700371000000132], [-62.589393, 8.699458], [-62.590449, 8.699856000000125], [-62.591131, 8.698343], [-62.5923049999999, 8.697019], [-62.593616, 8.696239000000162], [-62.595, 8.696144000000118], [-62.596375, 8.696415000000172], [-62.597295, 8.696863000000121], [-62.599162, 8.696704000000125], [-62.600529, 8.696197], [-62.601664, 8.696225], [-62.60335, 8.696782000000155], [-62.604380999999876, 8.696539000000143], [-62.60589, 8.695501], [-62.60671699999989, 8.695357], [-62.607964, 8.69409800000011], [-62.609010999999896, 8.693076000000133], [-62.610899, 8.692871], [-62.612238, 8.692823000000146], [-62.612928999999895, 8.69213400000018], [-62.61369, 8.692084000000136], [-62.614264, 8.691972], [-62.61519, 8.691412000000128], [-62.616142, 8.69092], [-62.616902, 8.690846], [-62.617872, 8.69081100000011], [-62.618749, 8.690162], [-62.619867999999826, 8.688565], [-62.620656, 8.68801000000019], [-62.620855, 8.686583], [-62.621745, 8.686276], [-62.622604, 8.685169000000144], [-62.623735, 8.683915000000127], [-62.625142, 8.68322400000011], [-62.62618, 8.681973], [-62.627426, 8.681287000000111], [-62.62799, 8.680923000000178], [-62.628547, 8.679781], [-62.629885, 8.678519], [-62.631353, 8.677596], [-62.632943, 8.67685200000011], [-62.634568, 8.675832000000128], [-62.635757, 8.674896000000103], [-62.63816899999989, 8.673275000000103], [-62.639644, 8.672558], [-62.64090699999986, 8.671734000000129], [-62.641814, 8.671266000000173], [-62.642954, 8.670859], [-62.64399999999989, 8.67036400000012], [-62.645024, 8.669937000000175], [-62.64632099999989, 8.66941], [-62.648309, 8.669384], [-62.649841, 8.66953500000011], [-62.651326, 8.669687], [-62.652959, 8.670063], [-62.654036, 8.671009], [-62.65618499999982, 8.670955], [-62.658614999999884, 8.671622000000127], [-62.659685, 8.671790000000158], [-62.661394, 8.672346000000175], [-62.662588, 8.67212000000012], [-62.663877, 8.672577000000103], [-62.664616, 8.672551], [-62.665571999999884, 8.672722], [-62.665633, 8.673109], [-62.66669499999989, 8.67366600000014], [-62.66744099999988, 8.673822], [-62.668789, 8.674003000000141], [-62.669709, 8.674473], [-62.670405, 8.675135000000182], [-62.67106799999988, 8.674928], [-62.672289, 8.674815], [-62.673588, 8.674928], [-62.67384, 8.675469], [-62.675303, 8.675622000000146], [-62.67680799999988, 8.676277], [-62.682434999999884, 8.67494], [-62.7209786329999, 8.500004210000043], [-62.722599548999824, 8.492647452000142], [-62.725280418999944, 8.480479942000045], [-62.725677, 8.478680000000168], [-62.72579628099999, 8.478638471000181], [-62.72863927399993, 8.475070287000165], [-62.714827623999895, 8.471488245000103], [-62.72157171699996, 8.460538814000188], [-62.727205111999865, 8.451392665000071], [-62.721237713999926, 8.422960942000088], [-62.70010269399995, 8.41115472000007], [-62.69254947499991, 8.399248248000106], [-62.68595355299988, 8.390239227000166], [-62.67983073299996, 8.38244918200013], [-62.67962098899994, 8.382478867000032], [-62.67929461499995, 8.382525058], [-62.67319040599989, 8.386278199000117], [-62.670264570999905, 8.388077133000138], [-62.66827473699993, 8.389300572000025], [-62.66414048299998, 8.391842492000023], [-62.66357793799989, 8.39218836900011], [-62.63089354999994, 8.41732617100007], [-62.621411169999874, 8.42967754], [-62.61668079599997, 8.435136418000127], [-62.61160676499992, 8.440991878000034], [-62.611577317999945, 8.441025861000071], [-62.60352342899989, 8.450320159000114], [-62.598116062999964, 8.45506197700007], [-62.596417628999916, 8.45655136400012], [-62.58931183699997, 8.46278255400017], [-62.58925338699993, 8.462750399000072], [-62.589247, 8.462756000000127], [-62.582128, 8.463659], [-62.574923, 8.481802000000187], [-62.566158, 8.483176000000185], [-62.54624599999988, 8.487967], [-62.531178, 8.494355], [-62.51879899999989, 8.5034050000001], [-62.508574, 8.510859], [-62.504537, 8.514383000000123], [-62.499425, 8.518844000000115], [-62.493505, 8.521506000000102], [-62.487585, 8.522038], [-62.480588, 8.519376], [-62.47950272899993, 8.519176619], [-62.472405081999966, 8.517872671000134], [-62.472347, 8.517862], [-62.46994059999997, 8.512111281000045], [-62.46640841399983, 8.512898402000076], [-62.46673342999998, 8.513585416000069], [-62.42399145899998, 8.530757012000095], [-62.413081913999974, 8.53513992400002], [-62.39847654799996, 8.541007633000106], [-62.391776110999956, 8.543699535000087], [-62.38391298099987, 8.548316610000143], [-62.35429748599995, 8.565706282000122], [-62.34063387599997, 8.569953450000128], [-62.32228503999994, 8.573427617999982], [-62.30354519199989, 8.576902793000045], [-62.29222369099995, 8.58114996400019], [-62.2738748939999, 8.59118730300014], [-62.25591608899998, 8.597750562000044], [-62.24225247399994, 8.600839701000154], [-62.230165771999964, 8.603974886000117], [-62.22215457499988, 8.606052920000081], [-62.22762484699996, 8.610999038000045], [-62.23060702199996, 8.618584224000074], [-62.22890299199992, 8.631225570000083], [-62.22549387999993, 8.640495832000113], [-62.22267280799986, 8.646599827000045], [-62.21867762699998, 8.655244260000018], [-62.21228638299988, 8.667043605000117], [-62.20333802799996, 8.681371026000136], [-62.19140852999993, 8.691484352000032], [-62.18118208599998, 8.69864758500006], [-62.16030414599993, 8.702861794000114], [-62.142415332999974, 8.706248963000178], [-62.12280947699992, 8.718453371000123], [-62.115391295999984, 8.72405491700016], [-62.115140148999956, 8.724244561000035], [-62.09337422199991, 8.741046109000024], [-62.07092825099994, 8.756838630000061], [-62.064466013999834, 8.770279025000036], [-62.05970486099989, 8.784392428000103], [-62.06174601399994, 8.798840813000027], [-62.062086083999986, 8.810266120000051], [-62.05868496599999, 8.819338382000183], [-62.041000186999895, 8.830090754000082], [-62.02977771199994, 8.839835060000041], [-62.0199152969999, 8.847564313000134], [-62.006991754999945, 8.860668733000125], [-62.000869516999956, 8.86940499100018], [-61.99678935299994, 8.876125188000117], [-61.99678937999994, 8.882173357000056]]]}}]}