{
  "type": "FeatureCollection",
  "features": [
    {
      "type": "Feature",
      "properties": {
        "Pais": "Venezuela",
        "Estado": "Mérida",
        "Municipio": "Sucre"
      },
      "geometry": {
        "type": "Polygon",
        "coordinates": [
          [
            [
              -71.560373,
              8.631007000000125
            ],
            [
              -71.561071,
              8.632173
            ],
            [
              -71.561586,
              8.633431000000144
            ],
            [
              -71.562469,
              8.63439000000011
            ],
            [
              -71.56439399999988,
              8.635757
            ],
            [
              -71.566038,
              8.637562000000173
            ],
            [
              -71.573771,
              8.614479
            ],
            [
              -71.556502,
              8.558641000000137
            ],
            [
              -71.557331,
              8.557973
            ],
            [
              -71.559915,
              8.557115000000124
            ],
            [
              -71.560647,
              8.557072000000119
            ],
            [
              -71.562716,
              8.5582950000001
            ],
            [
              -71.566092,
              8.558717000000172
            ],
            [
              -71.569698,
              8.558795
            ],
            [
              -71.57355899999988,
              8.559146000000169
            ],
            [
              -71.57654999999988,
              8.561219
            ],
            [
              -71.579864,
              8.563383
            ],
            [
              -71.58370999999983,
              8.565475000000163
            ],
            [
              -71.587458,
              8.566285
            ],
            [
              -71.590518,
              8.568381
            ],
            [
              -71.593134,
              8.569172000000151
            ],
            [
              -71.594915,
              8.569333000000142
            ],
            [
              -71.594911,
              8.566691
            ],
            [
              -71.594907,
              8.564225
            ],
            [
              -71.594727,
              8.562728
            ],
            [
              -71.59454799999986,
              8.562024
            ],
            [
              -71.593393,
              8.56097
            ],
            [
              -71.59179399999988,
              8.559300000000121
            ],
            [
              -71.590814,
              8.556748
            ],
            [
              -71.58983399999988,
              8.553932
            ],
            [
              -71.58929999999987,
              8.553053000000148
            ],
            [
              -71.58779,
              8.551823000000184
            ],
            [
              -71.58672299999989,
              8.550064
            ],
            [
              -71.58521199999984,
              8.548041
            ],
            [
              -71.583522,
              8.545403
            ],
            [
              -71.582364,
              8.541883
            ],
            [
              -71.58209499999987,
              8.54012200000011
            ],
            [
              -71.581648,
              8.538185000000112
            ],
            [
              -71.58067099999988,
              8.536866
            ],
            [
              -71.579692,
              8.534755000000132
            ],
            [
              -71.579599,
              8.532201
            ],
            [
              -71.579506,
              8.52938300000011
            ],
            [
              -71.579948,
              8.52823700000016
            ],
            [
              -71.580834,
              8.527619000000186
            ],
            [
              -71.581365,
              8.5270900000001
            ],
            [
              -71.58224899999982,
              8.524973000000102
            ],
            [
              -71.5834,
              8.52365
            ],
            [
              -71.58517199999989,
              8.522414
            ],
            [
              -71.585614,
              8.521620000000155
            ],
            [
              -71.585612,
              8.520475
            ],
            [
              -71.585078,
              8.518803000000105
            ],
            [
              -71.58454399999988,
              8.517659000000151
            ],
            [
              -71.584363,
              8.515722
            ],
            [
              -71.5843627729999,
              8.515481904000126
            ],
            [
              -71.584344,
              8.515474
            ],
            [
              -71.584123,
              8.515112
            ],
            [
              -71.583565,
              8.514496
            ],
            [
              -71.583398,
              8.51319100000012
            ],
            [
              -71.583786,
              8.512273
            ],
            [
              -71.583575,
              8.51154
            ],
            [
              -71.58338299999986,
              8.509937
            ],
            [
              -71.582611,
              8.507993
            ],
            [
              -71.58188499999989,
              8.505888
            ],
            [
              -71.58213599999988,
              8.505222000000117
            ],
            [
              -71.582573,
              8.504785
            ],
            [
              -71.582731,
              8.503822000000127
            ],
            [
              -71.58159399999988,
              8.502933
            ],
            [
              -71.579826,
              8.50042000000019
            ],
            [
              -71.57843,
              8.498341
            ],
            [
              -71.577657,
              8.49612100000013
            ],
            [
              -71.576946,
              8.492183
            ],
            [
              -71.57638499999985,
              8.490719
            ],
            [
              -71.57432,
              8.488986
            ],
            [
              -71.57251,
              8.487068
            ],
            [
              -71.5714329999999,
              8.484117
            ],
            [
              -71.571191,
              8.48162
            ],
            [
              -71.570007,
              8.480433
            ],
            [
              -71.570037,
              8.480305000000158
            ],
            [
              -71.57012,
              8.479952
            ],
            [
              -71.571567,
              8.477884000000188
            ],
            [
              -71.572159,
              8.4761850000001
            ],
            [
              -71.572955,
              8.473318
            ],
            [
              -71.573081,
              8.470568
            ],
            [
              -71.572192,
              8.46816600000011
            ],
            [
              -71.570907,
              8.464894
            ],
            [
              -71.5706009999999,
              8.463681
            ],
            [
              -71.57082,
              8.461206000000118
            ],
            [
              -71.57092299999982,
              8.458273
            ],
            [
              -71.57147,
              8.45675800000015
            ],
            [
              -71.572573,
              8.455334000000107
            ],
            [
              -71.574505,
              8.45351600000015
            ],
            [
              -71.57604899999984,
              8.452731
            ],
            [
              -71.57817099999983,
              8.451875
            ],
            [
              -71.57911,
              8.450268000000165
            ],
            [
              -71.579569,
              8.449555000000146
            ],
            [
              -71.58021399999984,
              8.449118
            ],
            [
              -71.581619,
              8.44815
            ],
            [
              -71.58237799999984,
              8.447414
            ],
            [
              -71.582252,
              8.44716
            ],
            [
              -71.563912,
              8.410183000000131
            ],
            [
              -71.563164,
              8.408078
            ],
            [
              -71.5622719999999,
              8.405011000000115
            ],
            [
              -71.56224,
              8.402926
            ],
            [
              -71.562093,
              8.401208
            ],
            [
              -71.560302,
              8.398282000000108
            ],
            [
              -71.556686,
              8.395501
            ],
            [
              -71.554968,
              8.393583000000149
            ],
            [
              -71.551934,
              8.391807
            ],
            [
              -71.549614,
              8.389548
            ],
            [
              -71.549052,
              8.387923
            ],
            [
              -71.547868,
              8.386575000000107
            ],
            [
              -71.55021,
              8.383405
            ],
            [
              -71.552785,
              8.380623
            ],
            [
              -71.55367799999982,
              8.378786000000105
            ],
            [
              -71.55348,
              8.375784
            ],
            [
              -71.553537,
              8.373103
            ],
            [
              -71.55297,
              8.37031
            ],
            [
              -71.55210799999986,
              8.368549
            ],
            [
              -71.5526559999999,
              8.367264000000148
            ],
            [
              -71.554245,
              8.366181
            ],
            [
              -71.55585899999988,
              8.365465000000142
            ],
            [
              -71.558554,
              8.36392
            ],
            [
              -71.55988799999983,
              8.362586000000135
            ],
            [
              -71.56297699999988,
              8.361314
            ],
            [
              -71.56546999999983,
              8.360915
            ],
            [
              -71.568795,
              8.360696
            ],
            [
              -71.57184199999983,
              8.360156000000188
            ],
            [
              -71.57301499999988,
              8.360420000000147
            ],
            [
              -71.573179,
              8.360248000000126
            ],
            [
              -71.57438399999984,
              8.3604
            ],
            [
              -71.57562799999982,
              8.359616
            ],
            [
              -71.576202,
              8.358773000000156
            ],
            [
              -71.577349,
              8.357089
            ],
            [
              -71.578747,
              8.354815
            ],
            [
              -71.579614,
              8.352452
            ],
            [
              -71.5797649999999,
              8.350023
            ],
            [
              -71.581309,
              8.344174000000123
            ],
            [
              -71.583201,
              8.3386
            ],
            [
              -71.584459,
              8.33582100000018
            ],
            [
              -71.58537,
              8.332931000000144
            ],
            [
              -71.58642,
              8.330201
            ],
            [
              -71.586443,
              8.330155000000161
            ],
            [
              -71.5868109999999,
              8.327288
            ],
            [
              -71.586214,
              8.324271
            ],
            [
              -71.58429699999988,
              8.319728
            ],
            [
              -71.581322,
              8.318124000000182
            ],
            [
              -71.577951,
              8.31595
            ],
            [
              -71.576558,
              8.313899
            ],
            [
              -71.575411,
              8.311022
            ],
            [
              -71.578425,
              8.305415
            ],
            [
              -71.579653,
              8.303735000000131
            ],
            [
              -71.58071,
              8.300614
            ],
            [
              -71.579935,
              8.295217
            ],
            [
              -71.57821799999988,
              8.292825
            ],
            [
              -71.577325,
              8.290015
            ],
            [
              -71.576359,
              8.286747000000162
            ],
            [
              -71.573903,
              8.283766
            ],
            [
              -71.572123,
              8.282313000000102
            ],
            [
              -71.570501,
              8.280332000000158
            ],
            [
              -71.57005,
              8.278321
            ],
            [
              -71.562896,
              8.276860000000113
            ],
            [
              -71.55810899999989,
              8.275794
            ],
            [
              -71.556244,
              8.275189
            ],
            [
              -71.55271,
              8.275580000000105
            ],
            [
              -71.549512,
              8.274961
            ],
            [
              -71.545831,
              8.274093000000164
            ],
            [
              -71.544306,
              8.27289
            ],
            [
              -71.54214,
              8.27194400000019
            ],
            [
              -71.538718,
              8.271967000000132
            ],
            [
              -71.537304,
              8.273442000000102
            ],
            [
              -71.53581899999989,
              8.274483
            ],
            [
              -71.533375,
              8.273355
            ],
            [
              -71.529545,
              8.27093100000019
            ],
            [
              -71.527715,
              8.268883
            ],
            [
              -71.526057,
              8.265049
            ],
            [
              -71.525697,
              8.262876
            ],
            [
              -71.525377,
              8.259879
            ],
            [
              -71.524845,
              8.256151000000159
            ],
            [
              -71.524344,
              8.253544
            ],
            [
              -71.522557,
              8.250947000000167
            ],
            [
              -71.519694,
              8.24886000000015
            ],
            [
              -71.51611699999984,
              8.246503000000132
            ],
            [
              -71.515405,
              8.243349000000137
            ],
            [
              -71.514896,
              8.239735
            ],
            [
              -71.512156,
              8.238815000000159
            ],
            [
              -71.509533,
              8.238077
            ],
            [
              -71.507145,
              8.238253
            ],
            [
              -71.50475099999989,
              8.237422
            ],
            [
              -71.502964,
              8.239159
            ],
            [
              -71.49992099999986,
              8.241004
            ],
            [
              -71.49706,
              8.243360000000166
            ],
            [
              -71.495658,
              8.245898000000182
            ],
            [
              -71.495503,
              8.248398
            ],
            [
              -71.494201,
              8.251508
            ],
            [
              -71.494231,
              8.255907
            ],
            [
              -71.494404,
              8.258792
            ],
            [
              -71.491558,
              8.262219
            ],
            [
              -71.488975,
              8.26442900000012
            ],
            [
              -71.485584,
              8.266741
            ],
            [
              -71.483255,
              8.265143
            ],
            [
              -71.48073,
              8.264441
            ],
            [
              -71.476035,
              8.26390600000019
            ],
            [
              -71.472962,
              8.263738000000103
            ],
            [
              -71.469461,
              8.26451500000013
            ],
            [
              -71.46622699999989,
              8.266412
            ],
            [
              -71.463528,
              8.266652
            ],
            [
              -71.457847,
              8.264799000000153
            ],
            [
              -71.454694,
              8.263716000000102
            ],
            [
              -71.452013,
              8.265514000000167
            ],
            [
              -71.451888,
              8.268609
            ],
            [
              -71.452142,
              8.270553000000177
            ],
            [
              -71.45069299999989,
              8.273024
            ],
            [
              -71.449351,
              8.276661
            ],
            [
              -71.448234,
              8.27986
            ],
            [
              -71.44667,
              8.282355
            ],
            [
              -71.44543999999985,
              8.28381400000012
            ],
            [
              -71.44360499999988,
              8.286839000000157
            ],
            [
              -71.439668,
              8.289775
            ],
            [
              -71.435423,
              8.296015000000182
            ],
            [
              -71.432883,
              8.300057
            ],
            [
              -71.430651,
              8.302699
            ],
            [
              -71.427154,
              8.303888
            ],
            [
              -71.424843,
              8.30575
            ],
            [
              -71.42385999999982,
              8.306424
            ],
            [
              -71.42211699999984,
              8.307618
            ],
            [
              -71.418813,
              8.309492
            ],
            [
              -71.41619899999984,
              8.309158000000139
            ],
            [
              -71.41108199999985,
              8.308122
            ],
            [
              -71.407444,
              8.305211
            ],
            [
              -71.404678,
              8.30371
            ],
            [
              -71.401114,
              8.299195
            ],
            [
              -71.398225,
              8.295083000000147
            ],
            [
              -71.396861,
              8.29303700000014
            ],
            [
              -71.39221399999985,
              8.292591000000186
            ],
            [
              -71.388333,
              8.292502000000127
            ],
            [
              -71.38493199999988,
              8.290114
            ],
            [
              -71.37984899999987,
              8.287977000000183
            ],
            [
              -71.375612,
              8.285142
            ],
            [
              -71.37243499999988,
              8.282042000000104
            ],
            [
              -71.36913899999985,
              8.278645
            ],
            [
              -71.36631399999987,
              8.276045
            ],
            [
              -71.363682,
              8.278140000000178
            ],
            [
              -71.359655,
              8.281489
            ],
            [
              -71.35601699999984,
              8.284422000000177
            ],
            [
              -71.353249,
              8.286702
            ],
            [
              -71.349997,
              8.289103
            ],
            [
              -71.34924199999989,
              8.291747000000157
            ],
            [
              -71.349077,
              8.295393
            ],
            [
              -71.3486539999999,
              8.29879
            ],
            [
              -71.348534,
              8.302320000000122
            ],
            [
              -71.346892,
              8.308161
            ],
            [
              -71.346261,
              8.311492000000158
            ],
            [
              -71.345917,
              8.313719
            ],
            [
              -71.34557199999989,
              8.313815000000147
            ],
            [
              -71.346978,
              8.31554
            ],
            [
              -71.349924,
              8.316649000000155
            ],
            [
              -71.35435299999989,
              8.316159000000141
            ],
            [
              -71.3570299999999,
              8.317936
            ],
            [
              -71.35968899999989,
              8.320035000000189
            ],
            [
              -71.361663,
              8.322921
            ],
            [
              -71.363392,
              8.326566
            ],
            [
              -71.36439899999988,
              8.330346000000134
            ],
            [
              -71.365124,
              8.332283000000189
            ],
            [
              -71.365794,
              8.335002
            ],
            [
              -71.36784299999982,
              8.337421
            ],
            [
              -71.368334,
              8.340532
            ],
            [
              -71.367651,
              8.342424000000108
            ],
            [
              -71.365332,
              8.344482
            ],
            [
              -71.362206,
              8.347998000000132
            ],
            [
              -71.359247,
              8.35043400000012
            ],
            [
              -71.356048,
              8.353699
            ],
            [
              -71.35323099999988,
              8.35643
            ],
            [
              -71.349705,
              8.359472
            ],
            [
              -71.34648599999986,
              8.362921000000142
            ],
            [
              -71.343496,
              8.366228
            ],
            [
              -71.34165599999989,
              8.369379000000151
            ],
            [
              -71.34210599999983,
              8.371389
            ],
            [
              -71.343329,
              8.374097
            ],
            [
              -71.344166,
              8.377203
            ],
            [
              -71.344162,
              8.379680000000178
            ],
            [
              -71.343757,
              8.381659000000127
            ],
            [
              -71.34344599999986,
              8.383706
            ],
            [
              -71.343122,
              8.385042000000112
            ],
            [
              -71.34349,
              8.386343
            ],
            [
              -71.344568,
              8.388618
            ],
            [
              -71.345504,
              8.389382000000182
            ],
            [
              -71.347083,
              8.389905000000113
            ],
            [
              -71.349819,
              8.390592
            ],
            [
              -71.35341,
              8.391357
            ],
            [
              -71.355181,
              8.393689
            ],
            [
              -71.35631799999987,
              8.396742
            ],
            [
              -71.356081,
              8.399086000000182
            ],
            [
              -71.35490199999987,
              8.400344000000189
            ],
            [
              -71.35385999999988,
              8.401555
            ],
            [
              -71.35260799999986,
              8.401209000000165
            ],
            [
              -71.35156099999983,
              8.400745000000143
            ],
            [
              -71.34919799999989,
              8.400235
            ],
            [
              -71.34681399999988,
              8.401262
            ],
            [
              -71.345058,
              8.402507
            ],
            [
              -71.343267,
              8.403088
            ],
            [
              -71.34117,
              8.403331
            ],
            [
              -71.339516,
              8.403817000000117
            ],
            [
              -71.337892,
              8.404694
            ],
            [
              -71.335854,
              8.405669
            ],
            [
              -71.33445399999988,
              8.407458
            ],
            [
              -71.333444,
              8.409173
            ],
            [
              -71.332767,
              8.411478
            ],
            [
              -71.333022,
              8.412895
            ],
            [
              -71.33424899999989,
              8.417186000000129
            ],
            [
              -71.335112,
              8.420428000000129
            ],
            [
              -71.334543,
              8.422273
            ],
            [
              -71.33247,
              8.425244
            ],
            [
              -71.329957,
              8.426801
            ],
            [
              -71.327896,
              8.427799
            ],
            [
              -71.324489,
              8.429715000000101
            ],
            [
              -71.322863,
              8.430499000000111
            ],
            [
              -71.321872,
              8.431961000000115
            ],
            [
              -71.3215479999999,
              8.433297
            ],
            [
              -71.319889,
              8.434838000000127
            ],
            [
              -71.31808699999988,
              8.437552
            ],
            [
              -71.316886,
              8.444316
            ],
            [
              -71.31573,
              8.44562000000019
            ],
            [
              -71.314598,
              8.44692300000014
            ],
            [
              -71.31423,
              8.448351000000173
            ],
            [
              -71.314385,
              8.450711
            ],
            [
              -71.313924,
              8.452095000000156
            ],
            [
              -71.312976,
              8.453372000000115
            ],
            [
              -71.311291,
              8.454754
            ],
            [
              -71.309906,
              8.456177
            ],
            [
              -71.30819,
              8.4571
            ],
            [
              -71.307695,
              8.45782
            ],
            [
              -71.30783,
              8.458593000000121
            ],
            [
              -71.307892,
              8.458573
            ],
            [
              -71.308002,
              8.45958
            ],
            [
              -71.308563,
              8.461407
            ],
            [
              -71.30866599999985,
              8.464753000000144
            ],
            [
              -71.309032,
              8.46727
            ],
            [
              -71.30874199999982,
              8.469224
            ],
            [
              -71.3083749999999,
              8.47072100000014
            ],
            [
              -71.307921,
              8.472541
            ],
            [
              -71.307768,
              8.474447
            ],
            [
              -71.30686999999983,
              8.477283
            ],
            [
              -71.306859,
              8.479348000000186
            ],
            [
              -71.30691899999988,
              8.481548000000146
            ],
            [
              -71.30591,
              8.481978
            ],
            [
              -71.305758,
              8.482508000000166
            ],
            [
              -71.30579399999988,
              8.483288
            ],
            [
              -71.306035,
              8.485256000000163
            ],
            [
              -71.305784,
              8.48812700000019
            ],
            [
              -71.303765,
              8.49027100000012
            ],
            [
              -71.303183,
              8.491359000000102
            ],
            [
              -71.303893,
              8.492402
            ],
            [
              -71.30696399999988,
              8.49374900000015
            ],
            [
              -71.308365,
              8.494642000000113
            ],
            [
              -71.309745,
              8.495697
            ],
            [
              -71.310951,
              8.496020000000101
            ],
            [
              -71.31361999999984,
              8.496755000000178
            ],
            [
              -71.3157159999999,
              8.497797
            ],
            [
              -71.316945,
              8.499473
            ],
            [
              -71.318593,
              8.499973000000125
            ],
            [
              -71.31965699999984,
              8.50006900000011
            ],
            [
              -71.32024999999987,
              8.499646
            ],
            [
              -71.320678,
              8.499043000000142
            ],
            [
              -71.321154,
              8.49853000000013
            ],
            [
              -71.321287,
              8.49956
            ],
            [
              -71.322048,
              8.500831
            ],
            [
              -71.322533,
              8.502199000000132
            ],
            [
              -71.32312,
              8.504161000000124
            ],
            [
              -71.32319499999983,
              8.505811
            ],
            [
              -71.322987,
              8.507191000000148
            ],
            [
              -71.323529,
              8.509177
            ],
            [
              -71.324667,
              8.51094600000016
            ],
            [
              -71.326025,
              8.513378000000102
            ],
            [
              -71.327259,
              8.51670600000017
            ],
            [
              -71.3279179999999,
              8.518759
            ],
            [
              -71.32786,
              8.520823
            ],
            [
              -71.32807399999984,
              8.522494000000165
            ],
            [
              -71.32861499999984,
              8.524480000000153
            ],
            [
              -71.329091,
              8.526651000000186
            ],
            [
              -71.328754,
              8.527207
            ],
            [
              -71.32952,
              8.528776000000164
            ],
            [
              -71.330802,
              8.530819
            ],
            [
              -71.333065,
              8.53211000000016
            ],
            [
              -71.335048,
              8.534668
            ],
            [
              -71.336888,
              8.539659
            ],
            [
              -71.33713,
              8.541673
            ],
            [
              -71.33735,
              8.544543
            ],
            [
              -71.338349,
              8.550849
            ],
            [
              -71.339461,
              8.552389000000119
            ],
            [
              -71.341342,
              8.554352000000165
            ],
            [
              -71.34328199999987,
              8.555741000000125
            ],
            [
              -71.344378,
              8.557694
            ],
            [
              -71.345585,
              8.558041
            ],
            [
              -71.3486549999999,
              8.55931800000019
            ],
            [
              -71.349429,
              8.56001600000019
            ],
            [
              -71.35040199999986,
              8.558830000000114
            ],
            [
              -71.350782,
              8.558089000000109
            ],
            [
              -71.351639,
              8.555552000000148
            ],
            [
              -71.352838,
              8.554132
            ],
            [
              -71.355706,
              8.547629
            ],
            [
              -71.365219,
              8.550667
            ],
            [
              -71.37576899999988,
              8.55403600000011
            ],
            [
              -71.377509,
              8.55315800000011
            ],
            [
              -71.37984399999988,
              8.551902
            ],
            [
              -71.38168699999989,
              8.551641000000188
            ],
            [
              -71.382512,
              8.552659
            ],
            [
              -71.384192,
              8.556299000000138
            ],
            [
              -71.385983,
              8.558401000000174
            ],
            [
              -71.3887,
              8.56062500000013
            ],
            [
              -71.39208899999988,
              8.564350000000161
            ],
            [
              -71.393781,
              8.566018000000156
            ],
            [
              -71.39659199999988,
              8.56830900000017
            ],
            [
              -71.399436,
              8.571218000000158
            ],
            [
              -71.402006,
              8.574246
            ],
            [
              -71.40331,
              8.57755
            ],
            [
              -71.403988,
              8.58201
            ],
            [
              -71.404143,
              8.582727
            ],
            [
              -71.404691,
              8.585255000000188
            ],
            [
              -71.404893,
              8.588943
            ],
            [
              -71.4036799999999,
              8.592244000000107
            ],
            [
              -71.402558,
              8.59552
            ],
            [
              -71.40129,
              8.598294
            ],
            [
              -71.401523,
              8.601065
            ],
            [
              -71.40170399999982,
              8.603561000000127
            ],
            [
              -71.400818,
              8.605755000000102
            ],
            [
              -71.40139,
              8.608084
            ],
            [
              -71.401276,
              8.608178
            ],
            [
              -71.40145,
              8.610193000000152
            ],
            [
              -71.403234,
              8.613190000000145
            ],
            [
              -71.410557,
              8.623956
            ],
            [
              -71.412483,
              8.62718
            ],
            [
              -71.414541,
              8.629965
            ],
            [
              -71.416532,
              8.628898
            ],
            [
              -71.418176,
              8.627745
            ],
            [
              -71.420479,
              8.627361
            ],
            [
              -71.423252,
              8.627427
            ],
            [
              -71.424759,
              8.627791000000116
            ],
            [
              -71.426429,
              8.628198
            ],
            [
              -71.428216,
              8.62736400000017
            ],
            [
              -71.429986,
              8.626897
            ],
            [
              -71.431688,
              8.627785000000188
            ],
            [
              -71.432501,
              8.628069
            ],
            [
              -71.433801,
              8.628459
            ],
            [
              -71.435053,
              8.630066
            ],
            [
              -71.438434,
              8.633218000000113
            ],
            [
              -71.440083,
              8.63374000000016
            ],
            [
              -71.4422009999999,
              8.633289000000104
            ],
            [
              -71.444061,
              8.632661
            ],
            [
              -71.445184,
              8.632159
            ],
            [
              -71.44675,
              8.63188
            ],
            [
              -71.4477389999999,
              8.630349
            ],
            [
              -71.4495639999999,
              8.629010000000108
            ],
            [
              -71.452034,
              8.627614
            ],
            [
              -71.453922,
              8.625953
            ],
            [
              -71.455961,
              8.623716000000115
            ],
            [
              -71.45767699999982,
              8.622791000000177
            ],
            [
              -71.459389,
              8.62294500000013
            ],
            [
              -71.461007,
              8.62303100000014
            ],
            [
              -71.462742,
              8.623184000000151
            ],
            [
              -71.464105,
              8.623229000000151
            ],
            [
              -71.465531,
              8.622883000000115
            ],
            [
              -71.466421,
              8.622225
            ],
            [
              -71.467531,
              8.622298
            ],
            [
              -71.46841,
              8.623658000000148
            ],
            [
              -71.46944,
              8.624466
            ],
            [
              -71.471104,
              8.625836
            ],
            [
              -71.472499,
              8.626362
            ],
            [
              -71.47460299999989,
              8.627815000000169
            ],
            [
              -71.476036,
              8.629189000000167
            ],
            [
              -71.477372,
              8.630335000000116
            ],
            [
              -71.480244,
              8.630789
            ],
            [
              -71.48163699999986,
              8.62987
            ],
            [
              -71.483555,
              8.628621
            ],
            [
              -71.485378,
              8.628521000000148
            ],
            [
              -71.486453,
              8.627974
            ],
            [
              -71.488841,
              8.625823
            ],
            [
              -71.490775,
              8.624184000000128
            ],
            [
              -71.49200799999988,
              8.623313000000167
            ],
            [
              -71.4936,
              8.62324000000018
            ],
            [
              -71.495313,
              8.623462
            ],
            [
              -71.49699,
              8.624235
            ],
            [
              -71.498663,
              8.624847000000102
            ],
            [
              -71.50051,
              8.624815000000126
            ],
            [
              -71.5018869999999,
              8.624286
            ],
            [
              -71.5018869999999,
              8.624453000000187
            ],
            [
              -71.50341,
              8.623943
            ],
            [
              -71.505071,
              8.62320300000016
            ],
            [
              -71.50645499999985,
              8.622534
            ],
            [
              -71.508771,
              8.623533
            ],
            [
              -71.510318,
              8.623252
            ],
            [
              -71.511981,
              8.623085000000117
            ],
            [
              -71.513529,
              8.622804
            ],
            [
              -71.514865,
              8.621951
            ],
            [
              -71.516856,
              8.62244800000019
            ],
            [
              -71.5180069999999,
              8.621412
            ],
            [
              -71.519387,
              8.61978
            ],
            [
              -71.52111399999984,
              8.618399
            ],
            [
              -71.52416199999988,
              8.617722000000128
            ],
            [
              -71.52744799999988,
              8.618603
            ],
            [
              -71.529735,
              8.618388
            ],
            [
              -71.5315399999999,
              8.618908
            ],
            [
              -71.534892,
              8.61894100000012
            ],
            [
              -71.53746,
              8.61954900000012
            ],
            [
              -71.54005,
              8.619768000000136
            ],
            [
              -71.541258,
              8.620955
            ],
            [
              -71.542561,
              8.622966
            ],
            [
              -71.543099,
              8.624339
            ],
            [
              -71.54460499999988,
              8.625112000000172
            ],
            [
              -71.547682,
              8.625581
            ],
            [
              -71.551436,
              8.62785700000012
            ],
            [
              -71.553848,
              8.629521000000125
            ],
            [
              -71.55648699999989,
              8.63040400000017
            ],
            [
              -71.558501,
              8.631014
            ],
            [
              -71.55984,
              8.630665
            ],
            [
              -71.560373,
              8.631007000000125
            ]
          ]
        ]
      }
    }
  ]
}