{
  "type": "FeatureCollection",
  "features": [
    {
      "type": "Feature",
      "properties": {
        "Pais": "Venezuela",
        "Estado": "Falcón",
        "Municipio": "Sucre",
        "Parroquia": "Sucre"
      },
      "geometry": {
        "type": "Polygon",
        "coordinates": [
          [
            [
              -69.77986299999986,
              10.968766
            ],
            [
              -69.72867299999984,
              10.992404
            ],
            [
              -69.666482,
              11.014251000000115
            ],
            [
              -69.64546499999989,
              11.031027000000108
            ],
            [
              -69.681265,
              11.073453
            ],
            [
              -69.718863,
              11.098235
            ],
            [
              -69.74907599999983,
              11.097258
            ],
            [
              -69.794438,
              11.111611
            ],
            [
              -69.795576,
              11.110414
            ],
            [
              -69.797376,
              11.110932
            ],
            [
              -69.798759,
              11.110356
            ],
            [
              -69.800543,
              11.110094000000174
            ],
            [
              -69.802627,
              11.109712000000172
            ],
            [
              -69.80376,
              11.109462000000121
            ],
            [
              -69.805452,
              11.108101
            ],
            [
              -69.806886,
              11.107753000000116
            ],
            [
              -69.80763,
              11.106639000000143
            ],
            [
              -69.807795,
              11.105673000000138
            ],
            [
              -69.80772999999988,
              11.103655000000117
            ],
            [
              -69.80697499999985,
              11.10197200000016
            ],
            [
              -69.805949,
              11.09956
            ],
            [
              -69.804869,
              11.097928
            ],
            [
              -69.8034439999999,
              11.098665
            ],
            [
              -69.801154,
              11.098088000000132
            ],
            [
              -69.79865299999989,
              11.097377000000108
            ],
            [
              -69.79768299999984,
              11.097693000000106
            ],
            [
              -69.795847,
              11.097703
            ],
            [
              -69.794258,
              11.09615
            ],
            [
              -69.79273399999988,
              11.094389000000149
            ],
            [
              -69.79189399999984,
              11.091972000000169
            ],
            [
              -69.793662,
              11.090930000000128
            ],
            [
              -69.794494,
              11.089562
            ],
            [
              -69.795592,
              11.087615
            ],
            [
              -69.79556699999989,
              11.086377
            ],
            [
              -69.796628,
              11.08489
            ],
            [
              -69.797292,
              11.083272000000136
            ],
            [
              -69.797282,
              11.081667
            ],
            [
              -69.798173,
              11.080917000000113
            ],
            [
              -69.798073,
              11.079474000000118
            ],
            [
              -69.797884,
              11.078216000000111
            ],
            [
              -69.79848199999986,
              11.07676
            ],
            [
              -69.798172,
              11.074128
            ],
            [
              -69.797646,
              11.072326
            ],
            [
              -69.79814599999986,
              11.070665
            ],
            [
              -69.798837,
              11.066960000000108
            ],
            [
              -69.80052399999988,
              11.066517
            ],
            [
              -69.80209799999989,
              11.066213000000118
            ],
            [
              -69.804284,
              11.065209
            ],
            [
              -69.804661,
              11.065432
            ],
            [
              -69.80613,
              11.064556
            ],
            [
              -69.806436,
              11.063633
            ],
            [
              -69.806473,
              11.063151000000119
            ],
            [
              -69.809494,
              11.059793
            ],
            [
              -69.81084699999985,
              11.058966
            ],
            [
              -69.812232,
              11.057357000000138
            ],
            [
              -69.812619,
              11.055859000000169
            ],
            [
              -69.812734,
              11.053586
            ],
            [
              -69.811279,
              11.052856
            ],
            [
              -69.81072799999987,
              11.052063000000146
            ],
            [
              -69.810829,
              11.051351
            ],
            [
              -69.811318,
              11.051387
            ],
            [
              -69.811631,
              11.050808
            ],
            [
              -69.812532,
              11.05054
            ],
            [
              -69.81376199999988,
              11.050471
            ],
            [
              -69.814469,
              11.049816
            ],
            [
              -69.81499,
              11.048063000000127
            ],
            [
              -69.81527099999988,
              11.04702600000013
            ],
            [
              -69.815214,
              11.045399000000145
            ],
            [
              -69.81493299999988,
              11.043065000000126
            ],
            [
              -69.815748,
              11.042018
            ],
            [
              -69.816786,
              11.040554
            ],
            [
              -69.817862,
              11.038653000000124
            ],
            [
              -69.81819,
              11.03653700000018
            ],
            [
              -69.818674,
              11.035221
            ],
            [
              -69.81817399999989,
              11.034657
            ],
            [
              -69.817894,
              11.033469
            ],
            [
              -69.81701,
              11.031192
            ],
            [
              -69.81634399999984,
              11.029346
            ],
            [
              -69.815813,
              11.027246000000105
            ],
            [
              -69.816776,
              11.027733
            ],
            [
              -69.81769,
              11.027028
            ],
            [
              -69.81919,
              11.025395
            ],
            [
              -69.818485,
              11.023895
            ],
            [
              -69.818906,
              11.022878000000162
            ],
            [
              -69.820304,
              11.02083400000015
            ],
            [
              -69.822084,
              11.019309
            ],
            [
              -69.82359899999989,
              11.01841000000013
            ],
            [
              -69.824245,
              11.017045000000167
            ],
            [
              -69.824826,
              11.015979
            ],
            [
              -69.82330499999989,
              11.016535
            ],
            [
              -69.820187,
              11.017463000000134
            ],
            [
              -69.818072,
              11.01631
            ],
            [
              -69.817403,
              11.015404000000103
            ],
            [
              -69.816939,
              11.01433500000013
            ],
            [
              -69.817206,
              11.01261
            ],
            [
              -69.817071,
              11.010617
            ],
            [
              -69.8153109999999,
              11.00753
            ],
            [
              -69.813258,
              11.004861000000119
            ],
            [
              -69.812446,
              11.004922
            ],
            [
              -69.810483,
              11.005508
            ],
            [
              -69.808638,
              11.00389100000018
            ],
            [
              -69.80785099999986,
              11.001818
            ],
            [
              -69.8053579999999,
              11.001474
            ],
            [
              -69.803339,
              11.000502
            ],
            [
              -69.801831,
              10.998350000000187
            ],
            [
              -69.799283,
              10.997617000000105
            ],
            [
              -69.798213,
              10.993845000000135
            ],
            [
              -69.796441,
              10.993808
            ],
            [
              -69.794433,
              10.993999
            ],
            [
              -69.793419,
              10.992613000000176
            ],
            [
              -69.79235199999988,
              10.991961
            ],
            [
              -69.791307,
              10.99147100000016
            ],
            [
              -69.791758,
              10.990578
            ],
            [
              -69.791953,
              10.989546
            ],
            [
              -69.790952,
              10.989354000000162
            ],
            [
              -69.787826,
              10.986733000000186
            ],
            [
              -69.7856129999999,
              10.986394000000189
            ],
            [
              -69.784903,
              10.98498700000016
            ],
            [
              -69.784566,
              10.983491000000186
            ],
            [
              -69.782962,
              10.982881000000134
            ],
            [
              -69.781176,
              10.981581
            ],
            [
              -69.781097,
              10.979995
            ],
            [
              -69.78155,
              10.978849000000139
            ],
            [
              -69.781101,
              10.976778
            ],
            [
              -69.780672,
              10.975166
            ],
            [
              -69.780425,
              10.974130000000116
            ],
            [
              -69.781016,
              10.973193
            ],
            [
              -69.780977,
              10.972365
            ],
            [
              -69.780495,
              10.971489
            ],
            [
              -69.779995,
              10.969875000000116
            ],
            [
              -69.77986299999986,
              10.968766
            ]
          ]
        ]
      }
    },
    {
      "type": "Feature",
      "properties": {
        "Pais": "Venezuela",
        "Estado": "Falcón",
        "Municipio": "Sucre",
        "Parroquia": "Pecaya"
      },
      "geometry": {
        "type": "Polygon",
        "coordinates": [
          [
            [
              -69.877425,
              11.151621000000148
            ],
            [
              -70.025382,
              11.055435000000102
            ],
            [
              -70.074784,
              10.88989000000015
            ],
            [
              -70.07052799999985,
              10.88918800000016
            ],
            [
              -70.068851,
              10.88914700000015
            ],
            [
              -70.067643,
              10.888766
            ],
            [
              -70.066673,
              10.888021
            ],
            [
              -70.06565899999987,
              10.887000000000114
            ],
            [
              -70.06510899999984,
              10.88626
            ],
            [
              -70.06398,
              10.885123
            ],
            [
              -70.061939,
              10.884274000000175
            ],
            [
              -70.060179,
              10.883291
            ],
            [
              -70.058226,
              10.882879
            ],
            [
              -70.055147,
              10.881101000000172
            ],
            [
              -70.053298,
              10.87974800000012
            ],
            [
              -70.05216499999989,
              10.87900100000013
            ],
            [
              -70.050777,
              10.878159
            ],
            [
              -70.049388,
              10.877341000000115
            ],
            [
              -70.048255,
              10.87664
            ],
            [
              -70.047392,
              10.87663
            ],
            [
              -70.046391,
              10.876619
            ],
            [
              -70.04433699999987,
              10.876917
            ],
            [
              -70.042355,
              10.87701
            ],
            [
              -70.03966899999989,
              10.877509
            ],
            [
              -70.037527,
              10.877393000000154
            ],
            [
              -70.034807,
              10.876743
            ],
            [
              -70.032778,
              10.87695
            ],
            [
              -70.031147,
              10.876863000000185
            ],
            [
              -70.02937599999984,
              10.876866
            ],
            [
              -70.02792499999987,
              10.877447000000188
            ],
            [
              -70.02558899999985,
              10.877948
            ],
            [
              -70.0231399999999,
              10.878128
            ],
            [
              -70.020998,
              10.877943000000187
            ],
            [
              -70.018738,
              10.877963
            ],
            [
              -70.016868,
              10.878493
            ],
            [
              -70.01418299999989,
              10.878899
            ],
            [
              -70.012365,
              10.8788330000001
            ],
            [
              -70.010181,
              10.87830300000013
            ],
            [
              -70.007569,
              10.878526000000136
            ],
            [
              -70.005657,
              10.878597000000127
            ],
            [
              -70.003747,
              10.878529000000185
            ],
            [
              -70.001841,
              10.878141
            ],
            [
              -69.997135,
              10.879378
            ],
            [
              -69.99541,
              10.87967
            ],
            [
              -69.993683,
              10.88028300000019
            ],
            [
              -69.991792,
              10.881217
            ],
            [
              -69.989553,
              10.88159800000011
            ],
            [
              -69.987407,
              10.881451
            ],
            [
              -69.985382,
              10.880295000000103
            ],
            [
              -69.983218,
              10.878931
            ],
            [
              -69.981168,
              10.878578000000175
            ],
            [
              -69.978439,
              10.878934000000129
            ],
            [
              -69.97510299999982,
              10.87961
            ],
            [
              -69.973517,
              10.880108
            ],
            [
              -69.970343,
              10.881358000000148
            ],
            [
              -69.96714999999983,
              10.881024
            ],
            [
              -69.965215,
              10.88080900000017
            ],
            [
              -69.962718,
              10.881281000000172
            ],
            [
              -69.957142,
              10.882934000000148
            ],
            [
              -69.952056,
              10.884245
            ],
            [
              -69.94393,
              10.888666000000114
            ],
            [
              -69.938233,
              10.89112200000011
            ],
            [
              -69.931063,
              10.895548
            ],
            [
              -69.925134,
              10.898049
            ],
            [
              -69.91918099999987,
              10.900549000000126
            ],
            [
              -69.915589,
              10.901062
            ],
            [
              -69.912021,
              10.900978
            ],
            [
              -69.910538,
              10.901935
            ],
            [
              -69.90373199999988,
              10.905053000000123
            ],
            [
              -69.899159,
              10.906066
            ],
            [
              -69.895637,
              10.906648
            ],
            [
              -69.891788,
              10.90709100000015
            ],
            [
              -69.88724,
              10.907507000000123
            ],
            [
              -69.882804,
              10.909302000000139
            ],
            [
              -69.875727,
              10.913404
            ],
            [
              -69.870467,
              10.917676
            ],
            [
              -69.865975,
              10.922479
            ],
            [
              -69.86239,
              10.928044
            ],
            [
              -69.86148999999989,
              10.932174
            ],
            [
              -69.860212,
              10.938047000000154
            ],
            [
              -69.858217,
              10.94219500000014
            ],
            [
              -69.855027,
              10.948175
            ],
            [
              -69.85252,
              10.951747000000182
            ],
            [
              -69.851256,
              10.953418
            ],
            [
              -69.84907899999985,
              10.955889
            ],
            [
              -69.84625199999988,
              10.957415
            ],
            [
              -69.84228599999983,
              10.958109
            ],
            [
              -69.837784,
              10.95841
            ],
            [
              -69.835431,
              10.957756000000188
            ],
            [
              -69.8269739999999,
              10.958692000000156
            ],
            [
              -69.825192,
              10.958031000000176
            ],
            [
              -69.82222699999988,
              10.959119000000157
            ],
            [
              -69.818821,
              10.95931000000013
            ],
            [
              -69.81593199999986,
              10.958585
            ],
            [
              -69.81367399999988,
              10.957426
            ],
            [
              -69.810459,
              10.956171
            ],
            [
              -69.809718,
              10.954675000000123
            ],
            [
              -69.8091419999999,
              10.952445
            ],
            [
              -69.808752,
              10.950629
            ],
            [
              -69.80730999999986,
              10.949267000000134
            ],
            [
              -69.804608,
              10.948542
            ],
            [
              -69.801903,
              10.948438000000124
            ],
            [
              -69.799709,
              10.949117000000172
            ],
            [
              -69.797963,
              10.948121000000185
            ],
            [
              -69.795304,
              10.94843
            ],
            [
              -69.7930669999999,
              10.947845
            ],
            [
              -69.791436,
              10.947447
            ],
            [
              -69.789643,
              10.946589
            ],
            [
              -69.78836599999988,
              10.94474600000018
            ],
            [
              -69.785804,
              10.944022000000132
            ],
            [
              -69.783589,
              10.94364400000012
            ],
            [
              -69.781421,
              10.943702000000144
            ],
            [
              -69.780635,
              10.941494
            ],
            [
              -69.78003599999988,
              10.939378000000147
            ],
            [
              -69.778784,
              10.937374
            ],
            [
              -69.778513,
              10.934938000000102
            ],
            [
              -69.778054,
              10.932755000000157
            ],
            [
              -69.77460799999983,
              10.931176
            ],
            [
              -69.77082799999988,
              10.931916000000172
            ],
            [
              -69.768095,
              10.933350000000189
            ],
            [
              -69.764823,
              10.935172
            ],
            [
              -69.761972,
              10.936995000000138
            ],
            [
              -69.75965699999983,
              10.938972
            ],
            [
              -69.761347,
              10.944891
            ],
            [
              -69.763047,
              10.945088
            ],
            [
              -69.76411899999988,
              10.945143
            ],
            [
              -69.765633,
              10.945499000000154
            ],
            [
              -69.766045,
              10.946422
            ],
            [
              -69.767339,
              10.947741000000178
            ],
            [
              -69.767889,
              10.948849
            ],
            [
              -69.768108,
              10.950459
            ],
            [
              -69.769146,
              10.951777000000163
            ],
            [
              -69.770559,
              10.952845
            ],
            [
              -69.770884,
              10.953054000000122
            ],
            [
              -69.771855,
              10.953981000000113
            ],
            [
              -69.773089,
              10.954266
            ],
            [
              -69.774847,
              10.953200000000152
            ],
            [
              -69.77591299999989,
              10.953967
            ],
            [
              -69.7760689999999,
              10.954841
            ],
            [
              -69.775922,
              10.955598000000123
            ],
            [
              -69.77626,
              10.956979
            ],
            [
              -69.776224,
              10.958381
            ],
            [
              -69.774685,
              10.958460000000173
            ],
            [
              -69.774602,
              10.959953
            ],
            [
              -69.77578499999987,
              10.960583
            ],
            [
              -69.776931,
              10.960293
            ],
            [
              -69.777956,
              10.960347000000127
            ],
            [
              -69.778348,
              10.960879
            ],
            [
              -69.779252,
              10.961506
            ],
            [
              -69.780386,
              10.962526000000139
            ],
            [
              -69.78102399999989,
              10.964277
            ],
            [
              -69.78164,
              10.965821
            ],
            [
              -69.78114,
              10.96703500000018
            ],
            [
              -69.7798,
              10.968242
            ],
            [
              -69.77986299999986,
              10.968766
            ],
            [
              -69.779995,
              10.969875000000116
            ],
            [
              -69.780495,
              10.971489
            ],
            [
              -69.780977,
              10.972365
            ],
            [
              -69.781016,
              10.973193
            ],
            [
              -69.780425,
              10.974130000000116
            ],
            [
              -69.780672,
              10.975166
            ],
            [
              -69.781101,
              10.976778
            ],
            [
              -69.78155,
              10.978849000000139
            ],
            [
              -69.781097,
              10.979995
            ],
            [
              -69.781176,
              10.981581
            ],
            [
              -69.782962,
              10.982881000000134
            ],
            [
              -69.784566,
              10.983491000000186
            ],
            [
              -69.784903,
              10.98498700000016
            ],
            [
              -69.7856129999999,
              10.986394000000189
            ],
            [
              -69.787826,
              10.986733000000186
            ],
            [
              -69.790952,
              10.989354000000162
            ],
            [
              -69.791953,
              10.989546
            ],
            [
              -69.791758,
              10.990578
            ],
            [
              -69.791307,
              10.99147100000016
            ],
            [
              -69.79235199999988,
              10.991961
            ],
            [
              -69.793419,
              10.992613000000176
            ],
            [
              -69.794433,
              10.993999
            ],
            [
              -69.796441,
              10.993808
            ],
            [
              -69.798213,
              10.993845000000135
            ],
            [
              -69.799283,
              10.997617000000105
            ],
            [
              -69.801831,
              10.998350000000187
            ],
            [
              -69.803339,
              11.000502
            ],
            [
              -69.8053579999999,
              11.001474
            ],
            [
              -69.80785099999986,
              11.001818
            ],
            [
              -69.808638,
              11.00389100000018
            ],
            [
              -69.810483,
              11.005508
            ],
            [
              -69.812446,
              11.004922
            ],
            [
              -69.813258,
              11.004861000000119
            ],
            [
              -69.8153109999999,
              11.00753
            ],
            [
              -69.817071,
              11.010617
            ],
            [
              -69.817206,
              11.01261
            ],
            [
              -69.816939,
              11.01433500000013
            ],
            [
              -69.817403,
              11.015404000000103
            ],
            [
              -69.818072,
              11.01631
            ],
            [
              -69.820187,
              11.017463000000134
            ],
            [
              -69.82330499999989,
              11.016535
            ],
            [
              -69.824826,
              11.015979
            ],
            [
              -69.824245,
              11.017045000000167
            ],
            [
              -69.82359899999989,
              11.01841000000013
            ],
            [
              -69.822084,
              11.019309
            ],
            [
              -69.820304,
              11.02083400000015
            ],
            [
              -69.818906,
              11.022878000000162
            ],
            [
              -69.818485,
              11.023895
            ],
            [
              -69.81919,
              11.025395
            ],
            [
              -69.81769,
              11.027028
            ],
            [
              -69.816776,
              11.027733
            ],
            [
              -69.815813,
              11.027246000000105
            ],
            [
              -69.81634399999984,
              11.029346
            ],
            [
              -69.81701,
              11.031192
            ],
            [
              -69.817894,
              11.033469
            ],
            [
              -69.81817399999989,
              11.034657
            ],
            [
              -69.818674,
              11.035221
            ],
            [
              -69.81819,
              11.03653700000018
            ],
            [
              -69.817862,
              11.038653000000124
            ],
            [
              -69.816786,
              11.040554
            ],
            [
              -69.815748,
              11.042018
            ],
            [
              -69.81493299999988,
              11.043065000000126
            ],
            [
              -69.815214,
              11.045399000000145
            ],
            [
              -69.81527099999988,
              11.04702600000013
            ],
            [
              -69.81499,
              11.048063000000127
            ],
            [
              -69.814469,
              11.049816
            ],
            [
              -69.81376199999988,
              11.050471
            ],
            [
              -69.812532,
              11.05054
            ],
            [
              -69.811631,
              11.050808
            ],
            [
              -69.811318,
              11.051387
            ],
            [
              -69.810829,
              11.051351
            ],
            [
              -69.81072799999987,
              11.052063000000146
            ],
            [
              -69.811279,
              11.052856
            ],
            [
              -69.812734,
              11.053586
            ],
            [
              -69.812619,
              11.055859000000169
            ],
            [
              -69.812232,
              11.057357000000138
            ],
            [
              -69.81084699999985,
              11.058966
            ],
            [
              -69.809494,
              11.059793
            ],
            [
              -69.806473,
              11.063151000000119
            ],
            [
              -69.806436,
              11.063633
            ],
            [
              -69.80613,
              11.064556
            ],
            [
              -69.804661,
              11.065432
            ],
            [
              -69.804284,
              11.065209
            ],
            [
              -69.80209799999989,
              11.066213000000118
            ],
            [
              -69.80052399999988,
              11.066517
            ],
            [
              -69.798837,
              11.066960000000108
            ],
            [
              -69.79814599999986,
              11.070665
            ],
            [
              -69.797646,
              11.072326
            ],
            [
              -69.798172,
              11.074128
            ],
            [
              -69.79848199999986,
              11.07676
            ],
            [
              -69.797884,
              11.078216000000111
            ],
            [
              -69.798073,
              11.079474000000118
            ],
            [
              -69.798173,
              11.080917000000113
            ],
            [
              -69.797282,
              11.081667
            ],
            [
              -69.797292,
              11.083272000000136
            ],
            [
              -69.796628,
              11.08489
            ],
            [
              -69.79556699999989,
              11.086377
            ],
            [
              -69.795592,
              11.087615
            ],
            [
              -69.794494,
              11.089562
            ],
            [
              -69.793662,
              11.090930000000128
            ],
            [
              -69.79189399999984,
              11.091972000000169
            ],
            [
              -69.79273399999988,
              11.094389000000149
            ],
            [
              -69.794258,
              11.09615
            ],
            [
              -69.795847,
              11.097703
            ],
            [
              -69.79768299999984,
              11.097693000000106
            ],
            [
              -69.79865299999989,
              11.097377000000108
            ],
            [
              -69.801154,
              11.098088000000132
            ],
            [
              -69.8034439999999,
              11.098665
            ],
            [
              -69.804869,
              11.097928
            ],
            [
              -69.805949,
              11.09956
            ],
            [
              -69.80697499999985,
              11.10197200000016
            ],
            [
              -69.80772999999988,
              11.103655000000117
            ],
            [
              -69.807795,
              11.105673000000138
            ],
            [
              -69.80763,
              11.106639000000143
            ],
            [
              -69.806886,
              11.107753000000116
            ],
            [
              -69.805452,
              11.108101
            ],
            [
              -69.80376,
              11.109462000000121
            ],
            [
              -69.802627,
              11.109712000000172
            ],
            [
              -69.800543,
              11.110094000000174
            ],
            [
              -69.798759,
              11.110356
            ],
            [
              -69.797376,
              11.110932
            ],
            [
              -69.795576,
              11.110414
            ],
            [
              -69.794438,
              11.111611
            ],
            [
              -69.877425,
              11.151621000000148
            ]
          ]
        ]
      }
    }
  ]
}