{
  "type": "FeatureCollection",
  "features": [
    {
      "type": "Feature",
      "properties": {
        "Pais": "Venezuela",
        "Estado": "Trujillo",
        "Municipio": "Sucre"
      },
      "geometry": {
        "type": "Polygon",
        "coordinates": [
          [
            [
              -70.88801706599997,
              9.588137896000148
            ],
            [
              -70.88993914899993,
              9.58868489800011
            ],
            [
              -70.89237025099999,
              9.589621907000094
            ],
            [
              -70.8944783419999,
              9.590810915000077
            ],
            [
              -70.89634365599994,
              9.59223635800015
            ],
            [
              -70.89673044599988,
              9.592531941000175
            ],
            [
              -70.89857349799996,
              9.58883384600017
            ],
            [
              -70.90035357099998,
              9.587684809000052
            ],
            [
              -70.90287666899997,
              9.587589790000095
            ],
            [
              -70.90384771299983,
              9.586533763000034
            ],
            [
              -70.90546476699996,
              9.584720714000184
            ],
            [
              -70.9065978079999,
              9.583574684000041
            ],
            [
              -70.90603577299993,
              9.582748668000079
            ],
            [
              -70.90519173299992,
              9.581425637000166
            ],
            [
              -70.90446669899995,
              9.581208636000042
            ],
            [
              -70.90447169699996,
              9.58061362300009
            ],
            [
              -70.90529534799998,
              9.579871774000082
            ],
            [
              -70.905272,
              9.579808000000128
            ],
            [
              -70.90527089499989,
              9.579729601000167
            ],
            [
              -70.90526515099998,
              9.579322240000124
            ],
            [
              -70.90514586099994,
              9.570862021000096
            ],
            [
              -70.90507622999996,
              9.565923660000124
            ],
            [
              -70.90452,
              9.526475000000175
            ],
            [
              -70.90404399999989,
              9.429242
            ],
            [
              -70.896627,
              9.431680000000142
            ],
            [
              -70.887424,
              9.435451
            ],
            [
              -70.88266,
              9.436947
            ],
            [
              -70.87052499999987,
              9.446729
            ],
            [
              -70.861742,
              9.455383
            ],
            [
              -70.858483,
              9.457978
            ],
            [
              -70.833257,
              9.475316000000134
            ],
            [
              -70.83108299999986,
              9.476534
            ],
            [
              -70.828145,
              9.4770180000001
            ],
            [
              -70.825901,
              9.477158000000145
            ],
            [
              -70.821827,
              9.476452000000165
            ],
            [
              -70.819975,
              9.47556
            ],
            [
              -70.817843,
              9.47400400000015
            ],
            [
              -70.815865,
              9.471762
            ],
            [
              -70.815781,
              9.471667
            ],
            [
              -70.81441299999983,
              9.468459000000166
            ],
            [
              -70.8135539999999,
              9.465984
            ],
            [
              -70.812995,
              9.463027000000125
            ],
            [
              -70.81313199999988,
              9.461147
            ],
            [
              -70.812436,
              9.45926800000018
            ],
            [
              -70.811949,
              9.458031000000119
            ],
            [
              -70.81079099999988,
              9.457413000000145
            ],
            [
              -70.809656,
              9.456107
            ],
            [
              -70.808658,
              9.453609
            ],
            [
              -70.80666699999983,
              9.45267100000018
            ],
            [
              -70.80446899999987,
              9.452192
            ],
            [
              -70.801621,
              9.451072
            ],
            [
              -70.80034699999987,
              9.449491
            ],
            [
              -70.800114,
              9.447749000000101
            ],
            [
              -70.801154,
              9.446349
            ],
            [
              -70.800944,
              9.44460700000019
            ],
            [
              -70.798815,
              9.444770000000176
            ],
            [
              -70.797586,
              9.442708
            ],
            [
              -70.796636,
              9.441746
            ],
            [
              -70.796287,
              9.439499000000126
            ],
            [
              -70.795175,
              9.43895
            ],
            [
              -70.792283,
              9.438495
            ],
            [
              -70.791795,
              9.436546
            ],
            [
              -70.79005899999987,
              9.435792
            ],
            [
              -70.788439,
              9.435518
            ],
            [
              -70.7863569999999,
              9.435864
            ],
            [
              -70.78543099999985,
              9.435292
            ],
            [
              -70.783809,
              9.433207
            ],
            [
              -70.782489,
              9.431902
            ],
            [
              -70.780127,
              9.429840000000127
            ],
            [
              -70.778737,
              9.428168
            ],
            [
              -70.77718599999986,
              9.426863
            ],
            [
              -70.77679,
              9.424502
            ],
            [
              -70.777275,
              9.423400000000186
            ],
            [
              -70.77593199999984,
              9.422988
            ],
            [
              -70.775589,
              9.42362500000013
            ],
            [
              -70.774671,
              9.424096
            ],
            [
              -70.774185,
              9.423518000000172
            ],
            [
              -70.77410399999985,
              9.422807000000148
            ],
            [
              -70.773431,
              9.421455
            ],
            [
              -70.772157,
              9.419713000000115
            ],
            [
              -70.770675,
              9.417927000000134
            ],
            [
              -70.768476,
              9.416713
            ],
            [
              -70.766254,
              9.416165
            ],
            [
              -70.76435599999985,
              9.415754000000106
            ],
            [
              -70.76231899999988,
              9.414839
            ],
            [
              -70.760283,
              9.414199
            ],
            [
              -70.758756,
              9.414338
            ],
            [
              -70.754955,
              9.412338
            ],
            [
              -70.752391,
              9.409992000000159
            ],
            [
              -70.751769,
              9.408684000000108
            ],
            [
              -70.75088,
              9.406854
            ],
            [
              -70.74885,
              9.405466000000104
            ],
            [
              -70.747176,
              9.405125000000112
            ],
            [
              -70.74578999999989,
              9.40472
            ],
            [
              -70.745767,
              9.40472
            ],
            [
              -70.744934,
              9.404216
            ],
            [
              -70.743453,
              9.40424
            ],
            [
              -70.741717,
              9.403783000000146
            ],
            [
              -70.739427,
              9.403464
            ],
            [
              -70.737113,
              9.403925000000129
            ],
            [
              -70.73699599999986,
              9.402182
            ],
            [
              -70.73636999999985,
              9.400899
            ],
            [
              -70.735143,
              9.399937
            ],
            [
              -70.734633,
              9.398837000000185
            ],
            [
              -70.732228,
              9.399091
            ],
            [
              -70.7307909999999,
              9.397992
            ],
            [
              -70.730143,
              9.397029000000146
            ],
            [
              -70.72776,
              9.397444000000178
            ],
            [
              -70.725816,
              9.396872
            ],
            [
              -70.72371099999987,
              9.396874
            ],
            [
              -70.720865,
              9.39644
            ],
            [
              -70.719569,
              9.396877000000188
            ],
            [
              -70.717071,
              9.397636
            ],
            [
              -70.7140169999999,
              9.397546
            ],
            [
              -70.713277,
              9.397249
            ],
            [
              -70.711611,
              9.397273
            ],
            [
              -70.71008399999988,
              9.397618
            ],
            [
              -70.708026,
              9.39872
            ],
            [
              -70.70684499999987,
              9.399111000000119
            ],
            [
              -70.706198,
              9.400418
            ],
            [
              -70.70587499999982,
              9.401633
            ],
            [
              -70.70492699999988,
              9.402436
            ],
            [
              -70.703447,
              9.402896000000112
            ],
            [
              -70.702684,
              9.403883
            ],
            [
              -70.701249,
              9.40344800000014
            ],
            [
              -70.701064,
              9.402508000000125
            ],
            [
              -70.700114,
              9.401913
            ],
            [
              -70.698634,
              9.401914
            ],
            [
              -70.69757,
              9.402694
            ],
            [
              -70.697618,
              9.404459
            ],
            [
              -70.695165,
              9.404025
            ],
            [
              -70.693453,
              9.4040040000001
            ],
            [
              -70.6938449999999,
              9.402330000000177
            ],
            [
              -70.692964,
              9.400932000000125
            ],
            [
              -70.691159,
              9.399076
            ],
            [
              -70.68903,
              9.39843500000012
            ],
            [
              -70.686832,
              9.399079
            ],
            [
              -70.68567599999983,
              9.399607000000117
            ],
            [
              -70.685143,
              9.398782
            ],
            [
              -70.683524,
              9.399287
            ],
            [
              -70.680931,
              9.398762
            ],
            [
              -70.678479,
              9.398855
            ],
            [
              -70.676767,
              9.399407
            ],
            [
              -70.675193,
              9.39931600000017
            ],
            [
              -70.673296,
              9.399065
            ],
            [
              -70.67118999999985,
              9.398631
            ],
            [
              -70.668413,
              9.39769200000012
            ],
            [
              -70.665683,
              9.398108
            ],
            [
              -70.66385599999984,
              9.398751000000175
            ],
            [
              -70.6638569999999,
              9.400700000000143
            ],
            [
              -70.662215,
              9.401251
            ],
            [
              -70.660549,
              9.401183000000117
            ],
            [
              -70.659069,
              9.402124000000185
            ],
            [
              -70.657703,
              9.403042
            ],
            [
              -70.655876,
              9.403892
            ],
            [
              -70.655021,
              9.405359000000146
            ],
            [
              -70.654767,
              9.407331
            ],
            [
              -70.654259,
              9.408983000000148
            ],
            [
              -70.65220099999988,
              9.41015300000015
            ],
            [
              -70.65079,
              9.410681000000125
            ],
            [
              -70.649679,
              9.411141000000157
            ],
            [
              -70.649425,
              9.41169100000019
            ],
            [
              -70.650027,
              9.412768000000142
            ],
            [
              -70.650583,
              9.413593
            ],
            [
              -70.65397899999982,
              9.413833000000125
            ],
            [
              -70.685828,
              9.418982
            ],
            [
              -70.686128,
              9.419027
            ],
            [
              -70.687147,
              9.41976000000011
            ],
            [
              -70.688582,
              9.420447
            ],
            [
              -70.689762,
              9.420767000000126
            ],
            [
              -70.69110399999988,
              9.42017
            ],
            [
              -70.692446,
              9.41994
            ],
            [
              -70.69513099999983,
              9.421085000000119
            ],
            [
              -70.697145,
              9.423032
            ],
            [
              -70.6983489999999,
              9.423742
            ],
            [
              -70.699644,
              9.423512
            ],
            [
              -70.701287,
              9.423900000000174
            ],
            [
              -70.703902,
              9.424265000000162
            ],
            [
              -70.70475899999985,
              9.423668
            ],
            [
              -70.705383,
              9.423278
            ],
            [
              -70.706354,
              9.422085
            ],
            [
              -70.707325,
              9.421053000000143
            ],
            [
              -70.707926,
              9.420227000000182
            ],
            [
              -70.709199,
              9.419905
            ],
            [
              -70.710124,
              9.4205
            ],
            [
              -70.712393,
              9.421462
            ],
            [
              -70.713158,
              9.4238
            ],
            [
              -70.715519,
              9.42432500000018
            ],
            [
              -70.717487,
              9.427144000000169
            ],
            [
              -70.718161,
              9.430009
            ],
            [
              -70.719366,
              9.432553
            ],
            [
              -70.72101,
              9.434707000000117
            ],
            [
              -70.721149,
              9.43395
            ],
            [
              -70.722444,
              9.433376000000123
            ],
            [
              -70.72332399999982,
              9.43459
            ],
            [
              -70.724505,
              9.435300000000154
            ],
            [
              -70.726703,
              9.435642
            ],
            [
              -70.727723,
              9.43635200000017
            ],
            [
              -70.729113,
              9.438162
            ],
            [
              -70.729647,
              9.44020300000011
            ],
            [
              -70.7311289999999,
              9.442333000000133
            ],
            [
              -70.73295899999988,
              9.444602
            ],
            [
              -70.732636,
              9.446069
            ],
            [
              -70.734049,
              9.44753500000013
            ],
            [
              -70.734512,
              9.448017
            ],
            [
              -70.736365,
              9.449207000000115
            ],
            [
              -70.738193,
              9.450192
            ],
            [
              -70.740786,
              9.450831
            ],
            [
              -70.742592,
              9.452114000000108
            ],
            [
              -70.743819,
              9.453007000000127
            ],
            [
              -70.744837,
              9.453556
            ],
            [
              -70.745508,
              9.453441000000112
            ],
            [
              -70.747845,
              9.453164000000129
            ],
            [
              -70.74932799999988,
              9.453736
            ],
            [
              -70.750323,
              9.45412400000015
            ],
            [
              -70.751343,
              9.456393000000105
            ],
            [
              -70.75178399999987,
              9.457791000000157
            ],
            [
              -70.754215,
              9.459004000000164
            ],
            [
              -70.755083,
              9.459667000000138
            ],
            [
              -70.7555349999999,
              9.460012
            ],
            [
              -70.757501,
              9.459804
            ],
            [
              -70.758289,
              9.460858
            ],
            [
              -70.758661,
              9.462875000000167
            ],
            [
              -70.75882499999989,
              9.464641
            ],
            [
              -70.760167,
              9.465144000000123
            ],
            [
              -70.760886,
              9.466267000000187
            ],
            [
              -70.76289999999989,
              9.467457
            ],
            [
              -70.764497,
              9.468281
            ],
            [
              -70.765518,
              9.470779000000107
            ],
            [
              -70.766098,
              9.472521
            ],
            [
              -70.767558,
              9.4744
            ],
            [
              -70.768369,
              9.47575200000017
            ],
            [
              -70.769553,
              9.478387
            ],
            [
              -70.76997199999983,
              9.481046000000163
            ],
            [
              -70.77073599999989,
              9.481985
            ],
            [
              -70.771431,
              9.48281
            ],
            [
              -70.79030099999989,
              9.500125
            ],
            [
              -70.80369,
              9.51461
            ],
            [
              -70.80441799999983,
              9.535931
            ],
            [
              -70.805424,
              9.565426000000173
            ],
            [
              -70.805912,
              9.566091
            ],
            [
              -70.805954,
              9.566749000000186
            ],
            [
              -70.80637599999983,
              9.566777
            ],
            [
              -70.80597299999988,
              9.56703
            ],
            [
              -70.806146,
              9.569703000000175
            ],
            [
              -70.80925,
              9.570879000000161
            ],
            [
              -70.810941,
              9.571771
            ],
            [
              -70.812864,
              9.572915
            ],
            [
              -70.815666,
              9.574104
            ],
            [
              -70.816186,
              9.577704000000153
            ],
            [
              -70.817315,
              9.578343
            ],
            [
              -70.820023,
              9.579463
            ],
            [
              -70.82227,
              9.580286
            ],
            [
              -70.824099,
              9.581132
            ],
            [
              -70.82583499999987,
              9.580764
            ],
            [
              -70.829424,
              9.581149
            ],
            [
              -70.83109080599996,
              9.581710254000143
            ],
            [
              -70.834241,
              9.582771
            ],
            [
              -70.8351249509999,
              9.58325629500007
            ],
            [
              -70.8357,
              9.583572000000174
            ],
            [
              -70.837113,
              9.584808000000123
            ],
            [
              -70.839266,
              9.584851000000128
            ],
            [
              -70.84262199999989,
              9.584732
            ],
            [
              -70.84304558799994,
              9.585268045000078
            ],
            [
              -70.8431041099999,
              9.58534210400012
            ],
            [
              -70.84325620199996,
              9.58553457500011
            ],
            [
              -70.84331419199998,
              9.585422091000055
            ],
            [
              -70.84514226899995,
              9.58500707200011
            ],
            [
              -70.84574530099997,
              9.585579081000049
            ],
            [
              -70.84662634399984,
              9.586908107000056
            ],
            [
              -70.84864042699996,
              9.587089105000132
            ],
            [
              -70.85171955999988,
              9.586970077000046
            ],
            [
              -70.85340962699996,
              9.587449086000163
            ],
            [
              -70.8545686889999,
              9.589099108000084
            ],
            [
              -70.85563473899992,
              9.589968129000113
            ],
            [
              -70.85711679499997,
              9.590425132
            ],
            [
              -70.85906187699999,
              9.590606118999972
            ],
            [
              -70.85982692199997,
              9.59170514400006
            ],
            [
              -70.86119297699992,
              9.591452134000065
            ],
            [
              -70.86214000499996,
              9.590579103000039
            ],
            [
              -70.86415308599999,
              9.589293057000077
            ],
            [
              -70.86598115399988,
              9.589313055000105
            ],
            [
              -70.86811024699989,
              9.588554025
            ],
            [
              -70.86956930299993,
              9.589125024000111
            ],
            [
              -70.87169838499995,
              9.588618002999965
            ],
            [
              -70.87546954099997,
              9.58760395100012
            ],
            [
              -70.87889669199996,
              9.588401960000112
            ],
            [
              -70.88165079899983,
              9.587985931000105
            ],
            [
              -70.88421989699992,
              9.5875469020001
            ],
            [
              -70.88539994999996,
              9.587361889000135
            ],
            [
              -70.88801706599997,
              9.588137896000148
            ]
          ]
        ]
      }
    }
  ]
}