{"type": "FeatureCollection", "features": [{"type": "Feature", "properties": {"Pais": "Venezuela", "Estado": "Cojedes", "Municipio": "Tinaquillo"}, "geometry": {"type": "Polygon", "coordinates": [[[-68.20656475899983, 10.063903065999966], [-68.20739980899998, 10.06639111700008], [-68.20917588899994, 10.067586136000102], [-68.21072896199996, 10.068303154999967], [-68.21191202399996, 10.070759204000069], [-68.21219104499994, 10.072456252000165], [-68.21302608999991, 10.074069290000068], [-68.21605023899997, 10.075874310000188], [-68.2192763779999, 10.077443332000144], [-68.22057645399991, 10.07991938900011], [-68.22316956699996, 10.08042238700017], [-68.22605169299999, 10.080480374000103], [-68.23000486699993, 10.080577354000127], [-68.23234697299984, 10.081249361], [-68.2339860539999, 10.084222422000096], [-68.23490210099993, 10.08541845100018], [-68.23694117399998, 10.083541385000103], [-68.23884224499989, 10.081713324000134], [-68.24182936399995, 10.078841236000187], [-68.24352942599995, 10.07729619100013], [-68.24771158099986, 10.073953083000106], [-68.25062869899989, 10.071936012000094], [-68.25289577399997, 10.069060924000098], [-68.25626291799995, 10.068159888000139], [-68.25903003599996, 10.067414854000106], [-68.26196514999998, 10.065188771000066], [-68.26418823399996, 10.064089738000177], [-68.26687634799998, 10.063806707000083], [-68.26884443099993, 10.063567695000017], [-68.27088852299994, 10.06440869800008], [-68.27261359499994, 10.06461370400018], [-68.27486568699993, 10.063698660000114], [-68.27602874299998, 10.064587680000159], [-68.27782283299985, 10.065596699000082], [-68.27909589399991, 10.067105731000026], [-68.28081596699997, 10.067978735000167], [-68.28290406599996, 10.069532769000148], [-68.28431613499993, 10.071014790999982], [-68.28615222799988, 10.071838803000162], [-68.28752828199998, 10.072030802000143], [-68.28922235199997, 10.071152764000146], [-68.29063940499998, 10.06945372000007], [-68.29279449699993, 10.069255704], [-68.29217845799997, 10.067152648000103], [-68.29139441299992, 10.064870594000126], [-68.29167040999994, 10.063111555000148], [-68.29369049299993, 10.06141849100004], [-68.29493753899999, 10.061129485000095], [-68.29730862699995, 10.059519433000105], [-68.29936871199988, 10.059230410000112], [-68.30082277499986, 10.058890389000112], [-68.30316986999998, 10.057257336000077], [-68.30569497199991, 10.055319273000066], [-68.30787905099999, 10.053668223000045], [-68.31045614599998, 10.051129138000022], [-68.31303324599992, 10.049398076000102], [-68.31453029599999, 10.047281019000025], [-68.31466766599982, 10.046957144000146], [-68.31559832599999, 10.044762945000059], [-68.31735539599998, 10.042799887000172], [-68.31942447299991, 10.041197830000044], [-68.32042550499989, 10.039579792000097], [-68.3213415269999, 10.03662671300009], [-68.32279457499988, 10.03460464900013], [-68.32492566799993, 10.033553615000187], [-68.32731275899988, 10.032518568000057], [-68.32993786899993, 10.032490550999967], [-68.33230597499994, 10.032446535000076], [-68.33479707399982, 10.031799511000031], [-68.33742017499998, 10.030089451000094], [-68.33944126299986, 10.028419399000086], [-68.33968327299988, 10.028568396000082], [-68.3399185109999, 10.028374994000103], [-68.34015084799995, 10.028183976000093], [-68.34080231599995, 10.027648369000076], [-68.34145333199996, 10.027279357000111], [-68.34125131999997, 10.025879325000062], [-68.34145331599996, 10.024642291000077], [-68.34132831699992, 10.023932277000085], [-68.34036827299991, 10.023703272999967], [-68.33988223799992, 10.02264025200003], [-68.33880119499992, 10.022293245000014], [-68.33879719499993, 10.021700230000079], [-68.33837415899995, 10.019393175000062], [-68.33783912699988, 10.017703130000086], [-68.33648706399993, 10.016740120000179], [-68.33623804599995, 10.01543909000003], [-68.33617804199997, 10.015204086000097], [-68.33591502299993, 10.01390304400013], [-68.33610502099992, 10.013425041000062], [-68.33646004199994, 10.01271101500015], [-68.33630303199988, 10.012181006000105], [-68.3365350339999, 10.011774995000167], [-68.33693205099996, 10.011640988000181], [-68.33753308499996, 10.011990990000186], [-68.33776908299996, 10.011396980000029], [-68.33704204399993, 10.01021694900004], [-68.33739505299991, 10.009265921], [-68.33678601999998, 10.00784888600009], [-68.33762105199997, 10.007367876000103], [-68.3376150499999, 10.006419853000068], [-68.33746804499992, 10.005973839000148], [-68.33825207199988, 10.00532882300007], [-68.33925611699988, 10.005321817000038], [-68.33990414599998, 10.00574182400004], [-68.3407631849999, 10.00552281500012], [-68.34144820699998, 10.004399774000035], [-68.34177821999992, 10.004034772000182], [-68.3429082689999, 10.00458377900003], [-68.34311827399989, 10.003872758000114], [-68.3429672549999, 10.002738724000096], [-68.34296225299994, 10.002727726000046], [-68.34260223199993, 10.001890710000055], [-68.34180719699992, 10.00083268100019], [-68.34158618499987, 9.999983661000101], [-68.3422252069999, 9.999126641999965], [-68.34330225199994, 9.999331639000161], [-68.34424029199982, 10.000245659000143], [-68.34476532199994, 10.000306651000187], [-68.34481432699988, 10.000312658000041], [-68.34484532099998, 10.000245655000128], [-68.34538033599989, 9.999102619000041], [-68.34580735299988, 9.998673606000182], [-68.34673739499993, 9.998993605000067], [-68.34681339799994, 9.999019609000129], [-68.34699112299995, 9.99889204800013], [-68.34781243699996, 9.998302587000126], [-68.34881248199986, 9.99779856400005], [-68.34938149799996, 9.997155548000137], [-68.34960950399989, 9.996906541000044], [-68.34965550299995, 9.996422531000178], [-68.35016452899998, 9.995973510000056], [-68.35057254299988, 9.995661509000058], [-68.35169658899991, 9.994865482000023], [-68.35175259399995, 9.99487647900014], [-68.35175858899999, 9.994821480000098], [-68.35200259599992, 9.99464847400003], [-68.35282763399988, 9.993880451000166], [-68.3531876529999, 9.994511459000137], [-68.35402769099989, 9.994624457000043], [-68.35401867299993, 9.993351428000153], [-68.35476270799995, 9.993062413000132], [-68.35495571199993, 9.993032411000172], [-68.35558074399995, 9.994021428000167], [-68.35629677599997, 9.99366142700012], [-68.35582275699988, 9.992738405000182], [-68.35593075899988, 9.992596395000135], [-68.35664477899996, 9.991880369000057], [-68.35664277899997, 9.991657367000073], [-68.35695679099996, 9.9912423560001], [-68.35700878799997, 9.991207353000107], [-68.35771882699993, 9.99128035800004], [-68.35915988799997, 9.991863361000071], [-68.36011592999995, 9.991383343000109], [-68.36097495399997, 9.99052130900003], [-68.36130496599998, 9.9901893], [-68.36286204199996, 9.990060289000098], [-68.36346306399997, 9.990294296000172], [-68.36323106599986, 9.991481321000037], [-68.36421811199989, 9.99255135200002], [-68.36492414999998, 9.993841370000041], [-68.36672623099992, 9.994422384000131], [-68.36714599799996, 9.99438982200013], [-68.36840229599989, 9.994292367000128], [-68.36841629699995, 9.994279371000118], [-68.36891231899989, 9.994381361000023], [-68.36979735499995, 9.993018324000161], [-68.36982234699997, 9.991662293000104], [-68.37004469699997, 9.990826719000097], [-68.37029735499993, 9.989877249000017], [-68.37029750099992, 9.989872881000053], [-68.37031734899989, 9.989279232], [-68.37011834099985, 9.987999203000072], [-68.37132337899982, 9.987116166000135], [-68.37205841599996, 9.986865157000011], [-68.37264443799995, 9.986252142000012], [-68.37351146899994, 9.985722127000145], [-68.3747735199999, 9.98522710100002], [-68.37589944399997, 9.984187119000126], [-68.37592656099991, 9.984162072000117], [-68.37615510299992, 9.983771415000035], [-68.3762625359999, 9.983587774], [-68.37685559899995, 9.982574023000097], [-68.37734060499986, 9.98168799800004], [-68.37815464999989, 9.98175699400008], [-68.37963571199987, 9.981599981000159], [-68.38068274999989, 9.980904955000028], [-68.38153277299989, 9.97977792800009], [-68.38221980499998, 9.978633897], [-68.38306183199984, 9.977232854000022], [-68.38317482699995, 9.975484813000094], [-68.38444887799994, 9.974621783999964], [-68.38633794899994, 9.973328735], [-68.38714098199995, 9.973006728000087], [-68.38719284099994, 9.97293573200011], [-68.38816801899998, 9.971600682000144], [-68.38962407699995, 9.970571647000156], [-68.39076911899991, 9.970860651000066], [-68.39196916599991, 9.969816612000102], [-68.39194516699996, 9.968967591000137], [-68.39194615599996, 9.968210571000043], [-68.39360822499998, 9.967106539000156], [-68.39396823799996, 9.966706522000038], [-68.39438424299988, 9.965822496000044], [-68.39594931099998, 9.965364481000108], [-68.39735737799987, 9.965967481000064], [-68.39863442699993, 9.96597648400018], [-68.39977447299992, 9.965301454000098], [-68.40064751799997, 9.965827462000107], [-68.4017255689999, 9.966210466000177], [-68.40275661399994, 9.966548474000092], [-68.40397366699983, 9.967776489000187], [-68.40505271899991, 9.967355479000162], [-68.40472369199989, 9.966377457000078], [-68.40510869599996, 9.964437408000038], [-68.40628073899995, 9.963233361000164], [-68.40627473199999, 9.96137431700015], [-68.40561169699998, 9.960888313000112], [-68.40496267699996, 9.960906315000159], [-68.40454864999998, 9.960206295000148], [-68.40534867399998, 9.958967259000133], [-68.40604170299997, 9.958052236000185], [-68.4068127349999, 9.957433213000058], [-68.40820078399997, 9.956475190000106], [-68.40925782399995, 9.955297147000067], [-68.4100888509999, 9.95350609400009], [-68.41163790399997, 9.952520068000013], [-68.4135209829999, 9.951847044000147], [-68.41529007399993, 9.952875055], [-68.41660112299996, 9.953320057000042], [-68.41770017099992, 9.952784033000114], [-68.41920222999994, 9.951777006000043], [-68.41915622399989, 9.95097497800009], [-68.4194302269999, 9.950002961000052], [-68.42047526699997, 9.94921492900005], [-68.42306737199993, 9.947396868000169], [-68.42491144199994, 9.945346812000025], [-68.4264934929999, 9.943051748000187], [-68.4270335089999, 9.941635701000166], [-68.42760052299991, 9.940356673000053], [-68.4284395499999, 9.939689650000162], [-68.42942258999994, 9.939179631000172], [-68.43017062099995, 9.93858461300016], [-68.43120966899994, 9.938416593000113], [-68.43170068399996, 9.937737582000125], [-68.43375477299992, 9.937356559000136], [-68.43542582599991, 9.935771510000166], [-68.43817393799992, 9.934498465000104], [-68.44000801099997, 9.933734433000097], [-68.4406190389999, 9.9324084000001], [-68.44180908399994, 9.931823372000167], [-68.44225109299992, 9.931053353000152], [-68.44403015899996, 9.929188292000106], [-68.4457532269999, 9.92858826600019], [-68.44715729199999, 9.92820425500014], [-68.44878935799994, 9.926871203000132], [-68.4502824089999, 9.926369186999978], [-68.45105045199995, 9.926462189000063], [-68.4521684909999, 9.925788164000153], [-68.45324253299998, 9.926055161000136], [-68.4543185849999, 9.926369164000107], [-68.45574964299993, 9.925295135000113], [-68.45664967699997, 9.924328104000153], [-68.45819773699998, 9.923296065000102], [-68.46007381799996, 9.92319705300008], [-68.46166186999989, 9.92195700800005], [-68.4653760249999, 9.919600925000054], [-68.46682807299987, 9.918479890000128], [-68.46854014099995, 9.917512855000155], [-68.46918616299996, 9.916598838000084], [-68.47058122599998, 9.915869811999983], [-68.47197127899989, 9.915830793000055], [-68.47373135199996, 9.915733791000036], [-68.47557042799997, 9.9151527570001], [-68.47746450199992, 9.914065717000028], [-68.47870056499988, 9.914305716000058], [-68.48060164599997, 9.914250706000132], [-68.48289973499993, 9.912715662000153], [-68.48306172299993, 9.911057612000093], [-68.48329272499996, 9.909398569000075], [-68.48438568099988, 9.909651730000121], [-68.48443678499996, 9.90966356700011], [-68.48572862599997, 9.91087166799997], [-68.48569034699995, 9.90715472100004], [-68.48569, 9.907121000000188], [-68.48379499999987, 9.907359000000156], [-68.48296099999988, 9.907383], [-68.481615, 9.907353000000171], [-68.48002690399994, 9.90687873600018], [-68.480001, 9.906871], [-68.478991, 9.906418], [-68.478465, 9.905079000000114], [-68.4786, 9.903284], [-68.478935, 9.902034], [-68.479425, 9.900505], [-68.480026, 9.899638], [-68.480654, 9.89888500000012], [-68.481845, 9.898369], [-68.4825919999999, 9.897705], [-68.4832459999999, 9.896262], [-68.483647, 9.89485], [-68.4836289999999, 9.893405], [-68.483299, 9.892427000000112], [-68.48223899999982, 9.891034000000161], [-68.48187034999995, 9.889891440000099], [-68.481806, 9.889692000000139], [-68.48044882299996, 9.888510991000032], [-68.480427, 9.888492000000156], [-68.478982, 9.888258000000121], [-68.477537, 9.888024000000144], [-68.47579699999989, 9.888005], [-68.473715, 9.888202000000149], [-68.47013742199994, 9.887358194000115], [-68.470073, 9.8873430000001], [-68.469498, 9.883456], [-68.46934099999987, 9.881211], [-68.46825399999989, 9.878877], [-68.46636780299997, 9.876959201999966], [-68.46634399999988, 9.876935000000117], [-68.46397499999989, 9.876842], [-68.461499, 9.877005], [-68.45712, 9.875523], [-68.452626, 9.876547000000187], [-68.449339, 9.875976], [-68.44606067599995, 9.87486975000013], [-68.44601399999988, 9.874854], [-68.44304942499991, 9.873289555000042], [-68.443001, 9.87326400000012], [-68.440657, 9.873217000000182], [-68.436738, 9.873214], [-68.434003, 9.872466], [-68.43086760799997, 9.872213146000036], [-68.430841, 9.872211], [-68.427444, 9.870173], [-68.426846, 9.868744], [-68.42385225399994, 9.865744281000104], [-68.423839, 9.865731], [-68.41974132899998, 9.864755411000033], [-68.419706, 9.864747000000136], [-68.41719778199996, 9.86331188600002], [-68.417184, 9.863304], [-68.4167531469999, 9.863155128000017], [-68.4166919999999, 9.863134], [-68.412845, 9.859111], [-68.41128314899993, 9.856401258000062], [-68.411283, 9.856401], [-68.4068934369999, 9.85471611700018], [-68.406828, 9.854691000000116], [-68.40219172199983, 9.851197900000102], [-68.40215999999987, 9.851174], [-68.39610085099997, 9.85087675900013], [-68.396065, 9.850875], [-68.3944221029999, 9.849560093000036], [-68.394392, 9.849536000000114], [-68.38916699999987, 9.849317], [-68.384526, 9.850000000000136], [-68.37775499999987, 9.850032000000112], [-68.374383, 9.850518], [-68.371187, 9.851481], [-68.368598, 9.850935], [-68.36812576599993, 9.851111396000078], [-68.36800099999988, 9.851158], [-68.368405, 9.850665000000106], [-68.367569, 9.84899], [-68.367517, 9.84795800000012], [-68.36831, 9.84729300000015], [-68.369187, 9.847153000000105], [-68.36995699999983, 9.845685000000174], [-68.369893, 9.843414], [-68.370408, 9.841930000000161], [-68.370937, 9.840951000000132], [-68.371776, 9.839458], [-68.3718879999999, 9.83768600000019], [-68.372399, 9.836914], [-68.372346, 9.835033], [-68.37292799999989, 9.833455], [-68.373692, 9.832607], [-68.374265, 9.830731], [-68.37500299999988, 9.829769], [-68.375948, 9.82955800000019], [-68.37633099999988, 9.827504], [-68.37725699999987, 9.825825], [-68.377844, 9.824431000000175], [-68.379246, 9.823197], [-68.379227, 9.821683000000178], [-68.378909, 9.820269], [-68.3796, 9.818458], [-68.380209, 9.81706300000019], [-68.38033599999989, 9.814994], [-68.379365, 9.811807000000158], [-68.37908, 9.809933000000171], [-68.378383, 9.809034], [-68.37762599999985, 9.807701], [-68.376767, 9.806027000000142], [-68.376104, 9.804714], [-68.375323, 9.80251], [-68.37554199999988, 9.80121800000012], [-68.375159, 9.799966], [-68.374824, 9.798782000000188], [-68.374283, 9.797694], [-68.37207445999996, 9.796435044000134], [-68.37202, 9.796404], [-68.370827, 9.796874], [-68.3699310849999, 9.797123298000088], [-68.369907, 9.79713], [-68.368722, 9.796199000000172], [-68.3681622609999, 9.79583799600016], [-68.368108, 9.795803], [-68.366722, 9.796807], [-68.3654, 9.797626], [-68.3632, 9.796885], [-68.361733, 9.797501], [-68.35982, 9.797876], [-68.35887254799991, 9.797925661000136], [-68.358847, 9.79792700000013], [-68.35696986399995, 9.796674595000184], [-68.356933, 9.79665000000017], [-68.35575, 9.796614], [-68.35417599999988, 9.796705], [-68.35113499999989, 9.796585000000107], [-68.350107, 9.796292], [-68.34867230099997, 9.795740489000138], [-68.348606, 9.795715], [-68.347579, 9.7962950000001], [-68.346166, 9.796335], [-68.344088, 9.797496], [-68.342587, 9.798503], [-68.341578, 9.799748], [-68.340948, 9.801235000000133], [-68.340113, 9.802889], [-68.33865368199997, 9.802664267000125], [-68.3386, 9.802656], [-68.337875, 9.801621], [-68.337298, 9.800053], [-68.33639616499988, 9.799274717000173], [-68.336371, 9.799253], [-68.334534, 9.799075], [-68.334599, 9.80056500000012], [-68.334542, 9.801830000000109], [-68.3332759999999, 9.802164], [-68.33072, 9.801938000000177], [-68.32800786199994, 9.80212806600008], [-68.327966, 9.802131], [-68.327486, 9.801547], [-68.32680223999995, 9.801158287000078], [-68.326756, 9.80113200000011], [-68.32483404299995, 9.801185943000064], [-68.324832, 9.801186000000143], [-68.32328399999989, 9.800564000000179], [-68.3221999999999, 9.799102], [-68.32050666899994, 9.79780214800013], [-68.32047, 9.797774000000118], [-68.31794899999989, 9.797983000000158], [-68.31506, 9.799993], [-68.31224526999995, 9.799285397000176], [-68.31218799999982, 9.799271000000147], [-68.311417, 9.798236000000145], [-68.31079880499988, 9.796513324000045], [-68.31078899999989, 9.79648600000013], [-68.308935, 9.796539], [-68.30798611799997, 9.79741849900006], [-68.307964, 9.79743900000011], [-68.30728537299996, 9.796716307000054], [-68.307271, 9.796701000000155], [-68.305195, 9.796277], [-68.304206, 9.79655700000012], [-68.30236999999988, 9.797382], [-68.30155910199994, 9.797777227000097], [-68.3014900039999, 9.797810905000063], [-68.30070399999988, 9.798194], [-68.299142, 9.798698000000172], [-68.296208, 9.799079], [-68.293941, 9.799257], [-68.292051, 9.800504], [-68.29051, 9.800938], [-68.288636, 9.801909], [-68.287003, 9.802368], [-68.283969, 9.802500000000123], [-68.282808, 9.80244000000016], [-68.28016899999989, 9.801757000000123], [-68.278512, 9.803066], [-68.27711, 9.80349600000011], [-68.274268, 9.803025], [-68.272194, 9.802647], [-68.270737, 9.802757], [-68.269898, 9.804273000000137], [-68.268439, 9.805163], [-68.26683, 9.804841], [-68.265296, 9.804701], [-68.264522, 9.805204], [-68.26391829699992, 9.805812660000129], [-68.263913, 9.805818], [-68.26304816199996, 9.805366247000052], [-68.262996, 9.805339], [-68.261075, 9.805485], [-68.258817, 9.805985], [-68.257303, 9.806578], [-68.25513999999987, 9.807167000000106], [-68.253907, 9.807867000000101], [-68.253056, 9.808097000000146], [-68.25184799999988, 9.808866], [-68.25097499999987, 9.809166000000118], [-68.24905799999988, 9.809426000000144], [-68.247618, 9.809329000000105], [-68.24547299999989, 9.808907], [-68.243817, 9.80939], [-68.241946, 9.810453], [-68.24063799999988, 9.810949], [-68.23898769699997, 9.810927259000096], [-68.238968, 9.810927], [-68.23681855199999, 9.809747701000049], [-68.2367789999999, 9.809726000000126], [-68.234125, 9.809341], [-68.232634, 9.809084], [-68.228908, 9.807719000000134], [-68.2273229999999, 9.808246], [-68.225386, 9.808621000000187], [-68.223288, 9.808221000000117], [-68.222916, 9.808162], [-68.222474, 9.80810600000018], [-68.124636, 9.808679000000154], [-68.12457299999988, 9.809361], [-68.124095, 9.810522], [-68.1248619999999, 9.812291], [-68.125921, 9.813708], [-68.1270229999999, 9.815009], [-68.128529, 9.815794], [-68.13019999999989, 9.816688], [-68.131178, 9.817694000000188], [-68.132381, 9.81846400000012], [-68.1323914749999, 9.818454655000153], [-68.13376199999982, 9.81723200000016], [-68.134839, 9.817639], [-68.13484533599984, 9.81764261100011], [-68.135876, 9.818230000000142], [-68.137029, 9.818818], [-68.137881, 9.820286], [-68.138988, 9.821748], [-68.13905280999995, 9.821773493000137], [-68.141332, 9.82267000000013], [-68.14133343799995, 9.822671129000128], [-68.142801, 9.823823000000118], [-68.143668, 9.825015000000178], [-68.144409, 9.825798000000134], [-68.145808, 9.826930000000175], [-68.146822, 9.8275450000001], [-68.147687, 9.828646], [-68.147169, 9.830038000000116], [-68.146468, 9.831527], [-68.146369, 9.832999000000143], [-68.14587, 9.834252000000106], [-68.144956, 9.834737], [-68.144063, 9.835978], [-68.143494, 9.837211000000138], [-68.142369, 9.838458000000116], [-68.140372, 9.83918000000017], [-68.138009, 9.840094000000136], [-68.135973, 9.841092], [-68.13493999999986, 9.842314000000101], [-68.1354429999999, 9.844573], [-68.13510899999989, 9.84676300000018], [-68.13577199999986, 9.848971], [-68.13648599999988, 9.850467], [-68.13752099999988, 9.851838000000157], [-68.136709, 9.852687], [-68.13556901299995, 9.853142284000057], [-68.1351039999999, 9.853328000000147], [-68.13302499999986, 9.853616], [-68.132261, 9.855335000000139], [-68.132552, 9.857508000000166], [-68.13207099999988, 9.859404], [-68.13094561599985, 9.860273615000096], [-68.12933244899995, 9.861520153000015], [-68.12938725999987, 9.861555381000073], [-68.1281552289999, 9.865372489000094], [-68.12982136099998, 9.875611737000156], [-68.13313553399996, 9.882131882000067], [-68.13350534799997, 9.882615118000047], [-68.13829979799993, 9.888880020000101], [-68.13843786199988, 9.899453294000068], [-68.14244230999992, 9.908222740000042], [-68.14298012299992, 9.909400511000058], [-68.14511224399996, 9.91437562900012], [-68.14707934199998, 9.91757469300012], [-68.14953344999992, 9.918758711], [-68.15303760899997, 9.918642697], [-68.15741879899991, 9.919210676000034], [-68.16013391599995, 9.919714679000094], [-68.16327104699997, 9.919721662000029], [-68.16596417299996, 9.921025682000106], [-68.16813028299998, 9.924238746000015], [-68.16907233699999, 9.925982783000165], [-68.1711664479999, 9.930338882000115], [-68.17139847199991, 9.931700919000093], [-68.17059544699998, 9.933478964000187], [-68.17045746999997, 9.938002084000175], [-68.17259356199986, 9.938438082000175], [-68.17430764199992, 9.939645105000125], [-68.17758077899992, 9.939786091000087], [-68.18119494299992, 9.940436083], [-68.18188598199998, 9.94112809600017], [-68.1833340469999, 9.942304114000137], [-68.18433909199985, 9.943424142000083], [-68.1858331649999, 9.943773134000025], [-68.18804625899998, 9.943275110000172], [-68.1898423319999, 9.943661113000076], [-68.19100438499993, 9.942894082000123], [-68.19165040699994, 9.941912058000014], [-68.1929864469999, 9.940750025000057], [-68.1949315299999, 9.940650008000034], [-68.19743762999997, 9.938996958000075], [-68.19925371099993, 9.939243943000179], [-68.19973274199998, 9.93978195600016], [-68.20129880899987, 9.940219956000021], [-68.20298387199995, 9.93994394400005], [-68.20523996999998, 9.938480893000076], [-68.20686805099996, 9.941143953000164], [-68.20779509799985, 9.942793991000087], [-68.20828412899988, 9.944548036000185], [-68.20858515699985, 9.946192070000109], [-68.20912719099994, 9.94817512300017], [-68.20883018699993, 9.949193141000023], [-68.20728011599994, 9.95015418100013], [-68.20653309099998, 9.950818199000025], [-68.2065440959999, 9.952057231000026], [-68.20647110099998, 9.952771243000143], [-68.20716012999998, 9.953371255000036], [-68.20865819499994, 9.953008245000035], [-68.20903121499998, 9.952240225000082], [-68.21000724099991, 9.951456190000101], [-68.2109002869999, 9.952716218000091], [-68.21156433299996, 9.954075249000027], [-68.21239037599992, 9.955429277000121], [-68.21376743999997, 9.95658529900004], [-68.21455747699997, 9.958284342000013], [-68.21604154299996, 9.958266335000019], [-68.2171885969999, 9.958647340000027], [-68.21663957999993, 9.959787373000154], [-68.21529452799996, 9.960605396000062], [-68.2148075159999, 9.96229543600009], [-68.21436551099998, 9.963914488000114], [-68.21504453799997, 9.964974504000054], [-68.21759265599997, 9.965706511000121], [-68.21855298499992, 9.966816898000104], [-68.21891072499994, 9.967230537000091], [-68.22060779799995, 9.968170556000189], [-68.22221085999996, 9.967437532000076], [-68.22252959199994, 9.966816898000104], [-68.22289288899998, 9.966109487000097], [-68.22244985899994, 9.964331449000042], [-68.22376190999995, 9.963973431000113], [-68.22481896399995, 9.965298461000145], [-68.22652303499996, 9.96566445700006], [-68.22835710799995, 9.964901430000054], [-68.23032419299989, 9.963905397000133], [-68.23186126299998, 9.96411438900003], [-68.2334953379999, 9.964482395000118], [-68.23506340299997, 9.96496639600008], [-68.23616245699998, 9.965302393000115], [-68.23769452299996, 9.965328389000092], [-68.23883857199996, 9.965618386000017], [-68.24035663399997, 9.965139369000099], [-68.24102843299994, 9.966816898000104], [-68.24122967699998, 9.967319418000102], [-68.24061466299992, 9.968575458000089], [-68.23999063599996, 9.96951148100004], [-68.24084668199993, 9.971094517999973], [-68.24175673699989, 9.972951557999977], [-68.24346581499992, 9.974326583000163], [-68.24512390599989, 9.976415618999965], [-68.2468009829999, 9.97747064000015], [-68.24778903599997, 9.978797669000073], [-68.24853107299998, 9.980475711], [-68.2481920699999, 9.98243575700019], [-68.24947314399986, 9.985131824000064], [-68.24958616299989, 9.987539881000089], [-68.25001018399996, 9.988583899000162], [-68.25059422599998, 9.991229972000156], [-68.25120632499983, 9.993367333000151], [-68.25146827999998, 9.994282043000169], [-68.25012623699996, 9.996226095000054], [-68.24976721799993, 9.996877115000132], [-68.24970521999995, 9.997270129000128], [-68.24966821999993, 9.99775313400005], [-68.24970422099989, 9.998396158000105], [-68.25004624399992, 9.999263176000113], [-68.25033726099997, 9.999855184000069], [-68.25057827899991, 10.000287196999977], [-68.25096630299993, 10.00113022000005], [-68.25073428599995, 10.001135212000065], [-68.24966024499997, 10.000903216999973], [-68.24905021199993, 10.00057121400016], [-68.24856318999997, 10.000627221000059], [-68.24814916899999, 10.000865231000034], [-68.24804316799992, 10.00137323500013], [-68.24816318099994, 10.002773279000166], [-68.24855521499995, 10.003754292000053], [-68.24900723599995, 10.004320308], [-68.24955426499992, 10.004952320000086], [-68.25016529099992, 10.005285329], [-68.25059330599998, 10.005782332000024], [-68.25071731099996, 10.006171348000066], [-68.25075332299991, 10.006814361000067], [-68.25076232499993, 10.00725137700016], [-68.25084133399992, 10.007732382000086], [-68.25084733099987, 10.008031397000025], [-68.25068732099987, 10.008195391000072], [-68.25017630599996, 10.008205398000143], [-68.24964728099997, 10.008469413000057], [-68.24908925899996, 10.008480414000132], [-68.24874524399996, 10.008694418000061], [-68.24874624899985, 10.00871741800006], [-68.24910426999998, 10.009192427000187], [-68.24938927799985, 10.009531433000177], [-68.24996529799989, 10.009290430000021], [-68.2501833149999, 10.009699442000112], [-68.25019131199997, 10.010136446000047], [-68.24937128799996, 10.010957470000108], [-68.24909627499994, 10.011170481000079], [-68.24899127999987, 10.011747496999988], [-68.24904127899993, 10.011907505000124], [-68.24928028599999, 10.01222450400013], [-68.24915128499998, 10.012755520000042], [-68.2485322579999, 10.0132055360001], [-68.24810525499993, 10.013949563000153], [-68.24768423699999, 10.014992581000115], [-68.24726622399987, 10.016150622999987], [-68.24727322699994, 10.016541627000038], [-68.24754925199994, 10.017547651000143], [-68.24756025299996, 10.018099668000048], [-68.24745724499996, 10.018814685000166], [-68.24661022299995, 10.019452701000034], [-68.24565317799988, 10.020413737000126], [-68.2451841649999, 10.020170730000189], [-68.24463213999996, 10.020480745000157], [-68.24454413599989, 10.020758747000059], [-68.2449191479999, 10.020888752000076], [-68.24555918399994, 10.02154275800018], [-68.24567918999992, 10.021701772000029], [-68.24568219399998, 10.021861769000054], [-68.24536017499997, 10.022052773000041], [-68.24489515999988, 10.022015774000067], [-68.2445101479999, 10.022552798999982], [-68.24427113599995, 10.023384817000078], [-68.24460915999992, 10.024044832000072], [-68.2451281839999, 10.024425841000095], [-68.24532318999997, 10.02490484700013], [-68.24493617799982, 10.025279865000073], [-68.24442315199991, 10.025221865000049], [-68.24381712899986, 10.025141870000084], [-68.24316809899989, 10.025223871000037], [-68.24284909499988, 10.025551883000162], [-68.24196306299984, 10.02658190700015], [-68.24161103999995, 10.026404908000131], [-68.24142303799994, 10.02627090500016], [-68.24070100699987, 10.026215910000133], [-68.23952295099991, 10.026561925000067], [-68.23906294099987, 10.026823941000089], [-68.23907394099996, 10.027352946000065], [-68.23915494999994, 10.027948964000188], [-68.23900093699996, 10.028388973000062], [-68.23815391499988, 10.029050000000154], [-68.23745688399993, 10.02906400500018], [-68.23708586999999, 10.02907100800013], [-68.23708886299994, 10.0292320100001], [-68.23746388599989, 10.02938501500006], [-68.23856492699997, 10.029846018000114], [-68.23870994499998, 10.030119016000128], [-68.23832292199984, 10.030518028000131], [-68.23780589699987, 10.030252032000135], [-68.23729488099997, 10.030262028000095], [-68.2369518719999, 10.030568045000052], [-68.23691386699994, 10.030983054000046], [-68.23651085799992, 10.031750069000168], [-68.23621284499995, 10.03196308000014], [-68.23584282499996, 10.03203908400019], [-68.23516679599999, 10.031961088000116], [-68.23416875799995, 10.032050091000144], [-68.23324671399996, 10.032413109000174], [-68.23288670099998, 10.03301812900014], [-68.23260069399987, 10.033829146000187], [-68.23232468799995, 10.033972151000171], [-68.23194967599983, 10.033796156999983], [-68.23113563099997, 10.033812161000071], [-68.2310016379999, 10.034068168000033], [-68.23096863699993, 10.034735185999978], [-68.23088363799991, 10.035174188999974], [-68.23050361799989, 10.035940211000138], [-68.23050862099996, 10.036170225000149], [-68.23061262999994, 10.036720231000174], [-68.23069763599995, 10.03750025100004], [-68.23063664299997, 10.03796126100002], [-68.23052263399995, 10.038055273000168], [-68.23005861299993, 10.038110275000065], [-68.22945358399988, 10.038076281000144], [-68.22886856299988, 10.037881273000153], [-68.22761150999997, 10.0377912780001], [-68.22710849099991, 10.03821528900005], [-68.22707149199988, 10.038676310000142], [-68.22678048099993, 10.039234325], [-68.22658748099997, 10.040042337000102], [-68.22654647199994, 10.040319345000057], [-68.22655748499989, 10.040894362000131], [-68.22653648399995, 10.041009363000171], [-68.22586645099983, 10.041229377000036], [-68.22547344299988, 10.041306385000041], [-68.22498841999999, 10.041454382000097], [-68.2241873879999, 10.042114404000188], [-68.22417038399993, 10.042436419000126], [-68.22437240399995, 10.043260440000154], [-68.22450040699994, 10.043832453000164], [-68.22446041499995, 10.044178462000104], [-68.22355237599993, 10.045277486999964], [-68.22313235699983, 10.04521649500009], [-68.22262033599992, 10.045134489000077], [-68.22156029999996, 10.045638513000029], [-68.2210542759999, 10.04587852300017], [-68.22082025999993, 10.045791525000084], [-68.22053224699988, 10.045337506000067], [-68.22056724699996, 10.04473849500016], [-68.22034823599995, 10.044237481999971], [-68.21974320699996, 10.044249488000105], [-68.21921918599998, 10.044765500000153], [-68.21899418499999, 10.045161519000146], [-68.21893918799998, 10.045875531000092], [-68.21916419699994, 10.046675559], [-68.2192721649999, 10.046957144000146], [-68.21940921399988, 10.047314573000108], [-68.21911019499998, 10.04750457200015], [-68.21869218699999, 10.047512580999978], [-68.21808215399994, 10.047202572], [-68.21738412899992, 10.047193577000087], [-68.21712911199995, 10.047198580000043], [-68.21610807399986, 10.04731158900006], [-68.2156780549999, 10.0478716020001], [-68.21525103999983, 10.048616623000044], [-68.21497903199997, 10.048989642000095], [-68.21456301099994, 10.049112639000043], [-68.21428500499991, 10.049164647999987], [-68.21352496999998, 10.049524662000124], [-68.21355597899998, 10.049891672000115], [-68.21380198899993, 10.050599687000158], [-68.21386499999988, 10.05144870800018], [-68.21382400299996, 10.051725715999964], [-68.21333496999989, 10.051666711000166], [-68.2110388829999, 10.051919738000038], [-68.21009783599993, 10.052512759000024], [-68.2095338229999, 10.053397780000125], [-68.20863179299988, 10.054795820000152], [-68.20803477199996, 10.055152829000122], [-68.20759575099987, 10.055322844000045], [-68.2067407209999, 10.055546856000149], [-68.20597967999998, 10.05588385800013], [-68.20556466499994, 10.056052867000176], [-68.20515665199986, 10.056589880000104], [-68.20461162999999, 10.057198910000068], [-68.20381260799985, 10.05797292800014], [-68.20363960499992, 10.058597944000155], [-68.20327558199989, 10.059041962000151], [-68.20278856099992, 10.059050964000164], [-68.20236554899992, 10.058829963999983], [-68.20200652299997, 10.058330950000084], [-68.20181351699989, 10.057943944000044], [-68.20164050599988, 10.057395925000094], [-68.20079646999994, 10.057044919000191], [-68.20039644699989, 10.056776913000022], [-68.20008821599998, 10.056868052000027], [-68.19998042599985, 10.056899922000184], [-68.19991842699994, 10.05729193100018], [-68.20002243599993, 10.05788795], [-68.20038045699982, 10.058363963999966], [-68.20055846999998, 10.059118973000182], [-68.20057247599988, 10.059876998000107], [-68.20039346399983, 10.06020301100017], [-68.20012445999987, 10.060691019000046], [-68.20023949699998, 10.060767972000122], [-68.20026922099993, 10.060787855000058], [-68.20055948699996, 10.06098202600009], [-68.2024105559999, 10.060723005000057], [-68.20489966199989, 10.060837992000074], [-68.20610472099997, 10.06156500500009], [-68.20656475899983, 10.063903065999966]]]}}]}