{
  "type": "FeatureCollection",
  "features": [
    {
      "type": "Feature",
      "properties": {
        "Pais": "Venezuela",
        "Estado": "Aragua",
        "Municipio": "Tovar"
      },
      "geometry": {
        "type": "Polygon",
        "coordinates": [
          [
            [
              -67.40044765199997,
              10.529766866000045
            ],
            [
              -67.40056765699995,
              10.52973486600007
            ],
            [
              -67.40110368499995,
              10.529957865000142
            ],
            [
              -67.40131969399988,
              10.530574885000021
            ],
            [
              -67.40126439999995,
              10.530647232000035
            ],
            [
              -67.40109382199995,
              10.530870415000152
            ],
            [
              -67.40077167999993,
              10.531291904000113
            ],
            [
              -67.40052267299995,
              10.531845922000116
            ],
            [
              -67.40036966799988,
              10.532604942000034
            ],
            [
              -67.40044967299997,
              10.533474966000085
            ],
            [
              -67.40119470499997,
              10.533717960000104
            ],
            [
              -67.4031437989999,
              10.533717948000117
            ],
            [
              -67.40460485399996,
              10.53372394700017
            ],
            [
              -67.40613392799997,
              10.533521926000049
            ],
            [
              -67.40869003899991,
              10.5338349270001
            ],
            [
              -67.41043310999999,
              10.534112918000119
            ],
            [
              -67.41090513899996,
              10.534347920000187
            ],
            [
              -67.41355945899994,
              10.534411828000145
            ],
            [
              -67.4156803429999,
              10.534462893000182
            ],
            [
              -67.41743942199997,
              10.534097882000083
            ],
            [
              -67.41858246899994,
              10.534656881000046
            ],
            [
              -67.41990653699997,
              10.534801876000074
            ],
            [
              -67.42178361299995,
              10.534618868000052
            ],
            [
              -67.42375569499995,
              10.534663851000118
            ],
            [
              -67.42458197099995,
              10.534421902000076
            ],
            [
              -67.4249817509999,
              10.534304839000072
            ],
            [
              -67.42650580899988,
              10.533712807000143
            ],
            [
              -67.42851689999992,
              10.53309278200004
            ],
            [
              -67.43034797399997,
              10.533001776000162
            ],
            [
              -67.43185304199989,
              10.53275476000016
            ],
            [
              -67.43322410499991,
              10.53289874799998
            ],
            [
              -67.43510317999989,
              10.532875737000154
            ],
            [
              -67.43598522199994,
              10.532933735000142
            ],
            [
              -67.4375432949999,
              10.533236737000152
            ],
            [
              -67.43799331999992,
              10.53401074900006
            ],
            [
              -67.4386263429999,
              10.534576764000121
            ],
            [
              -67.43927137599997,
              10.53417874400003
            ],
            [
              -67.43902535099994,
              10.533034717000135
            ],
            [
              -67.43885334399994,
              10.532256707000101
            ],
            [
              -67.43971037399996,
              10.532108696000023
            ],
            [
              -67.44108944699997,
              10.532986705999974
            ],
            [
              -67.44214448999992,
              10.53386872600015
            ],
            [
              -67.44316053599988,
              10.533512707000057
            ],
            [
              -67.44350255099994,
              10.53300369600015
            ],
            [
              -67.44405156999989,
              10.532377672000052
            ],
            [
              -67.44445758199998,
              10.53136364900007
            ],
            [
              -67.44607565199993,
              10.530862624000122
            ],
            [
              -67.44800719599988,
              10.531453752000175
            ],
            [
              -67.4490327819999,
              10.531767622000189
            ],
            [
              -67.45316296299995,
              10.531831608000175
            ],
            [
              -67.45464101999988,
              10.531263582000065
            ],
            [
              -67.45693812699994,
              10.531304567000177
            ],
            [
              -67.45900521699991,
              10.531508564999967
            ],
            [
              -67.46006625799998,
              10.530968543000085
            ],
            [
              -67.46107430599989,
              10.53187356400008
            ],
            [
              -67.4622693629999,
              10.532799574000137
            ],
            [
              -67.46332341199991,
              10.533635594000032
            ],
            [
              -67.46388443999996,
              10.533972600000027
            ],
            [
              -67.46577253099997,
              10.53470661
            ],
            [
              -67.46577753299994,
              10.53471960600001
            ],
            [
              -67.47026173299997,
              10.536488623000082
            ],
            [
              -67.47124699099993,
              10.536452727000153
            ],
            [
              -67.471239,
              10.536424000000181
            ],
            [
              -67.47071,
              10.535983000000101
            ],
            [
              -67.47025699999983,
              10.536134000000175
            ],
            [
              -67.469962,
              10.53619
            ],
            [
              -67.466738,
              10.532447000000104
            ],
            [
              -67.46580399999988,
              10.5318630000001
            ],
            [
              -67.46565639099992,
              10.531587561000151
            ],
            [
              -67.465401,
              10.531111
            ],
            [
              -67.465156,
              10.52999100000011
            ],
            [
              -67.46489184899991,
              10.529880407000121
            ],
            [
              -67.463828,
              10.529435
            ],
            [
              -67.46356368199997,
              10.528973752000127
            ],
            [
              -67.463071,
              10.528114
            ],
            [
              -67.462884,
              10.526099000000158
            ],
            [
              -67.46239999999989,
              10.52431700000011
            ],
            [
              -67.461754,
              10.522605
            ],
            [
              -67.46193745299996,
              10.519189502000074
            ],
            [
              -67.461945,
              10.519049000000166
            ],
            [
              -67.46197899999987,
              10.516000000000133
            ],
            [
              -67.461913,
              10.514281
            ],
            [
              -67.4627,
              10.5122080000001
            ],
            [
              -67.46318999999988,
              10.510505
            ],
            [
              -67.463664,
              10.509353000000146
            ],
            [
              -67.4638159999999,
              10.508479
            ],
            [
              -67.462829,
              10.50729900000016
            ],
            [
              -67.460498,
              10.506182000000138
            ],
            [
              -67.45580399999983,
              10.503283
            ],
            [
              -67.45526499999988,
              10.50274
            ],
            [
              -67.454948,
              10.501391000000183
            ],
            [
              -67.454712,
              10.49901
            ],
            [
              -67.453083,
              10.49848
            ],
            [
              -67.452398,
              10.49745700000011
            ],
            [
              -67.451919,
              10.496087000000102
            ],
            [
              -67.451651,
              10.492995
            ],
            [
              -67.451608,
              10.49123
            ],
            [
              -67.451218,
              10.489607
            ],
            [
              -67.450989,
              10.487845000000107
            ],
            [
              -67.45064799999989,
              10.486405000000161
            ],
            [
              -67.450711,
              10.483882000000108
            ],
            [
              -67.450564,
              10.481133
            ],
            [
              -67.44921,
              10.47833
            ],
            [
              -67.446085,
              10.472752
            ],
            [
              -67.441598,
              10.465609
            ],
            [
              -67.435861,
              10.458573000000172
            ],
            [
              -67.431839,
              10.455551
            ],
            [
              -67.428815,
              10.454603000000134
            ],
            [
              -67.427418,
              10.454024
            ],
            [
              -67.427266,
              10.45396
            ],
            [
              -67.42582499999986,
              10.452943000000118
            ],
            [
              -67.425588,
              10.45219
            ],
            [
              -67.424464,
              10.451241000000152
            ],
            [
              -67.423037,
              10.450066000000106
            ],
            [
              -67.421298,
              10.449426
            ],
            [
              -67.42177999999984,
              10.44829
            ],
            [
              -67.422264,
              10.447394
            ],
            [
              -67.421972,
              10.446113
            ],
            [
              -67.419443,
              10.437823
            ],
            [
              -67.419268,
              10.436701
            ],
            [
              -67.419279,
              10.435670000000187
            ],
            [
              -67.420351,
              10.434166000000118
            ],
            [
              -67.42123899999984,
              10.432756000000154
            ],
            [
              -67.421252,
              10.42984500000017
            ],
            [
              -67.41969299999982,
              10.427296000000126
            ],
            [
              -67.41908099999989,
              10.42450700000012
            ],
            [
              -67.419088,
              10.421067
            ],
            [
              -67.41786499999984,
              10.41746
            ],
            [
              -67.415534,
              10.414279
            ],
            [
              -67.413556,
              10.411621
            ],
            [
              -67.412688,
              10.410692
            ],
            [
              -67.41164,
              10.410247
            ],
            [
              -67.410803,
              10.409959
            ],
            [
              -67.409753,
              10.409468000000118
            ],
            [
              -67.409511,
              10.408531
            ],
            [
              -67.40924699999988,
              10.407800000000123
            ],
            [
              -67.403447,
              10.401132000000132
            ],
            [
              -67.402763,
              10.398137000000133
            ],
            [
              -67.398746,
              10.394163000000106
            ],
            [
              -67.39891,
              10.393554
            ],
            [
              -67.400068,
              10.393448
            ],
            [
              -67.401056,
              10.3926790000001
            ],
            [
              -67.401828,
              10.391363
            ],
            [
              -67.402655,
              10.39071
            ],
            [
              -67.404364,
              10.390139
            ],
            [
              -67.406192,
              10.3899100000001
            ],
            [
              -67.408434,
              10.389469
            ],
            [
              -67.418016,
              10.382219
            ],
            [
              -67.423559,
              10.378642
            ],
            [
              -67.426838,
              10.377661
            ],
            [
              -67.428298,
              10.377597
            ],
            [
              -67.430543,
              10.377431
            ],
            [
              -67.43262,
              10.377152
            ],
            [
              -67.43236899999988,
              10.376932000000124
            ],
            [
              -67.429209,
              10.374164
            ],
            [
              -67.426052,
              10.372474
            ],
            [
              -67.422919,
              10.370808
            ],
            [
              -67.41895099999988,
              10.36977700000017
            ],
            [
              -67.4147569999999,
              10.367601
            ],
            [
              -67.4111,
              10.364533
            ],
            [
              -67.408226,
              10.361974
            ],
            [
              -67.406256,
              10.358778000000143
            ],
            [
              -67.406177,
              10.356395000000134
            ],
            [
              -67.406765,
              10.354497000000151
            ],
            [
              -67.407725,
              10.352165000000127
            ],
            [
              -67.407979,
              10.347836
            ],
            [
              -67.40699299999983,
              10.342355
            ],
            [
              -67.4058849999999,
              10.337857
            ],
            [
              -67.404034,
              10.334204000000113
            ],
            [
              -67.402115,
              10.330344000000139
            ],
            [
              -67.400748,
              10.32674
            ],
            [
              -67.400893,
              10.32133400000015
            ],
            [
              -67.400473,
              10.317986
            ],
            [
              -67.400352,
              10.314778
            ],
            [
              -67.400001,
              10.314195
            ],
            [
              -67.4001,
              10.313987000000111
            ],
            [
              -67.400155,
              10.313693000000171
            ],
            [
              -67.399158,
              10.312795000000108
            ],
            [
              -67.30970299999984,
              10.346896
            ],
            [
              -67.306158,
              10.348651000000132
            ],
            [
              -67.305573,
              10.348469
            ],
            [
              -67.298523,
              10.351155
            ],
            [
              -67.274824,
              10.343796
            ],
            [
              -67.274416,
              10.344515
            ],
            [
              -67.271781,
              10.3491590000001
            ],
            [
              -67.27060199999988,
              10.34929
            ],
            [
              -67.269539,
              10.349444
            ],
            [
              -67.267645,
              10.349272
            ],
            [
              -67.265824,
              10.348642
            ],
            [
              -67.26402699999988,
              10.347922
            ],
            [
              -67.262918,
              10.347846000000175
            ],
            [
              -67.261093,
              10.347881
            ],
            [
              -67.25910599999986,
              10.347869000000117
            ],
            [
              -67.256658,
              10.347694
            ],
            [
              -67.25434699999983,
              10.347818000000132
            ],
            [
              -67.252221,
              10.347897000000103
            ],
            [
              -67.25002299999989,
              10.34848
            ],
            [
              -67.247847,
              10.349177000000168
            ],
            [
              -67.246084,
              10.350564000000134
            ],
            [
              -67.244392,
              10.351355
            ],
            [
              -67.242632,
              10.352169
            ],
            [
              -67.241218,
              10.352962000000161
            ],
            [
              -67.23931899999985,
              10.353707000000156
            ],
            [
              -67.238304,
              10.35349500000018
            ],
            [
              -67.236969,
              10.35270700000018
            ],
            [
              -67.23668,
              10.350827
            ],
            [
              -67.235294,
              10.350865
            ],
            [
              -67.23427,
              10.35209500000019
            ],
            [
              -67.232836,
              10.352132
            ],
            [
              -67.232405,
              10.350801
            ],
            [
              -67.232135,
              10.349631
            ],
            [
              -67.230828,
              10.348019
            ],
            [
              -67.229052,
              10.347596
            ],
            [
              -67.227163,
              10.346737
            ],
            [
              -67.226181,
              10.344898000000114
            ],
            [
              -67.225499,
              10.343084000000147
            ],
            [
              -67.224355,
              10.341222
            ],
            [
              -67.222999,
              10.340067
            ],
            [
              -67.22182599999985,
              10.339143
            ],
            [
              -67.221097,
              10.337467
            ],
            [
              -67.220092,
              10.335628000000156
            ],
            [
              -67.21852899999982,
              10.334358
            ],
            [
              -67.217614,
              10.332909
            ],
            [
              -67.21616499999988,
              10.331801
            ],
            [
              -67.215315,
              10.331016
            ],
            [
              -67.213384,
              10.329493
            ],
            [
              -67.212017,
              10.326231000000178
            ],
            [
              -67.211612,
              10.324465
            ],
            [
              -67.211023,
              10.322582
            ],
            [
              -67.209732,
              10.322185
            ],
            [
              -67.20861999999988,
              10.322682000000157
            ],
            [
              -67.2076699999999,
              10.323249000000146
            ],
            [
              -67.206448,
              10.322852000000182
            ],
            [
              -67.205112,
              10.32213400000012
            ],
            [
              -67.203819,
              10.32212600000014
            ],
            [
              -67.20275299999986,
              10.322623
            ],
            [
              -67.20067299999988,
              10.322794000000158
            ],
            [
              -67.199771,
              10.323109000000102
            ],
            [
              -67.198678,
              10.324224000000186
            ],
            [
              -67.198031,
              10.324243
            ],
            [
              -67.19667,
              10.324075000000107
            ],
            [
              -67.19558199999983,
              10.324457000000109
            ],
            [
              -67.194566,
              10.324359000000186
            ],
            [
              -67.19404666799988,
              10.324288978000027
            ],
            [
              -67.19332,
              10.324191
            ],
            [
              -67.19223,
              10.324826
            ],
            [
              -67.191187,
              10.325461
            ],
            [
              -67.190263,
              10.325295000000153
            ],
            [
              -67.18846015199995,
              10.325247121000189
            ],
            [
              -67.18825471499991,
              10.325241666000181
            ],
            [
              -67.18825818199997,
              10.32526671100004
            ],
            [
              -67.18675411999993,
              10.325673735000123
            ],
            [
              -67.18587407599995,
              10.325591743000132
            ],
            [
              -67.18422600999992,
              10.325129738000157
            ],
            [
              -67.18278794199995,
              10.324778735000166
            ],
            [
              -67.18124086999995,
              10.325094752000098
            ],
            [
              -67.17919278999995,
              10.326058787000022
            ],
            [
              -67.17649767799998,
              10.327167840000016
            ],
            [
              -67.1753686269999,
              10.32752485300017
            ],
            [
              -67.17355255199993,
              10.326536835000127
            ],
            [
              -67.17196248499988,
              10.327150862000053
            ],
            [
              -67.17095243499989,
              10.327827878000107
            ],
            [
              -67.1691523689999,
              10.328214908000177
            ],
            [
              -67.16960038699995,
              10.329651941000122
            ],
            [
              -67.16720729899998,
              10.33074697900014
            ],
            [
              -67.16576623199995,
              10.331280002000085
            ],
            [
              -67.16357913999991,
              10.33167803100008
            ],
            [
              -67.16267611599989,
              10.332973062000065
            ],
            [
              -67.16249211399986,
              10.335621141000047
            ],
            [
              -67.16314816399995,
              10.338423205000083
            ],
            [
              -67.16436024099988,
              10.341872287000172
            ],
            [
              -67.16599633099997,
              10.344869357000164
            ],
            [
              -67.16796142799996,
              10.347349410000106
            ],
            [
              -67.17146258199983,
              10.348666434000165
            ],
            [
              -67.17345467299998,
              10.348643422000066
            ],
            [
              -67.17533174999994,
              10.348735412
            ],
            [
              -67.17740184699989,
              10.349468416000093
            ],
            [
              -67.17804088199995,
              10.350652445000094
            ],
            [
              -67.17906893799989,
              10.351488454000105
            ],
            [
              -67.18002097699997,
              10.351706460000173
            ],
            [
              -67.18160104599997,
              10.352146459000096
            ],
            [
              -67.18373713899996,
              10.352488458000039
            ],
            [
              -67.18568722899994,
              10.35292346500006
            ],
            [
              -67.18794534099999,
              10.353882473
            ],
            [
              -67.18946141399994,
              10.354782489000058
            ],
            [
              -67.19208854199996,
              10.357777554000165
            ],
            [
              -67.19291357999992,
              10.359073580000086
            ],
            [
              -67.19376363099991,
              10.360553608000146
            ],
            [
              -67.19493968899997,
              10.36221365
            ],
            [
              -67.19556373299991,
              10.364200702000119
            ],
            [
              -67.19588074899997,
              10.36566374
            ],
            [
              -67.1965447959999,
              10.367100772000072
            ],
            [
              -67.19778585599994,
              10.368300797000188
            ],
            [
              -67.1989569079999,
              10.369432816000142
            ],
            [
              -67.20010497199996,
              10.370588841000142
            ],
            [
              -67.20098501599995,
              10.37273289500007
            ],
            [
              -67.20108704099994,
              10.375711975000172
            ],
            [
              -67.20108204799988,
              10.377363014000082
            ],
            [
              -67.20137506899988,
              10.378735044999985
            ],
            [
              -67.20274913899988,
              10.379406052000036
            ],
            [
              -67.20413320799992,
              10.380995095000117
            ],
            [
              -67.20336918499993,
              10.383136154999988
            ],
            [
              -67.20302917099997,
              10.383873170000129
            ],
            [
              -67.20301817899997,
              10.384974201000034
            ],
            [
              -67.20328719399998,
              10.386277231
            ],
            [
              -67.20357522199993,
              10.387168255
            ],
            [
              -67.20466027099991,
              10.38894330000005
            ],
            [
              -67.20506730099993,
              10.390153323000106
            ],
            [
              -67.2058163339999,
              10.390901341000188
            ],
            [
              -67.2079094309999,
              10.391610351000054
            ],
            [
              -67.20944850399997,
              10.392463361000068
            ],
            [
              -67.21064255699991,
              10.393618392000178
            ],
            [
              -67.21131400799999,
              10.394778908000092
            ],
            [
              -67.21132760499995,
              10.394802409000022
            ],
            [
              -67.21215464299996,
              10.396282449000068
            ],
            [
              -67.21360371399999,
              10.397457475000124
            ],
            [
              -67.21488877499996,
              10.398358485000074
            ],
            [
              -67.2164498549999,
              10.399165495000034
            ],
            [
              -67.21815392999997,
              10.400268515
            ],
            [
              -67.21859786699991,
              10.401372809000065
            ],
            [
              -67.21867695699996,
              10.40156954500003
            ],
            [
              -67.21925399499992,
              10.403488601000163
            ],
            [
              -67.22004004899998,
              10.405427641000188
            ],
            [
              -67.22017757999998,
              10.406127783000045
            ],
            [
              -67.22035906399998,
              10.407051681000098
            ],
            [
              -67.22042207899995,
              10.40856372400009
            ],
            [
              -67.22032442999995,
              10.40961907500008
            ],
            [
              -67.22024308699997,
              10.410398778
            ],
            [
              -67.22090711499993,
              10.41057477000004
            ],
            [
              -67.22109511899993,
              10.410939781000081
            ],
            [
              -67.22411125399992,
              10.411132764000172
            ],
            [
              -67.22547030999993,
              10.41038374100009
            ],
            [
              -67.22868045999996,
              10.411514754000166
            ],
            [
              -67.23038254199986,
              10.412661754000055
            ],
            [
              -67.23038554099992,
              10.412663775000112
            ],
            [
              -67.23157559599997,
              10.413497784000128
            ],
            [
              -67.23221462999999,
              10.41465881300013
            ],
            [
              -67.23278766899989,
              10.416256859000043
            ],
            [
              -67.23439574299982,
              10.417062863000126
            ],
            [
              -67.23665184399988,
              10.41783887500003
            ],
            [
              -67.23835091499996,
              10.418437876000098
            ],
            [
              -67.24074602399998,
              10.419187883000063
            ],
            [
              -67.24296613399997,
              10.420880912000086
            ],
            [
              -67.24379518399991,
              10.422544954000102
            ],
            [
              -67.24450921899995,
              10.424279002000048
            ],
            [
              -67.24670032899996,
              10.425399012000184
            ],
            [
              -67.24909243299999,
              10.425875014000155
            ],
            [
              -67.2506885059999,
              10.426865031999967
            ],
            [
              -67.2514595369999,
              10.426190003000158
            ],
            [
              -67.25441966199998,
              10.425558975000172
            ],
            [
              -67.25688376099993,
              10.424107924000111
            ],
            [
              -67.25859183499995,
              10.423513893000063
            ],
            [
              -67.26111194499998,
              10.422956870000064
            ],
            [
              -67.26372805599993,
              10.422741847000168
            ],
            [
              -67.26546813399995,
              10.422904837000146
            ],
            [
              -67.26665017799996,
              10.422890829000039
            ],
            [
              -67.26922629799992,
              10.423249829999975
            ],
            [
              -67.27096236599994,
              10.423021804000143
            ],
            [
              -67.27358947999988,
              10.42166075400013
            ],
            [
              -67.27524054999998,
              10.42216876000009
            ],
            [
              -67.27686962499996,
              10.422790762000034
            ],
            [
              -67.27851469699993,
              10.422770756000148
            ],
            [
              -67.27982474499993,
              10.42174672300007
            ],
            [
              -67.28143480699993,
              10.42071869199998
            ],
            [
              -67.28396092699995,
              10.420710671000109
            ],
            [
              -67.28412445899988,
              10.420759886000042
            ],
            [
              -67.28593801599993,
              10.421305674000052
            ],
            [
              -67.28734007899993,
              10.422320692000028
            ],
            [
              -67.28920216599994,
              10.423123702000055
            ],
            [
              -67.29108125299996,
              10.42323869300003
            ],
            [
              -67.29271332399992,
              10.424380713000062
            ],
            [
              -67.29307333199995,
              10.423122686000113
            ],
            [
              -67.29515042099996,
              10.422386655000082
            ],
            [
              -67.29642693799997,
              10.421679785000038
            ],
            [
              -67.30530882799997,
              10.416761446000123
            ],
            [
              -67.30747391899996,
              10.415566403000128
            ],
            [
              -67.30902796999993,
              10.413644343000044
            ],
            [
              -67.31145107299989,
              10.412721303000069
            ],
            [
              -67.31451419099994,
              10.410964233000186
            ],
            [
              -67.31624926499995,
              10.410691223000129
            ],
            [
              -67.31851536299996,
              10.41027419
            ],
            [
              -67.31982441799994,
              10.40918015200009
            ],
            [
              -67.32192450599996,
              10.408352119000028
            ],
            [
              -67.32420759499996,
              10.407408091000093
            ],
            [
              -67.32614867999996,
              10.406903056000147
            ],
            [
              -67.32804976199998,
              10.406994052000016
            ],
            [
              -67.33052086499998,
              10.40620701600011
            ],
            [
              -67.33297296699982,
              10.405787994999969
            ],
            [
              -67.33420900899995,
              10.404442953000057
            ],
            [
              -67.33597207599996,
              10.402495893000093
            ],
            [
              -67.33696811499988,
              10.400396822000062
            ],
            [
              -67.33729511599995,
              10.39858177700006
            ],
            [
              -67.33933818799994,
              10.396837720000121
            ],
            [
              -67.33991121399993,
              10.396234696000136
            ],
            [
              -67.34204529499993,
              10.394442639999966
            ],
            [
              -67.34371835899998,
              10.392725583000129
            ],
            [
              -67.34628445799996,
              10.39017250600017
            ],
            [
              -67.34722048699996,
              10.388877463000028
            ],
            [
              -67.34770449799993,
              10.38760142600006
            ],
            [
              -67.3476985179999,
              10.39014349000007
            ],
            [
              -67.34832752899996,
              10.388207434000094
            ],
            [
              -67.34782557999995,
              10.399556736000022
            ],
            [
              -67.34853260999989,
              10.400556763000054
            ],
            [
              -67.34884462999997,
              10.401056771000015
            ],
            [
              -67.35038971499989,
              10.40273180600019
            ],
            [
              -67.3521457899999,
              10.404314839000165
            ],
            [
              -67.35351086799994,
              10.40617788500009
            ],
            [
              -67.35570997399992,
              10.407598909000058
            ],
            [
              -67.35629499499998,
              10.40784290900001
            ],
            [
              -67.35744404899998,
              10.408352916000013
            ],
            [
              -67.35920813699988,
              10.409176929000068
            ],
            [
              -67.36064320299988,
              10.409803934000024
            ],
            [
              -67.36102221899989,
              10.411166965000064
            ],
            [
              -67.36197527099995,
              10.412792006000132
            ],
            [
              -67.36287133499997,
              10.416220089000035
            ],
            [
              -67.36202831299994,
              10.419531182000128
            ],
            [
              -67.36179030999995,
              10.421069219000117
            ],
            [
              -67.36187831899986,
              10.421672239000088
            ],
            [
              -67.36262936899993,
              10.423536283000146
            ],
            [
              -67.36411744799994,
              10.42594834199997
            ],
            [
              -67.36404044199998,
              10.426302345000067
            ],
            [
              -67.36404445099993,
              10.426310350999984
            ],
            [
              -67.36423646399993,
              10.428527407000104
            ],
            [
              -67.36392245399998,
              10.4293794350001
            ],
            [
              -67.36349745599989,
              10.43120148200012
            ],
            [
              -67.36347345699994,
              10.432412513000031
            ],
            [
              -67.36336346199988,
              10.433383537000111
            ],
            [
              -67.36436350799994,
              10.434984573000065
            ],
            [
              -67.36466552799988,
              10.43623160900006
            ],
            [
              -67.3640225069999,
              10.436886629000071
            ],
            [
              -67.36309646799992,
              10.437786659000096
            ],
            [
              -67.36302547299994,
              10.438594684000066
            ],
            [
              -67.36312348999996,
              10.439844713000014
            ],
            [
              -67.36336449999999,
              10.440887740000107
            ],
            [
              -67.36410454399993,
              10.443303802000173
            ],
            [
              -67.36400755599982,
              10.444130817000087
            ],
            [
              -67.36445257699995,
              10.444711828000095
            ],
            [
              -67.36521648999991,
              10.4450990630001
            ],
            [
              -67.36539162099996,
              10.44518783899997
            ],
            [
              -67.36715768899995,
              10.44477881400013
            ],
            [
              -67.36935978999998,
              10.44477480400019
            ],
            [
              -67.37054584399988,
              10.445149802000117
            ],
            [
              -67.37177991099986,
              10.447656868000081
            ],
            [
              -67.37223493699992,
              10.448199872000089
            ],
            [
              -67.37228893199995,
              10.448241875000065
            ],
            [
              -67.37232093199987,
              10.44830187600013
            ],
            [
              -67.37328398599988,
              10.449448903000132
            ],
            [
              -67.37361900799988,
              10.45036192200007
            ],
            [
              -67.37400003499988,
              10.451686958000096
            ],
            [
              -67.37444705199994,
              10.451852959000064
            ],
            [
              -67.37553609899999,
              10.451805959000069
            ],
            [
              -67.37709016199994,
              10.451923942000178
            ],
            [
              -67.37710616199985,
              10.45197395200006
            ],
            [
              -67.37711017099991,
              10.45197395200006
            ],
            [
              -67.37744719099999,
              10.452735961000144
            ],
            [
              -67.37807922699989,
              10.454262002000178
            ],
            [
              -67.37835118699991,
              10.454854337000086
            ],
            [
              -67.37912928799989,
              10.456549060000043
            ],
            [
              -67.37976332299996,
              10.458236103000104
            ],
            [
              -67.38019535599983,
              10.460047147000012
            ],
            [
              -67.38021936099994,
              10.461863196000081
            ],
            [
              -67.38014836399992,
              10.4624752040001
            ],
            [
              -67.38065739299986,
              10.464300249000019
            ],
            [
              -67.38082540999989,
              10.464438250000171
            ],
            [
              -67.38091340699998,
              10.464922270999978
            ],
            [
              -67.3809274109999,
              10.465283274000114
            ],
            [
              -67.38170146699991,
              10.468168350999974
            ],
            [
              -67.38316553999982,
              10.470534398999973
            ],
            [
              -67.38323155999996,
              10.472253444000046
            ],
            [
              -67.38375858499995,
              10.47373748299998
            ],
            [
              -67.38419761899996,
              10.475680533000173
            ],
            [
              -67.38409061599998,
              10.476656560000038
            ],
            [
              -67.38414763499998,
              10.478038596000147
            ],
            [
              -67.38361962399989,
              10.479753637000044
            ],
            [
              -67.3835746179999,
              10.479998646000126
            ],
            [
              -67.38365962799992,
              10.481372688000135
            ],
            [
              -67.3842366589999,
              10.482094703000087
            ],
            [
              -67.38452867799998,
              10.482151699000042
            ],
            [
              -67.38608674099993,
              10.482736712000019
            ],
            [
              -67.38736180899991,
              10.483526718
            ],
            [
              -67.3883418499999,
              10.483675723000033
            ],
            [
              -67.38939589099994,
              10.48317769400012
            ],
            [
              -67.39021092799993,
              10.48308568800013
            ],
            [
              -67.39083095399997,
              10.483416699000088
            ],
            [
              -67.39103095899992,
              10.483390693000047
            ],
            [
              -67.39111497499994,
              10.484673728000075
            ],
            [
              -67.39126498599995,
              10.485338747000128
            ],
            [
              -67.39281105499987,
              10.485433743000158
            ],
            [
              -67.39335007799997,
              10.486072756
            ],
            [
              -67.39282706199992,
              10.486563770000146
            ],
            [
              -67.3923490439999,
              10.487417797000035
            ],
            [
              -67.39201402999998,
              10.487976805000073
            ],
            [
              -67.39165702699995,
              10.48950485100005
            ],
            [
              -67.3915470309999,
              10.490287877000185
            ],
            [
              -67.39166904199988,
              10.491503909000073
            ],
            [
              -67.39149304299997,
              10.49356495600017
            ],
            [
              -67.3910670329999,
              10.49422898500012
            ],
            [
              -67.39150105899984,
              10.49511299600016
            ],
            [
              -67.3919260699999,
              10.495416005000095
            ],
            [
              -67.39329314099996,
              10.49638502300013
            ],
            [
              -67.39464020099996,
              10.496988035000129
            ],
            [
              -67.3967692889999,
              10.496664009000142
            ],
            [
              -67.39783034699985,
              10.496960014000024
            ],
            [
              -67.39798334599988,
              10.496951014
            ],
            [
              -67.39809335899986,
              10.497033010000052
            ],
            [
              -67.39881539099991,
              10.497234012000149
            ],
            [
              -67.3989643949999,
              10.497683019000078
            ],
            [
              -67.39926041299998,
              10.497903027000177
            ],
            [
              -67.39958143499996,
              10.499029055000051
            ],
            [
              -67.39984744099996,
              10.499422068000172
            ],
            [
              -67.40008446199994,
              10.49977307800009
            ],
            [
              -67.40055347599991,
              10.50006608200016
            ],
            [
              -67.40161952499994,
              10.500496080000062
            ],
            [
              -67.40162953399994,
              10.501236108000171
            ],
            [
              -67.40186054599997,
              10.501390108000123
            ],
            [
              -67.40228256299997,
              10.501254103000122
            ],
            [
              -67.40356062399997,
              10.502287119000187
            ],
            [
              -67.40480568299995,
              10.503845156000011
            ],
            [
              -67.40486768499994,
              10.503974158000062
            ],
            [
              -67.40515470399987,
              10.504240155000105
            ],
            [
              -67.40593174099996,
              10.50521617700008
            ],
            [
              -67.40676378799998,
              10.505835192
            ],
            [
              -67.40724180099988,
              10.506073197000092
            ],
            [
              -67.40732580999992,
              10.50625320100005
            ],
            [
              -67.40787183199996,
              10.506659207999974
            ],
            [
              -67.40979292199995,
              10.50638319400008
            ],
            [
              -67.40962491999989,
              10.507005207000134
            ],
            [
              -67.40978491999988,
              10.507089213000143
            ],
            [
              -67.40963491899993,
              10.508100231000128
            ],
            [
              -67.40955391599988,
              10.508333238000148
            ],
            [
              -67.4095639219999,
              10.508656246000044
            ],
            [
              -67.40946891699997,
              10.508762260000083
            ],
            [
              -67.40986494899994,
              10.509994290000066
            ],
            [
              -67.40963793499998,
              10.510025286000143
            ],
            [
              -67.41032796899998,
              10.51057229700001
            ],
            [
              -67.41167603199995,
              10.510831299000131
            ],
            [
              -67.41265706999997,
              10.511529306000057
            ],
            [
              -67.41266007499996,
              10.511753313000042
            ],
            [
              -67.41286808599983,
              10.51189231899997
            ],
            [
              -67.41248207599995,
              10.513512365999986
            ],
            [
              -67.41102502299992,
              10.514379395000049
            ],
            [
              -67.40889892799987,
              10.514747411000144
            ],
            [
              -67.4088919269999,
              10.514763423000034
            ],
            [
              -67.40966996999998,
              10.515922441000043
            ],
            [
              -67.40908094799994,
              10.517076477000103
            ],
            [
              -67.40776589299992,
              10.517281488000094
            ],
            [
              -67.40764289799995,
              10.517693507
            ],
            [
              -67.40672486299991,
              10.518232522000119
            ],
            [
              -67.40666185799995,
              10.518458528000167
            ],
            [
              -67.40692487699994,
              10.519864568000173
            ],
            [
              -67.40693787399988,
              10.519882566000035
            ],
            [
              -67.40694787899992,
              10.519988568000088
            ],
            [
              -67.40698288299996,
              10.520174568000016
            ],
            [
              -67.40719890399998,
              10.522808644
            ],
            [
              -67.40717390599997,
              10.522888643000158
            ],
            [
              -67.40718490399996,
              10.523068648000049
            ],
            [
              -67.40680090099994,
              10.524081678000186
            ],
            [
              -67.40659489199993,
              10.524741697000024
            ],
            [
              -67.4060838659999,
              10.525102703000016
            ],
            [
              -67.40533356899994,
              10.52569256900017
            ],
            [
              -67.40530284199997,
              10.525716726000098
            ],
            [
              -67.40397978499993,
              10.526577758000144
            ],
            [
              -67.40383778499995,
              10.526736762000155
            ],
            [
              -67.40341257599988,
              10.52721492000012
            ],
            [
              -67.4033237679999,
              10.52731478700008
            ],
            [
              -67.40317176699995,
              10.528005800000187
            ],
            [
              -67.40238872899988,
              10.528093809000097
            ],
            [
              -67.4018779029999,
              10.528407034000168
            ],
            [
              -67.40181496499991,
              10.52844562600012
            ],
            [
              -67.40158469199997,
              10.528586823000182
            ],
            [
              -67.40068742999989,
              10.529256530000112
            ],
            [
              -67.40054765699989,
              10.529360855000107
            ],
            [
              -67.4004877829999,
              10.52960393700016
            ],
            [
              -67.40044765199997,
              10.529766866000045
            ]
          ]
        ]
      }
    }
  ]
}