{"type": "FeatureCollection", "features": [{"type": "Feature", "properties": {"Pais": "Venezuela", "Estado": "Trujillo", "Municipio": "Trujillo", "Parroquia": "Andr\u00e9s Linares"}, "geometry": {"type": "Polygon", "coordinates": [[[-70.492918, 9.295264], [-70.49771899999985, 9.296374000000185], [-70.499546, 9.297477000000129], [-70.500407, 9.298028], [-70.50085499999989, 9.29912800000011], [-70.500671, 9.30050000000017], [-70.500088, 9.303062], [-70.498668, 9.306262000000117], [-70.497419, 9.307448], [-70.49637899999982, 9.308453], [-70.496089, 9.309825], [-70.496098, 9.310266000000126], [-70.496116, 9.311106000000166], [-70.510313, 9.304105000000163], [-70.516777, 9.298418], [-70.529146, 9.291381], [-70.544339, 9.283452000000182], [-70.542949, 9.283453000000122], [-70.54274399999986, 9.282239], [-70.542263, 9.281168], [-70.541574, 9.280147000000113], [-70.5407469999999, 9.279195], [-70.539501, 9.278045], [-70.539407, 9.276577000000145], [-70.538534, 9.275628000000154], [-70.53650199999987, 9.276052], [-70.534355, 9.276479], [-70.533024, 9.277260000000183], [-70.531827, 9.279118], [-70.530303, 9.279512000000182], [-70.528688, 9.279884], [-70.527302, 9.280137], [-70.52620399999984, 9.27960400000012], [-70.526763, 9.278401], [-70.52731, 9.277863000000139], [-70.52591399999989, 9.277473], [-70.523784, 9.277023], [-70.522928, 9.276568000000111], [-70.52149, 9.274577], [-70.519891, 9.273139], [-70.5182, 9.271402], [-70.517316, 9.269525], [-70.51654899999988, 9.2679], [-70.516911, 9.265077], [-70.51630299999988, 9.262511000000188], [-70.515952, 9.261204], [-70.514515, 9.259536], [-70.51305699999989, 9.258831000000157], [-70.51150899999988, 9.258608], [-70.5103529999999, 9.258406], [-70.508547, 9.257519000000173], [-70.506441, 9.256335], [-70.50509699999986, 9.255056], [-70.503447, 9.251691], [-70.502586, 9.2494], [-70.502163, 9.247039], [-70.502736, 9.24520200000012], [-70.503286, 9.243502000000149], [-70.503626, 9.241322], [-70.503369, 9.240451000000121], [-70.5028559999999, 9.238687], [-70.502021, 9.237567], [-70.501627, 9.237178], [-70.498728, 9.233504], [-70.498636, 9.230131000000142], [-70.485669, 9.231932000000143], [-70.484677, 9.229727000000139], [-70.484659, 9.225566], [-70.4839439999999, 9.221408000000167], [-70.482533, 9.217716], [-70.47530499999982, 9.213586], [-70.47086, 9.207364], [-70.468048, 9.202753], [-70.465923, 9.194903], [-70.46193, 9.185444], [-70.457955, 9.180375], [-70.45176, 9.174200000000155], [-70.45122228899993, 9.17375424000005], [-70.442169, 9.184025], [-70.433972, 9.189906000000121], [-70.431495, 9.192192], [-70.426788, 9.196388000000127], [-70.421816, 9.199719], [-70.419293, 9.199021], [-70.415657, 9.199341], [-70.410432, 9.202551], [-70.406827, 9.20537], [-70.40684, 9.205574], [-70.40682, 9.209687], [-70.406885, 9.213911000000166], [-70.40692899999988, 9.216784000000189], [-70.407632, 9.218122], [-70.40834499999988, 9.220136], [-70.40871699999985, 9.222157], [-70.409278, 9.225357], [-70.41034799999989, 9.228379000000132], [-70.411787, 9.233252000000107], [-70.417159, 9.238556000000187], [-70.42388299999988, 9.243157], [-70.42176099999989, 9.249452], [-70.4247519999999, 9.25531000000018], [-70.428357, 9.256761000000154], [-70.430786, 9.259418], [-70.433706, 9.260713000000123], [-70.43457499999982, 9.261711], [-70.432898, 9.263602], [-70.43279699999988, 9.268167000000119], [-70.432825, 9.270026], [-70.43097, 9.271414000000163], [-70.428279, 9.274001000000169], [-70.427132, 9.277065], [-70.4261269999999, 9.278268], [-70.42615, 9.279789000000164], [-70.4260129999999, 9.281988], [-70.424834, 9.283025], [-70.426946, 9.287209000000189], [-70.43529699999988, 9.27837200000016], [-70.43796, 9.276842], [-70.444631, 9.27583200000015], [-70.4470859999999, 9.276478000000111], [-70.449858, 9.277034000000128], [-70.452309, 9.27749800000015], [-70.454668, 9.278602], [-70.456936, 9.280438], [-70.458471, 9.282731], [-70.459055, 9.285295], [-70.459516, 9.287035000000174], [-70.460716, 9.288594], [-70.463287, 9.289699000000155], [-70.467136, 9.29099], [-70.469252, 9.290629], [-70.470845, 9.290633000000184], [-70.47246, 9.291735], [-70.475594, 9.294397], [-70.47861299999988, 9.296601000000123], [-70.48264799999987, 9.296611], [-70.486042, 9.296437], [-70.490366, 9.295074], [-70.492918, 9.295264]]]}}, {"type": "Feature", "properties": {"Pais": "Venezuela", "Estado": "Trujillo", "Municipio": "Trujillo", "Parroquia": "Chiquinquira"}, "geometry": {"type": "Polygon", "coordinates": [[[-70.462551, 9.363139], [-70.50446999999986, 9.372006], [-70.514494, 9.373952000000145], [-70.54448999999988, 9.362791], [-70.54495, 9.363811], [-70.545354, 9.363056], [-70.547228, 9.363033000000144], [-70.549519, 9.362917000000152], [-70.55116099999987, 9.362092], [-70.551184, 9.360188000000107], [-70.550536, 9.35824], [-70.55169199999983, 9.357299000000182], [-70.553103, 9.356450000000109], [-70.554514, 9.355693], [-70.557521, 9.355234], [-70.55886299999986, 9.354041000000109], [-70.55772899999982, 9.352666], [-70.557543, 9.350648], [-70.55573799999985, 9.349089000000163], [-70.55610799999988, 9.347438000000182], [-70.55906899999985, 9.34608500000013], [-70.560804, 9.344777], [-70.561798, 9.342965000000106], [-70.563347, 9.34156600000017], [-70.565383, 9.341107], [-70.565984, 9.340327000000116], [-70.567002, 9.33863], [-70.5677419999999, 9.33743800000019], [-70.56827395899995, 9.336961037000094], [-70.568016, 9.336653], [-70.567926, 9.333998000000122], [-70.56711599999988, 9.332669000000124], [-70.56706799999989, 9.330032], [-70.566402, 9.329663], [-70.565005, 9.329304], [-70.56448099999989, 9.328440000000171], [-70.5641169999999, 9.327436], [-70.56365499999987, 9.326158], [-70.563958, 9.3248430000001], [-70.5651979999999, 9.322801], [-70.56540599999988, 9.321351000000163], [-70.5654009999999, 9.319675], [-70.56673699999988, 9.317838000000108], [-70.566698, 9.316874], [-70.565669, 9.316272], [-70.563676, 9.314905], [-70.56310699999989, 9.31273300000015], [-70.563543, 9.309694], [-70.56548399999986, 9.307985], [-70.566379, 9.307464], [-70.566429, 9.306292], [-70.565689, 9.304996000000187], [-70.565808, 9.303754], [-70.564983, 9.302941000000146], [-70.564896, 9.301886], [-70.565277, 9.301099000000136], [-70.5647469999999, 9.299868], [-70.563136, 9.299138], [-70.562887, 9.296731], [-70.56139599999983, 9.296228], [-70.56020399999989, 9.295605000000137], [-70.559008, 9.294707], [-70.557698, 9.293972], [-70.55748099999983, 9.293447000000128], [-70.556886, 9.292516], [-70.55561299999988, 9.292607], [-70.554109, 9.292701], [-70.552883, 9.29286], [-70.55159, 9.29178], [-70.551718, 9.291066000000114], [-70.5511259999999, 9.290341000000183], [-70.55020599999989, 9.289346], [-70.549064, 9.288952000000165], [-70.548019, 9.287408000000141], [-70.547101, 9.286505], [-70.546012, 9.286524], [-70.5452959999999, 9.285273], [-70.544339, 9.283452000000182], [-70.529146, 9.291381], [-70.516777, 9.298418], [-70.510313, 9.304105000000163], [-70.496116, 9.311106000000166], [-70.496098, 9.310266000000126], [-70.495107, 9.311463], [-70.492415, 9.317071], [-70.488745, 9.320388], [-70.487751, 9.320513000000119], [-70.486798, 9.320133000000112], [-70.485756, 9.320144000000141], [-70.485251, 9.320608000000163], [-70.48488899999984, 9.321345], [-70.48364, 9.32147300000014], [-70.48246, 9.32160000000016], [-70.481798, 9.322455], [-70.480739, 9.323062000000164], [-70.479473, 9.323809000000153], [-70.47836399999989, 9.323981000000174], [-70.477511, 9.324357], [-70.476381, 9.324827], [-70.475316, 9.324838], [-70.474016, 9.324599000000148], [-70.472625, 9.32436100000018], [-70.47219599999988, 9.325397], [-70.47232, 9.326222000000143], [-70.472259, 9.327025000000162], [-70.472228, 9.328517000000147], [-70.471454, 9.329809000000125], [-70.47081999999989, 9.330508], [-70.470451, 9.330604000000164], [-70.46989499999984, 9.330658], [-70.469324, 9.331194], [-70.468722, 9.331225000000188], [-70.468304, 9.331185], [-70.467634, 9.329802], [-70.46725, 9.328545000000133], [-70.466832, 9.32836500000019], [-70.466369, 9.32837], [-70.465884, 9.328535], [-70.465726, 9.328927000000135], [-70.465387, 9.32971], [-70.465209, 9.33042300000011], [-70.46531799999985, 9.33143200000012], [-70.465555, 9.331819000000166], [-70.46602599999989, 9.332363], [-70.466214, 9.332521000000156], [-70.46661299999988, 9.332906], [-70.466969, 9.333452], [-70.46748799999989, 9.33411000000018], [-70.467564, 9.33459100000016], [-70.466777, 9.33462500000013], [-70.466101, 9.334404000000177], [-70.46598499999988, 9.334383], [-70.465916, 9.334430000000168], [-70.465876, 9.334866], [-70.465905, 9.335256000000129], [-70.465142, 9.335404], [-70.464327, 9.335094], [-70.4631, 9.335249], [-70.462431, 9.335464000000115], [-70.46187, 9.336711], [-70.461582, 9.337679], [-70.461424, 9.337956], [-70.461244, 9.338349], [-70.460971, 9.338743], [-70.459849, 9.338024000000189], [-70.459012, 9.337852000000169], [-70.458849, 9.337808], [-70.458241, 9.337449], [-70.457979, 9.336902], [-70.457721, 9.336722000000123], [-70.45695299999988, 9.336503000000107], [-70.456744, 9.33643700000016], [-70.456626, 9.336301000000105], [-70.4563639999999, 9.335777], [-70.45608, 9.33539100000013], [-70.455359, 9.335194000000172], [-70.45508299999989, 9.3353350000001], [-70.453626, 9.335585], [-70.45299599999987, 9.335272], [-70.452999, 9.335502], [-70.453005, 9.335915000000114], [-70.452803, 9.336353000000145], [-70.452321, 9.336727000000167], [-70.451791, 9.336941], [-70.450847, 9.337390000000141], [-70.4506659999999, 9.337668], [-70.45065099999982, 9.338264000000152], [-70.450686, 9.33906700000017], [-70.450559, 9.339918], [-70.449065, 9.340902], [-70.448308, 9.341463000000147], [-70.447295, 9.341913], [-70.446626, 9.34217400000017], [-70.445359, 9.3426970000001], [-70.444969, 9.343000000000131], [-70.44494799999984, 9.343115], [-70.445048, 9.343665000000101], [-70.44537899999989, 9.344119], [-70.446055, 9.344385000000159], [-70.446931, 9.344075], [-70.447504, 9.343585], [-70.447804, 9.343512], [-70.44824699999987, 9.34369], [-70.44862499999988, 9.344189], [-70.449227, 9.344181000000162], [-70.449801, 9.343737], [-70.45033199999989, 9.343547000000115], [-70.45105, 9.343537], [-70.45149199999986, 9.343646], [-70.451888, 9.343801000000155], [-70.452264, 9.344186], [-70.452271, 9.344667], [-70.451259, 9.345209000000125], [-70.450687, 9.345722000000137], [-70.449977, 9.346352], [-70.44938, 9.346727000000158], [-70.44883099999987, 9.347286], [-70.448739, 9.347401000000104], [-70.44819, 9.347914000000117], [-70.44803499999989, 9.348421000000144], [-70.44790199999983, 9.348836], [-70.447416, 9.348888], [-70.446976, 9.348894], [-70.446512, 9.348901], [-70.446145, 9.349158], [-70.445851, 9.34969000000018], [-70.445442, 9.350269], [-70.444337, 9.350743], [-70.44399, 9.350840000000119], [-70.4436199999999, 9.350868000000105], [-70.442851, 9.350557000000151], [-70.44240799999989, 9.350425], [-70.4422919999999, 9.350404], [-70.442134, 9.350658000000124], [-70.442185, 9.351025000000107], [-70.442881, 9.352713000000165], [-70.442891, 9.353448], [-70.443181, 9.35427], [-70.443631, 9.354975], [-70.444223, 9.355839000000174], [-70.444511, 9.356569], [-70.444725, 9.356934], [-70.444734, 9.357553], [-70.4446, 9.357945], [-70.44456, 9.358381000000179], [-70.44465999999989, 9.358862], [-70.444984, 9.358881000000167], [-70.446316, 9.357944], [-70.44714, 9.357245000000148], [-70.44782599999985, 9.356547000000148], [-70.448742, 9.355731000000105], [-70.449893, 9.355165], [-70.450608, 9.354903], [-70.45120999999989, 9.354849000000172], [-70.451604, 9.354889], [-70.452047, 9.355044000000134], [-70.45231, 9.355637000000172], [-70.451217, 9.357006000000126], [-70.45048699999984, 9.357842000000176], [-70.449712, 9.358747000000108], [-70.449211, 9.359419000000116], [-70.44911899999988, 9.359573], [-70.44911904999998, 9.359572989000128], [-70.450653, 9.35924], [-70.451063, 9.3591100000001], [-70.451825, 9.358863], [-70.45235, 9.358861000000104], [-70.452665, 9.358962000000133], [-70.453043, 9.359101], [-70.453512, 9.359388], [-70.45391199999989, 9.360098000000164], [-70.454779, 9.360659], [-70.455588, 9.361169000000132], [-70.456128, 9.361628], [-70.45659, 9.361645], [-70.457629, 9.361711000000184], [-70.45807099999985, 9.36169], [-70.458398, 9.361843], [-70.45852, 9.361983000000123], [-70.458605, 9.362284], [-70.462551, 9.363139]]]}}, {"type": "Feature", "properties": {"Pais": "Venezuela", "Estado": "Trujillo", "Municipio": "Trujillo", "Parroquia": "Crist\u00f3bal Mendoza"}, "geometry": {"type": "Polygon", "coordinates": [[[-70.434559, 9.407059000000118], [-70.436201, 9.40858400000019], [-70.436675, 9.409328], [-70.43808399999989, 9.409677], [-70.438352, 9.410234], [-70.440049, 9.4113], [-70.442391, 9.411437000000149], [-70.443302, 9.412328000000173], [-70.443948, 9.413788000000181], [-70.443931, 9.414706], [-70.444789, 9.415964], [-70.4453749999999, 9.416437000000144], [-70.44575, 9.416740000000175], [-70.44670999999988, 9.414515000000108], [-70.447017, 9.414327000000185], [-70.447778, 9.413772], [-70.44799499999988, 9.413297], [-70.448351, 9.41259], [-70.448682, 9.41178], [-70.44886499999984, 9.411035], [-70.44898499999982, 9.410547], [-70.449125, 9.410084], [-70.44916099999989, 9.40948800000018], [-70.449109, 9.409199], [-70.448761, 9.408739], [-70.448414, 9.408381], [-70.448111, 9.407946000000152], [-70.447776, 9.407415], [-70.4474919999999, 9.406692000000135], [-70.44736199999983, 9.406301], [-70.447169, 9.405962000000102], [-70.446931, 9.405777], [-70.446681, 9.405714], [-70.446488, 9.405766], [-70.446271, 9.40590200000014], [-70.44587399999989, 9.406], [-70.445617, 9.406007000000102], [-70.44536099999982, 9.405963], [-70.445181, 9.405804], [-70.444878, 9.405407], [-70.444183, 9.40466600000019], [-70.44353399999989, 9.403932], [-70.443089, 9.40335], [-70.442388, 9.402493000000163], [-70.442091, 9.402084], [-70.442084, 9.401840000000107], [-70.442261, 9.401115000000175], [-70.443024, 9.399065], [-70.44331, 9.398512], [-70.443903, 9.397573], [-70.44408099999987, 9.396892], [-70.444067, 9.396591000000114], [-70.443706, 9.395983000000115], [-70.443646, 9.395515000000103], [-70.443677, 9.395085], [-70.445011, 9.393225], [-70.445675, 9.392575], [-70.446128, 9.391886], [-70.44682299999988, 9.390947000000153], [-70.44745299999988, 9.389366], [-70.44770199999988, 9.389043000000186], [-70.44831, 9.388739], [-70.449424, 9.388407000000143], [-70.449898, 9.388238000000172], [-70.450838, 9.387785000000179], [-70.452031, 9.386958000000163], [-70.462551, 9.363139], [-70.458605, 9.362284], [-70.45852, 9.361983000000123], [-70.458398, 9.361843], [-70.45807099999985, 9.36169], [-70.457629, 9.361711000000184], [-70.45659, 9.361645], [-70.456128, 9.361628], [-70.455588, 9.361169000000132], [-70.454779, 9.360659], [-70.45391199999989, 9.360098000000164], [-70.453512, 9.359388], [-70.453043, 9.359101], [-70.452665, 9.358962000000133], [-70.45235, 9.358861000000104], [-70.451825, 9.358863], [-70.451063, 9.3591100000001], [-70.450653, 9.35924], [-70.44911904999998, 9.359572989000128], [-70.44911899999988, 9.359573], [-70.448962, 9.359836000000143], [-70.448463, 9.360554], [-70.448144, 9.360994], [-70.446584, 9.362163000000123], [-70.44571, 9.36268], [-70.445274, 9.363007000000152], [-70.44495299999988, 9.363218000000188], [-70.442768, 9.364395], [-70.434877, 9.366981000000123], [-70.433164, 9.367446], [-70.433767, 9.368582000000117], [-70.43341, 9.370321000000104], [-70.43191499999989, 9.372108], [-70.43067699999989, 9.372566], [-70.4297, 9.373972], [-70.429065, 9.374443], [-70.429347, 9.374522], [-70.4297509999999, 9.375336], [-70.42942299999987, 9.376379], [-70.42980099999988, 9.378477], [-70.428751, 9.380065], [-70.428678, 9.381511000000103], [-70.428484, 9.383161], [-70.428372, 9.384239], [-70.428808, 9.385742], [-70.42903699999988, 9.387125], [-70.42862799999989, 9.38789800000012], [-70.429117, 9.389056], [-70.430061, 9.390706], [-70.430463, 9.392758], [-70.43074399999983, 9.39510700000011], [-70.43074799999988, 9.396187000000111], [-70.431115, 9.397619], [-70.432044, 9.398808], [-70.43285, 9.400432000000137], [-70.433096, 9.402160000000151], [-70.433686, 9.404124], [-70.434428, 9.405356], [-70.434559, 9.407059000000118]]]}}, {"type": "Feature", "properties": {"Pais": "Venezuela", "Estado": "Trujillo", "Municipio": "Trujillo", "Parroquia": "Cruz Carrillo"}, "geometry": {"type": "Polygon", "coordinates": [[[-70.311762, 9.341319000000112], [-70.310826, 9.342411], [-70.30988799999989, 9.343037], [-70.308485, 9.344754000000137], [-70.306458, 9.347407], [-70.306461, 9.348185000000171], [-70.306312, 9.350208], [-70.306316, 9.351297], [-70.306321, 9.352697], [-70.306491, 9.356276], [-70.305937, 9.35702], [-70.3049319999999, 9.358305], [-70.30493499999989, 9.358927], [-70.304483, 9.363908], [-70.303076, 9.364691], [-70.30042, 9.366879], [-70.29901599999988, 9.36844], [-70.29525699999982, 9.368921], [-70.294949, 9.370322], [-70.292153, 9.371753], [-70.2930669999999, 9.373724], [-70.294131, 9.376296], [-70.294579, 9.378372000000127], [-70.295071, 9.380565], [-70.295553, 9.382068], [-70.295754, 9.38368], [-70.296418, 9.385393], [-70.297656, 9.386176], [-70.298743, 9.386335], [-70.299823, 9.386977000000115], [-70.300898, 9.388997], [-70.302426, 9.390383], [-70.302914, 9.391610000000128], [-70.303755, 9.393717], [-70.305098, 9.395076000000188], [-70.30649, 9.396321000000171], [-70.30779499999983, 9.398461000000111], [-70.30917799999986, 9.400166000000183], [-70.310114, 9.400989], [-70.312448, 9.401494], [-70.31375499999984, 9.402301], [-70.3149719999999, 9.404209], [-70.315606, 9.405071000000135], [-70.316194, 9.405864000000179], [-70.317143, 9.407215], [-70.317578, 9.4075], [-70.319312, 9.407579000000169], [-70.317865, 9.408309000000145], [-70.315906, 9.41004], [-70.31475199999983, 9.41339500000015], [-70.31347099999988, 9.413646000000142], [-70.31180199999989, 9.414739000000168], [-70.309911, 9.415368000000171], [-70.309028, 9.416638], [-70.308209, 9.417035], [-70.320158, 9.42696500000011], [-70.32553899999988, 9.417496], [-70.326861, 9.417525], [-70.327798, 9.416548], [-70.328142, 9.416291000000115], [-70.329015, 9.415706], [-70.329871, 9.41558], [-70.330769, 9.415178], [-70.33141099999983, 9.414618], [-70.33220099999983, 9.414791], [-70.33282799999984, 9.414829000000111], [-70.333161, 9.41549], [-70.333239, 9.416063000000122], [-70.333065, 9.416868], [-70.332843, 9.417628], [-70.332853, 9.418317], [-70.33258599999988, 9.419146000000126], [-70.332153, 9.419703], [-70.331472, 9.42076800000018], [-70.33157, 9.422809000000143], [-70.33191899999986, 9.422873], [-70.3327129999999, 9.423298000000102], [-70.333646, 9.42374500000011], [-70.33478599999984, 9.424028], [-70.335977, 9.422956], [-70.336812, 9.423014], [-70.3376669999999, 9.422796000000119], [-70.33797, 9.422884000000124], [-70.338048, 9.423525], [-70.338206, 9.424877], [-70.33911599999988, 9.425324], [-70.33983199999989, 9.425108], [-70.340134, 9.42515], [-70.340886, 9.425897], [-70.341121, 9.426100000000133], [-70.34233099999989, 9.426360000000159], [-70.343007, 9.426672], [-70.343448, 9.426666], [-70.344027, 9.426658], [-70.345044, 9.426392000000135], [-70.34566199999989, 9.425833], [-70.346053, 9.42559800000015], [-70.34657699999985, 9.424972], [-70.34695599999986, 9.42384200000015], [-70.347056, 9.422693000000152], [-70.3473709999999, 9.422024], [-70.347989, 9.421465000000126], [-70.348769, 9.42085800000018], [-70.349159, 9.420531], [-70.349615, 9.420043], [-70.35021099999989, 9.41953], [-70.350604, 9.419456], [-70.350627, 9.419456], [-70.351716, 9.419418], [-70.35223799999989, 9.418608000000177], [-70.35274299999986, 9.418188], [-70.35319899999985, 9.417654], [-70.353289, 9.417447], [-70.35342, 9.416871000000185], [-70.353669, 9.416455], [-70.353897, 9.416176], [-70.354515, 9.415617000000168], [-70.35478199999989, 9.414810000000159], [-70.35511799999989, 9.41398], [-70.35573, 9.412962], [-70.356806, 9.413659000000166], [-70.356777, 9.414875], [-70.356509, 9.415659], [-70.35657299999986, 9.416921], [-70.356815, 9.417652000000146], [-70.357054, 9.41813], [-70.357293, 9.418701], [-70.357673, 9.419292], [-70.357712, 9.420485], [-70.35754, 9.421451], [-70.35766199999989, 9.421863], [-70.358087, 9.422408000000189], [-70.358734, 9.422284], [-70.35941, 9.422505], [-70.35993999999982, 9.422291], [-70.359996, 9.423025], [-70.35986799999989, 9.423784000000182], [-70.359707, 9.42553], [-70.360282, 9.426899000000162], [-70.36048199999988, 9.42792900000012], [-70.360486, 9.42825], [-70.359874, 9.429245], [-70.359695, 9.429706], [-70.359642, 9.430901000000176], [-70.359916, 9.432251000000122], [-70.36045599999989, 9.432771000000173], [-70.36095399999988, 9.433522000000153], [-70.361265, 9.434206], [-70.36052699999988, 9.43451400000015], [-70.359248, 9.434256000000119], [-70.3579989999999, 9.434479], [-70.35723799999988, 9.43476500000014], [-70.35639, 9.435419], [-70.356396, 9.435901000000172], [-70.35642, 9.435946000000115], [-70.357554, 9.435771], [-70.357878, 9.435720000000117], [-70.35919599999988, 9.435496], [-70.3598, 9.435603000000185], [-70.360312, 9.435711], [-70.361051, 9.435540000000117], [-70.361654, 9.435532], [-70.362309, 9.435936], [-70.36257299999988, 9.436621], [-70.362767, 9.437192], [-70.363169, 9.437783], [-70.363525, 9.438375], [-70.36381, 9.438853000000165], [-70.364025, 9.439309], [-70.3640759999999, 9.439630000000136], [-70.363885, 9.440918000000124], [-70.364413, 9.442173], [-70.367012, 9.440623], [-70.367749, 9.440292], [-70.368714, 9.439705000000117], [-70.369454, 9.439535], [-70.370288, 9.4395], [-70.371058, 9.43988], [-70.37185199999988, 9.440282], [-70.372783, 9.440499000000102], [-70.373503, 9.440627], [-70.374086, 9.440849], [-70.37494199999986, 9.442375], [-70.37531699999988, 9.44266800000014], [-70.37631699999986, 9.442907], [-70.377056, 9.442691], [-70.37768199999982, 9.442682], [-70.378507, 9.442006000000106], [-70.379288, 9.441513000000157], [-70.38082, 9.441653], [-70.381706, 9.441985000000102], [-70.38243099999983, 9.442412000000104], [-70.38380399999983, 9.44280600000019], [-70.385524, 9.443104000000176], [-70.386199, 9.443279], [-70.387276, 9.444044000000133], [-70.411005, 9.449703000000113], [-70.410223, 9.442846000000145], [-70.4292569999999, 9.429317], [-70.431705, 9.425206], [-70.432125, 9.424229], [-70.432768, 9.422956], [-70.433114, 9.422673], [-70.433543, 9.422478000000126], [-70.435566, 9.421713], [-70.439063, 9.420684000000165], [-70.439428, 9.420464], [-70.439626, 9.420252000000119], [-70.43975299999988, 9.419892000000175], [-70.439893, 9.419538], [-70.440225, 9.419101000000126], [-70.440276, 9.41887], [-70.440468, 9.418753], [-70.441005, 9.418385], [-70.441472, 9.418274], [-70.44220899999988, 9.418149], [-70.442978, 9.417908000000182], [-70.443118, 9.417824000000167], [-70.443681, 9.417367000000183], [-70.444462, 9.417087], [-70.444852, 9.416746000000103], [-70.445012, 9.41661], [-70.445089, 9.416592], [-70.4453749999999, 9.416437000000144], [-70.444789, 9.415964], [-70.443931, 9.414706], [-70.443948, 9.413788000000181], [-70.443302, 9.412328000000173], [-70.442391, 9.411437000000149], [-70.440049, 9.4113], [-70.438352, 9.410234], [-70.43808399999989, 9.409677], [-70.436675, 9.409328], [-70.436201, 9.40858400000019], [-70.434559, 9.407059000000118], [-70.434428, 9.405356], [-70.433686, 9.404124], [-70.433096, 9.402160000000151], [-70.43285, 9.400432000000137], [-70.432044, 9.398808], [-70.431115, 9.397619], [-70.43074799999988, 9.396187000000111], [-70.43074399999983, 9.39510700000011], [-70.430463, 9.392758], [-70.430061, 9.390706], [-70.429117, 9.389056], [-70.42862799999989, 9.38789800000012], [-70.42903699999988, 9.387125], [-70.428808, 9.385742], [-70.428372, 9.384239], [-70.428484, 9.383161], [-70.428678, 9.381511000000103], [-70.428751, 9.380065], [-70.42980099999988, 9.378477], [-70.42942299999987, 9.376379], [-70.4297509999999, 9.375336], [-70.429347, 9.374522], [-70.429065, 9.374443], [-70.427531, 9.374011], [-70.426886, 9.373921], [-70.426316, 9.373924000000159], [-70.425575, 9.373702], [-70.425061, 9.37338300000016], [-70.42426199999989, 9.373009], [-70.423502, 9.372748000000172], [-70.423083, 9.372409], [-70.422721, 9.372108], [-70.422512, 9.37192], [-70.421971, 9.371447], [-70.421233, 9.37132800000012], [-70.420373, 9.371331000000168], [-70.419943, 9.371394], [-70.41883799999988, 9.371337000000153], [-70.417424, 9.371099000000186], [-70.416195, 9.370982], [-70.415029, 9.371170000000177], [-70.413877, 9.371926], [-70.412139, 9.37321], [-70.41150899999985, 9.373946], [-70.41051, 9.374789000000135], [-70.40993, 9.375105000000133], [-70.40950799999985, 9.375212000000147], [-70.408558, 9.375216], [-70.405442, 9.374599], [-70.403911, 9.374605], [-70.402117, 9.374822], [-70.400695, 9.375561], [-70.400432, 9.375825], [-70.399485, 9.376562], [-70.398326, 9.377039000000138], [-70.397483, 9.377357000000131], [-70.396744, 9.377675000000181], [-70.396323, 9.378043], [-70.395903, 9.378464], [-70.395007, 9.37894], [-70.393479, 9.379522], [-70.392795, 9.380154000000118], [-70.39248, 9.380417], [-70.390844, 9.380581], [-70.388363, 9.380591], [-70.38731, 9.381224], [-70.386627, 9.381961], [-70.385361, 9.38228000000015], [-70.383835, 9.383334000000161], [-70.382728, 9.383653], [-70.38251699999984, 9.38386400000013], [-70.38114999999988, 9.384716], [-70.380779, 9.38449100000014], [-70.37960499999986, 9.384009], [-70.378142, 9.382832000000178], [-70.376967, 9.381131], [-70.376014, 9.38001], [-70.374707, 9.377963], [-70.374336, 9.376692], [-70.372847, 9.375606], [-70.371544, 9.374616], [-70.371434, 9.371811], [-70.370624, 9.370461000000148], [-70.370095, 9.36898], [-70.367682, 9.368979], [-70.365917, 9.36906], [-70.364179, 9.36898], [-70.362631, 9.368605], [-70.361363, 9.366949000000147], [-70.36092, 9.365838], [-70.359687, 9.36478000000011], [-70.357636, 9.36407400000013], [-70.356369, 9.362372000000164], [-70.3534949999999, 9.359307], [-70.351273, 9.358183000000167], [-70.349759, 9.358521], [-70.348291, 9.358837], [-70.347529, 9.358661], [-70.34627, 9.357763], [-70.3452089999999, 9.356180000000165], [-70.342892, 9.35602], [-70.34154599999988, 9.356063], [-70.338897, 9.35626400000018], [-70.337139, 9.354782000000114], [-70.33508699999987, 9.354075], [-70.33391499999988, 9.353501000000165], [-70.332797, 9.351273], [-70.333234, 9.347812], [-70.333423, 9.346414], [-70.333108, 9.344639], [-70.33194, 9.342640000000188], [-70.331551, 9.341116], [-70.33083599999986, 9.339678], [-70.32974, 9.338691], [-70.3293829999999, 9.336708], [-70.32771799999989, 9.335228000000143], [-70.32624, 9.334854], [-70.324525, 9.3335340000001], [-70.323524, 9.331263000000149], [-70.32250699999986, 9.329841000000101], [-70.31913, 9.339233], [-70.31182, 9.341028], [-70.311762, 9.341319000000112]]]}}, {"type": "Feature", "properties": {"Pais": "Venezuela", "Estado": "Trujillo", "Municipio": "Trujillo", "Parroquia": "Matriz (Capital)"}, "geometry": {"type": "Polygon", "coordinates": [[[-70.433164, 9.367446], [-70.433028, 9.36718900000011], [-70.43303799999984, 9.365374], [-70.43387499999989, 9.364181], [-70.434087, 9.363878], [-70.43436, 9.362919000000147], [-70.43436999999989, 9.361589], [-70.434376, 9.360805], [-70.435059, 9.357983000000104], [-70.435595, 9.35517700000014], [-70.435238, 9.354389], [-70.434929, 9.352292000000148], [-70.43493, 9.352267], [-70.434646, 9.351023000000112], [-70.43441099999984, 9.35107900000014], [-70.433419, 9.350824], [-70.432031, 9.350460000000112], [-70.430712, 9.34950700000013], [-70.428891, 9.349269000000163], [-70.427384, 9.348906000000113], [-70.427407, 9.347849], [-70.42664, 9.346768000000168], [-70.426272, 9.345914], [-70.42504199999985, 9.345704], [-70.424136, 9.345839], [-70.424006, 9.345097], [-70.42375499999986, 9.34420200000011], [-70.423863, 9.343535], [-70.42444, 9.342506000000128], [-70.424116, 9.341964], [-70.422925, 9.341596000000152], [-70.422409, 9.34141], [-70.421637, 9.348551], [-70.421578, 9.349309], [-70.421588, 9.349974], [-70.421417, 9.351032], [-70.421183, 9.352481000000182], [-70.420829, 9.353702000000112], [-70.42000799999988, 9.354654], [-70.419295, 9.35503100000011], [-70.419628, 9.355646], [-70.420197, 9.356602], [-70.420067, 9.357223], [-70.419347, 9.357095000000186], [-70.41842099999985, 9.3572], [-70.4177, 9.35698], [-70.417025, 9.356829], [-70.41604799999988, 9.356567], [-70.414998, 9.356053000000145], [-70.414063, 9.355469000000141], [-70.412416, 9.355377000000146], [-70.4118079999999, 9.354995000000145], [-70.411333, 9.354221], [-70.410791, 9.35358600000012], [-70.409998, 9.353207], [-70.409116, 9.35315], [-70.408329, 9.35316], [-70.406895, 9.353409], [-70.405954, 9.354087000000163], [-70.404649, 9.355252000000121], [-70.403853, 9.356296000000157], [-70.403034, 9.357386], [-70.401935, 9.358387000000164], [-70.401746, 9.359812], [-70.40205299999985, 9.36017500000014], [-70.402704, 9.360327], [-70.40303, 9.360415000000103], [-70.404123, 9.360698], [-70.404655, 9.360645], [-70.405718, 9.360378], [-70.406667, 9.360319000000118], [-70.40767099999988, 9.360811000000183], [-70.407168, 9.361322], [-70.4048049999999, 9.361423000000173], [-70.404277, 9.361752], [-70.40379, 9.361781000000121], [-70.4029819999999, 9.361953000000142], [-70.402566, 9.362073000000123], [-70.401759, 9.362336], [-70.399083, 9.363314000000116], [-70.396419, 9.363464000000135], [-70.39472099999989, 9.363028], [-70.394527, 9.362434000000178], [-70.39402499999989, 9.361317], [-70.392803, 9.36014], [-70.39293399999985, 9.359564], [-70.393314, 9.35855000000015], [-70.39330399999989, 9.357838000000186], [-70.393086, 9.35713], [-70.392379, 9.356313000000114], [-70.391993, 9.35526300000015], [-70.39168899999987, 9.353362], [-70.391668, 9.35187100000013], [-70.391284, 9.350958000000105], [-70.390138, 9.350194000000101], [-70.38934, 9.349493], [-70.389335, 9.349126], [-70.389655, 9.347148000000175], [-70.389413, 9.34644], [-70.38909699999988, 9.34532], [-70.38839499999989, 9.344870000000128], [-70.387579, 9.344514000000174], [-70.387389, 9.344172000000128], [-70.387362, 9.343897], [-70.387264, 9.343578], [-70.388454, 9.342414000000133], [-70.38897399999985, 9.343210000000113], [-70.389693, 9.343201], [-70.390742, 9.343645], [-70.39123399999988, 9.344029], [-70.391696, 9.343931], [-70.391903, 9.343767000000184], [-70.392041, 9.343697], [-70.393002, 9.342812], [-70.393794, 9.341447], [-70.394573, 9.340771], [-70.395567, 9.34064300000017], [-70.390715, 9.338464000000158], [-70.388665, 9.338817], [-70.387423, 9.34025000000014], [-70.384289, 9.342033], [-70.377794, 9.341777], [-70.373336, 9.338958], [-70.371225, 9.335242], [-70.36910199999983, 9.330743], [-70.362858, 9.3255410000001], [-70.36078099999986, 9.324015000000145], [-70.361297, 9.31910100000016], [-70.358978, 9.30949100000015], [-70.35798099999982, 9.306380000000104], [-70.3576149999999, 9.303099], [-70.357387, 9.298564], [-70.35686599999985, 9.295443], [-70.35415999999987, 9.294243], [-70.350036, 9.293227], [-70.347628, 9.290769], [-70.347742, 9.28794900000014], [-70.347656, 9.282315], [-70.34582, 9.280052], [-70.34435, 9.282444000000112], [-70.341316, 9.289344], [-70.33875399999988, 9.294244000000162], [-70.33870899999988, 9.299469000000101], [-70.33616599999988, 9.305613], [-70.334599, 9.309872], [-70.331642, 9.313661], [-70.328276, 9.315219000000127], [-70.324512, 9.315416], [-70.32130399999988, 9.316652], [-70.319361, 9.320752], [-70.318112, 9.322002], [-70.317494, 9.324182000000121], [-70.317497, 9.32496], [-70.317504, 9.326983], [-70.317353, 9.328384000000142], [-70.314855, 9.330572000000188], [-70.31376299999988, 9.33182], [-70.3126769999999, 9.334781], [-70.312525, 9.335870000000114], [-70.312223, 9.338983], [-70.311762, 9.341319000000112], [-70.31182, 9.341028], [-70.31913, 9.339233], [-70.32250699999986, 9.329841000000101], [-70.323524, 9.331263000000149], [-70.324525, 9.3335340000001], [-70.32624, 9.334854], [-70.32771799999989, 9.335228000000143], [-70.3293829999999, 9.336708], [-70.32974, 9.338691], [-70.33083599999986, 9.339678], [-70.331551, 9.341116], [-70.33194, 9.342640000000188], [-70.333108, 9.344639], [-70.333423, 9.346414], [-70.333234, 9.347812], [-70.332797, 9.351273], [-70.33391499999988, 9.353501000000165], [-70.33508699999987, 9.354075], [-70.337139, 9.354782000000114], [-70.338897, 9.35626400000018], [-70.34154599999988, 9.356063], [-70.342892, 9.35602], [-70.3452089999999, 9.356180000000165], [-70.34627, 9.357763], [-70.347529, 9.358661], [-70.348291, 9.358837], [-70.349759, 9.358521], [-70.351273, 9.358183000000167], [-70.3534949999999, 9.359307], [-70.356369, 9.362372000000164], [-70.357636, 9.36407400000013], [-70.359687, 9.36478000000011], [-70.36092, 9.365838], [-70.361363, 9.366949000000147], [-70.362631, 9.368605], [-70.364179, 9.36898], [-70.365917, 9.36906], [-70.367682, 9.368979], [-70.370095, 9.36898], [-70.370624, 9.370461000000148], [-70.371434, 9.371811], [-70.371544, 9.374616], [-70.372847, 9.375606], [-70.374336, 9.376692], [-70.374707, 9.377963], [-70.376014, 9.38001], [-70.376967, 9.381131], [-70.378142, 9.382832000000178], [-70.37960499999986, 9.384009], [-70.380779, 9.38449100000014], [-70.38114999999988, 9.384716], [-70.38251699999984, 9.38386400000013], [-70.382728, 9.383653], [-70.383835, 9.383334000000161], [-70.385361, 9.38228000000015], [-70.386627, 9.381961], [-70.38731, 9.381224], [-70.388363, 9.380591], [-70.390844, 9.380581], [-70.39248, 9.380417], [-70.392795, 9.380154000000118], [-70.393479, 9.379522], [-70.395007, 9.37894], [-70.395903, 9.378464], [-70.396323, 9.378043], [-70.396744, 9.377675000000181], [-70.397483, 9.377357000000131], [-70.398326, 9.377039000000138], [-70.399485, 9.376562], [-70.400432, 9.375825], [-70.400695, 9.375561], [-70.402117, 9.374822], [-70.403911, 9.374605], [-70.405442, 9.374599], [-70.408558, 9.375216], [-70.40950799999985, 9.375212000000147], [-70.40993, 9.375105000000133], [-70.41051, 9.374789000000135], [-70.41150899999985, 9.373946], [-70.412139, 9.37321], [-70.413877, 9.371926], [-70.415029, 9.371170000000177], [-70.416195, 9.370982], [-70.417424, 9.371099000000186], [-70.41883799999988, 9.371337000000153], [-70.419943, 9.371394], [-70.420373, 9.371331000000168], [-70.421233, 9.37132800000012], [-70.421971, 9.371447], [-70.422512, 9.37192], [-70.422721, 9.372108], [-70.423083, 9.372409], [-70.423502, 9.372748000000172], [-70.42426199999989, 9.373009], [-70.425061, 9.37338300000016], [-70.425575, 9.373702], [-70.426316, 9.373924000000159], [-70.426886, 9.373921], [-70.427531, 9.374011], [-70.429065, 9.374443], [-70.4297, 9.373972], [-70.43067699999989, 9.372566], [-70.43191499999989, 9.372108], [-70.43341, 9.370321000000104], [-70.433767, 9.368582000000117], [-70.433164, 9.367446]]]}}, {"type": "Feature", "properties": {"Pais": "Venezuela", "Estado": "Trujillo", "Municipio": "Trujillo", "Parroquia": "Monse\u00f1or Carrillo"}, "geometry": {"type": "Polygon", "coordinates": [[[-70.434376, 9.360805], [-70.43436999999989, 9.361589], [-70.43436, 9.362919000000147], [-70.434087, 9.363878], [-70.43387499999989, 9.364181], [-70.43303799999984, 9.365374], [-70.433028, 9.36718900000011], [-70.433164, 9.367446], [-70.434877, 9.366981000000123], [-70.442768, 9.364395], [-70.44495299999988, 9.363218000000188], [-70.445274, 9.363007000000152], [-70.44571, 9.36268], [-70.446584, 9.362163000000123], [-70.448144, 9.360994], [-70.448463, 9.360554], [-70.448962, 9.359836000000143], [-70.44911899999988, 9.359573], [-70.449211, 9.359419000000116], [-70.449712, 9.358747000000108], [-70.45048699999984, 9.357842000000176], [-70.451217, 9.357006000000126], [-70.45231, 9.355637000000172], [-70.452047, 9.355044000000134], [-70.451604, 9.354889], [-70.45120999999989, 9.354849000000172], [-70.450608, 9.354903], [-70.449893, 9.355165], [-70.448742, 9.355731000000105], [-70.44782599999985, 9.356547000000148], [-70.44714, 9.357245000000148], [-70.446316, 9.357944], [-70.444984, 9.358881000000167], [-70.44465999999989, 9.358862], [-70.44456, 9.358381000000179], [-70.4446, 9.357945], [-70.444734, 9.357553], [-70.444725, 9.356934], [-70.444511, 9.356569], [-70.444223, 9.355839000000174], [-70.443631, 9.354975], [-70.443181, 9.35427], [-70.442891, 9.353448], [-70.442881, 9.352713000000165], [-70.442185, 9.351025000000107], [-70.442134, 9.350658000000124], [-70.4422919999999, 9.350404], [-70.44240799999989, 9.350425], [-70.442851, 9.350557000000151], [-70.4436199999999, 9.350868000000105], [-70.44399, 9.350840000000119], [-70.444337, 9.350743], [-70.445442, 9.350269], [-70.445851, 9.34969000000018], [-70.446145, 9.349158], [-70.446512, 9.348901], [-70.446976, 9.348894], [-70.447416, 9.348888], [-70.44790199999983, 9.348836], [-70.44803499999989, 9.348421000000144], [-70.44819, 9.347914000000117], [-70.448739, 9.347401000000104], [-70.44883099999987, 9.347286], [-70.44938, 9.346727000000158], [-70.449977, 9.346352], [-70.450687, 9.345722000000137], [-70.451259, 9.345209000000125], [-70.452271, 9.344667], [-70.452264, 9.344186], [-70.451888, 9.343801000000155], [-70.45149199999986, 9.343646], [-70.45105, 9.343537], [-70.45033199999989, 9.343547000000115], [-70.449801, 9.343737], [-70.449227, 9.344181000000162], [-70.44862499999988, 9.344189], [-70.44824699999987, 9.34369], [-70.447804, 9.343512], [-70.447504, 9.343585], [-70.446931, 9.344075], [-70.446055, 9.344385000000159], [-70.44537899999989, 9.344119], [-70.445048, 9.343665000000101], [-70.44494799999984, 9.343115], [-70.444969, 9.343000000000131], [-70.445359, 9.3426970000001], [-70.446626, 9.34217400000017], [-70.447295, 9.341913], [-70.448308, 9.341463000000147], [-70.449065, 9.340902], [-70.450559, 9.339918], [-70.450686, 9.33906700000017], [-70.45065099999982, 9.338264000000152], [-70.4506659999999, 9.337668], [-70.450847, 9.337390000000141], [-70.451791, 9.336941], [-70.452321, 9.336727000000167], [-70.452803, 9.336353000000145], [-70.453005, 9.335915000000114], [-70.452999, 9.335502], [-70.45299599999987, 9.335272], [-70.453626, 9.335585], [-70.45508299999989, 9.3353350000001], [-70.455359, 9.335194000000172], [-70.45608, 9.33539100000013], [-70.4563639999999, 9.335777], [-70.456626, 9.336301000000105], [-70.456744, 9.33643700000016], [-70.45695299999988, 9.336503000000107], [-70.457721, 9.336722000000123], [-70.457979, 9.336902], [-70.458241, 9.337449], [-70.458849, 9.337808], [-70.459012, 9.337852000000169], [-70.459849, 9.338024000000189], [-70.460971, 9.338743], [-70.461244, 9.338349], [-70.461424, 9.337956], [-70.461582, 9.337679], [-70.46187, 9.336711], [-70.462431, 9.335464000000115], [-70.4631, 9.335249], [-70.464327, 9.335094], [-70.465142, 9.335404], [-70.465905, 9.335256000000129], [-70.465876, 9.334866], [-70.465916, 9.334430000000168], [-70.46598499999988, 9.334383], [-70.466101, 9.334404000000177], [-70.466777, 9.33462500000013], [-70.467564, 9.33459100000016], [-70.46748799999989, 9.33411000000018], [-70.466969, 9.333452], [-70.46661299999988, 9.332906], [-70.466214, 9.332521000000156], [-70.46602599999989, 9.332363], [-70.465555, 9.331819000000166], [-70.46531799999985, 9.33143200000012], [-70.465209, 9.33042300000011], [-70.465387, 9.32971], [-70.465726, 9.328927000000135], [-70.465884, 9.328535], [-70.466369, 9.32837], [-70.466832, 9.32836500000019], [-70.46725, 9.328545000000133], [-70.467634, 9.329802], [-70.468304, 9.331185], [-70.468722, 9.331225000000188], [-70.469324, 9.331194], [-70.46989499999984, 9.330658], [-70.470451, 9.330604000000164], [-70.47081999999989, 9.330508], [-70.471454, 9.329809000000125], [-70.472228, 9.328517000000147], [-70.472259, 9.327025000000162], [-70.47232, 9.326222000000143], [-70.47219599999988, 9.325397], [-70.472625, 9.32436100000018], [-70.474016, 9.324599000000148], [-70.475316, 9.324838], [-70.476381, 9.324827], [-70.477511, 9.324357], [-70.47836399999989, 9.323981000000174], [-70.479473, 9.323809000000153], [-70.480739, 9.323062000000164], [-70.481798, 9.322455], [-70.48246, 9.32160000000016], [-70.48364, 9.32147300000014], [-70.48488899999984, 9.321345], [-70.485251, 9.320608000000163], [-70.485756, 9.320144000000141], [-70.486798, 9.320133000000112], [-70.487751, 9.320513000000119], [-70.488745, 9.320388], [-70.492415, 9.317071], [-70.495107, 9.311463], [-70.496098, 9.310266000000126], [-70.496089, 9.309825], [-70.49637899999982, 9.308453], [-70.497419, 9.307448], [-70.498668, 9.306262000000117], [-70.500088, 9.303062], [-70.500671, 9.30050000000017], [-70.50085499999989, 9.29912800000011], [-70.500407, 9.298028], [-70.499546, 9.297477000000129], [-70.49771899999985, 9.296374000000185], [-70.492918, 9.295264], [-70.490366, 9.295074], [-70.486042, 9.296437], [-70.48264799999987, 9.296611], [-70.47861299999988, 9.296601000000123], [-70.475594, 9.294397], [-70.47246, 9.291735], [-70.470845, 9.290633000000184], [-70.469252, 9.290629], [-70.467136, 9.29099], [-70.463287, 9.289699000000155], [-70.460716, 9.288594], [-70.459516, 9.287035000000174], [-70.459055, 9.285295], [-70.458471, 9.282731], [-70.456936, 9.280438], [-70.454668, 9.278602], [-70.452309, 9.27749800000015], [-70.449858, 9.277034000000128], [-70.4470859999999, 9.276478000000111], [-70.444631, 9.27583200000015], [-70.43796, 9.276842], [-70.43529699999988, 9.27837200000016], [-70.426946, 9.287209000000189], [-70.424834, 9.283025], [-70.4260129999999, 9.281988], [-70.42615, 9.279789000000164], [-70.4261269999999, 9.278268], [-70.427132, 9.277065], [-70.428279, 9.274001000000169], [-70.43097, 9.271414000000163], [-70.432825, 9.270026], [-70.43279699999988, 9.268167000000119], [-70.432898, 9.263602], [-70.43457499999982, 9.261711], [-70.433706, 9.260713000000123], [-70.430786, 9.259418], [-70.428357, 9.256761000000154], [-70.4247519999999, 9.25531000000018], [-70.42176099999989, 9.249452], [-70.42388299999988, 9.243157], [-70.417159, 9.238556000000187], [-70.411787, 9.233252000000107], [-70.41034799999989, 9.228379000000132], [-70.409278, 9.225357], [-70.40871699999985, 9.222157], [-70.40834499999988, 9.220136], [-70.407632, 9.218122], [-70.40692899999988, 9.216784000000189], [-70.406885, 9.213911000000166], [-70.40682, 9.209687], [-70.40684, 9.205574], [-70.406827, 9.20537], [-70.404871, 9.208382], [-70.401292, 9.212431], [-70.39492, 9.214545], [-70.38906099999986, 9.217395000000124], [-70.386345, 9.220433000000128], [-70.384761, 9.239991], [-70.377868, 9.249081000000103], [-70.377556, 9.253316], [-70.375748, 9.258202], [-70.37402299999985, 9.26035], [-70.370793, 9.262651], [-70.36707499999989, 9.265833], [-70.364066, 9.26614], [-70.359685, 9.267096], [-70.356577, 9.269146], [-70.354004, 9.2733], [-70.351299, 9.277084000000173], [-70.34582, 9.280052], [-70.347656, 9.282315], [-70.347742, 9.28794900000014], [-70.347628, 9.290769], [-70.350036, 9.293227], [-70.35415999999987, 9.294243], [-70.35686599999985, 9.295443], [-70.357387, 9.298564], [-70.3576149999999, 9.303099], [-70.35798099999982, 9.306380000000104], [-70.358978, 9.30949100000015], [-70.361297, 9.31910100000016], [-70.36078099999986, 9.324015000000145], [-70.362858, 9.3255410000001], [-70.36910199999983, 9.330743], [-70.371225, 9.335242], [-70.373336, 9.338958], [-70.377794, 9.341777], [-70.384289, 9.342033], [-70.387423, 9.34025000000014], [-70.388665, 9.338817], [-70.390715, 9.338464000000158], [-70.395567, 9.34064300000017], [-70.394573, 9.340771], [-70.393794, 9.341447], [-70.393002, 9.342812], [-70.392041, 9.343697], [-70.391903, 9.343767000000184], [-70.391696, 9.343931], [-70.39123399999988, 9.344029], [-70.390742, 9.343645], [-70.389693, 9.343201], [-70.38897399999985, 9.343210000000113], [-70.388454, 9.342414000000133], [-70.387264, 9.343578], [-70.387362, 9.343897], [-70.387389, 9.344172000000128], [-70.387579, 9.344514000000174], [-70.38839499999989, 9.344870000000128], [-70.38909699999988, 9.34532], [-70.389413, 9.34644], [-70.389655, 9.347148000000175], [-70.389335, 9.349126], [-70.38934, 9.349493], [-70.390138, 9.350194000000101], [-70.391284, 9.350958000000105], [-70.391668, 9.35187100000013], [-70.39168899999987, 9.353362], [-70.391993, 9.35526300000015], [-70.392379, 9.356313000000114], [-70.393086, 9.35713], [-70.39330399999989, 9.357838000000186], [-70.393314, 9.35855000000015], [-70.39293399999985, 9.359564], [-70.392803, 9.36014], [-70.39402499999989, 9.361317], [-70.394527, 9.362434000000178], [-70.39472099999989, 9.363028], [-70.396419, 9.363464000000135], [-70.399083, 9.363314000000116], [-70.401759, 9.362336], [-70.402566, 9.362073000000123], [-70.4029819999999, 9.361953000000142], [-70.40379, 9.361781000000121], [-70.404277, 9.361752], [-70.4048049999999, 9.361423000000173], [-70.407168, 9.361322], [-70.40767099999988, 9.360811000000183], [-70.406667, 9.360319000000118], [-70.405718, 9.360378], [-70.404655, 9.360645], [-70.404123, 9.360698], [-70.40303, 9.360415000000103], [-70.402704, 9.360327], [-70.40205299999985, 9.36017500000014], [-70.401746, 9.359812], [-70.401935, 9.358387000000164], [-70.403034, 9.357386], [-70.403853, 9.356296000000157], [-70.404649, 9.355252000000121], [-70.405954, 9.354087000000163], [-70.406895, 9.353409], [-70.408329, 9.35316], [-70.409116, 9.35315], [-70.409998, 9.353207], [-70.410791, 9.35358600000012], [-70.411333, 9.354221], [-70.4118079999999, 9.354995000000145], [-70.412416, 9.355377000000146], [-70.414063, 9.355469000000141], [-70.414998, 9.356053000000145], [-70.41604799999988, 9.356567], [-70.417025, 9.356829], [-70.4177, 9.35698], [-70.41842099999985, 9.3572], [-70.419347, 9.357095000000186], [-70.420067, 9.357223], [-70.420197, 9.356602], [-70.419628, 9.355646], [-70.419295, 9.35503100000011], [-70.42000799999988, 9.354654], [-70.420829, 9.353702000000112], [-70.421183, 9.352481000000182], [-70.421417, 9.351032], [-70.421588, 9.349974], [-70.421578, 9.349309], [-70.421637, 9.348551], [-70.422409, 9.34141], [-70.422925, 9.341596000000152], [-70.424116, 9.341964], [-70.42444, 9.342506000000128], [-70.423863, 9.343535], [-70.42375499999986, 9.34420200000011], [-70.424006, 9.345097], [-70.424136, 9.345839], [-70.42504199999985, 9.345704], [-70.426272, 9.345914], [-70.42664, 9.346768000000168], [-70.427407, 9.347849], [-70.427384, 9.348906000000113], [-70.428891, 9.349269000000163], [-70.430712, 9.34950700000013], [-70.432031, 9.350460000000112], [-70.433419, 9.350824], [-70.43441099999984, 9.35107900000014], [-70.434646, 9.351023000000112], [-70.43493, 9.352267], [-70.434929, 9.352292000000148], [-70.435238, 9.354389], [-70.435595, 9.35517700000014], [-70.435059, 9.357983000000104], [-70.434376, 9.360805]]]}}, {"type": "Feature", "properties": {"Pais": "Venezuela", "Estado": "Trujillo", "Municipio": "Trujillo", "Parroquia": "Tres Esquinas"}, "geometry": {"type": "Polygon", "coordinates": [[[-70.452031, 9.386958000000163], [-70.450838, 9.387785000000179], [-70.449898, 9.388238000000172], [-70.449424, 9.388407000000143], [-70.44831, 9.388739], [-70.44770199999988, 9.389043000000186], [-70.44745299999988, 9.389366], [-70.44682299999988, 9.390947000000153], [-70.446128, 9.391886], [-70.445675, 9.392575], [-70.445011, 9.393225], [-70.443677, 9.395085], [-70.443646, 9.395515000000103], [-70.443706, 9.395983000000115], [-70.444067, 9.396591000000114], [-70.44408099999987, 9.396892], [-70.443903, 9.397573], [-70.44331, 9.398512], [-70.443024, 9.399065], [-70.442261, 9.401115000000175], [-70.442084, 9.401840000000107], [-70.442091, 9.402084], [-70.442388, 9.402493000000163], [-70.443089, 9.40335], [-70.44353399999989, 9.403932], [-70.444183, 9.40466600000019], [-70.444878, 9.405407], [-70.445181, 9.405804], [-70.44536099999982, 9.405963], [-70.445617, 9.406007000000102], [-70.44587399999989, 9.406], [-70.446271, 9.40590200000014], [-70.446488, 9.405766], [-70.446681, 9.405714], [-70.446931, 9.405777], [-70.447169, 9.405962000000102], [-70.44736199999983, 9.406301], [-70.4474919999999, 9.406692000000135], [-70.447776, 9.407415], [-70.448111, 9.407946000000152], [-70.448414, 9.408381], [-70.448761, 9.408739], [-70.449109, 9.409199], [-70.44916099999989, 9.40948800000018], [-70.449125, 9.410084], [-70.44898499999982, 9.410547], [-70.44886499999984, 9.411035], [-70.448682, 9.41178], [-70.448351, 9.41259], [-70.44799499999988, 9.413297], [-70.447778, 9.413772], [-70.447017, 9.414327000000185], [-70.44670999999988, 9.414515000000108], [-70.44575, 9.416740000000175], [-70.4453749999999, 9.416437000000144], [-70.445089, 9.416592], [-70.445012, 9.41661], [-70.444852, 9.416746000000103], [-70.444462, 9.417087], [-70.443681, 9.417367000000183], [-70.443118, 9.417824000000167], [-70.442978, 9.417908000000182], [-70.44220899999988, 9.418149], [-70.441472, 9.418274], [-70.441005, 9.418385], [-70.440468, 9.418753], [-70.440276, 9.41887], [-70.440225, 9.419101000000126], [-70.439893, 9.419538], [-70.43975299999988, 9.419892000000175], [-70.439626, 9.420252000000119], [-70.439428, 9.420464], [-70.439063, 9.420684000000165], [-70.435566, 9.421713], [-70.433543, 9.422478000000126], [-70.433114, 9.422673], [-70.432768, 9.422956], [-70.432125, 9.424229], [-70.431705, 9.425206], [-70.4292569999999, 9.429317], [-70.433529, 9.431781000000115], [-70.434845, 9.432301000000166], [-70.436654, 9.432684], [-70.43903999999986, 9.43472700000018], [-70.440396, 9.435741], [-70.441597, 9.436409], [-70.443318, 9.437171], [-70.444692, 9.437736], [-70.445969, 9.438154], [-70.447238, 9.438142000000141], [-70.448854, 9.438064], [-70.44978299999985, 9.437855000000184], [-70.450474, 9.437531], [-70.451465, 9.436924], [-70.455205, 9.435327], [-70.452533, 9.432287], [-70.45215999999988, 9.431737], [-70.45186799999988, 9.430776], [-70.451725, 9.430141000000162], [-70.451717, 9.429814], [-70.451446, 9.429296], [-70.451046, 9.428675], [-70.450935, 9.428223000000116], [-70.450972, 9.427968000000135], [-70.45113, 9.427437], [-70.451215, 9.426677], [-70.451142, 9.426066000000162], [-70.451094, 9.425569], [-70.451233, 9.425153], [-70.451494, 9.424775], [-70.451683, 9.424142000000131], [-70.4517479999999, 9.4230510000001], [-70.45181999999988, 9.422100000000114], [-70.452958, 9.420506], [-70.455087, 9.420997000000114], [-70.457411, 9.421031], [-70.458979, 9.420303000000104], [-70.460263, 9.419868000000179], [-70.462046, 9.420063000000141], [-70.465711, 9.42015600000019], [-70.467112, 9.4197], [-70.467951, 9.418246], [-70.468764, 9.416975], [-70.470207, 9.417967], [-70.471547, 9.417051000000129], [-70.47268599999984, 9.416935000000137], [-70.473343, 9.416534000000183], [-70.474244, 9.415472], [-70.47574, 9.414857000000154], [-70.477285, 9.415392000000168], [-70.478336, 9.415044], [-70.480855, 9.414311000000112], [-70.482947, 9.412858000000142], [-70.484336, 9.413022000000183], [-70.484945, 9.413082], [-70.45190899999989, 9.387235000000146], [-70.452031, 9.386958000000163]]]}}]}