{"type": "FeatureCollection", "features": [{"type": "Feature", "properties": {"Pais": "Venezuela", "Estado": "Portuguesa", "Municipio": "Turen", "Parroquia": "Tur\u00e9n"}, "geometry": {"type": "Polygon", "coordinates": [[[-69.044117, 9.395231], [-69.16166, 9.343317], [-69.162018, 9.34209900000019], [-69.162532, 9.340306000000169], [-69.162515, 9.338471], [-69.16208199999988, 9.336571], [-69.161652, 9.335198000000105], [-69.16121, 9.334743000000117], [-69.16041199999984, 9.333396], [-69.160059, 9.332665000000134], [-69.158696, 9.332583000000113], [-69.15841499999988, 9.332218000000125], [-69.157925, 9.331603], [-69.15692599999988, 9.330945], [-69.15584299999989, 9.331182000000183], [-69.154613, 9.330572000000188], [-69.154281, 9.329566], [-69.151203, 9.329637000000105], [-69.15062499999988, 9.329062000000135], [-69.14963099999989, 9.328602], [-69.14884599999988, 9.327569], [-69.148455, 9.3263740000001], [-69.14859499999989, 9.325456], [-69.149243, 9.324883], [-69.150284, 9.324631000000124], [-69.15042299999988, 9.324471], [-69.151674, 9.322934], [-69.151744, 9.321993], [-69.151606, 9.32151], [-69.15058899999985, 9.321142000000123], [-69.149411, 9.319786], [-69.14844, 9.319464], [-69.147608, 9.319119], [-69.14737799999989, 9.318201000000101], [-69.146778, 9.316937000000166], [-69.14650199999988, 9.316317], [-69.146688, 9.315399000000127], [-69.146781, 9.314688], [-69.146714, 9.313264], [-69.1472, 9.312277], [-69.147641, 9.311727], [-69.147596, 9.310533], [-69.147272, 9.310165], [-69.146534, 9.309155], [-69.146606, 9.306882], [-69.146237, 9.305894], [-69.146494, 9.304264], [-69.14758399999988, 9.301579], [-69.148025, 9.30011], [-69.148072, 9.299559000000102], [-69.147888, 9.298893], [-69.147658, 9.297791000000188], [-69.147405, 9.29701], [-69.146736, 9.29549400000019], [-69.14625199999983, 9.29439200000013], [-69.146068, 9.293703000000164], [-69.14549, 9.293197], [-69.145145, 9.291957], [-69.14463599999988, 9.291888], [-69.143109, 9.291336], [-69.14204599999988, 9.291013], [-69.14109799999989, 9.290599], [-69.13959599999987, 9.290207], [-69.138879, 9.290138], [-69.138185, 9.289908], [-69.137839, 9.289310000000114], [-69.136196, 9.290066000000138], [-69.136127, 9.290112], [-69.13578, 9.289859], [-69.13506299999989, 9.290019], [-69.134855, 9.289996], [-69.134463, 9.289422000000172], [-69.133931, 9.289261000000124], [-69.133654, 9.288526000000104], [-69.133331, 9.287974], [-69.133047, 9.287304], [-69.132239, 9.285614], [-69.1156079999999, 9.285358000000144], [-69.068831, 9.283528000000103], [-69.05613399999987, 9.283317], [-69.044922, 9.283425], [-69.042587, 9.283055], [-69.040923, 9.282571000000132], [-69.038215, 9.283531000000153], [-69.037613, 9.284495000000163], [-69.036572, 9.28447100000011], [-69.036491, 9.282572], [-69.036371, 9.279786000000115], [-69.035473, 9.277237], [-69.03529, 9.276066000000128], [-69.035038, 9.274504], [-69.034023, 9.272896], [-69.032983, 9.272757], [-69.032545, 9.2717], [-69.03243199999986, 9.270185], [-69.030814, 9.269701], [-69.030449, 9.269646], [-69.028039, 9.269284000000141], [-69.02718399999986, 9.26850300000018], [-69.02651999999989, 9.26737100000014], [-69.02630799999986, 9.267009], [-69.02587, 9.266136], [-69.024645, 9.265905], [-69.024693, 9.26439], [-69.022614, 9.263079000000118], [-69.02148199999988, 9.262871000000132], [-69.020811, 9.262778], [-69.020491, 9.260459], [-69.01942999999983, 9.259103], [-69.017998, 9.257861], [-69.016981, 9.25776800000017], [-69.016311, 9.257217], [-69.014511, 9.254941], [-69.01377099999985, 9.255055], [-69.010346, 9.256428000000142], [-69.0080329999999, 9.256953], [-69.007248, 9.255942], [-69.006992, 9.255673000000172], [-69.007126, 9.254963], [-69.005954, 9.254583], [-69.005147, 9.253735], [-69.004824, 9.253322], [-69.002458, 9.252592000000163], [-69.000613, 9.247002], [-68.99844599999989, 9.242645000000152], [-68.997291, 9.221232000000157], [-69.001169, 9.218266], [-69.00167, 9.211687000000154], [-68.99948999999987, 9.212442000000124], [-68.999268, 9.204653000000121], [-69.000964, 9.203660000000184], [-69.00098, 9.197573000000148], [-68.99545299999988, 9.182540000000131], [-68.994434, 9.157144], [-68.88932299999988, 9.160511000000156], [-68.8886, 9.145129], [-68.888386, 9.140624000000116], [-68.887886, 9.130379000000119], [-68.887195, 9.11582], [-68.884258, 9.056882000000144], [-68.883999, 9.051209], [-68.88398599999982, 9.048482], [-68.883802, 9.045615000000112], [-68.882325, 9.012757], [-68.879362, 9.012414], [-68.80977199999984, 9.057496000000128], [-68.79257699999988, 9.068817], [-68.764522, 9.088053000000116], [-68.764053, 9.088885], [-68.762766, 9.090271], [-68.761558, 9.089729], [-68.761962, 9.087914000000183], [-68.763314, 9.086023], [-68.762664, 9.085683000000131], [-68.76068, 9.086684], [-68.759397, 9.085408000000143], [-68.75882999999982, 9.083853], [-68.758407, 9.083053000000177], [-68.75655099999989, 9.082561000000112], [-68.75483899999989, 9.082688000000132], [-68.754274, 9.081430000000182], [-68.752421, 9.081352], [-68.75134899999989, 9.080304], [-68.750069, 9.079442], [-68.749412, 9.07823], [-68.748247, 9.0772750000001], [-68.74741, 9.076753], [-68.74642399999988, 9.074902], [-68.74522799999988, 9.072915000000137], [-68.744292, 9.071499], [-68.74367499999988, 9.069439000000102], [-68.743315, 9.067584000000124], [-68.742609, 9.066052000000184], [-68.74118299999986, 9.064112], [-68.7411479999999, 9.062460000000158], [-68.741202, 9.060327], [-68.73889799999989, 9.058142], [-68.738965, 9.058085], [-68.738824, 9.058072], [-68.739721, 9.05721700000015], [-68.73911, 9.055937], [-68.73917, 9.054698], [-68.739629, 9.054075], [-68.74146699999989, 9.05218100000019], [-68.74180599999988, 9.050917], [-68.741021, 9.048055], [-68.74003, 9.045446], [-68.738629, 9.043850000000134], [-68.737067, 9.042324000000121], [-68.735793, 9.042127], [-68.73372499999988, 9.041086], [-68.732138, 9.039308000000176], [-68.731245, 9.037502000000131], [-68.72989799999988, 9.036961000000133], [-68.72748, 9.0355330000001], [-68.726934, 9.033747000000119], [-68.728135, 9.033211], [-68.727657, 9.031104000000141], [-68.728363, 9.029493], [-68.728487, 9.027336000000105], [-68.728268, 9.025938], [-68.72844, 9.024217000000135], [-68.7277289999999, 9.021859], [-68.726236, 9.020309000000111], [-68.724906, 9.018759000000102], [-68.7236, 9.017483], [-68.721687, 9.015455], [-68.72005899999988, 9.01438800000011], [-68.718926, 9.014557], [-68.717472, 9.015164], [-68.716177, 9.01531], [-68.7145359999999, 9.015689000000123], [-68.71317, 9.015698000000157], [-68.712078, 9.015109], [-68.710589, 9.014042], [-68.70908, 9.01352500000013], [-68.707595, 9.013007], [-68.705644, 9.012241], [-68.70381, 9.011428], [-68.702364, 9.010016], [-68.701273, 9.009519000000125], [-68.69994899999989, 9.008954], [-68.699675, 9.009484], [-68.69856, 9.008849000000112], [-68.698642, 9.007404000000122], [-68.697663, 9.00647], [-68.69478299999986, 9.005136], [-68.69409736199998, 9.005042171000184], [-68.69207199999988, 9.004765], [-68.689975, 9.006064], [-68.688718, 9.005041000000176], [-68.686585, 9.004666], [-68.68549199999984, 9.00387], [-68.683756, 9.004066000000137], [-68.683108, 9.004093], [-68.680694, 9.003169000000184], [-68.679024, 9.002607], [-68.678553, 9.001487000000111], [-68.67986699999983, 9.000812], [-68.679978, 9.000146000000143], [-68.679645, 8.998772000000145], [-68.679568, 8.997786000000133], [-68.67933399999987, 8.997352], [-68.680126, 8.996522000000141], [-68.680333, 8.99555800000013], [-68.679476, 8.994685], [-68.678503, 8.992985], [-68.67783199999985, 8.99236500000012], [-68.676652, 8.992227], [-68.67650351099996, 8.99207969000014], [-68.675518, 8.991102], [-68.674845, 8.989379000000156], [-68.674034, 8.987886], [-68.671281, 8.986898], [-68.670101, 8.986025], [-68.67000599999989, 8.984073], [-68.66917199999989, 8.982741000000146], [-68.66757699999982, 8.982603], [-68.666999, 8.983154], [-68.66658299999989, 8.983773], [-68.66579699999988, 8.984393], [-68.66515, 8.984783000000164], [-68.663832, 8.984393], [-68.66363369999993, 8.984509585000012], [-68.66389730599991, 8.984418979000168], [-68.66327461299983, 8.988593891000107], [-68.62894407299996, 9.218766781], [-68.62862505899994, 9.21925679900005], [-68.62859407299987, 9.219395972000086], [-68.62856405299988, 9.219530803000168], [-68.63017612299996, 9.218281760000139], [-68.63107715399997, 9.217953757000089], [-68.63274422999996, 9.217736742000113], [-68.6326372289999, 9.21911377400005], [-68.63227722099998, 9.22062981300013], [-68.63251723799993, 9.221820832], [-68.63294026499995, 9.222781859000065], [-68.63336529199995, 9.223856882000064], [-68.6341463149999, 9.22295685500012], [-68.6349513429999, 9.222125828], [-68.6345973299999, 9.221210813000084], [-68.63543035299989, 9.22097580400009], [-68.63712943699989, 9.222156822000102], [-68.63775946799996, 9.22293283], [-68.63859650399996, 9.22336284000005], [-68.63894751899994, 9.223169838000103], [-68.63902351999985, 9.222904833000086], [-68.63923752699998, 9.223010834000092], [-68.64011956599995, 9.222526808000168], [-68.64131860899994, 9.221784788000036], [-68.64142861599998, 9.220843767000076], [-68.64003055199993, 9.219728744000122], [-68.64067457699997, 9.219013724000092], [-68.64118459899987, 9.219078725000088], [-68.64148160599984, 9.218502714000124], [-68.64165760899994, 9.217102670000088], [-68.64225862699993, 9.216891668000017], [-68.64323067199996, 9.216793655000174], [-68.64507774099985, 9.216047635000109], [-68.64395369899984, 9.217499668000073], [-68.64356869199997, 9.21885571100006], [-68.64383170899987, 9.220046729000046], [-68.64534477699993, 9.22116075800011], [-68.64593281899988, 9.222349776000101], [-68.64670384699991, 9.223307797000018], [-68.64795490399996, 9.223459793000188], [-68.64836393599995, 9.22563683800007], [-68.64851094599987, 9.226805874000036], [-68.64893797299993, 9.228270906999967], [-68.64925338799992, 9.228721624000059], [-68.64959300399994, 9.22920692200006], [-68.65063905599999, 9.22970492700017], [-68.65156609299999, 9.229743921000022], [-68.65241712299996, 9.228820894000137], [-68.65342715599996, 9.227505857000097], [-68.6543961939999, 9.226925845000096], [-68.65544424699993, 9.227836860000025], [-68.65642630299993, 9.229068884000014], [-68.65699133299995, 9.230463911000072], [-68.65838939799994, 9.23164793400008], [-68.65977645699991, 9.231247924], [-68.66049047799993, 9.230623900000069], [-68.66169153299995, 9.230133877000128], [-68.66256556299993, 9.229164849000085], [-68.66299156599996, 9.227165805000027], [-68.66304756099987, 9.225215756000068], [-68.6629405409999, 9.22324371200017], [-68.66293153499993, 9.221935681], [-68.6634375569999, 9.221381664000091], [-68.66466260699991, 9.22096064200008], [-68.66573065299991, 9.221388652000144], [-68.66684470099989, 9.22174865500017], [-68.66687571399996, 9.22289568400015], [-68.66637770299997, 9.224458718000164], [-68.66645371099997, 9.225490746000105], [-68.66763074699992, 9.224793722000129], [-68.6683957869999, 9.224834715999975], [-68.66930382399988, 9.225539735000154], [-68.66910182499987, 9.226435750000121], [-68.66724975099993, 9.226654764000102], [-68.6667687289999, 9.227437790000067], [-68.66767334399998, 9.227494038000088], [-68.6677, 9.227474], [-68.6679138639999, 9.22737010700007], [-68.66870567299986, 9.2269854540001], [-68.66917349499994, 9.226758191000044], [-68.6714649999999, 9.225645], [-68.67833820499999, 9.221632028000045], [-68.6842486729999, 9.21818115700006], [-68.69129556399997, 9.214066777000141], [-68.7026249999999, 9.207452], [-68.711416, 9.202309000000128], [-68.77724099999983, 9.159892], [-68.77740399999982, 9.162148], [-68.776698, 9.163517000000184], [-68.775909, 9.163285000000144], [-68.775981, 9.163951], [-68.775405, 9.165055], [-68.774429, 9.16591000000011], [-68.773216, 9.166569], [-68.771292, 9.167365], [-68.769304, 9.168267], [-68.767757, 9.169512], [-68.767689, 9.169948], [-68.7682, 9.170429], [-68.768501, 9.170474], [-68.7685489999999, 9.170910000000106], [-68.769799, 9.170929], [-68.769942, 9.172122000000172], [-68.769943, 9.172535], [-68.769671, 9.174167000000125], [-68.770438, 9.175014], [-68.770139, 9.175543], [-68.769056, 9.177337], [-68.76857699999982, 9.179498000000137], [-68.769159, 9.1803460000001], [-68.770781, 9.180593000000101], [-68.772935, 9.180792], [-68.773864, 9.181753000000185], [-68.774029, 9.182488], [-68.774377, 9.182831], [-68.77491, 9.183082000000184], [-68.776552, 9.182456], [-68.77682899999985, 9.182019], [-68.77794, 9.181969], [-68.7795809999999, 9.181297], [-68.780067, 9.180951000000107], [-68.780673, 9.181867], [-68.781092, 9.182533], [-68.782021, 9.183631000000162], [-68.782698, 9.185122], [-68.783602, 9.185555], [-68.78356, 9.186726], [-68.783892, 9.189021], [-68.783939, 9.189227], [-68.78433599999988, 9.190144], [-68.7839, 9.191248000000144], [-68.783947, 9.191615000000127], [-68.784486, 9.193496000000152], [-68.784444, 9.194622], [-68.784444, 9.194759], [-68.786274, 9.194983], [-68.787484, 9.196815000000129], [-68.78809, 9.197801], [-68.7879559999999, 9.199362000000178], [-68.787474, 9.20058100000017], [-68.78718, 9.202602], [-68.787185, 9.204072000000167], [-68.787816, 9.205953], [-68.788168, 9.207191000000137], [-68.789098, 9.208359000000144], [-68.789519, 9.209666], [-68.789713, 9.212214], [-68.790853, 9.213611000000185], [-68.79053599999986, 9.215771], [-68.79012399999988, 9.217241000000172], [-68.789412, 9.219012000000134], [-68.788538, 9.2207140000001], [-68.788172, 9.222093000000143], [-68.78870499999988, 9.222298], [-68.788868, 9.222343], [-68.788894, 9.22326100000015], [-68.78924699999988, 9.224936000000184], [-68.789296, 9.225832], [-68.78964999999982, 9.227645000000166], [-68.791593, 9.226996], [-68.7926619999999, 9.228163], [-68.793424, 9.227472], [-68.79386199999988, 9.226941000000181], [-68.794675, 9.227697], [-68.7975009999999, 9.227847000000168], [-68.798151, 9.228282], [-68.799401, 9.228093000000115], [-68.800399, 9.228572], [-68.801971, 9.227946], [-68.802667, 9.22838], [-68.80331799999988, 9.228952000000106], [-68.804409, 9.229868], [-68.8052019999999, 9.231357000000173], [-68.806293, 9.232203], [-68.8074079999999, 9.233209000000102], [-68.808707, 9.233871], [-68.809564, 9.233822], [-68.810422, 9.234255000000132], [-68.811884, 9.235054000000162], [-68.813044, 9.235899], [-68.813766, 9.236999], [-68.815252, 9.238119], [-68.815625, 9.238944000000174], [-68.81639599999988, 9.240686], [-68.81656399999986, 9.242523000000176], [-68.816567, 9.243372], [-68.817174, 9.244748], [-68.817332, 9.245773], [-68.81769899999989, 9.24764], [-68.818366, 9.247751], [-68.819591, 9.247012000000154], [-68.82030899999984, 9.247033000000101], [-68.820775, 9.247766000000183], [-68.8224, 9.248793], [-68.8232359999999, 9.249479000000179], [-68.825088, 9.249312], [-68.825616, 9.248139000000151], [-68.826404, 9.248205], [-68.82666, 9.24854900000014], [-68.827726, 9.248843000000136], [-68.828049, 9.248406], [-68.82929999999982, 9.248470000000168], [-68.82988299999982, 9.249708000000112], [-68.829886, 9.250627000000122], [-68.829913, 9.251591000000133], [-68.830609, 9.252048000000116], [-68.83109599999989, 9.252253000000167], [-68.83301799999987, 9.25231500000018], [-68.833991, 9.252197], [-68.835634, 9.251869], [-68.836425, 9.252831], [-68.837168, 9.253425000000163], [-68.838212, 9.25411], [-68.83955999999989, 9.25529900000015], [-68.841043, 9.260933], [-68.84167999999988, 9.261354], [-68.858908, 9.260197], [-68.9119409999999, 9.256929000000184], [-68.91863699999982, 9.260891], [-68.91966, 9.261999000000117], [-68.92077499999988, 9.264401], [-68.940394, 9.287295], [-68.942075, 9.288212], [-68.942911, 9.28887500000019], [-68.94486, 9.289694000000111], [-68.94521, 9.290588000000184], [-68.946785, 9.290605000000141], [-68.94692499999985, 9.290674], [-68.947991, 9.290876], [-68.94884799999988, 9.290873000000147], [-68.95026, 9.290821000000108], [-68.950887, 9.2910940000001], [-68.950751, 9.29196800000011], [-68.949872, 9.292109], [-68.948812, 9.293513], [-68.948906, 9.293857000000116], [-68.949349, 9.294636], [-68.94979199999983, 9.295530000000156], [-68.950953, 9.29623800000013], [-68.951764, 9.296326000000136], [-68.95292399999988, 9.296827000000178], [-68.9542229999999, 9.297051], [-68.9558459999999, 9.297527000000173], [-68.956567, 9.298282000000142], [-68.957474, 9.299197000000163], [-68.959054, 9.300683], [-68.96042199999988, 9.30083900000011], [-68.961673, 9.300903000000119], [-68.96262299999984, 9.301175], [-68.963341, 9.301218], [-68.96330099999989, 9.302825000000155], [-68.963907, 9.303718000000117], [-68.964348, 9.303992], [-68.9643789999999, 9.305898], [-68.963939, 9.305922], [-68.963245, 9.306086000000107], [-68.962529, 9.306847], [-68.961488, 9.307081], [-68.960702, 9.307474], [-68.96033299999988, 9.307843], [-68.960821, 9.308369], [-68.961771, 9.308458], [-68.96233099999984, 9.309466], [-68.962704, 9.309923], [-68.9629599999999, 9.310336], [-68.964258, 9.310698000000173], [-68.964979, 9.311246], [-68.964705, 9.312281], [-68.964569, 9.31317700000011], [-68.964622, 9.314784], [-68.964837, 9.31662], [-68.965349, 9.317238], [-68.966143, 9.318911], [-68.966682, 9.320355000000177], [-68.967566, 9.321339], [-68.967709, 9.322395], [-68.96788, 9.324621], [-68.968115, 9.325607], [-68.96874499999984, 9.326753], [-68.96958499999988, 9.328196], [-68.969564, 9.328770000000134], [-68.969636, 9.329482], [-68.97440399999982, 9.329751000000101], [-68.977508, 9.329285], [-68.98032299999988, 9.329741000000183], [-68.983554, 9.332498], [-68.986966, 9.335348000000124], [-68.99336099999988, 9.339482], [-68.997476, 9.343896], [-68.996755, 9.348779], [-68.997475, 9.354673000000162], [-68.998996, 9.356237], [-69.000598, 9.358446], [-69.000665, 9.35982700000011], [-69.001523, 9.362958000000162], [-69.00369399999988, 9.363783], [-69.005026, 9.365807000000189], [-69.003799, 9.368296], [-69.006026, 9.371240000000114], [-69.009012, 9.372340000000179], [-69.013039, 9.371136], [-69.014222, 9.371226], [-69.019101, 9.37352], [-69.020593, 9.376833000000147], [-69.023736, 9.379407000000128], [-69.023788, 9.38171], [-69.02555399999989, 9.384931000000108], [-69.02859399999988, 9.388241], [-69.029951, 9.388792], [-69.03221, 9.389801], [-69.033364, 9.391549], [-69.03707, 9.393201000000147], [-69.040713, 9.393194000000108], [-69.044117, 9.395231]]]}}, {"type": "Feature", "properties": {"Pais": "Venezuela", "Estado": "Portuguesa", "Municipio": "Turen", "Parroquia": "Canelones"}, "geometry": {"type": "Polygon", "coordinates": [[[-69.193307, 9.431465000000117], [-69.193586, 9.43048000000016], [-69.19294799999989, 9.429017], [-69.19124099999988, 9.429191], [-69.189957, 9.4277790000001], [-69.190377, 9.425711], [-69.190373, 9.425322], [-69.189785, 9.424202], [-69.188911, 9.422145], [-69.18898299999984, 9.41998800000016], [-69.188394, 9.418709], [-69.186882, 9.41755], [-69.185865, 9.417466], [-69.1854929999999, 9.417194], [-69.18534, 9.415727000000174], [-69.185517, 9.41490000000016], [-69.18347, 9.413287], [-69.183004, 9.412855], [-69.182942, 9.411159], [-69.18270499999988, 9.410518000000138], [-69.181272, 9.410437000000172], [-69.180373, 9.410627], [-69.178264, 9.409772], [-69.176188, 9.407586], [-69.174063, 9.405239000000165], [-69.172855, 9.404468000000122], [-69.17153999999988, 9.402070000000151], [-69.172834, 9.399721000000113], [-69.173238, 9.398503], [-69.173274, 9.39747100000011], [-69.175484, 9.388441000000114], [-69.175095, 9.387228000000107], [-69.175199, 9.385965], [-69.175387, 9.383854], [-69.174983, 9.382642], [-69.174723, 9.382047], [-69.174478, 9.380581], [-69.174165, 9.379162000000122], [-69.172636, 9.378669000000173], [-69.172669, 9.377201], [-69.173006, 9.376212], [-69.172836, 9.375365000000158], [-69.17209, 9.374591], [-69.17153, 9.37399900000014], [-69.171503, 9.373540000000162], [-69.171606, 9.372209000000169], [-69.172171, 9.370944000000122], [-69.172491, 9.370551], [-69.1725469999999, 9.369175000000155], [-69.17199099999988, 9.366519], [-69.1718709999999, 9.366084000000171], [-69.171773, 9.365488], [-69.1714209999999, 9.364826], [-69.170913, 9.364876], [-69.170554, 9.365956], [-69.170134, 9.365432], [-69.16982699999988, 9.364769], [-69.16945599999985, 9.364542000000142], [-69.168735, 9.364066], [-69.168802, 9.363768], [-69.168916, 9.363629], [-69.169049, 9.363101], [-69.16895199999988, 9.362574], [-69.16857999999985, 9.362256000000173], [-69.167813, 9.361734000000126], [-69.166996, 9.360777], [-69.166576, 9.360390000000166], [-69.166067, 9.360210000000166], [-69.165329, 9.360330000000147], [-69.164907, 9.359600000000171], [-69.16462499999989, 9.359074000000135], [-69.16404399999988, 9.358735], [-69.16307499999982, 9.358856], [-69.161897, 9.358796], [-69.1610859999999, 9.358458000000155], [-69.160728, 9.357246], [-69.16095299999984, 9.356625], [-69.160598, 9.355664000000104], [-69.16104799999988, 9.35442200000017], [-69.161686, 9.35350000000011], [-69.16235, 9.352876000000151], [-69.162776, 9.351543000000163], [-69.162099, 9.350767], [-69.162616, 9.349181000000158], [-69.162982, 9.348880000000122], [-69.163065, 9.347847], [-69.162472, 9.3462], [-69.162347, 9.345192000000111], [-69.16166, 9.343317], [-69.044117, 9.395231], [-69.032502, 9.425311], [-69.030782, 9.427907], [-69.029167, 9.430346], [-69.027782, 9.434264], [-69.027004, 9.437061], [-69.02849, 9.437464000000148], [-69.029029, 9.438331000000119], [-69.030462, 9.438344000000143], [-69.03188999999986, 9.437875], [-69.032675, 9.437916], [-69.032768, 9.438007000000141], [-69.033232, 9.43821], [-69.034538, 9.439577], [-69.034678, 9.439759000000151], [-69.03484499999985, 9.440331], [-69.035128, 9.4410400000001], [-69.034332, 9.442422], [-69.033579, 9.44339], [-69.033128, 9.444586], [-69.034797, 9.445262000000184], [-69.03609099999989, 9.445322], [-69.038454, 9.44613100000015], [-69.039136, 9.447548000000154], [-69.03912999999983, 9.44942900000018], [-69.038703, 9.450763], [-69.03808999999984, 9.451868], [-69.037783, 9.453751], [-69.03809499999988, 9.455079000000126], [-69.039122, 9.456172000000151], [-69.039611, 9.45662700000014], [-69.04030499999988, 9.456783], [-69.041597, 9.456682], [-69.04259099999985, 9.456675000000189], [-69.043538, 9.456691], [-69.043796, 9.457217], [-69.044078, 9.457696000000112], [-69.04426299999989, 9.457741000000112], [-69.045652, 9.458029000000124], [-69.045906, 9.45802700000013], [-69.048213, 9.457828], [-69.048999, 9.45784500000019], [-69.050224, 9.457928000000152], [-69.05080099999986, 9.457924000000162], [-69.052277, 9.457592], [-69.052628, 9.458026], [-69.052653, 9.45827800000012], [-69.05295699999988, 9.458642], [-69.053652, 9.458959000000164], [-69.054439, 9.459136], [-69.055433, 9.459221000000184], [-69.05529499999989, 9.459245], [-69.055668, 9.459586000000172], [-69.057448, 9.459849], [-69.059157, 9.459986], [-69.059159, 9.4599970000001], [-69.059184, 9.459988], [-69.060356, 9.459576], [-69.06132799999983, 9.459821], [-69.061633, 9.460278], [-69.063691, 9.460607], [-69.0645009999999, 9.460716], [-69.065516, 9.460617], [-69.065955, 9.460637], [-69.066094, 9.460704000000135], [-69.06736599999982, 9.460902], [-69.068219, 9.460712], [-69.06925399999989, 9.460223], [-69.07020099999988, 9.460170000000176], [-69.07091899999989, 9.460372], [-69.072056, 9.46096000000017], [-69.072936, 9.461274], [-69.074111, 9.460899], [-69.075431, 9.461142000000109], [-69.075643, 9.461668000000145], [-69.076779, 9.462118], [-69.077563, 9.461952], [-69.07765, 9.461355], [-69.079241, 9.461138000000176], [-69.080098, 9.461361000000124], [-69.080836, 9.461218], [-69.08112399999987, 9.459908], [-69.082644, 9.459438], [-69.08306, 9.459458], [-69.083545, 9.459454000000107], [-69.084514, 9.459333], [-69.086269, 9.459274000000107], [-69.08664, 9.459409000000107], [-69.08823799999988, 9.459879], [-69.090181, 9.460186], [-69.091394, 9.460114], [-69.10802599999988, 9.454758], [-69.119289, 9.451334], [-69.133748, 9.447173], [-69.15704599999987, 9.441118000000131], [-69.1876, 9.433023], [-69.193307, 9.431465000000117]]]}}, {"type": "Feature", "properties": {"Pais": "Venezuela", "Estado": "Portuguesa", "Municipio": "Turen", "Parroquia": "Santa Cruz"}, "geometry": {"type": "Polygon", "coordinates": [[[-68.96571099999989, 9.397804000000122], [-68.98011599999984, 9.398366], [-69.003772, 9.399826], [-69.010388, 9.412662], [-69.010476, 9.41505700000016], [-69.010933, 9.41722300000015], [-69.01298099999985, 9.419505000000129], [-69.014296, 9.421283000000187], [-69.017599, 9.425747], [-69.019133, 9.427143], [-69.0196059999999, 9.430063], [-69.019716, 9.432724000000178], [-69.019865, 9.433369], [-69.020866, 9.434145000000171], [-69.021666, 9.434597], [-69.02262, 9.435465000000136], [-69.02386, 9.435857], [-69.02505599999989, 9.436134], [-69.025654, 9.436260000000175], [-69.027004, 9.437061], [-69.027782, 9.434264], [-69.029167, 9.430346], [-69.030782, 9.427907], [-69.032502, 9.425311], [-69.044117, 9.395231], [-69.040713, 9.393194000000108], [-69.03707, 9.393201000000147], [-69.033364, 9.391549], [-69.03221, 9.389801], [-69.029951, 9.388792], [-69.02859399999988, 9.388241], [-69.02555399999989, 9.384931000000108], [-69.023788, 9.38171], [-69.023736, 9.379407000000128], [-69.020593, 9.376833000000147], [-69.019101, 9.37352], [-69.014222, 9.371226], [-69.013039, 9.371136], [-69.009012, 9.372340000000179], [-69.006026, 9.371240000000114], [-69.003799, 9.368296], [-69.005026, 9.365807000000189], [-69.00369399999988, 9.363783], [-69.001523, 9.362958000000162], [-69.000665, 9.35982700000011], [-69.000598, 9.358446], [-68.998996, 9.356237], [-68.997475, 9.354673000000162], [-68.996755, 9.348779], [-68.997476, 9.343896], [-68.99336099999988, 9.339482], [-68.986966, 9.335348000000124], [-68.983554, 9.332498], [-68.98032299999988, 9.329741000000183], [-68.977508, 9.329285], [-68.97440399999982, 9.329751000000101], [-68.969636, 9.329482], [-68.969564, 9.328770000000134], [-68.96958499999988, 9.328196], [-68.96874499999984, 9.326753], [-68.968115, 9.325607], [-68.96788, 9.324621], [-68.967709, 9.322395], [-68.967566, 9.321339], [-68.966682, 9.320355000000177], [-68.966143, 9.318911], [-68.965349, 9.317238], [-68.964837, 9.31662], [-68.964622, 9.314784], [-68.964569, 9.31317700000011], [-68.964705, 9.312281], [-68.964979, 9.311246], [-68.964258, 9.310698000000173], [-68.9629599999999, 9.310336], [-68.962704, 9.309923], [-68.96233099999984, 9.309466], [-68.961771, 9.308458], [-68.960821, 9.308369], [-68.96033299999988, 9.307843], [-68.960702, 9.307474], [-68.961488, 9.307081], [-68.962529, 9.306847], [-68.963245, 9.306086000000107], [-68.963939, 9.305922], [-68.9643789999999, 9.305898], [-68.964348, 9.303992], [-68.963907, 9.303718000000117], [-68.96330099999989, 9.302825000000155], [-68.963341, 9.301218], [-68.96262299999984, 9.301175], [-68.961673, 9.300903000000119], [-68.96042199999988, 9.30083900000011], [-68.959054, 9.300683], [-68.957474, 9.299197000000163], [-68.956567, 9.298282000000142], [-68.9558459999999, 9.297527000000173], [-68.9542229999999, 9.297051], [-68.95292399999988, 9.296827000000178], [-68.951764, 9.296326000000136], [-68.950953, 9.29623800000013], [-68.94979199999983, 9.295530000000156], [-68.949349, 9.294636], [-68.948906, 9.293857000000116], [-68.948812, 9.293513], [-68.949872, 9.292109], [-68.950751, 9.29196800000011], [-68.950887, 9.2910940000001], [-68.95026, 9.290821000000108], [-68.94884799999988, 9.290873000000147], [-68.947991, 9.290876], [-68.94692499999985, 9.290674], [-68.946785, 9.290605000000141], [-68.94521, 9.290588000000184], [-68.94486, 9.289694000000111], [-68.942911, 9.28887500000019], [-68.942075, 9.288212], [-68.940394, 9.287295], [-68.92077499999988, 9.264401], [-68.91966, 9.261999000000117], [-68.91863699999982, 9.260891], [-68.9119409999999, 9.256929000000184], [-68.858908, 9.260197], [-68.84167999999988, 9.261354], [-68.841043, 9.260933], [-68.83955999999989, 9.25529900000015], [-68.838212, 9.25411], [-68.837168, 9.253425000000163], [-68.836425, 9.252831], [-68.835634, 9.251869], [-68.833991, 9.252197], [-68.83301799999987, 9.25231500000018], [-68.83109599999989, 9.252253000000167], [-68.830609, 9.252048000000116], [-68.829913, 9.251591000000133], [-68.829886, 9.250627000000122], [-68.82988299999982, 9.249708000000112], [-68.82929999999982, 9.248470000000168], [-68.828049, 9.248406], [-68.827726, 9.248843000000136], [-68.82666, 9.24854900000014], [-68.826404, 9.248205], [-68.825616, 9.248139000000151], [-68.825088, 9.249312], [-68.8232359999999, 9.249479000000179], [-68.8224, 9.248793], [-68.820775, 9.247766000000183], [-68.82030899999984, 9.247033000000101], [-68.819591, 9.247012000000154], [-68.818366, 9.247751], [-68.81769899999989, 9.24764], [-68.817332, 9.245773], [-68.817174, 9.244748], [-68.816567, 9.243372], [-68.81656399999986, 9.242523000000176], [-68.81639599999988, 9.240686], [-68.815625, 9.238944000000174], [-68.815252, 9.238119], [-68.813766, 9.236999], [-68.813044, 9.235899], [-68.811884, 9.235054000000162], [-68.810422, 9.234255000000132], [-68.809564, 9.233822], [-68.808707, 9.233871], [-68.8074079999999, 9.233209000000102], [-68.806293, 9.232203], [-68.8052019999999, 9.231357000000173], [-68.804409, 9.229868], [-68.80331799999988, 9.228952000000106], [-68.802667, 9.22838], [-68.801971, 9.227946], [-68.800399, 9.228572], [-68.799401, 9.228093000000115], [-68.798151, 9.228282], [-68.7975009999999, 9.227847000000168], [-68.794675, 9.227697], [-68.79386199999988, 9.226941000000181], [-68.793424, 9.227472], [-68.7926619999999, 9.228163], [-68.791593, 9.226996], [-68.78964999999982, 9.227645000000166], [-68.789296, 9.225832], [-68.78924699999988, 9.224936000000184], [-68.788894, 9.22326100000015], [-68.788868, 9.222343], [-68.78870499999988, 9.222298], [-68.788172, 9.222093000000143], [-68.788538, 9.2207140000001], [-68.789412, 9.219012000000134], [-68.79012399999988, 9.217241000000172], [-68.79053599999986, 9.215771], [-68.790853, 9.213611000000185], [-68.789713, 9.212214], [-68.789519, 9.209666], [-68.789098, 9.208359000000144], [-68.788168, 9.207191000000137], [-68.787816, 9.205953], [-68.787185, 9.204072000000167], [-68.78718, 9.202602], [-68.787474, 9.20058100000017], [-68.7879559999999, 9.199362000000178], [-68.78809, 9.197801], [-68.787484, 9.196815000000129], [-68.786274, 9.194983], [-68.784444, 9.194759], [-68.784444, 9.194622], [-68.784486, 9.193496000000152], [-68.783947, 9.191615000000127], [-68.7839, 9.191248000000144], [-68.78433599999988, 9.190144], [-68.783939, 9.189227], [-68.783892, 9.189021], [-68.78356, 9.186726], [-68.783602, 9.185555], [-68.782698, 9.185122], [-68.782021, 9.183631000000162], [-68.781092, 9.182533], [-68.780673, 9.181867], [-68.780067, 9.180951000000107], [-68.7795809999999, 9.181297], [-68.77794, 9.181969], [-68.77682899999985, 9.182019], [-68.776552, 9.182456], [-68.77491, 9.183082000000184], [-68.774377, 9.182831], [-68.774029, 9.182488], [-68.773864, 9.181753000000185], [-68.772935, 9.180792], [-68.770781, 9.180593000000101], [-68.769159, 9.1803460000001], [-68.76857699999982, 9.179498000000137], [-68.769056, 9.177337], [-68.770139, 9.175543], [-68.770438, 9.175014], [-68.769671, 9.174167000000125], [-68.769943, 9.172535], [-68.769942, 9.172122000000172], [-68.769799, 9.170929], [-68.7685489999999, 9.170910000000106], [-68.768501, 9.170474], [-68.7682, 9.170429], [-68.767689, 9.169948], [-68.767757, 9.169512], [-68.769304, 9.168267], [-68.771292, 9.167365], [-68.773216, 9.166569], [-68.774429, 9.16591000000011], [-68.775405, 9.165055], [-68.775981, 9.163951], [-68.775909, 9.163285000000144], [-68.776698, 9.163517000000184], [-68.77740399999982, 9.162148], [-68.77724099999983, 9.159892], [-68.711416, 9.202309000000128], [-68.7026249999999, 9.207452], [-68.69129556399997, 9.214066777000141], [-68.6842486729999, 9.21818115700006], [-68.67833820499999, 9.221632028000045], [-68.6714649999999, 9.225645], [-68.66917349499994, 9.226758191000044], [-68.66870567299986, 9.2269854540001], [-68.6679138639999, 9.22737010700007], [-68.6677, 9.227474], [-68.66767334399998, 9.227494038000088], [-68.66776577399997, 9.227499785000134], [-68.66770029899988, 9.228177599000105], [-68.66759277599988, 9.229290832000117], [-68.66815580599985, 9.230364849000068], [-68.66963886699989, 9.230423850000022], [-68.67197696999989, 9.230269824000118], [-68.67292700799999, 9.230217824000079], [-68.67358805199996, 9.232070866000072], [-68.67447008199997, 9.232340869000097], [-68.67553612799998, 9.232378857000072], [-68.67593215499994, 9.23269786600008], [-68.67584714699996, 9.233798896000053], [-68.6768891989999, 9.233745889000033], [-68.67758423099997, 9.233718876000182], [-68.67809924799991, 9.234517897000103], [-68.67928029699993, 9.234509896000077], [-68.68001332999995, 9.233357861000059], [-68.68163239399996, 9.232956845000103], [-68.68304045299993, 9.232258813999977], [-68.68434451599984, 9.233235836000176], [-68.68577057599998, 9.235038865999968], [-68.68677763299996, 9.236636906000058], [-68.68826670599998, 9.237567915000056], [-68.68978277899993, 9.23897894800001], [-68.69173485699997, 9.23995195700013], [-68.69335993199996, 9.24035396100004], [-68.69454798699996, 9.24133197700013], [-68.69416497899988, 9.242941011000028], [-68.69377997099991, 9.24409004100005], [-68.6947870269999, 9.2456200740001], [-68.69539705199986, 9.246786103000034], [-68.69709413599986, 9.247600112000157], [-68.69857619099992, 9.24763610000008], [-68.69946624499994, 9.248914137000043], [-68.70000627399992, 9.249966159000053], [-68.70040929499999, 9.25127017900013], [-68.70138834499988, 9.25215819300007], [-68.70232739399995, 9.25384924000008], [-68.70310542899995, 9.25588527900004], [-68.70411048499994, 9.2570483020001], [-68.70580755699996, 9.257908311000108], [-68.70758763599997, 9.25743728800012], [-68.7074676279999, 9.256864283000084], [-68.70620956499994, 9.255818260000126], [-68.70621255299989, 9.25290519500004], [-68.70502048699996, 9.25149116800003], [-68.7036234279999, 9.250491147000162], [-68.70343141199999, 9.249552125000093], [-68.70451445799989, 9.248673098000097], [-68.70511147699995, 9.248003074000053], [-68.70620352999987, 9.248454085], [-68.70686256099992, 9.249849111000117], [-68.70795760799996, 9.250805132000096], [-68.70879364999996, 9.25112013000006], [-68.70948567599999, 9.25058811800011], [-68.71085072799997, 9.250372110000171], [-68.71241879699994, 9.249375076000092], [-68.71349084399992, 9.250354086000073], [-68.7138448689999, 9.251269113000035], [-68.71283182899992, 9.25205613900016], [-68.71341685399995, 9.25292315400003], [-68.71491792099994, 9.252248123000015], [-68.71605096899992, 9.252010121000069], [-68.71709401399988, 9.252026115000149], [-68.71813205399997, 9.251468098000089], [-68.71977811799991, 9.251640088000102], [-68.72091516499995, 9.251816088999988], [-68.72087417099993, 9.25259610900008], [-68.72268524999993, 9.253180115000077], [-68.72438532799993, 9.254544129000124], [-68.72542937999998, 9.254721136000114], [-68.72629341499999, 9.255678152000087], [-68.72694644699999, 9.256316159], [-68.72771649299995, 9.257044178000115], [-68.72689246299996, 9.258426216000089], [-68.72680946699995, 9.259757247000152], [-68.72719249399995, 9.261567282999977], [-68.7285405579999, 9.262200295000127], [-68.72979260699987, 9.262260290000029], [-68.7311156589999, 9.262641294000105], [-68.73298973999988, 9.262260273000152], [-68.73388777699995, 9.261566254000172], [-68.73478680699998, 9.260871229000145], [-68.73554783499998, 9.260430213000063], [-68.73728591299982, 9.260533214000134], [-68.73804594699993, 9.259931184000095], [-68.73860096499993, 9.259835183], [-68.73943900599988, 9.260288194000111], [-68.7402540469999, 9.260948206000023], [-68.7414410959999, 9.26174220900009], [-68.7424951299999, 9.260060174000103], [-68.74325616899989, 9.259550157000092], [-68.74432821499994, 9.260460166000144], [-68.74449923099996, 9.261698202000105], [-68.74464924599994, 9.263234235000084], [-68.74671734299983, 9.264091238], [-68.74759937399989, 9.264429248000113], [-68.74814140199999, 9.265664278000145], [-68.74770939899992, 9.266745301000128], [-68.74771939899995, 9.268121339000118], [-68.74983349699983, 9.269047342000079], [-68.7512235499999, 9.26903734200016], [-68.75362965899996, 9.268492314000184], [-68.75490471099994, 9.268736310000122], [-68.75671578999993, 9.26927331000013], [-68.75831485899982, 9.26928530400005], [-68.76086297199998, 9.269336293000094], [-68.76202602599994, 9.269924299000081], [-68.76203503199997, 9.271185336000087], [-68.76090698999997, 9.272111357000028], [-68.76058997799993, 9.273191386000121], [-68.7625130539999, 9.27320137900017], [-68.76392511299986, 9.273007366], [-68.76528717099995, 9.272378348000188], [-68.76587220699992, 9.273200356000189], [-68.76595221499997, 9.274644389], [-68.76626924499993, 9.276775446000045], [-68.7679663159999, 9.27761245500011], [-68.76907636299984, 9.277421447000108], [-68.76888335299992, 9.276344424000058], [-68.76856432299991, 9.273846357000082], [-68.76846230899991, 9.272539332], [-68.76912533499996, 9.271364297000048], [-68.7703793849999, 9.271722301000182], [-68.77129643899985, 9.273574337000127], [-68.77207147899992, 9.275014369000075], [-68.77340652499998, 9.273880340000119], [-68.77461057399995, 9.273734327000057], [-68.77591263699998, 9.274367328000096], [-68.77751270099992, 9.274677331000078], [-68.77883376299997, 9.274667320000049], [-68.77955979699993, 9.275809343000105], [-68.77873376699989, 9.276847383000018], [-68.77734371399998, 9.276857383000163], [-68.7761396649999, 9.276912389000074], [-68.7749126039999, 9.277150403000064], [-68.7742245899999, 9.278049436000117], [-68.77450459599999, 9.278391434000184], [-68.77563664899998, 9.277947424000047], [-68.77656568599991, 9.27819342000015], [-68.77639368199988, 9.280030468000064], [-68.77740273899997, 9.28183551], [-68.77849879099989, 9.28272152600016], [-68.77894782399994, 9.283980550000024], [-68.7771087559999, 9.286035606000098], [-68.77607170999988, 9.286730631000125], [-68.77517067999997, 9.287104646000103], [-68.77403462599995, 9.287020645000155], [-68.77355260999991, 9.287574663000157], [-68.7730986009999, 9.28890870000015], [-68.77146253599983, 9.290112736000083], [-68.77014647899989, 9.290718754000125], [-68.76846341999993, 9.291808794000076], [-68.76712836199994, 9.293033830000013], [-68.76573930399996, 9.293227844000114], [-68.76426224299996, 9.294040876000054], [-68.76452226599997, 9.29470488800007], [-68.76496828099994, 9.29550389700006], [-68.76574032699995, 9.296553919000075], [-68.76454827799989, 9.298282972000038], [-68.76307322899999, 9.299349006000114], [-68.76099113899994, 9.299868028999981], [-68.76088114199996, 9.300649043000135], [-68.76171918299997, 9.301193061000049], [-68.76202620199996, 9.301994069000045], [-68.76260821899996, 9.30231107800006], [-68.76250322899989, 9.30387212300019], [-68.76227922399994, 9.304929140000127], [-68.76312126599987, 9.306001169000126], [-68.76349928599996, 9.307076192000181], [-68.76344229599988, 9.308797233000178], [-68.7634533019999, 9.31021927100005], [-68.76401233099995, 9.31065127000005], [-68.76555639399999, 9.309562235000044], [-68.76710044299995, 9.308335199000169], [-68.76857750399995, 9.307545179000158], [-68.77029157599992, 9.307556166999973], [-68.77072160799997, 9.309342208999965], [-68.77028859899997, 9.310262231000081], [-68.76882153899999, 9.312544295000066], [-68.76973459299995, 9.3137993200001], [-68.77043461899996, 9.314391325000145], [-68.77124765999997, 9.314683335000154], [-68.77196868699997, 9.315091339000162], [-68.7725017109999, 9.315202339999985], [-68.77295074299997, 9.316300363000153], [-68.77445379899996, 9.315991348000068], [-68.77576684999997, 9.314926308000054], [-68.77729291699995, 9.314456292000102], [-68.77857097399993, 9.314975297000103], [-68.77906700099993, 9.316256328000179], [-68.77849998999989, 9.31795836800012], [-68.77839799299988, 9.319793416999971], [-68.77858500299993, 9.320090420000156], [-68.77998504999994, 9.318199371999981], [-68.78041605899989, 9.317003336000141], [-68.78158810099995, 9.315619298000058], [-68.78259015199995, 9.316391306000128], [-68.7833241969999, 9.318634358999986], [-68.78222416199992, 9.320294410000145], [-68.78201215699988, 9.322933473000091], [-68.7831942119999, 9.322994462000054], [-68.78474327899983, 9.32252444500017], [-68.78650735199994, 9.322993450000183], [-68.78714138299989, 9.324089474000061], [-68.78798042999995, 9.324863482000183], [-68.78875046399992, 9.325523494000095], [-68.78871146899996, 9.326624524000067], [-68.78679939899996, 9.328106574000117], [-68.78639638399983, 9.32996761600009], [-68.78652240499997, 9.331366654000021], [-68.78616739899996, 9.332700690000081], [-68.78674041999994, 9.33348670200013], [-68.78740745199997, 9.33397470500006], [-68.78806948599998, 9.33512973600017], [-68.78882752899989, 9.336009747000048], [-68.79007157599989, 9.33673175700011], [-68.79114062399998, 9.336326747000157], [-68.79128562399995, 9.335500726000134], [-68.79228266699994, 9.335324713000034], [-68.79361872899995, 9.336254729000075], [-68.7943997729999, 9.336996750000083], [-68.79516379599994, 9.337117742000146], [-68.7949227819999, 9.33532270000012], [-68.79582881499994, 9.33505369300019], [-68.79651384999994, 9.33618571300002], [-68.79694887799997, 9.336878731000184], [-68.79821093999993, 9.338336759000015], [-68.79852296399997, 9.339833791999979], [-68.79815094699995, 9.340014792000034], [-68.79695288799991, 9.339223781000044], [-68.79647386699997, 9.338299766999967], [-68.79596184799982, 9.338617776000092], [-68.79590584999988, 9.339881805000175], [-68.79629086999995, 9.34091883300016], [-68.79790894399997, 9.341230823000046], [-68.79874297399988, 9.34123781900007], [-68.79980302799993, 9.341912836000063], [-68.80066205399987, 9.341597818000139], [-68.8017251099999, 9.341858820000027], [-68.80093408099998, 9.342334839000102], [-68.80034905299982, 9.343065858000102], [-68.8005270679999, 9.344032881999965], [-68.80124409599989, 9.344130874000086], [-68.80271215599993, 9.342969847000063], [-68.80323518099988, 9.344215875000089], [-68.80299118199991, 9.345753909000166], [-68.80514227899994, 9.34611590500009], [-68.80536528499982, 9.346113905000095], [-68.80636632399995, 9.345734888000095], [-68.81064850499996, 9.345634870000026], [-68.81222257799993, 9.346329869000044], [-68.81236558399985, 9.346356877000176], [-68.81261459499984, 9.346502871000155], [-68.81480568899997, 9.347469884000134], [-68.81768382799999, 9.349582917000077], [-68.81792184099993, 9.349798928000098], [-68.81844986399994, 9.350128934000054], [-68.82001393599995, 9.351473957000053], [-68.82127999199997, 9.352380974000027], [-68.82300607399998, 9.3537049950001], [-68.82404411999988, 9.354264999000065], [-68.82564519399995, 9.355506019000075], [-68.82625017499998, 9.355891854000106], [-68.8353852439999, 9.355838709000068], [-68.84465344599988, 9.355784781000068], [-68.84667999999988, 9.355773], [-68.848918, 9.35547], [-68.8510189999999, 9.355192000000102], [-68.85412699999983, 9.352308], [-68.85609474999984, 9.349807480000095], [-68.856151, 9.349736], [-68.85679699999986, 9.34789300000017], [-68.8570079999999, 9.346330000000137], [-68.85820699999988, 9.346039], [-68.860404, 9.346127], [-68.861643, 9.347121], [-68.86358199999984, 9.34868], [-68.864975, 9.35086600000011], [-68.866263, 9.352181], [-68.87212199999988, 9.352911], [-68.876724, 9.3529], [-68.884402, 9.353034], [-68.886139, 9.353265], [-68.899021, 9.358749000000103], [-68.906837, 9.36232200000012], [-68.909878, 9.363225], [-68.91280599999982, 9.362592], [-68.91939899999988, 9.361132], [-68.922157, 9.36153400000012], [-68.924551, 9.36249], [-68.930641, 9.370169000000146], [-68.938679, 9.380027], [-68.946024, 9.384523000000115], [-68.9544729999999, 9.392196000000126], [-68.960111, 9.397104000000127], [-68.96203799999984, 9.39769900000016], [-68.963525, 9.397634], [-68.96571099999989, 9.397804000000122]]]}}, {"type": "Feature", "properties": {"Pais": "Venezuela", "Estado": "Portuguesa", "Municipio": "Turen", "Parroquia": "San Isidro Labrador"}, "geometry": {"type": "Polygon", "coordinates": [[[-69.13251, 9.261573], [-69.132488, 9.260953], [-69.13249, 9.259138000000178], [-69.132653, 9.258082], [-69.13267799999988, 9.256935000000169], [-69.133142, 9.255971000000159], [-69.13335099999989, 9.25542], [-69.133837, 9.254479000000174], [-69.133445, 9.254203], [-69.133377, 9.252964], [-69.132152, 9.252411000000109], [-69.131134, 9.252525000000105], [-69.13014, 9.252685], [-69.129493, 9.252592000000163], [-69.12924, 9.250985], [-69.128362, 9.250640000000146], [-69.127808, 9.250341], [-69.127208, 9.249239], [-69.126677, 9.248274], [-69.124988, 9.248502000000144], [-69.124827, 9.248111000000108], [-69.124574, 9.246894000000168], [-69.1243889999999, 9.246550000000127], [-69.124089, 9.246021], [-69.12312, 9.244827], [-69.12282, 9.24445900000012], [-69.121781, 9.243218000000127], [-69.12085899999988, 9.240968000000123], [-69.11905599999989, 9.240277000000106], [-69.118687, 9.239473], [-69.118318, 9.238646000000188], [-69.117695, 9.237865], [-69.116909, 9.237681000000123], [-69.11587, 9.236578000000122], [-69.113908, 9.234165000000132], [-69.113285, 9.23322300000018], [-69.112755, 9.23157], [-69.112386, 9.231248], [-69.111257, 9.22979], [-69.1086959999999, 9.229135000000156], [-69.097686, 9.222951], [-69.055814, 9.199432000000115], [-69.051817, 9.197326000000146], [-69.051531, 9.196536000000151], [-69.050353, 9.195754], [-69.0495, 9.194284000000152], [-69.0479749999999, 9.193593], [-69.04709899999989, 9.192261], [-69.04612899999984, 9.19164], [-69.045065, 9.191386], [-69.04388799999987, 9.190535000000125], [-69.043102, 9.190144], [-69.043036, 9.188376000000176], [-69.04176599999988, 9.18679], [-69.04054, 9.187294000000179], [-69.0389, 9.186305], [-69.037908, 9.184857000000136], [-69.03737799999982, 9.183318], [-69.03678, 9.181756], [-69.036711, 9.181045], [-69.036598, 9.179805000000101], [-69.036345, 9.17868], [-69.03542, 9.178931], [-69.03468, 9.178976], [-69.034035, 9.177781000000152], [-69.033503, 9.177413000000115], [-69.032673, 9.17640200000011], [-69.031888, 9.175575], [-69.030781, 9.173622000000137], [-69.029487, 9.173368], [-69.029049, 9.172296000000188], [-69.00237, 9.160364], [-68.994434, 9.157144], [-68.99545299999988, 9.182540000000131], [-69.00098, 9.197573000000148], [-69.000964, 9.203660000000184], [-68.999268, 9.204653000000121], [-68.99948999999987, 9.212442000000124], [-69.00167, 9.211687000000154], [-69.001169, 9.218266], [-68.997291, 9.221232000000157], [-68.99844599999989, 9.242645000000152], [-69.000613, 9.247002], [-69.002458, 9.252592000000163], [-69.004824, 9.253322], [-69.005147, 9.253735], [-69.005954, 9.254583], [-69.007126, 9.254963], [-69.006992, 9.255673000000172], [-69.007248, 9.255942], [-69.0080329999999, 9.256953], [-69.010346, 9.256428000000142], [-69.01377099999985, 9.255055], [-69.014511, 9.254941], [-69.016311, 9.257217], [-69.016981, 9.25776800000017], [-69.017998, 9.257861], [-69.01942999999983, 9.259103], [-69.020491, 9.260459], [-69.020811, 9.262778], [-69.02148199999988, 9.262871000000132], [-69.022614, 9.263079000000118], [-69.024693, 9.26439], [-69.024645, 9.265905], [-69.02587, 9.266136], [-69.02630799999986, 9.267009], [-69.02651999999989, 9.26737100000014], [-69.02718399999986, 9.26850300000018], [-69.028039, 9.269284000000141], [-69.030449, 9.269646], [-69.030814, 9.269701], [-69.03243199999986, 9.270185], [-69.032545, 9.2717], [-69.032983, 9.272757], [-69.034023, 9.272896], [-69.035038, 9.274504], [-69.03529, 9.276066000000128], [-69.035473, 9.277237], [-69.036371, 9.279786000000115], [-69.036491, 9.282572], [-69.036572, 9.28447100000011], [-69.037613, 9.284495000000163], [-69.038215, 9.283531000000153], [-69.040923, 9.282571000000132], [-69.042587, 9.283055], [-69.044922, 9.283425], [-69.05613399999987, 9.283317], [-69.068831, 9.283528000000103], [-69.1156079999999, 9.285358000000144], [-69.132239, 9.285614], [-69.132249, 9.285608], [-69.132234, 9.285594000000117], [-69.132017, 9.285172], [-69.131926, 9.283611], [-69.1320199999999, 9.2828540000001], [-69.13172099999986, 9.28145300000017], [-69.131421, 9.280672], [-69.131029, 9.280213], [-69.130082, 9.27888], [-69.129921, 9.278260000000103], [-69.12902, 9.277777000000128], [-69.128142, 9.27736300000015], [-69.127589, 9.275801], [-69.127404, 9.275434], [-69.126249, 9.275066], [-69.125441, 9.273687000000109], [-69.126112, 9.27320600000013], [-69.12639, 9.272816], [-69.126854, 9.271967], [-69.127781, 9.270797], [-69.12785, 9.27077400000013], [-69.128799, 9.270431], [-69.129193, 9.269765000000177], [-69.12947, 9.26946700000019], [-69.129473, 9.267355], [-69.129544, 9.26618400000018], [-69.130238, 9.265841], [-69.13063199999988, 9.265336000000161], [-69.131026, 9.264831000000129], [-69.13088799999986, 9.264418], [-69.131281, 9.263982], [-69.131796, 9.263187000000187], [-69.132231, 9.262537], [-69.13251, 9.261573]]]}}]}