{"type": "FeatureCollection", "features": [{"type": "Feature", "properties": {"Pais": "Venezuela", "Estado": "Trujillo", "Municipio": "Urdaneta"}, "geometry": {"type": "Polygon", "coordinates": [[[-70.548019, 9.287408000000141], [-70.549064, 9.288952000000165], [-70.55020599999989, 9.289346], [-70.5511259999999, 9.290341000000183], [-70.551718, 9.291066000000114], [-70.55159, 9.29178], [-70.552883, 9.29286], [-70.554673, 9.290427], [-70.563214, 9.274009], [-70.5706371309999, 9.265934450000088], [-70.5686729069999, 9.261050683000065], [-70.56873957499994, 9.258739351000145], [-70.56896975099994, 9.250759274000018], [-70.56034949099984, 9.24116819600016], [-70.55947823099996, 9.234065916000134], [-70.5611585289999, 9.228054930000155], [-70.56379735799999, 9.224841739000112], [-70.57179274099997, 9.21881255400018], [-70.57711123099989, 9.218255554000052], [-70.58306122699997, 9.220201654000164], [-70.58493911399995, 9.222751696000103], [-70.585048, 9.224634], [-70.586121, 9.22674], [-70.587343, 9.22839400000015], [-70.587506, 9.230958], [-70.587662, 9.231862], [-70.5884653409999, 9.232494967000093], [-70.589185, 9.233062000000189], [-70.591013, 9.234261000000117], [-70.591775, 9.235011000000156], [-70.591938, 9.237424000000146], [-70.592094, 9.238479], [-70.592858, 9.23953200000011], [-70.59392599999984, 9.240733], [-70.594083, 9.241789], [-70.594702, 9.244501], [-70.595466, 9.245553], [-70.598446, 9.247622], [-70.599665, 9.244659000000127], [-70.601053, 9.243189], [-70.601405, 9.242057000000159], [-70.602043, 9.240048], [-70.602822, 9.239530000000116], [-70.603016, 9.23865400000011], [-70.6029, 9.237255], [-70.603557, 9.236371], [-70.604482, 9.234909], [-70.605451, 9.233261000000141], [-70.606793, 9.231838], [-70.607396, 9.230472000000134], [-70.608236, 9.229471000000103], [-70.609536, 9.228254000000106], [-70.610152, 9.226269000000173], [-70.61108699999988, 9.2239560000001], [-70.611523, 9.222341], [-70.611486, 9.220114], [-70.611182, 9.218558], [-70.611739, 9.217285], [-70.613401, 9.215557000000103], [-70.614068, 9.213893], [-70.615373, 9.211597], [-70.615857, 9.21005], [-70.615781, 9.20830500000011], [-70.615726, 9.206377], [-70.616366, 9.204483], [-70.617171, 9.201415], [-70.617366, 9.199184], [-70.618165, 9.197104], [-70.627211, 9.1895990000001], [-70.642056, 9.156515], [-70.655855, 9.142465], [-70.656934, 9.140518], [-70.656977, 9.139001000000121], [-70.65836499999989, 9.137531], [-70.659715, 9.135165], [-70.66023199999984, 9.13426], [-70.661219, 9.13233700000012], [-70.66165099999989, 9.130492], [-70.66321, 9.128169], [-70.66464799999989, 9.126973], [-70.665867, 9.1264690000001], [-70.66664599999984, 9.12461900000011], [-70.667931, 9.122507], [-70.668299, 9.121008000000131], [-70.67019299999987, 9.119345], [-70.670979, 9.117907], [-70.672092, 9.116625], [-70.672473, 9.114506], [-70.67306899999988, 9.112773000000175], [-70.6737389999999, 9.109937], [-70.67476999999985, 9.10783], [-70.676191, 9.105601], [-70.676165, 9.10404], [-70.67639799999989, 9.101395], [-70.6769829999999, 9.09899600000017], [-70.67664599999989, 9.09689], [-70.677314, 9.095317], [-70.677866, 9.093723000000125], [-70.679129, 9.091749], [-70.678982, 9.091223], [-70.679851, 9.091674], [-70.680918, 9.091669], [-70.68173399999989, 9.091382], [-70.683831, 9.091372000000149], [-70.68607, 9.091362], [-70.687632, 9.090930000000128], [-70.688127, 9.09043400000013], [-70.690188, 9.090247000000147], [-70.69193, 9.09031], [-70.69282, 9.090588], [-70.69488299999983, 9.090897], [-70.695665, 9.090893000000108], [-70.69641, 9.090678], [-70.696908, 9.090640000000121], [-70.6984389999999, 9.091128], [-70.699293, 9.091336000000183], [-70.699649, 9.091511], [-70.700361, 9.091684], [-70.701001, 9.091681000000108], [-70.702849, 9.091602], [-70.703134, 9.0916], [-70.704309, 9.092019], [-70.705662, 9.092578], [-70.707194, 9.093348], [-70.70784, 9.09465200000011], [-70.70841, 9.094932], [-70.7095149999999, 9.095527], [-70.717774, 9.098209], [-70.71770899999984, 9.09948100000014], [-70.729799, 9.085080000000175], [-70.72996044599995, 9.071139420000122], [-70.73000583499999, 9.067220188000022], [-70.730135, 9.056067], [-70.73018650299997, 9.056005527000025], [-70.73003846299991, 9.055083550000177], [-70.72902039799988, 9.051502473000085], [-70.72700829799993, 9.046520366999971], [-70.72673416699996, 9.045075342000075], [-70.72626823699989, 9.042619285000171], [-70.72488114999987, 9.03756918], [-70.72381610899993, 9.03731618400002], [-70.72356208999997, 9.035938151000153], [-70.72353908399992, 9.035021125000128], [-70.72326106999992, 9.033575097000039], [-70.7227990429999, 9.032656075000034], [-70.72145696999996, 9.030934050000099], [-70.7206995009999, 9.0297696290001], [-70.72027691799997, 9.029120013000181], [-70.71916585299994, 9.02682396500012], [-70.71784679599995, 9.025812947000134], [-70.7158797159999, 9.025098948000107], [-70.71479166399996, 9.024959948000173], [-70.71298658599989, 9.023121920000108], [-70.71113549799998, 9.021512889000121], [-70.70923740899991, 9.018940844000042], [-70.70717830799998, 9.016987804999985], [-70.70610781699997, 9.014808598000116], [-70.70583624099999, 9.014255749000085], [-70.70863833899995, 9.012102695000124], [-70.71049139599995, 9.008180585000161], [-70.71127142599994, 9.007633579000185], [-70.70456709599995, 8.997496378000108], [-70.69670177099994, 8.997424417000104], [-70.69299260899999, 8.997169436999968], [-70.68921145199988, 8.996708450000142], [-70.68717736499997, 8.99530742600001], [-70.68514125699988, 8.992137366000122], [-70.68444917499994, 8.991070477], [-70.68277413999988, 8.988488301000075], [-70.6793339649999, 8.982531186000188], [-70.67674785299988, 8.981413168000074], [-70.67502876999993, 8.979411135000078], [-70.67338168399993, 8.975822056000027], [-70.67319767099997, 8.97426203200007], [-70.6731829819999, 8.974277783000048], [-70.67189761899994, 8.975656061000052], [-70.66946052199984, 8.976925103000042], [-70.6670094299999, 8.977207126000053], [-70.66508435399993, 8.978677171000072], [-70.66449334099997, 8.98112022800018], [-70.66339130399984, 8.981777245999979], [-70.65958415099988, 8.982809294000106], [-70.65791609099995, 8.984438340000054], [-70.65537498399993, 8.98488136400016], [-70.65192185399997, 8.986323416000062], [-70.64992278199992, 8.989196495000044], [-70.64622963699998, 8.990067529000157], [-70.64295649999997, 8.991116579000106], [-70.64087643099998, 8.993094627000175], [-70.64123145599996, 8.995319680000136], [-70.64148447099996, 8.996925715999964], [-70.64084345399993, 8.998195742000064], [-70.64008192499989, 8.998537637000027], [-70.64007942199987, 8.998538761000134], [-70.63744031199991, 8.997984762000044], [-70.63507922499997, 8.998416787000167], [-70.63218609399985, 8.998366794000049], [-70.63040203999992, 9.000475853000182], [-70.62924400299994, 9.002240899000014], [-70.62808496399998, 9.004487956000048], [-70.62523684799987, 9.005859998000062], [-70.62227373599984, 9.006200027000034], [-70.62072167299993, 9.007873075000077], [-70.61970164699994, 9.011084150000102], [-70.61865862499997, 9.012872196000103], [-70.61641252999993, 9.013534221999976], [-70.6134034029999, 9.01359824900004], [-70.61129631299997, 9.013572257000021], [-70.61074029299982, 9.014076264999971], [-70.60830920299992, 9.015289314000086], [-70.60497506799993, 9.016041349000034], [-70.60161893399999, 9.016104361000089], [-70.60004386699995, 9.01718039800005], [-70.59814479699992, 9.018944443000066], [-70.59571271599998, 9.020684498000094], [-70.59341962099995, 9.022425557000133], [-70.59158956499988, 9.024189602000035], [-70.58876444999999, 9.02565365800018], [-70.58556832199986, 9.02700169700006], [-70.58387225099995, 9.027044715000102], [-70.58303422699998, 9.027208724000047], [-70.58201317899994, 9.027417730000138], [-70.58195188699995, 9.027337980000084], [-70.58179517499997, 9.02716273100009], [-70.58067710299997, 9.023821660000124], [-70.58051709599988, 9.022334621000084], [-70.58070708799988, 9.020929588000115], [-70.58052007099997, 9.019305553000095], [-70.57989203299996, 9.017625517], [-70.5795910189999, 9.016073487000028], [-70.57887797699988, 9.01389144400008], [-70.57854196099998, 9.012708410000073], [-70.57698787999993, 9.011032387], [-70.57684815199997, 9.011017010999979], [-70.57468878999993, 9.010779386000138], [-70.57385275099995, 9.010712389], [-70.57098763599993, 9.0108884120001], [-70.56887754499996, 9.011547446000066], [-70.56710647899996, 9.011943460000168], [-70.56531340099997, 9.011583462000033], [-70.56397233899992, 9.010865450000153], [-70.56225226699996, 9.009837441000116], [-70.56063219399994, 9.009082430000035], [-70.5586361089999, 9.008911436000119], [-70.55679902899988, 9.008621443000038], [-70.55503094999995, 9.008328446], [-70.55333888299992, 9.007460433000062], [-70.54990272699985, 9.005565404000038], [-70.5498379849999, 9.005528457000082], [-70.549837, 9.00554], [-70.54972977599994, 9.010425857000087], [-70.54953769499991, 9.019178347000093], [-70.54914, 9.03730000000013], [-70.550466, 9.063478], [-70.54583, 9.082268], [-70.547875, 9.088771], [-70.548378, 9.091694000000132], [-70.543325, 9.095155000000148], [-70.521965, 9.099766000000102], [-70.507568, 9.101134000000116], [-70.49338299999982, 9.117968000000133], [-70.493153, 9.117902000000186], [-70.49196599999982, 9.117561], [-70.49292999999989, 9.118422], [-70.48888, 9.118315], [-70.48169499999989, 9.116465000000119], [-70.47693, 9.11693], [-70.470514, 9.116184000000146], [-70.458914, 9.12126], [-70.454554, 9.123584000000108], [-70.450969, 9.127261], [-70.443898, 9.132871], [-70.444984, 9.138198000000102], [-70.446703, 9.14388600000018], [-70.44588, 9.147509000000127], [-70.4465469999999, 9.150108], [-70.450316, 9.15836800000011], [-70.45039, 9.163218000000143], [-70.449306, 9.16622400000017], [-70.44949199999985, 9.170201], [-70.451427, 9.173522], [-70.45122228899993, 9.17375424000005], [-70.45176, 9.174200000000155], [-70.457955, 9.180375], [-70.46193, 9.185444], [-70.465923, 9.194903], [-70.468048, 9.202753], [-70.47086, 9.207364], [-70.47530499999982, 9.213586], [-70.482533, 9.217716], [-70.4839439999999, 9.221408000000167], [-70.484659, 9.225566], [-70.484677, 9.229727000000139], [-70.485669, 9.231932000000143], [-70.498636, 9.230131000000142], [-70.498728, 9.233504], [-70.501627, 9.237178], [-70.502021, 9.237567], [-70.5028559999999, 9.238687], [-70.503369, 9.240451000000121], [-70.503626, 9.241322], [-70.503286, 9.243502000000149], [-70.502736, 9.24520200000012], [-70.502163, 9.247039], [-70.502586, 9.2494], [-70.503447, 9.251691], [-70.50509699999986, 9.255056], [-70.506441, 9.256335], [-70.508547, 9.257519000000173], [-70.5103529999999, 9.258406], [-70.51150899999988, 9.258608], [-70.51305699999989, 9.258831000000157], [-70.514515, 9.259536], [-70.515952, 9.261204], [-70.51630299999988, 9.262511000000188], [-70.516911, 9.265077], [-70.51654899999988, 9.2679], [-70.517316, 9.269525], [-70.5182, 9.271402], [-70.519891, 9.273139], [-70.52149, 9.274577], [-70.522928, 9.276568000000111], [-70.523784, 9.277023], [-70.52591399999989, 9.277473], [-70.52731, 9.277863000000139], [-70.526763, 9.278401], [-70.52620399999984, 9.27960400000012], [-70.527302, 9.280137], [-70.528688, 9.279884], [-70.530303, 9.279512000000182], [-70.531827, 9.279118], [-70.533024, 9.277260000000183], [-70.534355, 9.276479], [-70.53650199999987, 9.276052], [-70.538534, 9.275628000000154], [-70.539407, 9.276577000000145], [-70.539501, 9.278045], [-70.5407469999999, 9.279195], [-70.541574, 9.280147000000113], [-70.542263, 9.281168], [-70.54274399999986, 9.282239], [-70.542949, 9.283453000000122], [-70.544339, 9.283452000000182], [-70.5452959999999, 9.285273], [-70.546012, 9.286524], [-70.547101, 9.286505], [-70.548019, 9.287408000000141]]]}}]}