{"type": "FeatureCollection", "features": [{"type": "Feature", "properties": {"Pais": "Venezuela", "Estado": "Miranda", "Municipio": "Urdaneta"}, "geometry": {"type": "Polygon", "coordinates": [[[-66.902453, 10.237165], [-66.903149, 10.237532], [-66.903916, 10.237394000000108], [-66.904799, 10.236843], [-66.905333, 10.236567], [-66.90716699999984, 10.235327], [-66.908561, 10.234109000000103], [-66.909861, 10.23296100000016], [-66.91109199999988, 10.231698000000108], [-66.911928, 10.230182], [-66.91302, 10.228988], [-66.91325199999989, 10.228643], [-66.914181, 10.227334000000155], [-66.916689, 10.225267], [-66.918826, 10.224165000000141], [-66.92320399999988, 10.223581000000138], [-66.975915, 10.220585], [-66.9755669999999, 10.219414], [-66.97510199999988, 10.217761000000166], [-66.975125, 10.216797000000156], [-66.974754, 10.215396], [-66.974592, 10.21349], [-66.974523, 10.212159], [-66.974453, 10.210850000000164], [-66.974686, 10.209517000000176], [-66.97501099999988, 10.208048000000133], [-66.975158, 10.207301000000143], [-66.97443399999986, 10.202554000000134], [-66.974322, 10.198640000000125], [-66.968082, 10.193167], [-66.96684, 10.192265], [-66.96593, 10.191863000000183], [-66.964998, 10.186478000000136], [-66.963711, 10.182745000000182], [-66.962264, 10.17569200000014], [-66.963419, 10.169874000000164], [-66.965911, 10.16147100000012], [-66.969075, 10.150173], [-66.974385, 10.140274], [-66.978373, 10.128906], [-66.979099, 10.127303000000154], [-66.981316, 10.121346000000187], [-66.98255399999988, 10.118395], [-66.98421, 10.11364900000018], [-66.986208, 10.106605000000172], [-66.98734099999984, 10.104550000000131], [-66.99251099999987, 10.10223800000017], [-66.993189, 10.100853000000143], [-66.993171, 10.099454], [-66.99267, 10.093037], [-66.992353, 10.090105000000108], [-66.99293199999988, 10.088240000000155], [-66.99332622999998, 10.087154988000066], [-66.993493, 10.086696000000131], [-66.99566234099984, 10.078138834000129], [-66.996868, 10.073383], [-66.99696499999988, 10.072927], [-66.99745913499999, 10.070412557000111], [-66.9976535369999, 10.069423330000063], [-66.99773639199992, 10.069001713000034], [-66.99169410699994, 10.070047155000054], [-66.98990903399994, 10.070183168000028], [-66.98792694199983, 10.069428156000072], [-66.98620486099998, 10.069106163000185], [-66.98391176399997, 10.069409176000136], [-66.98097164699988, 10.069950212000094], [-66.98073931399995, 10.070016653000039], [-66.98048625699994, 10.070089020000069], [-66.97870554999997, 10.070598240000095], [-66.97569042099997, 10.070704259000081], [-66.97310929699995, 10.070254261000116], [-66.97073819599996, 10.069985272000167], [-66.96927012599997, 10.069453260000046], [-66.96781205399998, 10.067980235999983], [-66.96701501199993, 10.065582173999985], [-66.96674498299996, 10.062603095000156], [-66.96572091699994, 10.060574055000131], [-66.96414483699994, 10.058919017000164], [-66.96361181599997, 10.057205980999981], [-66.96321878499998, 10.055489930000022], [-66.96301776799993, 10.054276902000026], [-66.96267374299998, 10.052812871000128], [-66.96045358499998, 10.042564607000031], [-66.95978054899996, 10.040806565000082], [-66.95860348799994, 10.039444544000105], [-66.95713442399995, 10.038912532000097], [-66.95613437399999, 10.03869553100003], [-66.95149915199988, 10.038441068], [-66.94726398899996, 10.038208567000027], [-66.94562091799997, 10.038481587000092], [-66.94311381599994, 10.039092615000186], [-66.94005767699986, 10.039361646000145], [-66.93966166399997, 10.039401642000087], [-66.93862461299994, 10.03939365400015], [-66.9358944839999, 10.038119634000054], [-66.9326463239999, 10.034558554000114], [-66.92506395299995, 10.026223383000115], [-66.92501394099997, 10.025856373000124], [-66.92724300799995, 10.020243216000154], [-66.93226119899992, 10.015341064000097], [-66.93346023399994, 10.012986993000084], [-66.93337423499992, 10.01231597800006], [-66.93303720899985, 10.010586929000112], [-66.93175915499995, 10.01064494000019], [-66.92963005499985, 10.010992959000134], [-66.92815900199997, 10.012088996000102], [-66.92377382499996, 10.013909066000053], [-66.92149173099989, 10.015015112000128], [-66.91954964099995, 10.015566135000142], [-66.91727854999988, 10.015777158999981], [-66.91483744099997, 10.015372156000183], [-66.91191931899994, 10.015797185000054], [-66.91069925999989, 10.01650020700015], [-66.90902219599997, 10.017782258000068], [-66.9081511679999, 10.01864228200003], [-66.90719513099987, 10.02012132599998], [-66.90602108499996, 10.020801347000031], [-66.9042640049999, 10.021281370000054], [-66.90200390699994, 10.020552364000139], [-66.90040983099993, 10.019241336], [-66.89897575299995, 10.017744307000044], [-66.89729467999996, 10.016916296000034], [-66.89430054199994, 10.014980261000176], [-66.89144939899984, 10.013386237000077], [-66.88980532299996, 10.011755204000053], [-66.8889072739999, 10.01045917900018], [-66.88626313799989, 10.006890102], [-66.88527963599995, 10.00576634700019], [-66.88435604799992, 10.004711050000026], [-66.88118789099997, 10.001790996000182], [-66.87926479199996, 10.000185957000156], [-66.87584063499986, 9.999079955000127], [-66.87479960099995, 9.999321965999968], [-66.87469007299995, 9.999328248000154], [-66.87462310199993, 9.999634825000044], [-66.8743393229999, 10.000501848999988], [-66.87359679899993, 10.00277046500014], [-66.872925, 10.004823], [-66.871582, 10.006881000000135], [-66.869926, 10.009791], [-66.86978147299988, 10.010034493000035], [-66.86532260699994, 10.017546614000139], [-66.86456499999986, 10.018823], [-66.863495, 10.020419000000118], [-66.862197, 10.02243], [-66.86068199999983, 10.023710000000108], [-66.85906799999987, 10.024532], [-66.858455, 10.025594000000183], [-66.85856399999989, 10.0269], [-66.858577, 10.027887], [-66.85781999999989, 10.028584000000137], [-66.85620099999988, 10.028993], [-66.854885, 10.029468000000122], [-66.853224, 10.0302], [-66.851335, 10.031300000000158], [-66.849638, 10.032835000000148], [-66.84949399999988, 10.03435], [-66.849508, 10.035405], [-66.849267, 10.036532], [-66.848138, 10.03721000000013], [-66.847247, 10.038299000000166], [-66.847315, 10.040018], [-66.8473, 10.040638], [-66.84764, 10.041849], [-66.847793, 10.042971], [-66.845268, 10.045158000000129], [-66.845581, 10.049741], [-66.84393, 10.070949000000155], [-66.846925, 10.082890000000134], [-66.8467849999999, 10.083379], [-66.842843, 10.097153], [-66.847202, 10.103185000000167], [-66.846479, 10.106635000000153], [-66.845315, 10.110020000000134], [-66.84399699999989, 10.112215], [-66.843258, 10.114403], [-66.843646, 10.115728], [-66.844382, 10.117073000000119], [-66.844097, 10.118429], [-66.843539, 10.120133], [-66.842746, 10.12172500000014], [-66.842758, 10.122642000000155], [-66.843068, 10.12330400000019], [-66.84307899999988, 10.124221], [-66.84235, 10.125308], [-66.840501, 10.125926], [-66.838901, 10.126037], [-66.837253, 10.127823], [-66.835042, 10.129179000000136], [-66.834812, 10.129445], [-66.834374, 10.129352], [-66.834271, 10.129376], [-66.833921, 10.130477], [-66.833197, 10.131381], [-66.83366499999988, 10.137925], [-66.840874, 10.156042000000184], [-66.842046, 10.158307], [-66.843298, 10.159754], [-66.845085, 10.162026], [-66.844642, 10.16432200000014], [-66.84498999999988, 10.165677000000187], [-66.84494299999989, 10.16604400000017], [-66.84791299999989, 10.16726100000011], [-66.849467, 10.168891], [-66.849977, 10.170888], [-66.851206, 10.17293100000012], [-66.852876, 10.174446], [-66.853734, 10.175939000000142], [-66.855173, 10.176283000000183], [-66.85860699999989, 10.178509000000133], [-66.861207, 10.178096], [-66.863968, 10.179358], [-66.86413, 10.180231000000163], [-66.865802, 10.180919], [-66.86768199999983, 10.181034000000182], [-66.86914399999989, 10.18163], [-66.869468, 10.183123], [-66.870117, 10.185005000000103], [-66.871068, 10.18698000000012], [-66.872321, 10.187737], [-66.8737359999999, 10.188127000000122], [-66.874873, 10.189183000000128], [-66.87584799999985, 10.190332000000183], [-66.876543, 10.191434], [-66.878121, 10.192765], [-66.87884, 10.193615], [-66.879164, 10.195428000000106], [-66.8806029999999, 10.19591], [-66.881067, 10.196966], [-66.882088, 10.198344000000134], [-66.883039, 10.198849000000166], [-66.884362, 10.19956], [-66.88443099999989, 10.200892000000124], [-66.883454, 10.204588], [-66.88326799999987, 10.206425000000138], [-66.88384699999989, 10.207848000000126], [-66.885032, 10.208583], [-66.886192, 10.209754], [-66.886632, 10.211751000000106], [-66.887629, 10.213840000000118], [-66.888998, 10.21496500000012], [-66.890785, 10.215975000000185], [-66.891458, 10.217628], [-66.890505, 10.218983], [-66.889414, 10.220659000000126], [-66.88855399999989, 10.222702], [-66.88866899999982, 10.224103000000184], [-66.888947, 10.225710000000106], [-66.890641, 10.226536], [-66.891175, 10.227707000000123], [-66.89187, 10.229153], [-66.893588, 10.229934000000185], [-66.894748, 10.231357000000116], [-66.895281, 10.232942], [-66.895652, 10.233814], [-66.89709099999988, 10.235008], [-66.898135, 10.236316000000102], [-66.89962, 10.237464], [-66.901942, 10.236660000000143], [-66.902453, 10.237165]]]}}]}