{"type": "FeatureCollection", "features": [{"type": "Feature", "properties": {"Pais": "Venezuela", "Estado": "Sucre", "Municipio": "Valdez"}, "geometry": {"type": "Polygon", "coordinates": [[[-61.86040799999989, 10.734142], [-61.866017, 10.736967], [-61.869334, 10.734994], [-61.87169799999987, 10.730800000000158], [-61.878324, 10.727646000000107], [-61.887462, 10.726732], [-61.897292, 10.725452000000132], [-61.903961, 10.722378000000163], [-61.912406, 10.720374000000106], [-61.91505499999988, 10.715636000000131], [-61.91846410199997, 10.708831738000072], [-61.918966999999896, 10.70782800000012], [-61.92117931599989, 10.7063772730001], [-61.9282189999999, 10.701761000000147], [-61.936477, 10.699847], [-61.946475, 10.697831], [-61.956626, 10.701264], [-61.970866999999885, 10.697372], [-61.985935, 10.698772], [-62.001726, 10.695913000000132], [-62.001772, 10.69589], [-62.002192, 10.696302], [-62.006048, 10.69564400000013], [-62.01355199999989, 10.694697], [-62.022396, 10.690663], [-62.028957999999875, 10.693214000000125], [-62.03597, 10.690796], [-62.05086099999983, 10.680874000000188], [-62.061085, 10.682677000000126], [-62.083955, 10.687666], [-62.09085299999987, 10.685776], [-62.102681, 10.685154], [-62.11322399999989, 10.689457000000118], [-62.124873, 10.690927000000102], [-62.133551999999895, 10.693375000000117], [-62.1415889999999, 10.692169], [-62.145811, 10.688709], [-62.148293, 10.686717000000101], [-62.148381, 10.686646], [-62.153638, 10.681918], [-62.158049, 10.681127000000117], [-62.161322, 10.678337], [-62.170035, 10.677542000000187], [-62.18155, 10.680482], [-62.18572899999987, 10.679153], [-62.1946099999999, 10.679804000000104], [-62.202628, 10.686163], [-62.214913, 10.683372], [-62.22138299999989, 10.685436000000152], [-62.2361, 10.686682], [-62.24098999999984, 10.682567], [-62.246581999999876, 10.686428000000149], [-62.252598, 10.685251000000108], [-62.255094, 10.687930000000108], [-62.259352, 10.6889], [-62.264389, 10.69308500000011], [-62.274123, 10.685752], [-62.27777199999986, 10.685758000000135], [-62.2823, 10.684657000000186], [-62.288886999999875, 10.686857000000145], [-62.295096999999885, 10.687932000000103], [-62.297765, 10.68672000000015], [-62.302359, 10.684633000000133], [-62.313824, 10.686005], [-62.316771, 10.690682], [-62.335634, 10.699422], [-62.341337999999894, 10.696084], [-62.347693999999876, 10.69249], [-62.357172, 10.691340000000139], [-62.3606, 10.693991], [-62.367001, 10.696351000000163], [-62.37509399999982, 10.691345], [-62.384756, 10.689665000000105], [-62.394526, 10.696837], [-62.407369, 10.694267], [-62.416107, 10.699121], [-62.425916999999856, 10.694059], [-62.429531999999824, 10.696846000000107], [-62.44177, 10.69926700000019], [-62.447342, 10.697836000000109], [-62.453971, 10.698722], [-62.45822, 10.697528], [-62.462707, 10.697734], [-62.46818899999988, 10.696763000000146], [-62.472538, 10.697292], [-62.476716, 10.697126], [-62.473131, 10.685253000000102], [-62.470996, 10.677717], [-62.471065999999894, 10.67303800000019], [-62.474438, 10.66807800000015], [-62.474075, 10.661383], [-62.471666, 10.65078300000016], [-62.467554, 10.640485], [-62.4639499999999, 10.635638], [-62.460368, 10.633749000000137], [-62.45799099999988, 10.632301], [-62.456244, 10.626503000000127], [-62.449451999999894, 10.603022], [-62.434361027999955, 10.571441904000153], [-62.43215, 10.566815000000133], [-62.43188899299997, 10.562194585000043], [-62.43147098099985, 10.554794802000174], [-62.43084709599992, 10.543750622000118], [-62.430599875999974, 10.539374250000037], [-62.430383255999914, 10.535539585000095], [-62.43032038899986, 10.534426695000036], [-62.42614329699984, 10.537896895000074], [-62.423133173999986, 10.54011797100003], [-62.419562027999916, 10.54321208000016], [-62.41487082599991, 10.546487206000052], [-62.40933159399998, 10.55045234500011], [-62.40809352699995, 10.55003334300011], [-62.407473509999875, 10.551619398000128], [-62.40500238599998, 10.549706353000033], [-62.404221340999925, 10.549229335000177], [-62.4035673169999, 10.549156340000081], [-62.40397133499994, 10.5487473230001], [-62.404820370999914, 10.548173304000102], [-62.40376131299996, 10.54647925800009], [-62.402392248999945, 10.547139285000071], [-62.40135320399992, 10.548452330000089], [-62.39928811599998, 10.550010388999965], [-62.397987059999934, 10.5506304110001], [-62.39746804299989, 10.551686453000116], [-62.3961679919999, 10.552347473000054], [-62.39499293899985, 10.553167508000172], [-62.39344787599998, 10.553871526000137], [-62.39108575999995, 10.554421559000104], [-62.390062719999946, 10.554311565000035], [-62.38808961999996, 10.55307954000017], [-62.386093519999974, 10.552006518000042], [-62.38487246099993, 10.551956527000073], [-62.38446544499993, 10.551127501000053], [-62.38389841999998, 10.550821488000054], [-62.38148030299993, 10.550038485000186], [-62.379583203999914, 10.548401441000067], [-62.378389137999875, 10.547444422000012], [-62.375544996999906, 10.545050372], [-62.37345489899991, 10.544385360000035], [-62.371653806999916, 10.544081364000135], [-62.36944570299994, 10.543861365000112], [-62.365753532999975, 10.542284344000109], [-62.364256452999825, 10.539835275000087], [-62.36234934399994, 10.537188205000064], [-62.360040228999935, 10.535151159000122], [-62.35831513899984, 10.532617102000131], [-62.35808062699988, 10.532574083000043], [-62.3573120829999, 10.532433093000122], [-62.357266911999886, 10.532432675000052], [-62.356989067999905, 10.532430103000024], [-62.35523899599997, 10.533019121000109], [-62.35246787099999, 10.53365516200006], [-62.35099980099994, 10.533832171000029], [-62.349856742999975, 10.533885178000105], [-62.34837867599998, 10.53313216000015], [-62.346449580999945, 10.532223143000124], [-62.342827420999924, 10.533433203000072], [-62.34019131399998, 10.535199261000173], [-62.339453267999886, 10.534924267000179], [-62.33823022299998, 10.535058278000179], [-62.337294172999975, 10.535431290000133], [-62.3356351029999, 10.536823343000094], [-62.33430505699994, 10.538453391000132], [-62.33231996899997, 10.539969446999976], [-62.33003386599984, 10.540074468000057], [-62.32823077399996, 10.539527460000102], [-62.32613867599997, 10.538660437000033], [-62.324621607999916, 10.538151434000099], [-62.323149538999985, 10.537964436000095], [-62.32168647399982, 10.538626461999968], [-62.31979339399993, 10.541111545000149], [-62.319115371999885, 10.542654591000087], [-62.31746431199997, 10.544813660000159], [-62.316694269999914, 10.545346680000023], [-62.31625225899995, 10.546078706000173], [-62.31474819399995, 10.546700739000073], [-62.313535146999925, 10.547844777000023], [-62.31333813699996, 10.548574792000124], [-62.31235111099994, 10.55173689600008], [-62.31167608299995, 10.553602951000016], [-62.30945899599993, 10.55633403800016], [-62.308382966999886, 10.558810118000054], [-62.30826796699995, 10.559498141], [-62.30486781699983, 10.562444243000073], [-62.303404751999835, 10.563105276000158], [-62.30258771299998, 10.563073269000085], [-62.30185668299998, 10.56352628999997], [-62.30107964899992, 10.5633722930001], [-62.298926552999944, 10.5645263400001], [-62.2982435269999, 10.56554337100016], [-62.29751849599995, 10.566561407], [-62.29672147499991, 10.56838846300019], [-62.29500339899988, 10.568204470000182], [-62.29095420899995, 10.567640469000139], [-62.29079519299995, 10.56804547600018], [-62.291204215999926, 10.568081482000139], [-62.291086210999936, 10.568568498000104], [-62.29259929099999, 10.568673487000183], [-62.29263946999987, 10.568395396000142], [-62.292675290999966, 10.568147472000078], [-62.29480438899992, 10.568610482], [-62.29537740899991, 10.568725481], [-62.295343413999944, 10.569413503000078], [-62.295835440999895, 10.569610499000078], [-62.29428339299989, 10.573424620000083], [-62.29482141199992, 10.574146637000013], [-62.29421439699996, 10.574637652000092], [-62.29313932999992, 10.573436628000024], [-62.29325933399997, 10.573152618000108], [-62.29210528499988, 10.572154600000147], [-62.29169826299989, 10.572360600000138], [-62.28888912199989, 10.569358524999984], [-62.28822208299994, 10.568032494000136], [-62.28828706799982, 10.566495446000147], [-62.2880830659999, 10.566497446000142], [-62.287896064999984, 10.568116503000056], [-62.288483104999955, 10.56956453700019], [-62.29249531499994, 10.574292657000058], [-62.29218630999992, 10.575952701000062], [-62.29219531499996, 10.576881736000132], [-62.29179329599992, 10.577411750000124], [-62.290539237999894, 10.578636792000054], [-62.289613209999914, 10.579898833000072], [-62.28970921699988, 10.581231869000078], [-62.290188249999915, 10.581946885999969], [-62.28946821699992, 10.582194903000186], [-62.28893419699989, 10.583938955000065], [-62.28840117999994, 10.585450001000027], [-62.2875111539999, 10.587833074000116], [-62.28680012899997, 10.58963513100008], [-62.28591109299987, 10.591262185000062], [-62.284845050999934, 10.592832230000056], [-62.2842530339999, 10.593878268000083], [-62.28383802099995, 10.59475029500004], [-62.283305, 10.595389316000023], [-62.282653971999935, 10.596260351000069], [-62.282002942999895, 10.59672536300019], [-62.281529921999834, 10.597016375000123], [-62.280996897999955, 10.597190388000058], [-62.280523876999894, 10.597306386000014], [-62.279103817999896, 10.597480403000134], [-62.27863079899993, 10.597886417000154], [-62.27815677399997, 10.598351428000171], [-62.27756475399991, 10.598816451], [-62.277032721999944, 10.598816454000087], [-62.27685471399997, 10.59910645900004], [-62.276321691999954, 10.59962947400004], [-62.27561166299989, 10.599862484000141], [-62.275256648999914, 10.599978493000037], [-62.274074589999884, 10.59997750499997], [-62.27354156699994, 10.60020951000007], [-62.27300854899988, 10.601488554000014], [-62.27277055299999, 10.602476574999969], [-62.27241454099993, 10.603987632000042], [-62.27182152199998, 10.605615678000106], [-62.27105149499988, 10.60671970900006], [-62.270340467999915, 10.608056757000043], [-62.269570440999985, 10.609276794000152], [-62.268800401999954, 10.610148823000088], [-62.267971374999945, 10.610787846000107], [-62.267320346999895, 10.611659874000168], [-62.26649131099998, 10.612763917000109], [-62.26601730099998, 10.613693948000048], [-62.26518178699996, 10.614803931000154], [-62.26511625899997, 10.614890985000045], [-62.2650052539999, 10.615012988000103], [-62.26499825399998, 10.61516099400012], [-62.264948260999915, 10.616302022000013], [-62.26468624499989, 10.616712044], [-62.26426823799994, 10.617225053000084], [-62.26374520799993, 10.617584074000035], [-62.26290917999995, 10.618200096000066], [-62.261497120999934, 10.61948314200015], [-62.26113110099993, 10.62030416600004], [-62.26034607999998, 10.621382193000159], [-62.25982305399998, 10.622562235000089], [-62.25919502599987, 10.623280262000094], [-62.25882901799997, 10.624101286000155], [-62.25856701399994, 10.624666303000083], [-62.25814799199992, 10.625590338000109], [-62.257676973999935, 10.626462365], [-62.256578930999865, 10.627848408000034], [-62.2555328979999, 10.629336456999965], [-62.25455084799984, 10.629932483000118], [-62.253850824999915, 10.630189487000052], [-62.2532387949999, 10.630533501000059], [-62.25262676899996, 10.631563540000116], [-62.25166273599996, 10.633366591000026], [-62.250788702999955, 10.634310626000058], [-62.25026367399994, 10.63473964000002], [-62.249563649999914, 10.63491165500011], [-62.24868961199991, 10.63499666100006], [-62.24816558599997, 10.634996663000038], [-62.24764155899999, 10.634738661000029], [-62.24737953799996, 10.634308645000146], [-62.24694351499994, 10.63362163000005], [-62.246332486999904, 10.633277622000037], [-62.2454584489999, 10.633363632000055], [-62.24502043299998, 10.633792646000188], [-62.244758413999875, 10.633878642000184], [-62.24432140099998, 10.63379164500003], [-62.243972380999935, 10.633705641000176], [-62.24336034999993, 10.633877656000095], [-62.24301033799992, 10.63396265800003], [-62.24248631099994, 10.63370465600019], [-62.241612271999884, 10.633618653999974], [-62.24117524899998, 10.633961663000036], [-62.24073723299989, 10.634476683], [-62.240213208999876, 10.634734691000062], [-62.23960118899993, 10.63473370100013], [-62.23907716299993, 10.634647698000038], [-62.2387281419999, 10.63421868800009], [-62.238116107999986, 10.633788674000016], [-62.237767086999895, 10.63344466500007], [-62.236893047999956, 10.633444669000085], [-62.23628102999993, 10.633615679], [-62.235931007999966, 10.634044692000089], [-62.23531898999994, 10.63447370800003], [-62.23453195299999, 10.634645723000176], [-62.23409593199989, 10.634387720000063], [-62.23365890499997, 10.633957705000057], [-62.232260838999935, 10.633699707000062], [-62.23103677799992, 10.633955721000063], [-62.230337745999975, 10.633955723999975], [-62.22946370899996, 10.634298735000073], [-62.22867667299994, 10.634641757], [-62.22736562199992, 10.63472676400005], [-62.226666588999876, 10.634468763000086], [-62.226055548999966, 10.634124755000016], [-62.224395476999916, 10.633951758000023], [-62.22360944199988, 10.633436745000154], [-62.22256138499995, 10.632490723000046], [-62.22142632999993, 10.631888712000034], [-62.22081429799994, 10.631802709000112], [-62.21994026099998, 10.632059725999966], [-62.21906622499995, 10.632488742000135], [-62.218628197999976, 10.6330037620001], [-62.21775415999991, 10.633174761000134], [-62.2167051159999, 10.63325977900007], [-62.215918080999984, 10.633688795000012], [-62.21521905099996, 10.63411781100018], [-62.21434501299996, 10.634203808999985], [-62.21355797399991, 10.63403080900008], [-62.21303394899991, 10.634030812000162], [-62.21215890799988, 10.634545834000164], [-62.21154689199989, 10.635231860999966], [-62.21067284399987, 10.635574872], [-62.20918578299995, 10.63608989700009], [-62.20839975099989, 10.636088896000103], [-62.20726369099998, 10.635658897000155], [-62.206303642999956, 10.635142879000057], [-62.205341597999904, 10.634969879000153], [-62.2045555659999, 10.635141895000174], [-62.20324450399994, 10.635311903000058], [-62.202282458999946, 10.635225914000102], [-62.201758432999895, 10.63513991100018], [-62.20132240999982, 10.634537897000143], [-62.201323410999976, 10.633850868000025], [-62.200974389999885, 10.63342086400013], [-62.200100350999946, 10.633420869000076], [-62.199750328999926, 10.633849882000106], [-62.199138311999945, 10.634278898000105], [-62.19874628199983, 10.634174896], [-62.198352265999915, 10.634063893000132], [-62.197901251999895, 10.634173895], [-62.19761923699991, 10.634394912000118], [-62.1968302009999, 10.634394916000076], [-62.196267174999946, 10.634393914000043], [-62.19576015399991, 10.63433891699998], [-62.195535135999876, 10.634116909000113], [-62.19542313399995, 10.633673897000051], [-62.19542412499993, 10.633230884000056], [-62.19525512399997, 10.632953876000045], [-62.19497310799983, 10.63289887700006], [-62.19469209799985, 10.632842874000119], [-62.19441008299998, 10.63311988400011], [-62.19424107499992, 10.633506905000104], [-62.19401506599996, 10.633838915000183], [-62.19362004599998, 10.633949922000056], [-62.192888019999884, 10.633782916000087], [-62.1922129809999, 10.633671915000036], [-62.191704956999956, 10.633837922], [-62.19131094299996, 10.634113928000147], [-62.19085992799995, 10.634113930000126], [-62.19052190499997, 10.633946934000164], [-62.190071882999916, 10.633725933000107], [-62.18877681599997, 10.633170916999973], [-62.18826979599993, 10.633170919000179], [-62.187593765999964, 10.63344693800019], [-62.18731175099998, 10.633667943999967], [-62.18674872499997, 10.633722946000091], [-62.186241704999986, 10.633722949], [-62.18567768599996, 10.63394395600011], [-62.18533966599989, 10.634109962000139], [-62.185226661999934, 10.634385978000068], [-62.18488865399996, 10.634606984000072], [-62.18438162099994, 10.634606987000154], [-62.18387459999991, 10.634495985], [-62.18364959399986, 10.634218977000046], [-62.18325556599996, 10.634218979000025], [-62.18263554199996, 10.634383980999985], [-62.18241053799994, 10.634549999000058], [-62.18207251599995, 10.634494989000132], [-62.18179150399993, 10.634217982000052], [-62.1812844829999, 10.63410598600018], [-62.18094646199995, 10.634161993000077], [-62.18026943999996, 10.634715009000047], [-62.17948040699997, 10.635434030000113], [-62.17874637599988, 10.636319067000045], [-62.17829535299995, 10.636927081000067], [-62.17778833399984, 10.637204093000094], [-62.17716830899997, 10.637259096000093], [-62.17638026599997, 10.637258106000047], [-62.1758162459999, 10.637147105000167], [-62.17491620199996, 10.636925100000042], [-62.17379014699998, 10.636481100000026], [-62.17333911999992, 10.636425097000142], [-62.17288909799993, 10.636370100000079], [-62.17266308999996, 10.636646105000125], [-62.17226806999997, 10.636812110999983], [-62.17181804899997, 10.636922113000026], [-62.17108501799987, 10.63692211700004], [-62.1709160069999, 10.63686612500004], [-62.17035297999996, 10.636644119000152], [-62.16995896299994, 10.636423117000163], [-62.16990395999994, 10.635980104000168], [-62.169791957999905, 10.635537091], [-62.169509939999955, 10.635204079000175], [-62.16905991899989, 10.635149082000169], [-62.16877790299992, 10.63520408300019], [-62.168777904999956, 10.635591091000038], [-62.16866490199993, 10.63597910500016], [-62.16860790599998, 10.636477118000073], [-62.16838189699996, 10.636753135000106], [-62.168043876999945, 10.636919141000135], [-62.16770586699988, 10.636864143000025], [-62.167311837999875, 10.636642136000034], [-62.16674882399991, 10.636641134000172], [-62.16635380399998, 10.63680714000003], [-62.16573376799994, 10.63702814700008], [-62.16545275699997, 10.636972156000184], [-62.165227749999985, 10.636695148000172], [-62.16500273099996, 10.636197137000067], [-62.164777724999965, 10.63597512900003], [-62.16432770299997, 10.635864126000172], [-62.16387667699996, 10.635975133000045], [-62.16353766499998, 10.636528148000025], [-62.16319965799988, 10.63702616200004], [-62.16308665399987, 10.637192167000023], [-62.16280463899989, 10.63730218000012], [-62.16246661699989, 10.63724718200001], [-62.16235461499997, 10.63685916900016], [-62.162298606999855, 10.636472149000099], [-62.16196059699996, 10.636361158000057], [-62.16150957199994, 10.636582165000164], [-62.161340575999986, 10.637190178000083], [-62.16122656899995, 10.63779919600006], [-62.16100056199991, 10.638353215000166], [-62.160549536999895, 10.63868423200006], [-62.15970450699996, 10.638794236000138], [-62.159310478999885, 10.638683233999984], [-62.15885946499998, 10.638794240000152], [-62.15846544999994, 10.638904241999967], [-62.15801442399993, 10.638904244000173], [-62.15773341199997, 10.638682248000123], [-62.15728238499986, 10.638516247000155], [-62.15683236299992, 10.638460244000044], [-62.156494352999914, 10.638460246000022], [-62.156268343999955, 10.638681251000094], [-62.155985339999916, 10.639622278000047], [-62.15575932299987, 10.640396308000163], [-62.15575833499997, 10.64139333900016], [-62.15575733299988, 10.642112355000108], [-62.155700336999985, 10.642555369000036], [-62.15541832299988, 10.643053383], [-62.15491029999998, 10.643440394000152], [-62.15440327999994, 10.643495396000105], [-62.153840251999895, 10.643328402000122], [-62.15344623399989, 10.642885391000164], [-62.153166213999896, 10.642276375000051], [-62.15311021699995, 10.641778362000139], [-62.15282919099997, 10.641058342000065], [-62.15277418799997, 10.64061532900007], [-62.15249317399997, 10.640061313000047], [-62.15221115699984, 10.63972930600005], [-62.1521113149999, 10.639100364000058], [-62.15207359499993, 10.638862752000136], [-62.152044150999984, 10.638677276000067], [-62.152045140999974, 10.638068259000022], [-62.15204614199996, 10.63740424200006], [-62.15182112299988, 10.636961230000168], [-62.15137109999995, 10.636518219000038], [-62.150808071999904, 10.636296213000094], [-62.150357056999894, 10.636295210000128], [-62.14979402999995, 10.636184209000078], [-62.14951301799988, 10.635907201000066], [-62.148892980999904, 10.635851211000045], [-62.14832995399996, 10.635851214000184], [-62.14782393699994, 10.635463204000018], [-62.147317905999955, 10.63485418900018], [-62.14664287699998, 10.634300174999964], [-62.14579783199997, 10.633801161000065], [-62.14517879899989, 10.633634167000139], [-62.14422175699997, 10.63352216200019], [-62.14320770399996, 10.63352216700008], [-62.14264368499994, 10.633687181000084], [-62.142249670999945, 10.634019192000096], [-62.14157263699997, 10.634350199000039], [-62.14134662899983, 10.63479321300008], [-62.14117662999996, 10.63573424000009], [-62.14089461599991, 10.63606625], [-62.140162578999934, 10.636120260000041], [-62.139260537999974, 10.636120265000102], [-62.13897952499997, 10.635732253000185], [-62.13898052699989, 10.63512323600014], [-62.13898151599989, 10.63434821400017], [-62.13886951499995, 10.634016206000013], [-62.138250479999954, 10.633628196000075], [-62.13751844199999, 10.633350198000187], [-62.13712442599996, 10.633239195000158], [-62.13678641599989, 10.633239197000137], [-62.13650440099991, 10.633405203], [-62.13611038699992, 10.633737213000131], [-62.1356593619999, 10.633958220000011], [-62.13515233999988, 10.633791213000165], [-62.13442030199997, 10.633624219000183], [-62.13430829999993, 10.633126207000032], [-62.13380126599998, 10.632960205000131], [-62.13335124499997, 10.633014202000084], [-62.132834221999985, 10.633381216000089], [-62.13281079799992, 10.633423553000114], [-62.132455216999915, 10.634066237000184], [-62.13237320899998, 10.634425255000053], [-62.13237321099996, 10.634745261000035], [-62.132454215999985, 10.63490426400017], [-62.13265623299992, 10.635104265000109], [-62.132656234999956, 10.635343279000153], [-62.13237121699996, 10.635662293000053], [-62.13237121799989, 10.63594130100006], [-62.1322082179999, 10.636460316000125], [-62.132248213999844, 10.636779317000105], [-62.132410224999944, 10.637019323000061], [-62.13289625699997, 10.637458337000169], [-62.13301826299994, 10.637777349000089], [-62.133139264999954, 10.638176359000056], [-62.13317927299994, 10.638615374999972], [-62.13317826999997, 10.639054379000072], [-62.132975261999945, 10.639293394000049], [-62.13273125499984, 10.63949240400018], [-62.13236623599994, 10.639691403000029], [-62.13216322699998, 10.639691404000132], [-62.131838212999924, 10.639531409000085], [-62.13151319899987, 10.639451400000155], [-62.131189178999875, 10.63957140600013], [-62.13090417299992, 10.639890420000029], [-62.13041614799994, 10.64048743700016], [-62.12988812699996, 10.640846457], [-62.12956311499988, 10.641125466000119], [-62.12911609799994, 10.641324466000071], [-62.12850707099983, 10.641323475000036], [-62.12830406099988, 10.64116447300006], [-62.128224057999944, 10.640685452000127], [-62.128103043999886, 10.640086439000186], [-62.12794103099998, 10.639607431000172], [-62.12773902499998, 10.6390894110001], [-62.12757801399994, 10.638091387000145], [-62.127619009999876, 10.637493367000047], [-62.12786402099982, 10.636855341], [-62.12798602199996, 10.636376331000179], [-62.12798701299994, 10.635937315000092], [-62.12790600599993, 10.635459311000147], [-62.127663, 10.635099301000025], [-62.1271769679999, 10.634740286000067], [-62.1268519539999, 10.634660289000124], [-62.126323930999945, 10.634619294], [-62.12583690699995, 10.63453928600012], [-62.12539088199992, 10.634259288000067], [-62.125066871999934, 10.63409928100009], [-62.12453884899992, 10.633979280000176], [-62.123889814999984, 10.633899285000041], [-62.12328078699994, 10.633818283999972], [-62.12291576699994, 10.633659282000167], [-62.12210473099998, 10.633020268000053], [-62.121091677999914, 10.63198123900014], [-62.12064565199995, 10.631582230999982], [-62.11991461899987, 10.631501231000016], [-62.11938659599997, 10.631501233000051], [-62.11914258899992, 10.631780242000104], [-62.119101579999835, 10.632139259999974], [-62.119304590999946, 10.632418266000172], [-62.11966861999986, 10.632897274000186], [-62.11970962099997, 10.633257285000013], [-62.11950560799994, 10.633655291000082], [-62.11926160299993, 10.63413431400005], [-62.11885458099994, 10.634453329000053], [-62.11852956799993, 10.634532324000077], [-62.1179615399999, 10.634651337000093], [-62.11735251199997, 10.634651340000175], [-62.116865486999984, 10.634371330000079], [-62.11654147699994, 10.634051326000076], [-62.116136448999896, 10.633612312000025], [-62.11581243899991, 10.633213303000105], [-62.11569142499985, 10.632574285000032], [-62.11557042199996, 10.631936273000179], [-62.115246398999886, 10.631337249000126], [-62.11435435799996, 10.630698236000114], [-62.11358331899993, 10.63037823400009], [-62.11301528899992, 10.630178222999973], [-62.11269027599997, 10.630218230000025], [-62.112568272999965, 10.630497238000032], [-62.11248626499997, 10.630936254000119], [-62.11236426299996, 10.631335266000065], [-62.11212025699996, 10.631773278000082], [-62.11183525099989, 10.631972289000089], [-62.11147023199999, 10.63217129900005], [-62.11106421399995, 10.632171301000085], [-62.11069818899989, 10.632131298000047], [-62.11017117199998, 10.632170301000144], [-62.109764149999876, 10.63260931900004], [-62.10968215399993, 10.633007325000108], [-62.10960014799997, 10.63380534800018], [-62.10935614099998, 10.634084368000174], [-62.10907212799998, 10.63432337200004], [-62.10862511199997, 10.634562376000076], [-62.108097089999944, 10.634721383], [-62.107691071999966, 10.634761390000051], [-62.10716304899995, 10.634760400000118], [-62.10671702299999, 10.634560388000125], [-62.10663601699997, 10.634201383000175], [-62.10663701799996, 10.633523364000098], [-62.10672001699999, 10.632685337000112], [-62.106597998999916, 10.632286326000099], [-62.10615198399995, 10.63188731800011], [-62.10566595199998, 10.631567303000168], [-62.105218933999936, 10.631527312000173], [-62.10456990099988, 10.631526310000083], [-62.10375786299994, 10.631446316000051], [-62.1033118499999, 10.631206311000142], [-62.10266281499992, 10.63104630500004], [-62.102053786999875, 10.631045315000165], [-62.10172877399992, 10.631124310000018], [-62.10148476699999, 10.631284320000134], [-62.101119747999974, 10.63148333099997], [-62.100956733999965, 10.631642334999981], [-62.10067172799995, 10.63204134800003], [-62.10046872099991, 10.632400355000186], [-62.10018370299997, 10.632639370000163], [-62.099737690999916, 10.632718378000106], [-62.09920966799996, 10.632718381000018], [-62.098803647999944, 10.632398365000029], [-62.09811460599991, 10.631998364000026], [-62.097424572999955, 10.631918358000178], [-62.09649053199985, 10.631917369000178], [-62.09600350799997, 10.631956372000104], [-62.09559748999993, 10.631916369000123], [-62.095354486999895, 10.631956375000016], [-62.09523247099992, 10.631956376000119], [-62.09494845699999, 10.631995377000067], [-62.094744454999955, 10.632115382000165], [-62.0944604419999, 10.632354386000031], [-62.094216434999964, 10.63279239800005], [-62.093850412999984, 10.633111412000119], [-62.093606405999935, 10.633430426000075], [-62.09340240499995, 10.633789433000175], [-62.09323939199999, 10.634148451000044], [-62.09295537799983, 10.634307457000034], [-62.09271136999996, 10.634346457999982], [-62.09214334099994, 10.634266462000141], [-62.09190033699991, 10.634066450000091], [-62.09153531699991, 10.634026458000164], [-62.09112929899999, 10.634026459999973], [-62.090560264999965, 10.63402545800011], [-62.08999224799999, 10.634024468000177], [-62.089546223999946, 10.634024469999986], [-62.089302214999975, 10.633944461000056], [-62.089140202999886, 10.633625449000135], [-62.08914119399998, 10.63314644000019], [-62.08938521199991, 10.632747428000016], [-62.08958921299984, 10.632428414000117], [-62.089751221999904, 10.632309415000122], [-62.09007623499997, 10.632189409000148], [-62.09036125399996, 10.631990399000188], [-62.09036125199992, 10.631671387000097], [-62.09011823499998, 10.631392381000069], [-62.089712215999896, 10.631192381000062], [-62.0892251919999, 10.631151385000067], [-62.08829214399998, 10.631031386000132], [-62.087765123999986, 10.630711371000075], [-62.087278099999935, 10.630591370000161], [-62.08658806699992, 10.630590380000058], [-62.08589803299998, 10.630270378000091], [-62.08488298599991, 10.63026937799998], [-62.083380916999886, 10.63030739300001], [-62.08187985199993, 10.630226397000058], [-62.08131081899995, 10.630345398000088], [-62.08094480699992, 10.630504404000078], [-62.08049878299988, 10.630703415000085], [-62.08013277299989, 10.631062423000174], [-62.079806755999925, 10.631460442000105], [-62.07940073799989, 10.631580448000136], [-62.078548693999835, 10.631260446999988], [-62.07777765599997, 10.631219440000109], [-62.07741264599997, 10.630859431000033], [-62.07708862599998, 10.63077943400009], [-62.07676361199992, 10.630739431000052], [-62.07639859299991, 10.630858443000136], [-62.076072575999945, 10.631097447], [-62.075342548999856, 10.631176456000105], [-62.07436749699991, 10.631175456000165], [-62.072906437999904, 10.631174470000076], [-62.07262242499996, 10.63133347500019], [-62.07249941699996, 10.631612483000026], [-62.07249941899988, 10.63193149600005], [-62.072539425999935, 10.632250496000154], [-62.07298544099996, 10.632610505000173], [-62.073796485999935, 10.63293051800008], [-62.07456752499996, 10.633210515000087], [-62.07485154099999, 10.63349052600006], [-62.07501254999988, 10.63424854200008], [-62.07525556799993, 10.634687557000063], [-62.07622861499988, 10.635645583000098], [-62.077282665999974, 10.636524603], [-62.077889699999844, 10.637323627000058], [-62.07797070799995, 10.63784163600019], [-62.07792870499998, 10.638200654000059], [-62.07760369399989, 10.638559661000158], [-62.077278680999825, 10.638798665000024], [-62.07679065499997, 10.639236678000145], [-62.07630363299995, 10.639595699000097], [-62.07565261599984, 10.640192717000104], [-62.07553060199996, 10.640511730000128], [-62.07552961199997, 10.64107075000004], [-62.07540760899991, 10.641309752000097], [-62.07520459999989, 10.64142975700014], [-62.07439256299995, 10.641428756000153], [-62.07382352999991, 10.641666768000107], [-62.07357952199993, 10.64166676900004], [-62.073174507999965, 10.641466769000033], [-62.07264647299996, 10.641546771000037], [-62.072159450999834, 10.641665783000121], [-62.07159042799998, 10.641584782999985], [-62.071306412999945, 10.641464781000025], [-62.07086040099989, 10.641464783], [-62.070617384999935, 10.641304775000094], [-62.070089361999976, 10.641303785000048], [-62.06980534799993, 10.641383785000073], [-62.06972333999988, 10.641702798000097], [-62.06947933199996, 10.641861802999983], [-62.06911431299994, 10.64186180500019], [-62.06874929199995, 10.641661792000093], [-62.06846528799997, 10.641381793000107], [-62.06814126699999, 10.641221786000074], [-62.06732922999993, 10.641181785000072], [-62.06684220499989, 10.640821777000099], [-62.06651818299997, 10.64062177600016], [-62.066031170999906, 10.640581786000041], [-62.06570614499992, 10.640341780000085], [-62.065463139999906, 10.640021764000096], [-62.06526112199998, 10.639582760000167], [-62.06514011999991, 10.639064740000151], [-62.065060105999976, 10.638625724000065], [-62.06493810099988, 10.638505721000172], [-62.06461308699994, 10.638425724], [-62.06441007799998, 10.638584729000115], [-62.06436908099988, 10.638903742000139], [-62.06436807799997, 10.639302753000038], [-62.06432708099999, 10.639741769000125], [-62.06404306799993, 10.640020778000178], [-62.063757057999965, 10.640578793999964], [-62.063594056999875, 10.641017811000154], [-62.06339105099988, 10.641495816000031], [-62.06326804299994, 10.641774823999981], [-62.06306503499991, 10.642133843000124], [-62.06278002899995, 10.642412852000064], [-62.06245600899996, 10.64241285300011], [-62.06184697999993, 10.642211849000034], [-62.06168496899994, 10.641892838], [-62.061522956999966, 10.641573838000056], [-62.061320950999914, 10.6413338320001], [-62.06103693699998, 10.641293828000187], [-62.060792927999955, 10.641293829000062], [-62.0603459109999, 10.641292826000097], [-62.05977788199988, 10.641292829000179], [-62.05953486599992, 10.641172827000048], [-62.059290856999894, 10.641052825000031], [-62.05916984499993, 10.640812817999972], [-62.05908883799998, 10.640453813000022], [-62.05908984099989, 10.63997480300003], [-62.05953685599991, 10.63957678300011], [-62.06038990299999, 10.63925877100013], [-62.06112192699999, 10.63897976000004], [-62.06148694399997, 10.638661751000086], [-62.0617309509999, 10.638382742000033], [-62.06181295899995, 10.637983731000134], [-62.06201695999988, 10.63762471200016], [-62.062300973999925, 10.637545705000093], [-62.06286900199996, 10.637545702000011], [-62.06323402299995, 10.637705709000045], [-62.063640040999985, 10.637746706000144], [-62.06392504899992, 10.637666706000118], [-62.06424906799998, 10.63758769900005], [-62.064372075999984, 10.637268686000027], [-62.06437306699996, 10.636789675999978], [-62.0642920599999, 10.636549669000146], [-62.06413005999991, 10.636230658000102], [-62.06404905399995, 10.635911658], [-62.063888033999945, 10.635432637000065], [-62.063726033999956, 10.634993634000068], [-62.06356402199998, 10.634674622000148], [-62.06356501299996, 10.634275611000078], [-62.06384902599996, 10.633996602000025], [-62.0641340439999, 10.633717593000085], [-62.0643780499999, 10.63331858100014], [-62.064379053999915, 10.633039562000022], [-62.06421704299993, 10.63279955500019], [-62.06381102299997, 10.632599555000127], [-62.06316198899992, 10.63251956], [-62.062674964999985, 10.632359554000118], [-62.06218794099988, 10.632278553000049], [-62.06133490499991, 10.632317557000079], [-62.061171902999945, 10.632716569000081], [-62.061171904999924, 10.633115580000094], [-62.06108989699999, 10.63351460299998], [-62.060845890999985, 10.63383360500012], [-62.06043886899994, 10.634191619999967], [-62.05986984899994, 10.63466963899998], [-62.05970684799996, 10.634948646999987], [-62.059381823999956, 10.635347660000036], [-62.05897580699997, 10.6355466710001], [-62.05852878999991, 10.635625678000167], [-62.05828577499989, 10.635625680000146], [-62.057757749999894, 10.635385675000123], [-62.057514744999935, 10.635066664000078], [-62.05727172899992, 10.634866663000139], [-62.0568657099999, 10.634666651000089], [-62.05641968499992, 10.634586655000078], [-62.05548564299994, 10.634545661000061], [-62.054998619999935, 10.634624657000188], [-62.054592602999946, 10.634863673000098], [-62.05438860199985, 10.635182687000167], [-62.05434759199983, 10.635421689000054], [-62.05442859999994, 10.635900698000171], [-62.05487362199983, 10.636499721000064], [-62.05568466999995, 10.637298732000033], [-62.05584567799997, 10.637896751000028], [-62.05576368399994, 10.638654780000138], [-62.0557216819999, 10.639053791000038], [-62.055640678999964, 10.639412798000137], [-62.05543666599988, 10.63973181100016], [-62.05474564199989, 10.64016982600009], [-62.05442062999998, 10.640408830000126], [-62.05401461199989, 10.640447844000164], [-62.05352758799984, 10.640447845999972], [-62.05308156299998, 10.640326840000114], [-62.05271754599994, 10.63968882800009], [-62.052514533999954, 10.639288813000121], [-62.05223051899998, 10.639049813000042], [-62.05154148999998, 10.638968813000076], [-62.05146048499995, 10.638848809000137], [-62.051135457999976, 10.638529799000025], [-62.05109546399996, 10.638529799000025], [-62.05081144899998, 10.638528795000127], [-62.05077045099995, 10.638728809000156], [-62.05081044699989, 10.63912782], [-62.051093470999945, 10.639526829999966], [-62.051701494999975, 10.639886837], [-62.05194451199992, 10.64020583700011], [-62.05198551299998, 10.640485849000015], [-62.05198451999996, 10.640644853000026], [-62.05165949699989, 10.640963867000153], [-62.051415487999975, 10.641003873000102], [-62.05117247299984, 10.641002868999976], [-62.05084745999994, 10.641002871000182], [-62.050603450999915, 10.64104187200013], [-62.05044144199991, 10.641201882000018], [-62.05027843999994, 10.64144088500018], [-62.050034432999894, 10.64163989500014], [-62.04962841399998, 10.641639897000118], [-62.049425403999976, 10.641479890000141], [-62.049385396999924, 10.6412798880001], [-62.049345389999985, 10.641080879000071], [-62.04898038199991, 10.640920884000025], [-62.04869636799987, 10.640920885000128], [-62.04824933799989, 10.640919883000038], [-62.048046327999884, 10.640759875000128], [-62.04743830299998, 10.64036086699997], [-62.04707328199993, 10.640040862999967], [-62.04674927199994, 10.639720859000136], [-62.04658725999997, 10.639401847000045], [-62.04642625099996, 10.63864382000014], [-62.04638723599993, 10.638124805000075], [-62.046591246999924, 10.637566789000061], [-62.04667324299999, 10.6370487800001], [-62.04671425099991, 10.636409761000095], [-62.04679624599993, 10.635811741000168], [-62.04667524399997, 10.635372725000082], [-62.04643222699991, 10.635013721000064], [-62.04614921599995, 10.634653711000112], [-62.04602719999991, 10.634494708000034], [-62.04598720399997, 10.63413569100004], [-62.04606919999992, 10.633855690000075], [-62.04619120299998, 10.633616675000098], [-62.046192206999876, 10.63337767300004], [-62.04619220599989, 10.633137665999982], [-62.04615219899995, 10.632898664000095], [-62.04590919399993, 10.63261865200002], [-62.04525915499994, 10.632578651000188], [-62.044569121999984, 10.632537656000068], [-62.04420411399997, 10.632497652000154], [-62.04388009199988, 10.632177648000152], [-62.04367708199999, 10.632017641000118], [-62.0432310569999, 10.631857646000128], [-62.04290604299996, 10.631737644000168], [-62.042623032999984, 10.631537631000015], [-62.04213600899993, 10.631457635000174], [-62.0414049769999, 10.63153664400005], [-62.04079494599989, 10.631814650000138], [-62.040672942999834, 10.632054658000072], [-62.040509940999925, 10.632373671000096], [-62.0403069329999, 10.632612686000073], [-62.040062912999986, 10.632691681000153], [-62.03973890399982, 10.632611683999983], [-62.03929287799997, 10.63229168000015], [-62.03900886299988, 10.632052668000085], [-62.038643842999875, 10.631932666000125], [-62.03799482099993, 10.631891671], [-62.03770980199988, 10.632010671000103], [-62.03746579399996, 10.632130675999974], [-62.03661375099995, 10.632089682000128], [-62.036289741999894, 10.631889682000121], [-62.03568071299986, 10.631649677000041], [-62.03523468799989, 10.631528671000183], [-62.034138635999966, 10.631447673000025], [-62.03348860999995, 10.631686690000038], [-62.03218955099993, 10.632003699000052], [-62.03109249699992, 10.632521726], [-62.03056447499995, 10.632680733000086], [-62.03011745899988, 10.632839739000133], [-62.02934642099996, 10.632917743000178], [-62.02877739999997, 10.6330767500001], [-62.02841137699994, 10.633435769000073], [-62.02804536699995, 10.63383377700012], [-62.02763934999996, 10.634152791000076], [-62.02723232699992, 10.634351802000083], [-62.02646130199997, 10.634549810000124], [-62.02617628399986, 10.634748820000084], [-62.025851271999954, 10.635027828999966], [-62.025688269999876, 10.635306838000076], [-62.0256872679999, 10.635865857000056], [-62.02568626499988, 10.636344867000048], [-62.02572627399991, 10.63682288299998], [-62.02596929099997, 10.637222886000131], [-62.02633330799995, 10.637701905000085], [-62.02682033299993, 10.638060909000103], [-62.02714434299992, 10.638260909000167], [-62.027428357999895, 10.638540920000139], [-62.027590369999984, 10.638899937000076], [-62.02758937899989, 10.639298948000146], [-62.027466372999925, 10.639856963000057], [-62.02701835399989, 10.640614982000159], [-62.02648932999989, 10.641332003000059], [-62.025798307999935, 10.642089031000182], [-62.025310280999975, 10.64244805100003], [-62.024741261999964, 10.643045068000106], [-62.02433423999986, 10.643444082000087], [-62.02376522099985, 10.643842102000178], [-62.02307518899994, 10.644080103000078], [-62.02250616899994, 10.64439911800008], [-62.022141148999935, 10.644398127000102], [-62.02153111699994, 10.644477123000058], [-62.02120710899993, 10.644477125000037], [-62.021004098999924, 10.64443713300011], [-62.02063907799999, 10.644197127000155], [-62.02023305899996, 10.6441171190001], [-62.019786041999964, 10.644196127000043], [-62.0191770159999, 10.644434139000055], [-62.01885199199995, 10.644713148000108], [-62.018526978999944, 10.64479314800019], [-62.017998956999975, 10.644991166000011], [-62.01771494299999, 10.644991168000047], [-62.017145920999894, 10.644990166000127], [-62.0166768979999, 10.64534118000006], [-62.01541784099999, 10.645085179000091], [-62.01486681599988, 10.644639166000047], [-62.01459079399996, 10.644371156999966], [-62.014495795999835, 10.64383214600008], [-62.01449178499996, 10.643292130000134], [-62.01448879099996, 10.64293312400008], [-62.01412076599996, 10.642575114000124], [-62.013843748999875, 10.642038090000142], [-62.013749746999906, 10.641768083000045], [-62.01374674099992, 10.641319074000137], [-62.01383373799996, 10.64077806400013], [-62.01401374499983, 10.640417047000028], [-62.01410275399991, 10.640057035000098], [-62.01418875799993, 10.63942701600007], [-62.01418775199994, 10.639247010000133], [-62.01418375199995, 10.638706994000188], [-62.01408973699989, 10.638437991000046], [-62.01381473299995, 10.638169983000068], [-62.013448707999885, 10.638081979999981], [-62.01317469799994, 10.638083980000147], [-62.01244465999986, 10.638178989000096], [-62.01199064299993, 10.638452003000168], [-62.011444621999885, 10.638636009000095], [-62.01062458099989, 10.638911023000105], [-62.0101695699999, 10.639094023000155], [-62.009806549999894, 10.639277034000088], [-62.00953453999995, 10.639548049000041], [-62.00908252399995, 10.640181062000124], [-62.00853849199996, 10.64072508999999], [-62.007902467999884, 10.641089101000034], [-62.00744944499991, 10.64145210700002], [-62.00690342499985, 10.641725121000093], [-62.00635639899997, 10.641819124000108], [-62.00589937699982, 10.641732127000125], [-62.00543935999997, 10.641286113000149], [-62.00516234399993, 10.64083811100005], [-62.00479631899992, 10.640750109000066], [-62.00406728699994, 10.640935120000165], [-62.00388828599995, 10.641386128000022], [-62.003618275999884, 10.641838142000097], [-62.00334626599994, 10.642109156000117], [-62.002981246999866, 10.642202153000085], [-62.00225120799996, 10.64220715900018], [-62.00179319099988, 10.641940157000079], [-62.00151617599988, 10.641582146000076], [-62.00051012699993, 10.641229140000178], [-61.99932407199998, 10.641417158000081], [-61.99868504199992, 10.64133214900005], [-61.998136015999876, 10.64115615500009], [-61.9976789939999, 10.641069146000063], [-61.997040970999876, 10.641253164000034], [-61.99667894599986, 10.641705178000109], [-61.99631693199984, 10.642067190000034], [-61.99622793499992, 10.642428194000047], [-61.99623193499991, 10.642968211000095], [-61.996233934999964, 10.643237226000053], [-61.99623794599995, 10.64368723900003], [-61.99596593599995, 10.643959248000101], [-61.99551091299992, 10.644142247000048], [-61.99496288199998, 10.644146259000024], [-61.99432485799997, 10.644240262000096], [-61.99396284499994, 10.644692276000171], [-61.993691828999886, 10.645054287], [-61.99305279999993, 10.645058287000154], [-61.99239577299994, 10.645236298000043], [-61.99219976499995, 10.64543230400011], [-61.99188575099993, 10.645667323000112], [-61.99165074299992, 10.645902329000023], [-61.99153473599995, 10.646253342000023], [-61.991615742999954, 10.64656434799997], [-61.99177575499988, 10.646758354000042], [-61.991936762999956, 10.64718536600003], [-61.991940762999945, 10.6477293800001], [-61.991944762999935, 10.64827439800007], [-61.99194676299999, 10.648547398000119], [-61.992067774999896, 10.648896411000123], [-61.992187781999974, 10.649090417000025], [-61.99230879499993, 10.649478430000045], [-61.992312793999986, 10.649945437000042], [-61.99215678199988, 10.650257450000026], [-61.99176476699995, 10.650688462000176], [-61.9913337509999, 10.651080475000185], [-61.99070372299991, 10.651396487000056], [-61.99035070799994, 10.651632499000186], [-61.989640678999876, 10.65175351199997], [-61.989364670999976, 10.651911511000037], [-61.988851642999975, 10.651953518000028], [-61.9881026139999, 10.652114524000012], [-61.987551578999955, 10.652273530000059], [-61.98624752799998, 10.652282536000087], [-61.98549848599998, 10.652365541999984], [-61.98514247799994, 10.652368548000084], [-61.98435142999995, 10.652139542000157], [-61.98395440899998, 10.651909541], [-61.98331938599989, 10.651407535000033], [-61.98296136599987, 10.651098528000148], [-61.98276035299995, 10.650594509000086], [-61.982557339999914, 10.64993349700012], [-61.982472332999976, 10.649117465000131], [-61.98227031399989, 10.648457446000123], [-61.98214830699993, 10.647951439999986], [-61.9819872999999, 10.647486421000167], [-61.98198129999997, 10.646668402000046], [-61.98193729399998, 10.646163389000094], [-61.98177627499996, 10.645658364000155], [-61.981613267999876, 10.645037357000035], [-61.98117424099996, 10.644456332000175], [-61.98081623199994, 10.64403032600012], [-61.98030019799995, 10.643644314000142], [-61.97982418299989, 10.64341431300005], [-61.97934914999996, 10.643262313000093], [-61.97911014199997, 10.643030301000067], [-61.97867311499988, 10.642605300000127], [-61.978316099999915, 10.642335293000087], [-61.97799909199989, 10.64222029299998], [-61.97744506399988, 10.642107293000095], [-61.976695028999984, 10.642112287000145], [-61.976300007999896, 10.642115293000188], [-61.97570798499993, 10.642119293000178], [-61.97515495099992, 10.642123305000155], [-61.97487793699992, 10.642047305000062], [-61.97463992399997, 10.641970299000093], [-61.974323909999896, 10.64193430500012], [-61.97412690799996, 10.641935299000068], [-61.97392989399998, 10.642014305000032], [-61.97349687899998, 10.64225131100011], [-61.97318185899991, 10.642369317999965], [-61.97274884299998, 10.642489324000167], [-61.97211681499982, 10.642532324000172], [-61.971682793999946, 10.642535330000044], [-61.97097175899995, 10.642540336000081], [-61.97053773699997, 10.642582342000026], [-61.97014372199982, 10.642662342000051], [-61.96982970799996, 10.642898354000067], [-61.96955469399984, 10.643133361000082], [-61.96923968499988, 10.643213361000107], [-61.968766663999986, 10.643333367000082], [-61.96861066299988, 10.643645380000066], [-61.968023633999906, 10.644350399000018], [-61.96739560599997, 10.644860418000064], [-61.96708059699995, 10.645057430000179], [-61.96676557699982, 10.64509843000019], [-61.966488562999984, 10.645100430000184], [-61.96613255399984, 10.644985430000077], [-61.965814527999896, 10.644676423000021], [-61.965494513999886, 10.644094404999976], [-61.96517549299995, 10.643668397999988], [-61.96485547999987, 10.643204385000047], [-61.964577471999974, 10.64301138500008], [-61.963945442999886, 10.642898384999967], [-61.963431408999895, 10.642902385000127], [-61.96323340199996, 10.642786379000142], [-61.963035393999974, 10.642671379000035], [-61.96291639399993, 10.642672384000036], [-61.962640372999886, 10.64263538400013], [-61.96224535199991, 10.642599378], [-61.96188934399993, 10.642601378], [-61.96165232399994, 10.64252537800013], [-61.96141331599989, 10.64229337800009], [-61.961135296999885, 10.642139378000138], [-61.960820287999866, 10.642141378000133], [-61.960505278999904, 10.64226037800006], [-61.960348271999976, 10.642417384000055], [-61.95995525099994, 10.642653396000071], [-61.959561235999956, 10.642772397000044], [-61.95920521599999, 10.642813409000041], [-61.95905920599989, 10.642683402000046], [-61.95884319899994, 10.642562394000151], [-61.9583971749999, 10.642574399000182], [-61.95808616399995, 10.642835410000032], [-61.958096170999966, 10.643215418000182], [-61.95772615199991, 10.643668437000088], [-61.956897108999954, 10.64362643800007], [-61.95612808099992, 10.64345743400014], [-61.95560905499997, 10.643091430000027], [-61.95497301799992, 10.643108438000013], [-61.954601, 10.643497447000186], [-61.95449400699994, 10.644260467000038], [-61.954381997999974, 10.644833488000131], [-61.95395699199997, 10.645604515000059], [-61.95320695899983, 10.646130534000179], [-61.95276993499982, 10.646458548000112], [-61.95220591699996, 10.646789555000055], [-61.951899897999965, 10.647241568000084], [-61.95191789999984, 10.647936592], [-61.952062919999946, 10.648566610000103], [-61.95156889899994, 10.649148633000038], [-61.95113187599998, 10.649477640000157], [-61.95062785999994, 10.649680648000071], [-61.949803820999875, 10.64982865900015], [-61.94903978399998, 10.649849665000147], [-61.94821074099997, 10.649807665000026], [-61.94775871999997, 10.649566667000158], [-61.946989679999945, 10.649396658000057], [-61.9460876359999, 10.648977655000067], [-61.9455146169999, 10.648992653000107], [-61.94513559699993, 10.649129663000053], [-61.94488458899991, 10.649262664000162], [-61.944767576999936, 10.649645676000034], [-61.94477758299996, 10.650025695000124], [-61.94466058299997, 10.650408707], [-61.94416155899995, 10.650801714000124], [-61.94397755499995, 10.651059720000148], [-61.943602531999886, 10.65132273000006], [-61.9436125389999, 10.65170174400015], [-61.94368354099993, 10.651953754000033], [-61.943879549999906, 10.65213775500007], [-61.94407356099998, 10.652259756000149], [-61.9440855659999, 10.652702769000086], [-61.94411256899991, 10.653714807000028], [-61.94401756899987, 10.654919834000168], [-61.94384556999995, 10.655620865000174], [-61.94342855999997, 10.656707889000018], [-61.942943538999884, 10.657606926000085], [-61.942454520999945, 10.658379952000075], [-61.941835492999985, 10.659028966000164], [-61.941146466999896, 10.65949098599998], [-61.940336431999924, 10.660145015000012], [-61.939472391999914, 10.661181050000039], [-61.93897337899995, 10.66157405700011], [-61.93814633599993, 10.661596068000108], [-61.93724729699994, 10.66130306399998], [-61.93666226099987, 10.660875049000026], [-61.93614823799999, 10.660699055], [-61.935704224999824, 10.660774053000011], [-61.93552220699996, 10.661095065000097], [-61.935279205999905, 10.66154508000011], [-61.935291211999925, 10.661988093000105], [-61.93531121299998, 10.662747115], [-61.935073202999945, 10.663386135000167], [-61.934705194999935, 10.66390214800009], [-61.93363513899993, 10.664374174000102], [-61.93329213899989, 10.664432111000167], [-61.933191124999894, 10.66444917299998], [-61.93249108799995, 10.664467175000084], [-61.93198206899996, 10.664481179000177], [-61.931334037999875, 10.664055174000168], [-61.93106402199993, 10.66349215800011], [-61.931035007999924, 10.662417128000186], [-61.930997998999885, 10.661025083000027], [-61.930906995999976, 10.66001505600019], [-61.93082798599994, 10.65944703800011], [-61.93055897499988, 10.658884022000052], [-61.93016195299998, 10.658325016000163], [-61.92938090699994, 10.657712999000069], [-61.92846786399997, 10.656913977000045], [-61.92781983299983, 10.656487972000036], [-61.92717479499993, 10.65618896000018], [-61.92641075799986, 10.656208972000059], [-61.925456719999886, 10.65623397600018], [-61.92437666899997, 10.656325983000045], [-61.92336662599996, 10.656668994000086], [-61.92184555399996, 10.656962011000076], [-61.92108551499996, 10.657109027], [-61.92051649399997, 10.657251029], [-61.91988346099998, 10.657394036000028], [-61.91944744299997, 10.65778505600008], [-61.919076429999905, 10.658175070000027], [-61.91851640999994, 10.658696086000134], [-61.91814138799998, 10.658959095000114], [-61.917520371999956, 10.65954511600006], [-61.916756334999945, 10.659565116000067], [-61.916056297999944, 10.659584123000172], [-61.91478223599995, 10.659554129000185], [-61.91389619599994, 10.659767144000114], [-61.91339918199992, 10.660224160999974], [-61.91321517799997, 10.660482167000055], [-61.91283615799995, 10.660618173000103], [-61.91208412599991, 10.661081186000104], [-61.91146009399989, 10.661541208000187], [-61.91095107499996, 10.661554206000176], [-61.910383046999925, 10.661759214000085], [-61.91001302799998, 10.662212233], [-61.90977002699992, 10.662662248], [-61.909469010999885, 10.66330326700006], [-61.909228008999946, 10.66381528200003], [-61.90885098799993, 10.664015286000051], [-61.908341968999935, 10.664029290000144], [-61.90776893799995, 10.664044299000068], [-61.90667888099989, 10.663756298000123], [-61.90591485499982, 10.66377629900012], [-61.905347820999964, 10.663981306000096], [-61.90484680999998, 10.664311319000149], [-61.90427878199989, 10.66451533300011], [-61.90313872899998, 10.664735338000128], [-61.902438691999976, 10.664754345], [-61.90219068799996, 10.665014350000149], [-61.902260683999884, 10.665265367000188], [-61.90265170999999, 10.665571369000133], [-61.90329473699984, 10.665807376000032], [-61.90400476899998, 10.666168377000133], [-61.90458480199999, 10.666406383000094], [-61.90484581699991, 10.66665338900009], [-61.90504682999995, 10.667027400000052], [-61.90512382899993, 10.667532414000107], [-61.90538484399991, 10.6677784150001], [-61.905708864999895, 10.66795942400006], [-61.9061638899999, 10.668327427000065], [-61.90655490399985, 10.668633441000168], [-61.90720093599998, 10.668996440000114], [-61.907527948999984, 10.669304453999985], [-61.90803897899997, 10.669354449000139], [-61.90842899899991, 10.66966046300007], [-61.908883019999905, 10.669965460000128], [-61.909080034999874, 10.670213472000057], [-61.90915603999986, 10.67065448600016], [-61.90917604099991, 10.671413508000057], [-61.90918804599994, 10.671856521000052], [-61.9088250289999, 10.672562544000073], [-61.908322006999924, 10.672828558000106], [-61.908210009999834, 10.673401568000088], [-61.90840601999997, 10.673585569000124], [-61.908669033999956, 10.673895581000181], [-61.90938806599996, 10.674572603000058], [-61.909718083999906, 10.6750076080001], [-61.91011510699997, 10.675566626000148], [-61.91019411599996, 10.676134645000161], [-61.91014511399999, 10.676705656000081], [-61.90990110799993, 10.677091672000017], [-61.909280079999974, 10.677677693000135], [-61.90884406199996, 10.67806870000004], [-61.90795702799994, 10.678218709000134], [-61.90738199899988, 10.678170713000043], [-61.90718298499996, 10.677859707000096], [-61.90704897599994, 10.67760969699998], [-61.90659795999994, 10.677431692000084], [-61.905963921999955, 10.677511706000132], [-61.90565391699988, 10.677836715000126], [-61.905670913999984, 10.678468732999988], [-61.90574592499996, 10.678910740000106], [-61.90588393199994, 10.67928675000013], [-61.906216953999945, 10.67984776700007], [-61.906544972999825, 10.680218786000125], [-61.906878988999836, 10.680779791000077], [-61.90689099399992, 10.681222804000072], [-61.90678398899996, 10.681984830000033], [-61.90649398499994, 10.683068862000027], [-61.90651798399989, 10.68395389400007], [-61.906274982999946, 10.684403909000082], [-61.90538894199983, 10.684616912000081], [-61.90462890299989, 10.684763929000042], [-61.90412588099997, 10.685029931000031], [-61.90344785499997, 10.685870966000095], [-61.903080840999905, 10.686449984000035], [-61.90271982199994, 10.687219], [-61.90241781299994, 10.68786003100007], [-61.902315822999924, 10.688813060000143], [-61.90221281499993, 10.689702079000085], [-61.901797802999965, 10.690852120000102], [-61.90118278499989, 10.69169114400006], [-61.90063376399985, 10.69259218000019], [-61.899951728999895, 10.69330619800013], [-61.899208698999985, 10.694085232000077], [-61.89853067299998, 10.694926255000155], [-61.89796564999989, 10.695257272999982], [-61.89732962399995, 10.695274270000084], [-61.89700760199992, 10.695156266000083], [-61.896555580999916, 10.694915268000045], [-61.89571654399987, 10.694494254000176], [-61.89558253499996, 10.694244255], [-61.89582153799995, 10.693668229000139], [-61.89612354799988, 10.693027211000015], [-61.896357559999956, 10.6922611870001], [-61.89671957099989, 10.69149215800013], [-61.89713558799997, 10.69040513400006], [-61.897301589999984, 10.689451099999985], [-61.898410629999944, 10.68802904800009], [-61.89995368999996, 10.686215989000118], [-61.900814725999965, 10.685053954000182], [-61.90079472499991, 10.684294932000057], [-61.90083672499992, 10.683470906000082], [-61.90080970999992, 10.682458880000013], [-61.90076870299998, 10.680940837000094], [-61.900749694999945, 10.680244808000168], [-61.90111370599993, 10.67953878500009], [-61.9011637129999, 10.679030768000075], [-61.901077701999895, 10.678210751000165], [-61.90074768299996, 10.677775734000136], [-61.90015965499998, 10.677221719000045], [-61.89932061799982, 10.676800717000049], [-61.898094552999964, 10.676199700000097], [-61.896352466999986, 10.675359695000168], [-61.89576343299984, 10.674741670000117], [-61.894449368999915, 10.67325764300017], [-61.89360732799997, 10.672709625000095], [-61.89309829699994, 10.672722635000127], [-61.89265527699996, 10.672861633000082], [-61.89266027999986, 10.673050637000074], [-61.892856289999884, 10.673235643999988], [-61.89287029399998, 10.673741662000111], [-61.89268628999997, 10.673999669000068], [-61.89249528299996, 10.674004672000024], [-61.89165923899998, 10.673710663000122], [-61.891282229999945, 10.673910679000187], [-61.891356223999935, 10.674287682], [-61.891550234999954, 10.674409684000182], [-61.89186925299987, 10.674401688000046], [-61.89213026799996, 10.67464768900004], [-61.89213827499992, 10.67496369800017], [-61.89201926399994, 10.675283705000084], [-61.89165325499994, 10.675862735000067], [-61.89103222699998, 10.676448755000024], [-61.89052620099994, 10.67658875800015], [-61.889824164999936, 10.676543755000068], [-61.888297095999974, 10.676583768000114], [-61.88798708999991, 10.676908777000108], [-61.8881310939999, 10.677537803000064], [-61.88865712099994, 10.67815781500002], [-61.88911814299996, 10.678714822000018], [-61.88938216299994, 10.679087839999966], [-61.88933416599997, 10.679658851000056], [-61.88914815099997, 10.679853864000108], [-61.88858013499993, 10.680058871000142], [-61.88833112599997, 10.680254876999982], [-61.88796110599998, 10.680707897], [-61.88797210599989, 10.681150910000156], [-61.88804110999985, 10.681338908999976], [-61.88829712099988, 10.681394912000087], [-61.8883691289999, 10.681709916000045], [-61.88825713199998, 10.682282938000014], [-61.888015123999935, 10.68273194700015], [-61.887331090999965, 10.683382972000118], [-61.886509049999916, 10.68359498100017], [-61.88574501299985, 10.683614994000095], [-61.88504498799995, 10.683632996000028], [-61.884728973999984, 10.683705002000124], [-61.884413953999854, 10.683840002000068], [-61.88410394799996, 10.684164018000047], [-61.883736933999955, 10.684744030000104], [-61.883499917999984, 10.685383049000109], [-61.883204909999904, 10.686277083], [-61.883092912999984, 10.686849100000188], [-61.88304891499996, 10.687610120000102], [-61.88306091999988, 10.688053134000143], [-61.88338093199991, 10.688108132000082], [-61.883705945999964, 10.688353139000185], [-61.883713953999916, 10.688669148000145], [-61.88360394399996, 10.689305164000189], [-61.88361695499998, 10.689811182000142], [-61.883757965999905, 10.69031319100003], [-61.88383996799996, 10.691008214000078], [-61.88423698999986, 10.691567232000125], [-61.88425599699991, 10.692263248000131], [-61.884211998999945, 10.693023276000133], [-61.884046989999945, 10.693977299000153], [-61.883559970999954, 10.694813330000102], [-61.883200963999855, 10.695709363000105], [-61.88252493699997, 10.696613391000085], [-61.881711897999935, 10.697204414000055], [-61.88065085399995, 10.69799144500007], [-61.87945680799993, 10.698592461999965], [-61.878829782999844, 10.698989478000158], [-61.87865276899993, 10.69950050000017], [-61.87846977099997, 10.699821500000098], [-61.87823075599994, 10.700397526000131], [-61.87779473799998, 10.70078853400014], [-61.877618740999935, 10.701362549000123], [-61.87763474399998, 10.701932567000028], [-61.8776477429999, 10.702438585000152], [-61.87778375099998, 10.702751590000048], [-61.878101762999904, 10.702742589000081], [-61.87860978899994, 10.702666585000031], [-61.87905480799998, 10.702654591000112], [-61.87930982599994, 10.70264759000014], [-61.87944482799992, 10.702960594000103], [-61.87958383999995, 10.703400602999977], [-61.87959483999998, 10.703779617000123], [-61.87985085099996, 10.703836614000124], [-61.88035986999995, 10.703823615000033], [-61.88074489899992, 10.703939620000085], [-61.88100791299996, 10.704249619999985], [-61.88102490999984, 10.704881638000074], [-61.881034915999976, 10.70526165800004], [-61.88092491799989, 10.705897673000038], [-61.880683903999966, 10.706409688], [-61.880314890999955, 10.70692570100016], [-61.87988287099995, 10.707443725000019], [-61.87919283999997, 10.707841734], [-61.878894827999886, 10.70860975700009], [-61.878331803999856, 10.709003781000149], [-61.87788978899994, 10.709141785000043], [-61.87732076799995, 10.70928378700006], [-61.877075755999954, 10.709669803], [-61.87708975999993, 10.710175822000053], [-61.8772247629999, 10.710488826000187], [-61.877419777999876, 10.710610827999972], [-61.87767878299991, 10.710793835000118], [-61.87794080299983, 10.711039837000044], [-61.87802080599988, 10.711670861000016], [-61.87828581899987, 10.712043866999977], [-61.878616841999985, 10.712540884000191], [-61.87882285799998, 10.713105899000084], [-61.878831858999945, 10.713421908000043], [-61.878843864999965, 10.713864921000038], [-61.8788618669999, 10.714560937000044], [-61.87861785999996, 10.714946953000037], [-61.87812182799996, 10.715465971000185], [-61.87781882499996, 10.716043984000123], [-61.87789783499983, 10.716612002000033], [-61.878228846999946, 10.717109020000123], [-61.878684865999844, 10.717477023000129], [-61.87913889799995, 10.71778203200006], [-61.879594916999906, 10.718150046000119], [-61.879662925999924, 10.71833804500011], [-61.87961091999989, 10.718782063999981], [-61.87917790599994, 10.71923707000019], [-61.87861488199991, 10.719631094000079], [-61.877724843999886, 10.719718097999987], [-61.87734982099994, 10.719981107000024], [-61.87717081999989, 10.72042912400002], [-61.87731183099993, 10.720931133000079], [-61.877766844999826, 10.721299146999968], [-61.87803086399998, 10.721609148000141], [-61.878358882999976, 10.721980154000107], [-61.878494889999956, 10.72229317100016], [-61.87850088699997, 10.722546174000058], [-61.87844388899998, 10.722801188000176], [-61.87781985699996, 10.723260204000155], [-61.877445840999826, 10.723587213000144], [-61.87726883799991, 10.724098223000112], [-61.876963824999905, 10.724612249000188], [-61.87685683099994, 10.725374263], [-61.876747826999974, 10.726074289], [-61.876507818999926, 10.726650303999975], [-61.876008793999915, 10.727042316999984], [-61.87562678199993, 10.727052323000123], [-61.875234761999934, 10.726683315000116], [-61.873914689999935, 10.724945267000066], [-61.87332865999997, 10.72445425799998], [-61.87205560399997, 10.724488261999966], [-61.871415568999964, 10.724378266000087], [-61.870837546999894, 10.724203266000188], [-61.87031451199988, 10.723710258000096], [-61.86978848399997, 10.723091239000098], [-61.86921145499991, 10.722916238000096], [-61.868892448999986, 10.722925239000062], [-61.86864142899998, 10.723058240000114], [-61.86865443999994, 10.72356425900017], [-61.868670442999985, 10.724133271000028], [-61.868489430999944, 10.724518282000133], [-61.86812241599995, 10.725097300000073], [-61.86768040199996, 10.725235316000123], [-61.86698136999996, 10.725317317000076], [-61.866792361999956, 10.72538532600015], [-61.866871371999935, 10.725953332000074], [-61.86706738199996, 10.726137345999973], [-61.86707337799993, 10.726390349000042], [-61.86676436699986, 10.726715359000139], [-61.866390349999904, 10.72704137400018], [-61.86557331299997, 10.727443393000158], [-61.86506029599991, 10.727329387000111], [-61.864494266999884, 10.727597400000036], [-61.864213263999886, 10.728997440000057], [-61.86417626699995, 10.730011477000176], [-61.86381224499985, 10.73071749900015], [-61.86325622299995, 10.731365520000054], [-61.86224317599988, 10.73158152700006], [-61.861667152999985, 10.731470525000134], [-61.86102212599991, 10.731170520000092], [-61.860499090999895, 10.730677512000113], [-61.859528043999944, 10.730070497999975], [-61.85887101299994, 10.729327479000062], [-61.85834198099985, 10.728581455000153], [-61.85807496899997, 10.728145444000063], [-61.85762795099993, 10.728054450000172], [-61.85763044299995, 10.728171962000147], [-61.85783613199993, 10.728614065000045], [-61.86040799999989, 10.734142]]]}}]}