{
  "type": "FeatureCollection",
  "features": [
    {
      "type": "Feature",
      "properties": {
        "Pais": "Venezuela",
        "Estado": "Trujillo",
        "Municipio": "Valera",
        "Parroquia": "Juan Ignacio Montilla"
      },
      "geometry": {
        "type": "Polygon",
        "coordinates": [
          [
            [
              -70.594593,
              9.330303000000129
            ],
            [
              -70.59449,
              9.330834
            ],
            [
              -70.595319,
              9.32911200000018
            ],
            [
              -70.62533,
              9.289315
            ],
            [
              -70.62205199999988,
              9.287124
            ],
            [
              -70.6214,
              9.287779000000114
            ],
            [
              -70.620315,
              9.289382
            ],
            [
              -70.619279,
              9.291123
            ],
            [
              -70.617718,
              9.291999
            ],
            [
              -70.615191,
              9.293283
            ],
            [
              -70.614027,
              9.295668
            ],
            [
              -70.61270899999988,
              9.297230000000127
            ],
            [
              -70.612188,
              9.297928000000127
            ],
            [
              -70.61004499999984,
              9.298631
            ],
            [
              -70.607237,
              9.298312000000124
            ],
            [
              -70.606073,
              9.298034
            ],
            [
              -70.604637,
              9.299436
            ],
            [
              -70.602975,
              9.299763
            ],
            [
              -70.60126099999985,
              9.30119400000018
            ],
            [
              -70.600464,
              9.302034
            ],
            [
              -70.599191,
              9.303549
            ],
            [
              -70.59839299999987,
              9.304297
            ],
            [
              -70.596875,
              9.304943
            ],
            [
              -70.597449,
              9.30743600000011
            ],
            [
              -70.59764599999988,
              9.309500000000185
            ],
            [
              -70.59691,
              9.31261300000017
            ],
            [
              -70.59659799999986,
              9.31470800000011
            ],
            [
              -70.596437,
              9.31618
            ],
            [
              -70.596112,
              9.31751800000012
            ],
            [
              -70.595743,
              9.320371
            ],
            [
              -70.59522299999986,
              9.322516000000121
            ],
            [
              -70.59397799999988,
              9.324306
            ],
            [
              -70.594201,
              9.326552000000106
            ],
            [
              -70.593901,
              9.327958
            ],
            [
              -70.594413,
              9.329488
            ],
            [
              -70.594593,
              9.330303000000129
            ]
          ]
        ]
      }
    },
    {
      "type": "Feature",
      "properties": {
        "Pais": "Venezuela",
        "Estado": "Trujillo",
        "Municipio": "Valera",
        "Parroquia": "La Beatriz"
      },
      "geometry": {
        "type": "Polygon",
        "coordinates": [
          [
            [
              -70.597274,
              9.298346
            ],
            [
              -70.597054,
              9.300439
            ],
            [
              -70.59684,
              9.302900000000136
            ],
            [
              -70.596584,
              9.304213
            ],
            [
              -70.596875,
              9.304943
            ],
            [
              -70.59839299999987,
              9.304297
            ],
            [
              -70.599191,
              9.303549
            ],
            [
              -70.600464,
              9.302034
            ],
            [
              -70.60126099999985,
              9.30119400000018
            ],
            [
              -70.602975,
              9.299763
            ],
            [
              -70.604637,
              9.299436
            ],
            [
              -70.606073,
              9.298034
            ],
            [
              -70.607237,
              9.298312000000124
            ],
            [
              -70.61004499999984,
              9.298631
            ],
            [
              -70.612188,
              9.297928000000127
            ],
            [
              -70.61270899999988,
              9.297230000000127
            ],
            [
              -70.614027,
              9.295668
            ],
            [
              -70.615191,
              9.293283
            ],
            [
              -70.617718,
              9.291999
            ],
            [
              -70.619279,
              9.291123
            ],
            [
              -70.620315,
              9.289382
            ],
            [
              -70.6214,
              9.287779000000114
            ],
            [
              -70.62205199999988,
              9.287124
            ],
            [
              -70.622608,
              9.286564000000112
            ],
            [
              -70.623438,
              9.285852
            ],
            [
              -70.62333799999988,
              9.285585
            ],
            [
              -70.6229,
              9.282625000000166
            ],
            [
              -70.624565,
              9.27996
            ],
            [
              -70.62479799999988,
              9.27828600000015
            ],
            [
              -70.62495399999983,
              9.277409
            ],
            [
              -70.625025,
              9.275418000000172
            ],
            [
              -70.624859,
              9.274065000000121
            ],
            [
              -70.624695,
              9.273269
            ],
            [
              -70.624611,
              9.27255200000019
            ],
            [
              -70.624519,
              9.269924000000174
            ],
            [
              -70.624589,
              9.267853
            ],
            [
              -70.62466399999988,
              9.266738
            ],
            [
              -70.624901,
              9.265781
            ],
            [
              -70.624971,
              9.26355000000018
            ],
            [
              -70.624805,
              9.262356000000125
            ],
            [
              -70.624481,
              9.261800000000164
            ],
            [
              -70.624315,
              9.260447000000113
            ],
            [
              -70.624311,
              9.259571000000108
            ],
            [
              -70.6243879999999,
              9.258933
            ],
            [
              -70.62446399999988,
              9.257977
            ],
            [
              -70.62445999999989,
              9.257180000000176
            ],
            [
              -70.624134,
              9.255907
            ],
            [
              -70.623729,
              9.255032
            ],
            [
              -70.62315799999982,
              9.252884000000165
            ],
            [
              -70.622274,
              9.252136
            ],
            [
              -70.641215,
              9.214979
            ],
            [
              -70.640663,
              9.214148
            ],
            [
              -70.6401699999999,
              9.213501000000122
            ],
            [
              -70.63994999999989,
              9.213177
            ],
            [
              -70.638747,
              9.212316000000158
            ],
            [
              -70.637385,
              9.212268000000108
            ],
            [
              -70.636564,
              9.211622
            ],
            [
              -70.635634,
              9.210977
            ],
            [
              -70.6349249999999,
              9.210764
            ],
            [
              -70.633944,
              9.210768000000144
            ],
            [
              -70.631989,
              9.212347
            ],
            [
              -70.630359,
              9.213222000000144
            ],
            [
              -70.628616,
              9.213446
            ],
            [
              -70.625619,
              9.213514000000146
            ],
            [
              -70.624315,
              9.214386
            ],
            [
              -70.621761,
              9.215805
            ],
            [
              -70.62029399999989,
              9.216841000000102
            ],
            [
              -70.618226,
              9.217391000000134
            ],
            [
              -70.616156,
              9.217617000000189
            ],
            [
              -70.614576,
              9.217624
            ],
            [
              -70.613104,
              9.217577
            ],
            [
              -70.611739,
              9.217285
            ],
            [
              -70.611182,
              9.218558
            ],
            [
              -70.611486,
              9.220114
            ],
            [
              -70.611523,
              9.222341
            ],
            [
              -70.61108699999988,
              9.2239560000001
            ],
            [
              -70.610152,
              9.226269000000173
            ],
            [
              -70.609536,
              9.228254000000106
            ],
            [
              -70.608236,
              9.229471000000103
            ],
            [
              -70.607396,
              9.230472000000134
            ],
            [
              -70.606793,
              9.231838
            ],
            [
              -70.605451,
              9.233261000000141
            ],
            [
              -70.604482,
              9.234909
            ],
            [
              -70.603557,
              9.236371
            ],
            [
              -70.6029,
              9.237255
            ],
            [
              -70.603016,
              9.23865400000011
            ],
            [
              -70.602822,
              9.239530000000116
            ],
            [
              -70.602043,
              9.240048
            ],
            [
              -70.601405,
              9.242057000000159
            ],
            [
              -70.601053,
              9.243189
            ],
            [
              -70.599665,
              9.244659000000127
            ],
            [
              -70.598446,
              9.247622
            ],
            [
              -70.595466,
              9.245553
            ],
            [
              -70.594702,
              9.244501
            ],
            [
              -70.594083,
              9.241789
            ],
            [
              -70.59392599999984,
              9.240733
            ],
            [
              -70.592858,
              9.23953200000011
            ],
            [
              -70.592094,
              9.238479
            ],
            [
              -70.591938,
              9.237424000000146
            ],
            [
              -70.591775,
              9.235011000000156
            ],
            [
              -70.591013,
              9.234261000000117
            ],
            [
              -70.589185,
              9.233062000000189
            ],
            [
              -70.5884653409999,
              9.232494967000093
            ],
            [
              -70.587662,
              9.231862
            ],
            [
              -70.587506,
              9.230958
            ],
            [
              -70.587343,
              9.22839400000015
            ],
            [
              -70.586121,
              9.22674
            ],
            [
              -70.585048,
              9.224634
            ],
            [
              -70.58493911399995,
              9.222751696000103
            ],
            [
              -70.58306122699997,
              9.220201654000164
            ],
            [
              -70.57711123099989,
              9.218255554000052
            ],
            [
              -70.57179274099997,
              9.21881255400018
            ],
            [
              -70.56379735799999,
              9.224841739000112
            ],
            [
              -70.5611585289999,
              9.228054930000155
            ],
            [
              -70.55947823099996,
              9.234065916000134
            ],
            [
              -70.56034949099984,
              9.24116819600016
            ],
            [
              -70.56896975099994,
              9.250759274000018
            ],
            [
              -70.56873957499994,
              9.258739351000145
            ],
            [
              -70.5686729069999,
              9.261050683000065
            ],
            [
              -70.5706371309999,
              9.265934450000088
            ],
            [
              -70.57148699999988,
              9.265010000000188
            ],
            [
              -70.57255,
              9.264982
            ],
            [
              -70.573495,
              9.264382
            ],
            [
              -70.574371,
              9.263598
            ],
            [
              -70.576123,
              9.26226
            ],
            [
              -70.577414,
              9.261475
            ],
            [
              -70.579099,
              9.260849000000178
            ],
            [
              -70.579882,
              9.260272
            ],
            [
              -70.580758,
              9.259328
            ],
            [
              -70.581564,
              9.258498000000145
            ],
            [
              -70.583991,
              9.258626000000106
            ],
            [
              -70.585198,
              9.260432
            ],
            [
              -70.585526,
              9.261876
            ],
            [
              -70.58709899999985,
              9.262603000000183
            ],
            [
              -70.58934099999982,
              9.26293800000019
            ],
            [
              -70.590911,
              9.262381
            ],
            [
              -70.59232,
              9.262283000000139
            ],
            [
              -70.593821,
              9.261932
            ],
            [
              -70.594453,
              9.261330000000157
            ],
            [
              -70.59518999999989,
              9.263843
            ],
            [
              -70.595793,
              9.266634
            ],
            [
              -70.596438,
              9.26917200000014
            ],
            [
              -70.596699,
              9.270959000000175
            ],
            [
              -70.597237,
              9.272603000000117
            ],
            [
              -70.597333,
              9.274186
            ],
            [
              -70.597617,
              9.275972
            ],
            [
              -70.598292,
              9.277522
            ],
            [
              -70.598704,
              9.278594
            ],
            [
              -70.598736,
              9.280500000000188
            ],
            [
              -70.5984289999999,
              9.282939
            ],
            [
              -70.59833,
              9.285352
            ],
            [
              -70.598213,
              9.286617
            ],
            [
              -70.598819,
              9.288237000000152
            ],
            [
              -70.599777,
              9.290104
            ],
            [
              -70.600625,
              9.290939
            ],
            [
              -70.6006809999999,
              9.29291300000017
            ],
            [
              -70.59971599999989,
              9.294767
            ],
            [
              -70.598581,
              9.296165
            ],
            [
              -70.59739,
              9.297012
            ],
            [
              -70.597274,
              9.298346
            ]
          ]
        ]
      }
    },
    {
      "type": "Feature",
      "properties": {
        "Pais": "Venezuela",
        "Estado": "Trujillo",
        "Municipio": "Valera",
        "Parroquia": "Mercedes Diaz"
      },
      "geometry": {
        "type": "Polygon",
        "coordinates": [
          [
            [
              -70.594113,
              9.332773
            ],
            [
              -70.594114,
              9.334676000000115
            ],
            [
              -70.593953,
              9.3358
            ],
            [
              -70.594459,
              9.33476000000013
            ],
            [
              -70.594728,
              9.334515000000124
            ],
            [
              -70.59534399999984,
              9.334536
            ],
            [
              -70.596202,
              9.334045000000117
            ],
            [
              -70.59684,
              9.333724000000188
            ],
            [
              -70.597477,
              9.333282
            ],
            [
              -70.597794,
              9.332744000000105
            ],
            [
              -70.598036,
              9.331937000000153
            ],
            [
              -70.599704,
              9.331197
            ],
            [
              -70.600785,
              9.330997
            ],
            [
              -70.60098,
              9.330825000000118
            ],
            [
              -70.6014689999999,
              9.330115
            ],
            [
              -70.602131,
              9.329819
            ],
            [
              -70.60308899999984,
              9.329790000000116
            ],
            [
              -70.60412,
              9.329492000000187
            ],
            [
              -70.606243,
              9.32906300000019
            ],
            [
              -70.631672,
              9.328947002000177
            ],
            [
              -70.631136,
              9.326565
            ],
            [
              -70.633102,
              9.32740500000017
            ],
            [
              -70.634535,
              9.32749
            ],
            [
              -70.633819,
              9.327447
            ],
            [
              -70.6340009999999,
              9.326460000000111
            ],
            [
              -70.63425199999989,
              9.32567900000015
            ],
            [
              -70.63524,
              9.323932
            ],
            [
              -70.635561,
              9.323105000000169
            ],
            [
              -70.63657199999983,
              9.321426000000145
            ],
            [
              -70.63691599999987,
              9.320415
            ],
            [
              -70.638158,
              9.31857500000018
            ],
            [
              -70.63912299999987,
              9.316896000000156
            ],
            [
              -70.638842,
              9.315842
            ],
            [
              -70.639088,
              9.313272000000154
            ],
            [
              -70.63952,
              9.311069000000145
            ],
            [
              -70.63979099999989,
              9.309324000000174
            ],
            [
              -70.640941,
              9.307599
            ],
            [
              -70.642689,
              9.304999
            ],
            [
              -70.642822,
              9.303209
            ],
            [
              -70.644033,
              9.301350000000127
            ],
            [
              -70.64535,
              9.299184000000139
            ],
            [
              -70.646824,
              9.297778000000164
            ],
            [
              -70.647721,
              9.296467
            ],
            [
              -70.64818,
              9.29536400000012
            ],
            [
              -70.648566,
              9.293366000000162
            ],
            [
              -70.648604,
              9.29070600000017
            ],
            [
              -70.648299,
              9.289331
            ],
            [
              -70.647714,
              9.287269
            ],
            [
              -70.647177,
              9.285506000000169
            ],
            [
              -70.64733199999989,
              9.283487
            ],
            [
              -70.647929,
              9.282222
            ],
            [
              -70.648756,
              9.28082
            ],
            [
              -70.65032199999985,
              9.279253
            ],
            [
              -70.651546,
              9.278789000000188
            ],
            [
              -70.654776,
              9.277169
            ],
            [
              -70.65729,
              9.275781
            ],
            [
              -70.660728,
              9.274458000000152
            ],
            [
              -70.66268799999983,
              9.27328
            ],
            [
              -70.664391,
              9.271300000000167
            ],
            [
              -70.664427,
              9.27097
            ],
            [
              -70.6642389999999,
              9.270971
            ],
            [
              -70.663837,
              9.270619000000124
            ],
            [
              -70.663126,
              9.270711
            ],
            [
              -70.662373,
              9.2712
            ],
            [
              -70.661262,
              9.271338
            ],
            [
              -70.660463,
              9.271651
            ],
            [
              -70.65939899999984,
              9.272274
            ],
            [
              -70.658287,
              9.272191
            ],
            [
              -70.655927,
              9.27149500000013
            ],
            [
              -70.652817,
              9.271907000000112
            ],
            [
              -70.650994,
              9.272136
            ],
            [
              -70.64832099999984,
              9.270956000000126
            ],
            [
              -70.64627,
              9.26964
            ],
            [
              -70.645158,
              9.269513
            ],
            [
              -70.643644,
              9.269034
            ],
            [
              -70.64266,
              9.267802
            ],
            [
              -70.642258,
              9.26745000000011
            ],
            [
              -70.641189,
              9.267014
            ],
            [
              -70.639855,
              9.266975
            ],
            [
              -70.63819699999988,
              9.265766
            ],
            [
              -70.637419,
              9.267708000000141
            ],
            [
              -70.636129,
              9.269499000000167
            ],
            [
              -70.635694,
              9.271159
            ],
            [
              -70.634665,
              9.271981
            ],
            [
              -70.634244,
              9.273136
            ],
            [
              -70.63121199999989,
              9.276013
            ],
            [
              -70.630572,
              9.277953000000139
            ],
            [
              -70.629717,
              9.279438
            ],
            [
              -70.628891,
              9.28126600000013
            ],
            [
              -70.6270909999999,
              9.281711
            ],
            [
              -70.625615,
              9.283504
            ],
            [
              -70.624138,
              9.285252
            ],
            [
              -70.623438,
              9.285852
            ],
            [
              -70.622608,
              9.286564000000112
            ],
            [
              -70.62205199999988,
              9.287124
            ],
            [
              -70.62533,
              9.289315
            ],
            [
              -70.595319,
              9.32911200000018
            ],
            [
              -70.59449,
              9.330834
            ],
            [
              -70.594113,
              9.332773
            ]
          ]
        ]
      }
    },
    {
      "type": "Feature",
      "properties": {
        "Pais": "Venezuela",
        "Estado": "Trujillo",
        "Municipio": "Valera",
        "Parroquia": "San Luis"
      },
      "geometry": {
        "type": "Polygon",
        "coordinates": [
          [
            [
              -70.595341,
              9.364300000000185
            ],
            [
              -70.595168,
              9.364966
            ],
            [
              -70.596672,
              9.364792
            ],
            [
              -70.5984,
              9.363816
            ],
            [
              -70.598899,
              9.36255000000017
            ],
            [
              -70.59976699999987,
              9.361007
            ],
            [
              -70.600824,
              9.359989
            ],
            [
              -70.602045,
              9.359269
            ],
            [
              -70.603173,
              9.358573
            ],
            [
              -70.604299,
              9.357463
            ],
            [
              -70.605901,
              9.355134000000135
            ],
            [
              -70.60682,
              9.354324
            ],
            [
              -70.607673,
              9.353882
            ],
            [
              -70.609195,
              9.353229
            ],
            [
              -70.610649,
              9.352736000000107
            ],
            [
              -70.61249,
              9.351438
            ],
            [
              -70.614154,
              9.35112800000013
            ],
            [
              -70.615657,
              9.35109400000016
            ],
            [
              -70.616858,
              9.350833
            ],
            [
              -70.61745999999988,
              9.350806000000148
            ],
            [
              -70.61813299999989,
              9.35100800000015
            ],
            [
              -70.61887699999988,
              9.351438
            ],
            [
              -70.620477,
              9.351955000000146
            ],
            [
              -70.621945,
              9.35024600000014
            ],
            [
              -70.623187,
              9.34934200000015
            ],
            [
              -70.62445499999984,
              9.348736
            ],
            [
              -70.626047,
              9.348059
            ],
            [
              -70.627567,
              9.347153
            ],
            [
              -70.628188,
              9.346736
            ],
            [
              -70.629919,
              9.346127
            ],
            [
              -70.631735,
              9.344552000000135
            ],
            [
              -70.633633,
              9.343361000000186
            ],
            [
              -70.634521,
              9.341592000000162
            ],
            [
              -70.631673,
              9.328947
            ],
            [
              -70.631672,
              9.328947002000177
            ],
            [
              -70.606243,
              9.32906300000019
            ],
            [
              -70.60412,
              9.329492000000187
            ],
            [
              -70.60308899999984,
              9.329790000000116
            ],
            [
              -70.602131,
              9.329819
            ],
            [
              -70.6014689999999,
              9.330115
            ],
            [
              -70.60098,
              9.330825000000118
            ],
            [
              -70.600785,
              9.330997
            ],
            [
              -70.599704,
              9.331197
            ],
            [
              -70.598036,
              9.331937000000153
            ],
            [
              -70.597794,
              9.332744000000105
            ],
            [
              -70.597477,
              9.333282
            ],
            [
              -70.59684,
              9.333724000000188
            ],
            [
              -70.596202,
              9.334045000000117
            ],
            [
              -70.59534399999984,
              9.334536
            ],
            [
              -70.594728,
              9.334515000000124
            ],
            [
              -70.594459,
              9.33476000000013
            ],
            [
              -70.593953,
              9.3358
            ],
            [
              -70.593792,
              9.338369000000114
            ],
            [
              -70.594904,
              9.340501000000131
            ],
            [
              -70.59509,
              9.342083000000116
            ],
            [
              -70.59550599999983,
              9.342862
            ],
            [
              -70.596872,
              9.344879000000162
            ],
            [
              -70.597359,
              9.347516
            ],
            [
              -70.59789099999989,
              9.349006
            ],
            [
              -70.597383,
              9.351116
            ],
            [
              -70.597338,
              9.352354000000105
            ],
            [
              -70.59784699999989,
              9.354234
            ],
            [
              -70.598241,
              9.356114
            ],
            [
              -70.598195,
              9.357214
            ],
            [
              -70.597386,
              9.35824700000012
            ],
            [
              -70.596878,
              9.360333
            ],
            [
              -70.5963,
              9.361732000000131
            ],
            [
              -70.595468,
              9.363773
            ],
            [
              -70.595341,
              9.364300000000185
            ]
          ]
        ]
      }
    },
    {
      "type": "Feature",
      "properties": {
        "Pais": "Venezuela",
        "Estado": "Trujillo",
        "Municipio": "Valera",
        "Parroquia": "La Puerta"
      },
      "geometry": {
        "type": "Polygon",
        "coordinates": [
          [
            [
              -70.655855,
              9.142465
            ],
            [
              -70.661914,
              9.147481
            ],
            [
              -70.663511,
              9.148831
            ],
            [
              -70.664633,
              9.149409000000105
            ],
            [
              -70.665801,
              9.150032000000124
            ],
            [
              -70.66711099999986,
              9.150790000000143
            ],
            [
              -70.66806999999989,
              9.15137
            ],
            [
              -70.669133,
              9.152569
            ],
            [
              -70.670097,
              9.153425
            ],
            [
              -70.67167,
              9.154706000000147
            ],
            [
              -70.672749,
              9.155491
            ],
            [
              -70.673639,
              9.156096
            ],
            [
              -70.674913,
              9.157475
            ],
            [
              -70.67561099999989,
              9.159024
            ],
            [
              -70.686585,
              9.168569
            ],
            [
              -70.687356,
              9.167477
            ],
            [
              -70.68775,
              9.16609300000016
            ],
            [
              -70.688929,
              9.164602
            ],
            [
              -70.6897259999999,
              9.163854000000185
            ],
            [
              -70.6903,
              9.16214500000018
            ],
            [
              -70.691478,
              9.160585
            ],
            [
              -70.69218599999988,
              9.160044
            ],
            [
              -70.694817,
              9.15994400000011
            ],
            [
              -70.696384,
              9.159065
            ],
            [
              -70.697169,
              9.15880900000019
            ],
            [
              -70.699062,
              9.15864
            ],
            [
              -70.700169,
              9.158245
            ],
            [
              -70.701624,
              9.158078000000103
            ],
            [
              -70.703079,
              9.158094000000176
            ],
            [
              -70.703197,
              9.158896
            ],
            [
              -70.703664,
              9.160500000000127
            ],
            [
              -70.7042239999999,
              9.162011
            ],
            [
              -70.704827,
              9.162926000000141
            ],
            [
              -70.704877,
              9.164072
            ],
            [
              -70.705368,
              9.165584000000138
            ],
            [
              -70.706062,
              9.166131
            ],
            [
              -70.70715,
              9.166699
            ],
            [
              -70.708031,
              9.167659
            ],
            [
              -70.709142,
              9.168571
            ],
            [
              -70.710922,
              9.168838
            ],
            [
              -70.714528,
              9.169555
            ],
            [
              -70.715684,
              9.169825
            ],
            [
              -70.717601,
              9.169839000000138
            ],
            [
              -70.719077,
              9.169259
            ],
            [
              -70.72045899999989,
              9.168083000000138
            ],
            [
              -70.72149999999988,
              9.168376
            ],
            [
              -70.7237899999999,
              9.169535
            ],
            [
              -70.72508499999986,
              9.170011000000159
            ],
            [
              -70.727136,
              9.168740000000128
            ],
            [
              -70.728799,
              9.168572
            ],
            [
              -70.730233,
              9.169139
            ],
            [
              -70.73187399999989,
              9.169521
            ],
            [
              -70.733376,
              9.169651
            ],
            [
              -70.734187,
              9.170359000000133
            ],
            [
              -70.735574,
              9.170719
            ],
            [
              -70.737029,
              9.170758000000149
            ],
            [
              -70.738229,
              9.170569000000114
            ],
            [
              -70.73894599999983,
              9.1722
            ],
            [
              -70.73909,
              9.172125
            ],
            [
              -70.739385,
              9.170587000000182
            ],
            [
              -70.740418,
              9.16867800000017
            ],
            [
              -70.74328199999985,
              9.166314000000114
            ],
            [
              -70.74420099999986,
              9.16508400000015
            ],
            [
              -70.745925,
              9.164647
            ],
            [
              -70.748343,
              9.164298000000144
            ],
            [
              -70.748316,
              9.162063000000103
            ],
            [
              -70.748723,
              9.159351
            ],
            [
              -70.75038,
              9.157600000000173
            ],
            [
              -70.75148399999983,
              9.156356
            ],
            [
              -70.751686,
              9.154452000000106
            ],
            [
              -70.751703,
              9.152639
            ],
            [
              -70.752596,
              9.150433
            ],
            [
              -70.753308,
              9.149397
            ],
            [
              -70.754924,
              9.149092000000167
            ],
            [
              -70.756372,
              9.147296
            ],
            [
              -70.75648,
              9.144956
            ],
            [
              -70.7577419999999,
              9.142725
            ],
            [
              -70.757644,
              9.141067
            ],
            [
              -70.75731799999988,
              9.139391
            ],
            [
              -70.75677999999988,
              9.138487
            ],
            [
              -70.756452,
              9.137066
            ],
            [
              -70.755796,
              9.134409000000119
            ],
            [
              -70.75586399999986,
              9.133904
            ],
            [
              -70.756297,
              9.132320000000163
            ],
            [
              -70.7566609999999,
              9.130781000000184
            ],
            [
              -70.758271,
              9.128824
            ],
            [
              -70.758841,
              9.126712000000111
            ],
            [
              -70.759804,
              9.124597000000108
            ],
            [
              -70.76044499999989,
              9.123218
            ],
            [
              -70.760926,
              9.122092000000123
            ],
            [
              -70.761431,
              9.121057000000121
            ],
            [
              -70.761844,
              9.120436
            ],
            [
              -70.76258,
              9.119469
            ],
            [
              -70.763498,
              9.117906000000175
            ],
            [
              -70.76402499999989,
              9.116710000000126
            ],
            [
              -70.764713,
              9.115400000000136
            ],
            [
              -70.765423,
              9.113631000000112
            ],
            [
              -70.766087,
              9.111884
            ],
            [
              -70.7666129999999,
              9.110505000000103
            ],
            [
              -70.767628,
              9.108511
            ],
            [
              -70.768832,
              9.104577
            ],
            [
              -70.7694029999999,
              9.1026710000001
            ],
            [
              -70.769997,
              9.100856
            ],
            [
              -70.770703,
              9.098101
            ],
            [
              -70.771965,
              9.095755
            ],
            [
              -70.773801,
              9.092474
            ],
            [
              -70.778043,
              9.090309000000104
            ],
            [
              -70.77939,
              9.088587
            ],
            [
              -70.78125145799999,
              9.087301505000028
            ],
            [
              -70.781355,
              9.08723
            ],
            [
              -70.782214,
              9.086307
            ],
            [
              -70.783195,
              9.085322000000133
            ],
            [
              -70.78417599999983,
              9.084399000000133
            ],
            [
              -70.784787,
              9.08320300000014
            ],
            [
              -70.78688,
              9.082854
            ],
            [
              -70.788916,
              9.083212000000174
            ],
            [
              -70.792616,
              9.083745
            ],
            [
              -70.794622,
              9.083699000000138
            ],
            [
              -70.79662899999983,
              9.083299
            ],
            [
              -70.79801199999986,
              9.08262800000017
            ],
            [
              -70.800065,
              9.081609
            ],
            [
              -70.80055423499988,
              9.08043541500001
            ],
            [
              -70.800742,
              9.079985000000136
            ],
            [
              -70.80073568499995,
              9.079953447000094
            ],
            [
              -70.79593430599988,
              9.07619265700015
            ],
            [
              -70.79587283899997,
              9.07615737400016
            ],
            [
              -70.789093,
              9.072265616000038
            ],
            [
              -70.78772795299989,
              9.07311263300005
            ],
            [
              -70.78599090599988,
              9.077286739000101
            ],
            [
              -70.78404583299988,
              9.078661780000061
            ],
            [
              -70.78314278599998,
              9.077788773000066
            ],
            [
              -70.78430082499995,
              9.07641373500013
            ],
            [
              -70.78457883299996,
              9.074669696000171
            ],
            [
              -70.78302773799993,
              9.06966658500005
            ],
            [
              -70.78200062699995,
              9.06628284499999
            ],
            [
              -70.78189031199997,
              9.065919420000057
            ],
            [
              -70.78115362299997,
              9.06349245600012
            ],
            [
              -70.77959227999992,
              9.060500184000034
            ],
            [
              -70.77876950699994,
              9.05892336100004
            ],
            [
              -70.77622337999998,
              9.056075318000183
            ],
            [
              -70.77504332799992,
              9.054445281000028
            ],
            [
              -70.77379326399989,
              9.053755272000046
            ],
            [
              -70.77094515199997,
              9.053592288000061
            ],
            [
              -70.76888506699993,
              9.053429300000118
            ],
            [
              -70.76731099499983,
              9.052670292000187
            ],
            [
              -70.76532090099994,
              9.05163527200017
            ],
            [
              -70.76427885499993,
              9.05025724300009
            ],
            [
              -70.76395483299996,
              9.049706235000144
            ],
            [
              -70.76335280499995,
              9.048994227000037
            ],
            [
              -70.76166274299993,
              9.049360240000055
            ],
            [
              -70.76055169199992,
              9.04954224900007
            ],
            [
              -70.75946365399989,
              9.049839270000064
            ],
            [
              -70.75837561899993,
              9.050733290000153
            ],
            [
              -70.75615252499995,
              9.051464317000125
            ],
            [
              -70.75441646299998,
              9.052128351000022
            ],
            [
              -70.75286539699982,
              9.052241362000018
            ],
            [
              -70.75154633599993,
              9.052561373000117
            ],
            [
              -70.7505963079999,
              9.054189411000038
            ],
            [
              -70.74992428699994,
              9.055840459000024
            ],
            [
              -70.74899826499995,
              9.057422496000072
            ],
            [
              -70.74788721399995,
              9.057627505000085
            ],
            [
              -70.74642915299984,
              9.057419507000134
            ],
            [
              -70.74499309999993,
              9.057395521000103
            ],
            [
              -70.74355804099997,
              9.057347518000086
            ],
            [
              -70.74205297099996,
              9.056680521999965
            ],
            [
              -70.74031688699984,
              9.055301492000126
            ],
            [
              -70.73920584299992,
              9.05474949500018
            ],
            [
              -70.73793279499984,
              9.05500050500018
            ],
            [
              -70.73594171499985,
              9.055434526999989
            ],
            [
              -70.73364962099998,
              9.05648755599998
            ],
            [
              -70.73182054799992,
              9.056324567000104
            ],
            [
              -70.73020047799997,
              9.056092563999982
            ],
            [
              -70.73018650299997,
              9.056005527000025
            ],
            [
              -70.730135,
              9.056067
            ],
            [
              -70.73000583499999,
              9.067220188000022
            ],
            [
              -70.72996044599995,
              9.071139420000122
            ],
            [
              -70.729799,
              9.085080000000175
            ],
            [
              -70.71770899999984,
              9.09948100000014
            ],
            [
              -70.717774,
              9.098209
            ],
            [
              -70.7095149999999,
              9.095527
            ],
            [
              -70.70841,
              9.094932
            ],
            [
              -70.70784,
              9.09465200000011
            ],
            [
              -70.707194,
              9.093348
            ],
            [
              -70.705662,
              9.092578
            ],
            [
              -70.704309,
              9.092019
            ],
            [
              -70.703134,
              9.0916
            ],
            [
              -70.702849,
              9.091602
            ],
            [
              -70.701001,
              9.091681000000108
            ],
            [
              -70.700361,
              9.091684
            ],
            [
              -70.699649,
              9.091511
            ],
            [
              -70.699293,
              9.091336000000183
            ],
            [
              -70.6984389999999,
              9.091128
            ],
            [
              -70.696908,
              9.090640000000121
            ],
            [
              -70.69641,
              9.090678
            ],
            [
              -70.695665,
              9.090893000000108
            ],
            [
              -70.69488299999983,
              9.090897
            ],
            [
              -70.69282,
              9.090588
            ],
            [
              -70.69193,
              9.09031
            ],
            [
              -70.690188,
              9.090247000000147
            ],
            [
              -70.688127,
              9.09043400000013
            ],
            [
              -70.687632,
              9.090930000000128
            ],
            [
              -70.68607,
              9.091362
            ],
            [
              -70.683831,
              9.091372000000149
            ],
            [
              -70.68173399999989,
              9.091382
            ],
            [
              -70.680918,
              9.091669
            ],
            [
              -70.679851,
              9.091674
            ],
            [
              -70.678982,
              9.091223
            ],
            [
              -70.679129,
              9.091749
            ],
            [
              -70.677866,
              9.093723000000125
            ],
            [
              -70.677314,
              9.095317
            ],
            [
              -70.67664599999989,
              9.09689
            ],
            [
              -70.6769829999999,
              9.09899600000017
            ],
            [
              -70.67639799999989,
              9.101395
            ],
            [
              -70.676165,
              9.10404
            ],
            [
              -70.676191,
              9.105601
            ],
            [
              -70.67476999999985,
              9.10783
            ],
            [
              -70.6737389999999,
              9.109937
            ],
            [
              -70.67306899999988,
              9.112773000000175
            ],
            [
              -70.672473,
              9.114506
            ],
            [
              -70.672092,
              9.116625
            ],
            [
              -70.670979,
              9.117907
            ],
            [
              -70.67019299999987,
              9.119345
            ],
            [
              -70.668299,
              9.121008000000131
            ],
            [
              -70.667931,
              9.122507
            ],
            [
              -70.66664599999984,
              9.12461900000011
            ],
            [
              -70.665867,
              9.1264690000001
            ],
            [
              -70.66464799999989,
              9.126973
            ],
            [
              -70.66321,
              9.128169
            ],
            [
              -70.66165099999989,
              9.130492
            ],
            [
              -70.661219,
              9.13233700000012
            ],
            [
              -70.66023199999984,
              9.13426
            ],
            [
              -70.659715,
              9.135165
            ],
            [
              -70.65836499999989,
              9.137531
            ],
            [
              -70.656977,
              9.139001000000121
            ],
            [
              -70.656934,
              9.140518
            ],
            [
              -70.655855,
              9.142465
            ]
          ]
        ]
      }
    },
    {
      "type": "Feature",
      "properties": {
        "Pais": "Venezuela",
        "Estado": "Trujillo",
        "Municipio": "Valera",
        "Parroquia": "Mendoza del Valle"
      },
      "geometry": {
        "type": "Polygon",
        "coordinates": [
          [
            [
              -70.655855,
              9.142465
            ],
            [
              -70.642056,
              9.156515
            ],
            [
              -70.627211,
              9.1895990000001
            ],
            [
              -70.618165,
              9.197104
            ],
            [
              -70.617366,
              9.199184
            ],
            [
              -70.617171,
              9.201415
            ],
            [
              -70.616366,
              9.204483
            ],
            [
              -70.615726,
              9.206377
            ],
            [
              -70.615781,
              9.20830500000011
            ],
            [
              -70.615857,
              9.21005
            ],
            [
              -70.615373,
              9.211597
            ],
            [
              -70.614068,
              9.213893
            ],
            [
              -70.613401,
              9.215557000000103
            ],
            [
              -70.611739,
              9.217285
            ],
            [
              -70.613104,
              9.217577
            ],
            [
              -70.614576,
              9.217624
            ],
            [
              -70.616156,
              9.217617000000189
            ],
            [
              -70.618226,
              9.217391000000134
            ],
            [
              -70.62029399999989,
              9.216841000000102
            ],
            [
              -70.621761,
              9.215805
            ],
            [
              -70.624315,
              9.214386
            ],
            [
              -70.625619,
              9.213514000000146
            ],
            [
              -70.628616,
              9.213446
            ],
            [
              -70.630359,
              9.213222000000144
            ],
            [
              -70.631989,
              9.212347
            ],
            [
              -70.633944,
              9.210768000000144
            ],
            [
              -70.6349249999999,
              9.210764
            ],
            [
              -70.635634,
              9.210977
            ],
            [
              -70.636564,
              9.211622
            ],
            [
              -70.637385,
              9.212268000000108
            ],
            [
              -70.638747,
              9.212316000000158
            ],
            [
              -70.63994999999989,
              9.213177
            ],
            [
              -70.6401699999999,
              9.213501000000122
            ],
            [
              -70.640663,
              9.214148
            ],
            [
              -70.641215,
              9.214979
            ],
            [
              -70.622274,
              9.252136
            ],
            [
              -70.62315799999982,
              9.252884000000165
            ],
            [
              -70.623729,
              9.255032
            ],
            [
              -70.624134,
              9.255907
            ],
            [
              -70.62445999999989,
              9.257180000000176
            ],
            [
              -70.62446399999988,
              9.257977
            ],
            [
              -70.6243879999999,
              9.258933
            ],
            [
              -70.624311,
              9.259571000000108
            ],
            [
              -70.624315,
              9.260447000000113
            ],
            [
              -70.624481,
              9.261800000000164
            ],
            [
              -70.624805,
              9.262356000000125
            ],
            [
              -70.624971,
              9.26355000000018
            ],
            [
              -70.624901,
              9.265781
            ],
            [
              -70.62466399999988,
              9.266738
            ],
            [
              -70.624589,
              9.267853
            ],
            [
              -70.624519,
              9.269924000000174
            ],
            [
              -70.624611,
              9.27255200000019
            ],
            [
              -70.624695,
              9.273269
            ],
            [
              -70.624859,
              9.274065000000121
            ],
            [
              -70.625025,
              9.275418000000172
            ],
            [
              -70.62495399999983,
              9.277409
            ],
            [
              -70.62479799999988,
              9.27828600000015
            ],
            [
              -70.624565,
              9.27996
            ],
            [
              -70.6229,
              9.282625000000166
            ],
            [
              -70.62333799999988,
              9.285585
            ],
            [
              -70.623438,
              9.285852
            ],
            [
              -70.624138,
              9.285252
            ],
            [
              -70.625615,
              9.283504
            ],
            [
              -70.6270909999999,
              9.281711
            ],
            [
              -70.628891,
              9.28126600000013
            ],
            [
              -70.629717,
              9.279438
            ],
            [
              -70.630572,
              9.277953000000139
            ],
            [
              -70.63121199999989,
              9.276013
            ],
            [
              -70.634244,
              9.273136
            ],
            [
              -70.634665,
              9.271981
            ],
            [
              -70.635694,
              9.271159
            ],
            [
              -70.636129,
              9.269499000000167
            ],
            [
              -70.637419,
              9.267708000000141
            ],
            [
              -70.63819699999988,
              9.265766
            ],
            [
              -70.639855,
              9.266975
            ],
            [
              -70.641189,
              9.267014
            ],
            [
              -70.642258,
              9.26745000000011
            ],
            [
              -70.64266,
              9.267802
            ],
            [
              -70.643644,
              9.269034
            ],
            [
              -70.645158,
              9.269513
            ],
            [
              -70.64627,
              9.26964
            ],
            [
              -70.64832099999984,
              9.270956000000126
            ],
            [
              -70.650994,
              9.272136
            ],
            [
              -70.652817,
              9.271907000000112
            ],
            [
              -70.655927,
              9.27149500000013
            ],
            [
              -70.658287,
              9.272191
            ],
            [
              -70.65939899999984,
              9.272274
            ],
            [
              -70.660463,
              9.271651
            ],
            [
              -70.661262,
              9.271338
            ],
            [
              -70.662373,
              9.2712
            ],
            [
              -70.663126,
              9.270711
            ],
            [
              -70.663837,
              9.270619000000124
            ],
            [
              -70.6642389999999,
              9.270971
            ],
            [
              -70.664427,
              9.27097
            ],
            [
              -70.664615,
              9.269234
            ],
            [
              -70.664337,
              9.268823
            ],
            [
              -70.6641939999999,
              9.267723000000103
            ],
            [
              -70.664052,
              9.266485
            ],
            [
              -70.66427699999986,
              9.264694000000134
            ],
            [
              -70.66468899999984,
              9.263476
            ],
            [
              -70.665448,
              9.262464
            ],
            [
              -70.667315,
              9.261308
            ],
            [
              -70.668537,
              9.2605
            ],
            [
              -70.669388,
              9.259304
            ],
            [
              -70.670402,
              9.258565
            ],
            [
              -70.671669,
              9.257344
            ],
            [
              -70.67277399999989,
              9.256146
            ],
            [
              -70.674084,
              9.254122000000109
            ],
            [
              -70.67498099999989,
              9.252971
            ],
            [
              -70.676661,
              9.251014000000168
            ],
            [
              -70.680005,
              9.248957000000132
            ],
            [
              -70.681181,
              9.248287000000118
            ],
            [
              -70.683119,
              9.247361
            ],
            [
              -70.68413,
              9.245682
            ],
            [
              -70.6866399999999,
              9.243423
            ],
            [
              -70.688345,
              9.242084
            ],
            [
              -70.69076599999988,
              9.240583
            ],
            [
              -70.692982,
              9.240045000000123
            ],
            [
              -70.694942,
              9.239027
            ],
            [
              -70.696624,
              9.237528
            ],
            [
              -70.698236,
              9.235961
            ],
            [
              -70.699915,
              9.233912
            ],
            [
              -70.7013869999999,
              9.232048000000134
            ],
            [
              -70.70242,
              9.230048
            ],
            [
              -70.70396099999988,
              9.228021000000183
            ],
            [
              -70.705547,
              9.225606
            ],
            [
              -70.705539,
              9.223450000000184
            ],
            [
              -70.706457,
              9.221519000000114
            ],
            [
              -70.708372,
              9.220524000000182
            ],
            [
              -70.709479,
              9.2199
            ],
            [
              -70.711114,
              9.218631
            ],
            [
              -70.711829,
              9.218192000000158
            ],
            [
              -70.71424999999988,
              9.216873
            ],
            [
              -70.715101,
              9.215906000000189
            ],
            [
              -70.71521499999989,
              9.215355
            ],
            [
              -70.71516,
              9.212832
            ],
            [
              -70.715064,
              9.2116860000001
            ],
            [
              -70.714621,
              9.210518
            ],
            [
              -70.71413299999989,
              9.209511
            ],
            [
              -70.713366,
              9.208116
            ],
            [
              -70.7125989999999,
              9.206743000000188
            ],
            [
              -70.712476,
              9.204726000000107
            ],
            [
              -70.71268,
              9.203440000000114
            ],
            [
              -70.714055,
              9.20031500000016
            ],
            [
              -70.714167,
              9.199190000000158
            ],
            [
              -70.71483299999989,
              9.197949000000165
            ],
            [
              -70.717105,
              9.19564
            ],
            [
              -70.717568,
              9.194014
            ],
            [
              -70.718742,
              9.192816
            ],
            [
              -70.719779,
              9.192032000000154
            ],
            [
              -70.721714,
              9.190623
            ],
            [
              -70.72319,
              9.189813
            ],
            [
              -70.72507799999988,
              9.188290000000165
            ],
            [
              -70.727107,
              9.187157
            ],
            [
              -70.728928,
              9.186025000000143
            ],
            [
              -70.730219,
              9.185239000000138
            ],
            [
              -70.730722,
              9.183677
            ],
            [
              -70.731526,
              9.182458
            ],
            [
              -70.732928,
              9.1806160000001
            ],
            [
              -70.733659,
              9.177815000000123
            ],
            [
              -70.733573,
              9.176755000000185
            ],
            [
              -70.736003,
              9.174662
            ],
            [
              -70.737314,
              9.17305
            ],
            [
              -70.73894599999983,
              9.1722
            ],
            [
              -70.738229,
              9.170569000000114
            ],
            [
              -70.737029,
              9.170758000000149
            ],
            [
              -70.735574,
              9.170719
            ],
            [
              -70.734187,
              9.170359000000133
            ],
            [
              -70.733376,
              9.169651
            ],
            [
              -70.73187399999989,
              9.169521
            ],
            [
              -70.730233,
              9.169139
            ],
            [
              -70.728799,
              9.168572
            ],
            [
              -70.727136,
              9.168740000000128
            ],
            [
              -70.72508499999986,
              9.170011000000159
            ],
            [
              -70.7237899999999,
              9.169535
            ],
            [
              -70.72149999999988,
              9.168376
            ],
            [
              -70.72045899999989,
              9.168083000000138
            ],
            [
              -70.719077,
              9.169259
            ],
            [
              -70.717601,
              9.169839000000138
            ],
            [
              -70.715684,
              9.169825
            ],
            [
              -70.714528,
              9.169555
            ],
            [
              -70.710922,
              9.168838
            ],
            [
              -70.709142,
              9.168571
            ],
            [
              -70.708031,
              9.167659
            ],
            [
              -70.70715,
              9.166699
            ],
            [
              -70.706062,
              9.166131
            ],
            [
              -70.705368,
              9.165584000000138
            ],
            [
              -70.704877,
              9.164072
            ],
            [
              -70.704827,
              9.162926000000141
            ],
            [
              -70.7042239999999,
              9.162011
            ],
            [
              -70.703664,
              9.160500000000127
            ],
            [
              -70.703197,
              9.158896
            ],
            [
              -70.703079,
              9.158094000000176
            ],
            [
              -70.701624,
              9.158078000000103
            ],
            [
              -70.700169,
              9.158245
            ],
            [
              -70.699062,
              9.15864
            ],
            [
              -70.697169,
              9.15880900000019
            ],
            [
              -70.696384,
              9.159065
            ],
            [
              -70.694817,
              9.15994400000011
            ],
            [
              -70.69218599999988,
              9.160044
            ],
            [
              -70.691478,
              9.160585
            ],
            [
              -70.6903,
              9.16214500000018
            ],
            [
              -70.6897259999999,
              9.163854000000185
            ],
            [
              -70.688929,
              9.164602
            ],
            [
              -70.68775,
              9.16609300000016
            ],
            [
              -70.687356,
              9.167477
            ],
            [
              -70.686585,
              9.168569
            ],
            [
              -70.67561099999989,
              9.159024
            ],
            [
              -70.674913,
              9.157475
            ],
            [
              -70.673639,
              9.156096
            ],
            [
              -70.672749,
              9.155491
            ],
            [
              -70.67167,
              9.154706000000147
            ],
            [
              -70.670097,
              9.153425
            ],
            [
              -70.669133,
              9.152569
            ],
            [
              -70.66806999999989,
              9.15137
            ],
            [
              -70.66711099999986,
              9.150790000000143
            ],
            [
              -70.665801,
              9.150032000000124
            ],
            [
              -70.664633,
              9.149409000000105
            ],
            [
              -70.663511,
              9.148831
            ],
            [
              -70.661914,
              9.147481
            ],
            [
              -70.655855,
              9.142465
            ]
          ]
        ]
      }
    }
  ]
}